{"type": "Feature", "properties": {"name": "Baghlan", "iso2": "AF-BGL", "admin_level": 4, "osm_id": 1674785, "countrylevel_id": "iso2:AF-BGL", "osm_data": {"localname": "بغلان", "official_name": "", "alltags": {"is_in": "أفغانستان", "name:ar": "ولاية بغلان", "name:cs": "Baghlán", "name:en": "Baghlan", "name:es": "Provincia de Baghlan", "name:fa": "ولایت بغلان", "name:fr": "Baghlân", "name:it": "Baghlan", "name:ja": "バグラーン州", "name:lt": "Baglano provincija", "name:ps": "بغلان ولايت", "name:ru": "Баглан", "name:tg": "Вилояти Бағлон", "name:tr": "Beğlan", "name:uk": "Баґлан провінція", "alt_name": "بغلان", "description": "ولایت بغلان", "is_in:country": "Afghanistan", "is_in:continent": "Asia", "is_in:country_code": "AF"}}, "center_lat": 35.81, "center_lon": 68.94, "timezone": "Asia/Kabul", "wikidata_id": "Q170309", "wikipedia_id": "ps:بغلان ولايت"}, "geometry": {"type": "MultiPolygon", "coordinates": [[[[68.19, 35.017], [68.618, 35.08], [69.269, 35.393], [69.752, 35.543], [69.969, 35.811], [69.684, 36.358], [69.209, 36.301], [68.729, 36.538], [68.189, 36.566], [68.185, 36.544], [68.56, 36.114], [68.34, 35.987], [68.088, 35.467], [68.19, 35.017]]]]}}