{"type": "Feature", "properties": {"name": "Faryab", "iso2": "AF-FYB", "admin_level": 4, "osm_id": 1674814, "countrylevel_id": "iso2:AF-FYB", "osm_data": {"localname": "فاریاب", "official_name": "", "alltags": {"is_in": "Afghanistan", "name:ar": "ولاية فارياب", "name:en": "Faryab", "name:es": "Provincia de Fāryāb", "name:fa": "ولایت فاریاب", "name:fr": "Fâryâb", "name:ja": "ファーリヤーブ州", "name:lt": "Farjabo provincija", "name:pl": "Farjab", "name:ps": "فارياب ولايت", "name:ru": "Фарьяб", "name:tg": "Вилояти Фориёб", "name:uk": "Фар'яб", "alt_name": "Farjab", "description": "Faryab Province", "is_in:country": "Afghanistan", "is_in:continent": "Asia", "is_in:country_code": "AF"}}, "center_lat": 36.05, "center_lon": 64.87, "timezone": "Asia/Kabul", "wikidata_id": "Q173830", "wikipedia_id": "en:Faryab Province"}, "geometry": {"type": "MultiPolygon", "coordinates": [[[[64.702, 35.21], [65.446, 35.25], [65.482, 35.654], [65.813, 35.842], [65.535, 35.98], [65.17, 35.938], [65.479, 36.347], [65.325, 36.949], [65.44, 37.233], [64.755, 37.113], [64.758, 36.866], [64.636, 36.442], [63.998, 36.032], [64.007, 35.498], [64.702, 35.21]]]]}}