{"type": "Feature", "properties": {"name": "Ghazni", "iso2": "AF-GHA", "admin_level": 4, "osm_id": 1675048, "countrylevel_id": "iso2:AF-GHA", "osm_data": {"localname": "غزني", "official_name": "", "alltags": {"is_in": "Afghanistan", "name:ar": "ولاية غزني", "name:cs": "Ghazní", "name:en": "Ghazni", "name:es": "Provincia de Gazni", "name:fa": "ولایت غزنی", "name:fr": "Ghazni", "name:ja": "ガズニー州", "name:lt": "Gaznio provincija", "name:ps": "غزني ولايت", "name:ru": "Газни", "name:uk": "Газні", "name:ur": "صوبہ غزنی", "description": "Ghazni Province", "is_in:country": "Afghanistan", "is_in:continent": "Asia", "is_in:country_code": "AF"}}, "center_lat": 33.36, "center_lon": 67.81, "timezone": "Asia/Kabul", "wikidata_id": "Q180415", "wikipedia_id": "en:Ghazni Province"}, "geometry": {"type": "MultiPolygon", "coordinates": [[[[66.823, 33.55], [67.002, 32.925], [67.396, 32.92], [68.069, 32.085], [68.109, 32.422], [67.812, 32.691], [68.24, 32.775], [68.828, 33.415], [68.787, 33.621], [68.713, 33.793], [68.319, 33.701], [68.11, 34.179], [67.407, 34.129], [67.274, 34.012], [67.202, 33.682], [66.823, 33.55]]]]}}