{"type": "Feature", "properties": {"name": "Kandahar", "iso2": "AF-KAN", "admin_level": 4, "osm_id": 1674567, "countrylevel_id": "iso2:AF-KAN", "osm_data": {"localname": "کندهار", "official_name": "", "alltags": {"name:ar": "قندهار", "name:cs": "Kandahár", "name:en": "Kandahar", "name:es": "Provincia de Kandahar", "name:fa": "قندهار", "name:fr": "Kandahâr", "name:ja": "カンダハール州", "name:lt": "Kandaharas", "name:ps": "کندهار", "name:ru": "Кандагар", "name:tr": "Kandehar", "name:uk": "Кандагар", "name:ur": "قندہار", "is_in:country": "Afghanistan", "is_in:continent": "Asia", "official_name:ar": "ولاية قندهار", "official_name:fa": "ولایت قندهار", "official_name:ps": "کندهار ولايت", "official_name:ur": "صوبہ قندہار", "is_in:country_code": "AF"}}, "center_lat": 31.07, "center_lon": 65.72, "timezone": "Asia/Kabul", "wikidata_id": "Q173808", "wikipedia_id": "ps:کندهار ولايت"}, "geometry": {"type": "MultiPolygon", "coordinates": [[[[64.502, 29.571], [65.065, 29.529], [66.25, 29.85], [66.392, 30.941], [67.038, 31.31], [67.4, 31.211], [67.773, 31.322], [67.581, 31.507], [67.195, 31.758], [66.637, 31.839], [66.321, 31.693], [66.303, 32.189], [66.59, 32.462], [66.307, 32.486], [65.597, 32.587], [65.235, 32.327], [64.79, 31.864], [64.653, 30.192], [64.502, 29.571]]]]}}