{"type": "Feature", "properties": {"name": "Kunar", "iso2": "AF-KNR", "admin_level": 4, "osm_id": 1674607, "countrylevel_id": "iso2:AF-KNR", "osm_data": {"localname": "کونړ", "official_name": "", "alltags": {"is_in": "Afghanistan", "name:ar": "كنر", "name:cs": "Kunar", "name:en": "Kunar", "name:es": "Kunar", "name:fa": "ولایت کنر", "name:fr": "Kounar", "name:hi": "कुनर प्रान्त", "name:ja": "クナル州", "name:lt": "Kunaro provincija", "name:ps": "کونړ ولايت", "name:ru": "Кунар", "name:tr": "Kunar", "name:uk": "Кунар", "name:zh": "库纳尔省", "description": "Province Kunar", "long_name:ar": "ولاية كنر", "is_in:country": "Afghanistan", "is_in:continent": "Asia", "is_in:country_code": "AF"}}, "center_lat": 34.93, "center_lon": 71.09, "timezone": "Asia/Kabul", "population": 578500, "wikidata_id": "Q188147", "wikipedia_id": "en:Kunar Province"}, "geometry": {"type": "MultiPolygon", "coordinates": [[[[70.578, 35.004], [70.619, 34.808], [70.736, 34.534], [71.025, 34.56], [71.512, 34.975], [71.607, 35.482], [71.118, 35.109], [70.578, 35.004]]]]}}