{"type": "Feature", "properties": {"name": "Nimruz", "iso2": "AF-NIM", "admin_level": 4, "osm_id": 1674664, "countrylevel_id": "iso2:AF-NIM", "osm_data": {"localname": "نیمروز", "official_name": "", "alltags": {"name:ar": "نيمروز", "name:en": "Nimruz", "name:es": "Provincia de Nimruz", "name:fa": "ولایت نیمروز", "name:fr": "Nimrôz", "name:ja": "ニームルーズ州", "name:lt": "Nimrūzas", "name:ps": "نیمروز ولایت", "name:ru": "Нимроз", "name:uk": "Німроз", "alt_name": "Nimruz Province;Nimroz", "description": "Nimruz Province", "is_in:country": "Afghanistan", "is_in:continent": "Asia", "is_in:country_code": "AF"}}, "center_lat": 30.84, "center_lon": 62.35, "timezone": "Asia/Kabul", "population": 149000, "wikidata_id": "Q183021", "wikipedia_id": "en:Nimruz Province"}, "geometry": {"type": "MultiPolygon", "coordinates": [[[[60.873, 29.859], [62.553, 29.397], [62.771, 30.221], [63.092, 30.512], [63.134, 30.935], [63.345, 31.122], [63.536, 32.202], [63.144, 32.253], [62.74, 31.93], [61.981, 32.041], [61.606, 31.389], [61.778, 31.302], [61.772, 30.809], [60.873, 29.859]]]]}}