{"type": "Feature", "properties": {"name": "Paktika", "iso2": "AF-PKA", "admin_level": 4, "osm_id": 1675047, "countrylevel_id": "iso2:AF-PKA", "osm_data": {"localname": "پکتیکا", "official_name": "", "alltags": {"is_in": "Afghanistan", "name:ar": "بكتيكا", "name:el": "Πακτικά", "name:en": "Paktika", "name:es": "Provincia de Paktīkā", "name:fa": "ولایت پکتیکا", "name:fr": "Paktîkâ", "name:ja": "パクティーカー州", "name:ps": "پکتيکا ولايت", "name:ru": "Пактика", "name:uk": "Пактика", "alt_name": "پکتیکا", "description": "Paktika Province", "long_name:ar": "ولاية بكتيكا", "is_in:country": "Afghanistan", "is_in:continent": "Asia", "is_in:country_code": "AF"}}, "center_lat": 32.48, "center_lon": 68.74, "timezone": "Asia/Kabul", "population": 393800, "wikidata_id": "Q185575", "wikipedia_id": "en:Paktika Province"}, "geometry": {"type": "MultiPolygon", "coordinates": [[[[68.069, 32.085], [68.113, 31.748], [68.576, 31.834], [68.79, 31.622], [69.331, 31.925], [69.24, 32.464], [69.496, 33.021], [69.401, 33.269], [69.015, 33.146], [68.828, 33.415], [68.24, 32.775], [67.812, 32.691], [68.109, 32.422], [68.069, 32.085]]]]}}