{"type": "Feature", "properties": {"name": "Sar-e Pol", "iso2": "AF-SAR", "admin_level": 4, "osm_id": 1674994, "countrylevel_id": "iso2:AF-SAR", "osm_data": {"localname": "سرپل", "official_name": "", "alltags": {"is_in": "Afghanistan", "name:ar": "ولاية سربل", "name:en": "Sar-e Pol", "name:es": "Provincia de Sar-e Pul", "name:fa": "ولایت سرپل", "name:fr": "Sar-é Pol", "name:ja": "サーレポル州", "name:lt": "Sari Pulio provincija", "name:ps": "سرپل ولايت", "name:ru": "Сари-Пуль", "name:tg": "Вилояти Сарипул", "name:tr": "Sar-i Pol", "name:uk": "Сарі-Пуль", "population": "87670", "description": "ولایت سرپل", "is_in:country": "Afghanistan", "is_in:continent": "Asia", "is_in:country_code": "AF"}}, "center_lat": 35.7, "center_lon": 66.13, "timezone": "Asia/Kabul", "population": 532000, "wikidata_id": "Q182487", "wikipedia_id": "en:Sar-e Pol Province"}, "geometry": {"type": "MultiPolygon", "coordinates": [[[[65.446, 35.25], [65.625, 35.279], [66.169, 34.873], [66.414, 34.914], [66.277, 35.137], [66.876, 35.382], [66.927, 35.718], [66.51, 35.673], [66.605, 36.125], [66.291, 36.397], [66.406, 36.565], [65.799, 36.442], [65.535, 35.98], [65.813, 35.842], [65.482, 35.654], [65.446, 35.25]]]]}}