{"type": "Feature", "properties": {"name": "Urōzgān", "iso2": "AF-URU", "admin_level": 4, "osm_id": 1674993, "countrylevel_id": "iso2:AF-URU", "osm_data": {"localname": "روزگان", "official_name": "", "alltags": {"is_in": "Afghanistan", "name:ar": "أروزكان", "name:el": "Ουροζγκάν", "name:en": "Urōzgān", "name:es": "Provincia de Urūzgān", "name:fa": "ولایت اروزگان", "name:fr": "Orozgân", "name:ja": "ウルーズガーン州", "name:nl": "Uruzgan", "name:pl": "Oruzgan", "name:ps": "روزگان ولايت", "name:ru": "Урузган", "name:tg": "Вилояти Урӯзгон", "name:tr": "Uruzgan", "name:uk": "Урузган", "alt_name": "Orūzgān;Orozgan;Rozgan;Uruzgan", "description": "Orūzgān Province", "long_name:ar": "ولاية أروزكان", "is_in:country": "Afghanistan", "is_in:continent": "Asia", "is_in:country_code": "AF"}}, "center_lat": 32.97, "center_lon": 66.14, "timezone": "Asia/Kabul", "wikidata_id": "Q183028", "wikipedia_id": "en:Urozgan Province"}, "geometry": {"type": "MultiPolygon", "coordinates": [[[[65.235, 32.327], [65.597, 32.587], [66.307, 32.486], [67.002, 32.925], [66.823, 33.55], [66.309, 33.469], [66.073, 33.709], [65.888, 32.93], [65.354, 33.107], [65.185, 32.898], [65.235, 32.327]]]]}}