{"type": "Feature", "properties": {"name": "Zabul", "iso2": "AF-ZAB", "admin_level": 4, "osm_id": 1674841, "countrylevel_id": "iso2:AF-ZAB", "osm_data": {"localname": "زابل", "official_name": "", "alltags": {"is_in": "افغانستان", "name:ar": "زابل", "name:el": "Ζαμπούλ", "name:en": "Zabul", "name:es": "Provincia de Zābul", "name:fa": "ولایت زاب", "name:fr": "Zabol", "name:ja": "ザーブル州", "name:pl": "Zabol", "name:ps": "زابل ولايت", "name:pt": "Zabol", "name:ru": "Забуль", "name:tr": "Zabul", "name:uk": "Забуль", "name:ur": "صوبہ زاب", "alt_name": "زابل", "description": "ولایت زاب", "is_in:country": "Afghanistan", "is_in:continent": "Asia", "is_in:country_code": "AF"}}, "center_lat": 32.21, "center_lon": 67.2, "timezone": "Asia/Kabul", "wikidata_id": "Q139126", "wikipedia_id": "en:Zabul Province"}, "geometry": {"type": "MultiPolygon", "coordinates": [[[[67.581, 31.507], [68.113, 31.748], [68.069, 32.085], [67.396, 32.92], [67.002, 32.925], [66.307, 32.486], [66.59, 32.462], [66.303, 32.189], [66.321, 31.693], [66.637, 31.839], [67.195, 31.758], [67.581, 31.507]]]]}}