{"type": "Feature", "properties": {"name": "Pyongannam-do", "iso2": "KP-02", "admin_level": 4, "osm_id": 356419, "countrylevel_id": "iso2:KP-02", "osm_data": {"localname": "평안남도", "official_name": "", "alltags": {"name:bg": "Южен Пхьонан", "name:cs": "Jižní Pchjŏngan", "name:da": "Sydpyongan", "name:en": "Pyongannam-do", "name:eo": "Sud-Pjongan", "name:es": "P'yŏngan del Sur", "name:fi": "Etelä-P'yŏngan", "name:fr": "Pyongan du Sud", "name:hu": "Dél-Phjongan", "name:id": "P'yŏngan Selatan", "name:it": "Sud Pyongan", "name:ja": "平安南道", "name:ko": "평안남도", "name:lt": "Pietų Pchenjano provincija", "name:nl": "P'yŏngan-namdo", "name:no": "Sør-Pyongan", "name:pl": "P'yŏngan Południowy", "name:pt": "Pyongan Sul", "name:ru": "Пхёнан-Намдо", "name:sv": "Södra P'yŏngan", "name:th": "มณฑลพยองอันใต้", "name:uk": "Південна провінція Пхьонан", "name:vi": "Bình An Nam", "name:zh": "平安南道", "name:ko-Latn": "P’yŏngan-namdo", "is_in:country": "North Korea", "is_in:continent": "Asia", "is_in:country_code": "KP"}}, "center_lat": 39.51, "center_lon": 126.21, "timezone": "Asia/Pyongyang", "population": 4051696, "wikidata_id": "Q109380", "wikipedia_id": "en:South Pyongan Province"}, "geometry": {"type": "MultiPolygon", "coordinates": [[[[125.197, 38.714], [125.197, 38.714], [125.197, 38.714], [125.197, 38.714]]], [[[125.116, 38.718], [125.116, 38.718], [125.116, 38.718], [125.116, 38.718]]], [[[125.109, 38.722], [125.109, 38.722], [125.109, 38.722], [125.109, 38.722]]], [[[125.095, 38.725], [125.095, 38.725], [125.095, 38.725], [125.095, 38.725]]], [[[125.098, 38.726], [125.098, 38.726], [125.098, 38.726], [125.098, 38.726]]], [[[124.971, 38.75], [124.971, 38.75], [124.971, 38.75], [124.971, 38.75]]], [[[125.092, 38.733], [125.092, 38.733], [125.092, 38.733], [125.092, 38.733]]], [[[125.093, 38.734], [125.093, 38.734], [125.093, 38.734], [125.093, 38.734]]], [[[125.414, 39.265], [125.414, 39.265], [125.414, 39.265], [125.414, 39.265]]], [[[125.286, 39.142], [125.286, 39.142], [125.286, 39.142], [125.286, 39.142]]], [[[125.289, 39.143], [125.289, 39.143], [125.289, 39.143], [125.289, 39.143]]], [[[125.29, 39.155], [125.29, 39.155], [125.29, 39.155], [125.29, 39.155]]], [[[125.393, 39.259], [125.393, 39.259], [125.393, 39.259], [125.393, 39.259]]], [[[125.221, 39.052], [125.221, 39.052], [125.221, 39.052], [125.221, 39.052]]], [[[125.283, 39.129], [125.283, 39.129], [125.283, 39.129], [125.283, 39.129]]], [[[125.286, 39.139], [125.286, 39.139], [125.286, 39.139], [125.286, 39.139]]], [[[125.201, 38.714], [125.201, 38.714], [125.201, 38.714], [125.201, 38.714]]], [[[125.204, 38.998], [125.204, 38.998], [125.204, 38.998], [125.204, 38.998]]], [[[125.217, 39.051], [125.217, 39.051], [125.217, 39.051], [125.217, 39.051]]], [[[125.46, 39.576], [126.339, 40.009], [126.914, 40.35], [127.163, 40.176], [127.105, 39.853], [126.771, 39.848], [126.7, 39.317], [127.029, 39.212], [126.98, 39.041], [126.552, 39.105], [126.392, 38.926], [126.256, 39.077], [126.257, 39.078], [125.621, 39.2], [125.578, 38.802], [125.593, 38.742], [125.257, 38.788], [125.121, 38.759], [125.46, 39.576]]]]}}