{"type": "Feature", "properties": {"name": "Donetsk Oblast", "iso2": "UA-14", "admin_level": 4, "osm_id": 71973, "countrylevel_id": "iso2:UA-14", "osm_data": {"localname": "Донецька область", "official_name": "", "alltags": {"flag": "http://upload.wikimedia.org/wikipedia/commons/5/5d/Flag_of_Donetsk_Oblast.svg", "koatuu": "1400000000", "ref:en": "DON", "name:ar": "دونيتسك أوبلاست", "name:az": "Donetsk Oblastı", "name:be": "Данецкая вобласць", "name:bg": "Донецка област", "name:ca": "Província de Donetsk", "name:cs": "Doněcká oblast", "name:en": "Donetsk Oblast", "name:eo": "Donecka provinco", "name:es": "Óblast de Donetsk", "name:et": "Donetski oblast", "name:eu": "Donetskeko oblasta", "name:fa": "استان دونتسک", "name:fi": "Donetskin alue", "name:fr": "Oblast de Donetsk", "name:hr": "Donečka oblast", "name:hu": "Donecki terület", "name:hy": "Դոնեցկի մարզ", "name:id": "Oblast Donetsk", "name:it": "Oblast' di Donec'k", "name:ja": "ドネツィク州", "name:ka": "დონეცკის ოლქი", "name:ko": "도네츠크 주", "name:lt": "Donecko sritis", "name:lv": "Doņeckas apgabals", "name:mk": "Донечка област", "name:mr": "दोनेत्स्क ओब्लास्त", "name:nl": "Oblast Donetsk", "name:nn": "Donetsk oblast", "name:no": "Donetsk oblast", "name:os": "Донецчы облæст", "name:pl": "Obwód doniecki", "name:pt": "Oblast de Donetsk", "name:ro": "Regiunea Donețk", "name:ru": "Донецкая область", "name:sh": "Donečka oblast", "name:sk": "Donecká oblasť", "name:sr": "Доњечка област", "name:sv": "Donetsk oblast", "name:tr": "Donetsk Oblastı", "name:tt": "Донецк өлкәсе", "name:uk": "Донецька область", "name:vi": "Donetsk (tỉnh)", "name:zh": "顿涅茨克州", "name:crh": "Donetsk vilâyeti", "name:nan": "Doneczk séng", "name:pnb": "دونیتسک اوبلاست", "name:rue": "Донецька область", "name:sco": "Donetsk Oblast", "name:szl": "Důńecki uobwůd", "name:war": "Donetsk Oblast", "population": "4275935", "name:be-tarask": "Данецкая вобласьць"}}, "center_lat": 48.05, "center_lon": 37.66, "timezone": "Europe/Kiev", "population": 4200461, "wikidata_id": "Q2012050", "wikipedia_id": "uk:Донецька область"}, "geometry": {"type": "MultiPolygon", "coordinates": [[[[37.503, 47.042], [37.503, 47.042], [37.503, 47.042], [37.503, 47.042]]], [[[37.063, 46.884], [36.855, 47.199], [37.162, 47.341], [36.585, 47.847], [36.855, 48.035], [36.739, 48.626], [36.72, 48.806], [37.328, 48.922], [37.874, 49.234], [38.313, 48.828], [38.427, 48.278], [39.074, 47.87], [38.35, 47.617], [38.23, 47.119], [37.529, 47.077], [37.063, 46.884]]]]}}