{"type": "Feature", "properties": {"name": "Sevastopol", "iso2": "UA-40", "admin_level": 4, "osm_id": 1574364, "countrylevel_id": "iso2:UA-40", "osm_data": {"localname": "Севастополь", "official_name": "", "alltags": {"koatuu": "8500000000", "ref:uk": "СВС", "name:be": "Севастопаль", "name:ca": "Sebastòpol", "name:cs": "Sevastopol", "name:el": "Σεβαστούπολη", "name:en": "Sevastopol", "name:eo": "Sebastopolo", "name:es": "Sebastopol", "name:fr": "Sébastopol", "name:hr": "Sevastopolj", "name:hu": "Szevasztopol", "name:it": "Sebastopoli", "name:la": "Sebastopolis", "name:lt": "Sevastopolis", "name:lv": "Sevastopole", "name:nl": "Sebastopol", "name:pl": "Sewastopol", "name:pt": "Sebastopol", "name:ro": "Sevastopol", "name:ru": "Севастополь", "name:sk": "Sevastopoľ", "name:tr": "Sivastopol", "name:uk": "Севастополь", "name:zh": "塞瓦斯托波尔", "int_name": "Sevastopol", "name:crh": "Aqyar", "addr:country": "UA", "is_in:country": "Ukraine", "name:be-tarask": "Севастопаль", "official_status": "uk:містo зі спеціальним статусом", "is_in:country_code": "UA"}}, "center_lat": 44.6, "center_lon": 33.58, "timezone": "Europe/Simferopol", "wikidata_id": "Q4456205", "wikipedia_id": "ru:Территория, подчинённая Севастопольскому городскому совету"}, "geometry": {"type": "MultiPolygon", "coordinates": [[[[33.508, 44.502], [33.508, 44.502], [33.508, 44.502], [33.508, 44.502]]], [[[33.567, 44.838], [33.762, 44.389], [33.401, 44.559], [33.567, 44.838]]]]}}