{"type": "Feature", "properties": {"name": "Cherkasy Oblast", "iso2": "UA-71", "admin_level": 4, "osm_id": 91278, "countrylevel_id": "iso2:UA-71", "osm_data": {"localname": "Черкаська область", "official_name": "", "alltags": {"koatuu": "7100000000", "ref:en": "CRK", "ref:ru": "ЧРК", "name:ar": "محافظة تشيركاسي", "name:be": "Чаркаская вобласць", "name:bg": "Черкаска област", "name:ca": "Província de Txerkassy", "name:cs": "Čerkaská oblast", "name:en": "Cherkasy Oblast", "name:eo": "Ĉerkasa provinco", "name:es": "Óblast de Cherkasy", "name:et": "Tšerkassõ oblast", "name:eu": "Txerkasyko oblasta", "name:fa": "استان چرکاسی", "name:fi": "Tšerkasyn alue", "name:fr": "Oblast de Tcherkassy", "name:ga": "Cúige Cherkasy", "name:hr": "Čerkaška oblast", "name:hu": "Cserkaszi terület", "name:hy": "Չերկասիի մարզ", "name:id": "Oblast Cherkasy", "name:it": "Oblast' di Čerkasy", "name:ja": "チェルカースィ州", "name:ka": "ჩერკასის ოლქი", "name:ko": "체르카시 주", "name:lt": "Čerkasų sritis", "name:lv": "Čerkasu apgabals", "name:mk": "Черкаска област", "name:mr": "चेर्कासी ओब्लास्त", "name:ms": "Oblast Cherkasy", "name:nl": "Oblast Tsjerkasy", "name:nn": "Tsjerkasy oblast", "name:no": "Tsjerkasy oblast", "name:pl": "Obwód czerkaski", "name:pt": "Oblast de Tcherkássi", "name:ro": "Regiunea Cerkasî", "name:ru": "Черкасская область", "name:sh": "Čerkaška oblast", "name:sk": "Čerkaská oblasť", "name:sr": "Черкашка област", "name:sv": "Tjerkasy oblast", "name:tr": "Çerkası Oblastı", "name:uk": "Черкаська область", "name:vi": "Cherkasy (tỉnh)", "name:zh": "切爾卡瑟州", "name:crh": "Çerkası vilâyeti", "name:nan": "Cherkasy séng", "name:pnb": "چرکیسی اوبلاست", "name:rue": "Черкаска область", "name:sco": "Cherkasy Oblast", "name:szl": "Czerkaski uobwůd", "name:war": "Cherkasy Oblast", "name:xmf": "ჩერკასიშ ოლქი", "name:be-tarask": "Чаркаская вобласьць"}}, "center_lat": 49.25, "center_lon": 31.34, "timezone": "Europe/Kiev", "population": 1220363, "wikidata_id": "Q161808", "wikipedia_id": "uk:Черкаська область"}, "geometry": {"type": "MultiPolygon", "coordinates": [[[[29.968, 48.472], [30.567, 48.567], [30.638, 48.752], [31.31, 48.759], [31.805, 48.95], [32.874, 48.992], [32.859, 49.245], [32.468, 49.328], [32.753, 49.579], [32.118, 50.228], [31.717, 49.853], [31.19, 49.79], [30.909, 49.359], [29.736, 49.229], [29.652, 48.96], [29.968, 48.472]]]]}}