{"type": "Feature", "properties": {"name": "Oriental", "iso2": "MA-02", "admin_level": 4, "osm_id": 1719443, "countrylevel_id": "iso2:MA-02", "osm_data": {"localname": "Oriental ⵜⴰⵏⴳⵎⵓⴹⵜ الشرقية", "official_name": "", "alltags": {"name:ar": "الشرقية", "name:en": "Oriental", "name:fr": "Oriental", "name:pl": "Region Wschodni", "name:ru": "Восточная область", "name:uk": "Східна область", "network": "Régions du Maroc", "name:ber": "ⵜⴰⵏⴳⵎⵓⴹⵜ", "name:zgh": "ⵜⴰⵏⴳⵎⵓⴹⵜ", "population": "2314346", "ref:MA:HCP": "02.", "alt_name:ber": "ⵉⵎⵉⵏⴳ", "alt_name:zgh": "ⵉⵎⵉⵏⴳ", "population:date": "2014"}}, "center_lat": 33.53, "center_lon": -2.67, "timezone": "Africa/Casablanca", "wikidata_id": "Q23048167", "wikipedia_id": "fr:Oriental (Maroc)"}, "geometry": {"type": "MultiPolygon", "coordinates": [[[[-2.212, 35.085], [-1.739, 34.744], [-1.854, 34.616], [-1.651, 34.097], [-1.67, 33.284], [-1.124, 32.411], [-1.221, 32.08], [-2.015, 32.182], [-2.873, 32.111], [-2.821, 31.794], [-3.252, 31.714], [-3.262, 32.092], [-3.813, 32.257], [-4.018, 32.608], [-3.576, 33.108], [-3.029, 33.114], [-3.257, 33.517], [-3.032, 33.731], [-3.516, 33.91], [-3.947, 33.515], [-3.774, 34.62], [-3.82, 34.888], [-3.824, 35.199], [-2.952, 35.32], [-2.929, 35.272], [-2.882, 35.132], [-2.212, 35.085]]], [[[-2.926, 35.254], [-2.926, 35.254], [-2.926, 35.254], [-2.926, 35.254]]]]}}