{"type": "Feature", "properties": {"name": "Souss-Massa", "iso2": "MA-09", "admin_level": 4, "osm_id": 2424036, "countrylevel_id": "iso2:MA-09", "osm_data": {"localname": "Souss-Massa ⵙⵓⵙⵙ-ⵎⴰⵙⵙⴰ سوس-ماسة", "official_name": "", "alltags": {"name:ar": "سوس-ماسة", "name:en": "Souss-Massa", "name:es": "Sus-Masa", "name:fr": "Souss-Massa", "name:lt": "Suso-Masa", "name:pl": "Sus-Massa", "name:ru": "Сус-Масса", "name:uk": "Сус-Масса", "network": "Régions du Maroc", "name:ber": "ⵙⵓⵙⵙ-ⵎⴰⵙⵙⴰ", "population": "2676847", "ref:MA:HCP": "09.", "population:date": "2014"}}, "center_lat": 29.91, "center_lon": -8.37, "timezone": "Africa/Casablanca", "wikidata_id": "Q20652586", "wikipedia_id": "fr:Souss-Massa"}, "geometry": {"type": "MultiPolygon", "coordinates": [[[[-9.603, 30.364], [-9.677, 30.493], [-9.818, 30.938], [-8.997, 30.825], [-8.015, 30.909], [-7.732, 31.135], [-7.686, 30.45], [-7.369, 30.189], [-6.657, 30.462], [-6.511, 30.291], [-6.449, 29.566], [-7.15, 29.523], [-7.614, 29.365], [-8.669, 28.667], [-8.669, 28.311], [-9.206, 28.795], [-9.086, 29.162], [-9.278, 29.498], [-9.846, 29.421], [-10.01, 29.631], [-9.603, 30.364]]]]}}