{"type": "Feature", "properties": {"name": "Béni Mellal-Khénifra", "iso2": "MA-05", "admin_level": 4, "osm_id": 4734547, "countrylevel_id": "iso2:MA-05", "osm_data": {"localname": "Béni Mellal-Khénifra ⴰⵢⵜ ⵎⵍⵍⴰⵍ-ⵅⵏⵉⴼⵕⴰ بني ملال-خنيفرة", "official_name": "", "alltags": {"name:ar": "بني ملال-خنيفرة", "name:en": "Béni Mellal-Khénifra", "name:es": "Beni Melal-Jenifra", "name:fr": "Béni Mellal-Khénifra", "name:pl": "Bani Mallal-Chunajfira", "name:ru": "Бени-Меллаль--Хенифра", "name:uk": "Бени-Меллаль--Хенифра", "network": "Régions du Maroc", "name:ber": "ⴰⵢⵜ ⵎⵍⵍⴰⵍ-ⵅⵏⵉⴼⵕⴰ", "population": "2520776", "ref:MA:HCP": "05.", "population:date": "2014"}}, "center_lat": 32.46, "center_lon": -6.28, "timezone": "Africa/Casablanca", "wikidata_id": "Q19953016", "wikipedia_id": "fr:Béni Mellal-Khénifra"}, "geometry": {"type": "MultiPolygon", "coordinates": [[[[-7.185, 31.429], [-6.719, 31.358], [-5.817, 31.858], [-5.844, 32.132], [-5.458, 32.214], [-5.255, 32.869], [-5.297, 33.176], [-5.787, 33.47], [-5.812, 33.309], [-6.36, 33.48], [-6.541, 33.149], [-6.805, 33.236], [-7.133, 32.319], [-7.049, 31.761], [-7.319, 31.713], [-7.185, 31.429]]]]}}