{"type": "Feature", "properties": {"name": "Dakhla-Oued Ed-Dahab", "iso2": "MA-12", "admin_level": 4, "osm_id": 3406823, "countrylevel_id": "iso2:MA-12", "osm_data": {"localname": "Dakhla-Oued Ed-Dahab ⴷⴰⵅⵍⴰ-ⵡⴰⴷ ⴷⴰⵀⴰⴱ الداخلة-وادي الذهب", "official_name": "", "alltags": {"name:ar": "الداخلة-وادي الذهب", "name:en": "Dakhla-Oued Ed-Dahab", "name:fr": "Dakhla-Oued Ed-Dahab", "name:pl": "Wadi az-Zahab-", "name:ru": "Вади-эд-Дахаб-", "name:uk": "Ваді-ед-Дахаб-", "network": "Régions du Maroc", "name:ber": "ⴷⴰⵅⵍⴰ-ⵡⴰⴷ ⴷⴰⵀⴰⴱ", "population": "142955", "ref:MA:HCP": "12.", "population:date": "2014"}}, "center_lat": 22.87, "center_lon": -14.48, "timezone": "Africa/El_Aaiun", "population": 142955, "wikidata_id": "Q21235104", "wikipedia_id": "en:Dakhla-Oued Ed-Dahab"}, "geometry": {"type": "MultiPolygon", "coordinates": [[[[-16.464, 22.386], [-16.208, 23.082], [-15.709, 23.835], [-15.748, 23.958], [-14.905, 24.683], [-14.506, 24.416], [-13.689, 24.391], [-13.12, 24.527], [-12.611, 24.383], [-12, 24.385], [-12, 23.454], [-12.571, 23.291], [-12.998, 23.025], [-13.15, 22.758], [-13.016, 21.577], [-13, 21.337], [-14.301, 21.342], [-16.948, 21.334], [-17.05, 20.77], [-16.966, 21.796], [-16.806, 22.163], [-16.464, 22.386]]]]}}