{"type": "Feature", "properties": {"name": "Kilimanjaro", "iso2": "TZ-09", "admin_level": 4, "osm_id": 1243795, "countrylevel_id": "iso2:TZ-09", "osm_data": {"localname": "Kilimanjaro", "official_name": "", "alltags": {"name:cs": "Kilimandžáro", "name:en": "Kilimanjaro", "name:eo": "Kilimanĝaro", "name:fr": "Kilimandjaro", "name:it": "Kilimangiaro", "name:ku": "Kilîmanjaro", "name:pl": "Kilimandżaro", "name:ru": "Килиманджаро", "name:sk": "Kilimandžáro", "name:uk": "Кіліманджаро"}}, "center_lat": -3.77, "center_lon": 37.68, "timezone": "Africa/Dar_es_Salaam", "wikidata_id": "Q328922", "wikipedia_id": "en:Kilimanjaro Region"}, "geometry": {"type": "MultiPolygon", "coordinates": [[[[37.109, -3.471], [37.222, -3.432], [37.248, -3.437], [37.3, -3.474], [37.326, -3.474], [37.399, -3.626], [37.444, -3.672], [37.475, -3.732], [37.512, -3.781], [37.508, -3.899], [37.515, -3.958], [37.553, -4.062], [37.561, -4.116], [37.546, -4.165], [37.555, -4.26], [37.544, -4.385], [37.575, -4.437], [37.602, -4.461], [37.718, -4.513], [37.792, -4.572], [37.951, -4.562], [37.973, -4.586], [38.038, -4.624], [38.068, -4.621], [38.157, -4.544], [38.256, -4.409], [38.329, -4.334], [38.435, -4.211], [38.471, -4.158], [38.449, -4.142], [38.367, -4.086], [37.99, -3.815], [37.784, -3.671], [37.749, -3.545], [37.665, -3.505], [37.608, -3.52], [37.618, -3.466], [37.586, -3.462], [37.585, -3.441], [37.663, -3.359], [37.682, -3.356], [37.712, -3.31], [37.694, -3.196], [37.673, -3.061], [37.512, -2.955], [37.407, -2.897], [37.389, -2.911], [37.332, -2.899], [37.272, -2.848], [37.213, -2.856], [37.134, -2.901], [36.978, -2.966], [36.992, -3.087], [36.979, -3.153], [36.974, -3.239], [36.997, -3.288], [37.051, -3.318], [37.111, -3.338], [37.109, -3.471]]]]}}