{"type": "Feature", "properties": {"name": "Djelfa", "iso2": "DZ-17", "admin_level": 4, "osm_id": 1280073, "countrylevel_id": "iso2:DZ-17", "osm_data": {"localname": "Djelfa الجلفة", "official_name": "", "alltags": {"name:ar": "الجلفة", "name:el": "Ντζέλφα", "name:en": "Djelfa", "name:fr": "Djelfa", "name:ber": "ⴵⴻⵍⴼⴰ", "name:kab": "Ǧelfa", "long_name:ar": "ولاية الجلفة", "long_name:en": "Djelfa Province", "long_name:fr": "Wilaya de Djelfa", "is_in:country": "Algeria", "is_in:continent": "Africa", "is_in:country_code": "DZ"}}, "center_lat": 34.37, "center_lon": 3.58, "timezone": "Africa/Algiers", "population": 1092184, "wikidata_id": "Q233233", "wikipedia_id": "ar:ولاية الجلفة"}, "geometry": {"type": "MultiPolygon", "coordinates": [[[[2.366, 34.695], [2.626, 34.126], [3.055, 34.249], [3.221, 33.822], [4.087, 33.401], [4.48, 32.99], [5.025, 32.853], [5.056, 33.499], [5.079, 33.607], [4.228, 33.954], [4.171, 34.221], [3.89, 34.768], [3.656, 34.789], [3.461, 35.178], [3.677, 35.509], [3.369, 35.76], [2.99, 35.832], [2.704, 35.471], [2.254, 35.554], [2.079, 35.542], [2.671, 35.242], [2.366, 34.695]]]]}}