{"type": "Feature", "properties": {"name": "Tébessa", "iso2": "DZ-12", "admin_level": 4, "osm_id": 1280465, "countrylevel_id": "iso2:DZ-12", "osm_data": {"localname": "Tébessa تبسة", "official_name": "", "alltags": {"name:ar": "تبسة", "name:el": "Τεμπέσα", "name:en": "Tébessa", "name:fa": "تبسه", "name:fr": "Tébessa", "name:la": "Theveste", "name:pl": "Tibissa", "name:ru": "Тебесса", "name:ur": "تبسہ", "name:zh": "泰贝萨", "alt_name": "التبسة;تبسه", "name:ber": "ⵜⴱⴻⵙⴰ", "name:kab": "Tbesa", "long_name": "ولاية تبسة", "alt_name:ar": "التبسة;تبسه", "alt_name:fr": "Tbessa", "long_name:ar": "ولاية تبسة", "long_name:en": "Tébessa Province", "long_name:fr": "Wilaya de Tébessa"}}, "center_lat": 35.06, "center_lon": 7.89, "timezone": "Africa/Algiers", "population": 648703, "wikidata_id": "Q267224", "wikipedia_id": "ar:ولاية تبسة"}, "geometry": {"type": "MultiPolygon", "coordinates": [[[[7.23, 34.34], [7.809, 34.244], [8.138, 34.532], [8.324, 34.733], [8.477, 35.24], [8.354, 35.617], [8.291, 35.957], [7.719, 35.896], [7.868, 35.591], [7.547, 35.428], [7.403, 35.394], [7.376, 34.665], [7.23, 34.34]]]]}}