{"type": "Feature", "properties": {"name": "Tamanrasset", "iso2": "DZ-11", "admin_level": 4, "osm_id": 1279667, "countrylevel_id": "iso2:DZ-11", "osm_data": {"localname": "تمنراست", "official_name": "", "alltags": {"name:ar": "تمنراست", "name:da": "Tamanrasset", "name:en": "Tamanrasset", "name:es": "Tamanrasset", "name:fa": "تمنراست", "name:fr": "Tamanrasset", "name:ks": "تمنراست", "name:ru": "Таманрассет", "name:ur": "تمنراست", "alt_name": "تامنراست;تامنغاست;تامنغست", "name:azb": "تمنراست", "name:ber": "ⵜⴰⵎⴰⵏⵖⴰⵙⴻⵜ", "name:kab": "Tamenɣast", "name:pnb": "تمنراست", "old_name": "فور لابرين", "long_name": "ولاية تمنراست", "population": "176637", "alt_name:ar": "تامنراست;تامنغاست;تامنغست", "alt_name:fr": "Tamanghasset", "old_name:ar": "فور لابرين", "old_name:fr": "Fort-Laperrine", "long_name:ar": "ولاية تمنراست", "long_name:en": "Tamanrasset Province", "long_name:fr": "Wilaya de Tamanrasset", "population:date": "2008"}}, "center_lat": 23.48, "center_lon": 5.2, "timezone": "Africa/Algiers", "population": 176637, "wikidata_id": "Q229467", "wikipedia_id": "ar:ولاية تمنراست"}, "geometry": {"type": "MultiPolygon", "coordinates": [[[[1.776, 21.808], [2.947, 21.828], [3.091, 21.904], [3.298, 21.421], [4.022, 21.07], [4.019, 20.444], [4.589, 20.62], [4.75, 21.211], [5.759, 20.933], [6.255, 20.895], [6.536, 21.559], [6.812, 21.532], [7.794, 21.047], [10.239, 22.496], [10.271, 23.322], [9.806, 23.555], [9.215, 23.558], [8.646, 23.213], [7.911, 23.087], [7.535, 23.848], [7.531, 24.425], [7.308, 24.748], [7.036, 24.81], [6.585, 25.553], [6.354, 26.158], [6.14, 26.334], [6.302, 26.616], [5.766, 27.073], [5.777, 27.412], [5.472, 27.38], [4.93, 26.479], [4.391, 26.532], [4.015, 26.181], [3.752, 26.266], [3.931, 25.609], [3.502, 25.359], [3.316, 25.625], [3.121, 25.452], [2.703, 25.491], [2.111, 25.728], [1.904, 24.952], [1.438, 24.637], [1.427, 23.998], [1.417, 21.804], [1.776, 21.808]]]]}}