{"type": "Feature", "properties": {"name": "Bordj Bou Arreridj", "iso2": "DZ-34", "admin_level": 4, "osm_id": 1278766, "countrylevel_id": "iso2:DZ-34", "osm_data": {"localname": "Bordj Bou Arreridj - برج بوعريريج", "official_name": "", "alltags": {"name:ar": "برج بوعريريج", "name:el": "Μπορντζ Μπου Αρερίτζ", "name:en": "Bordj Bou Arreridj", "name:fr": "Bordj Bou Arreridj‎", "name:ber": "ⴱⵓⵔⴵ ⴱⵓ ⵄⵔⵉⵔⵉⴵ", "name:kab": "Burǧ bu ɛririǧ", "long_name:ar": "ولاية برج بوعريريج", "long_name:en": "Bordj Bou Arreridj Province", "long_name:fr": "Wilaya de Bordj Bou Arreridj", "is_in:country": "Algeria", "is_in:continent": "Africa", "is_in:country_code": "DZ"}}, "center_lat": 36.09, "center_lon": 4.71, "timezone": "Africa/Algiers", "population": 628451, "wikidata_id": "Q266411", "wikipedia_id": "fr:Wilaya de Bordj Bou Arreridj‎"}, "geometry": {"type": "MultiPolygon", "coordinates": [[[[4.069, 36.035], [4.493, 36.037], [4.418, 35.826], [5.033, 35.784], [5.158, 36.202], [4.73, 36.43], [4.374, 36.284], [4.069, 36.035]]]]}}