{"type": "Feature", "properties": {"name": "Tipaza", "iso2": "DZ-42", "admin_level": 4, "osm_id": 1286213, "countrylevel_id": "iso2:DZ-42", "osm_data": {"localname": "Tipaza - تيبازة", "official_name": "", "alltags": {"name:ar": "تيبازة", "name:el": "Τιπάζα", "name:en": "Tipaza", "name:fr": "Tipaza", "name:ber": "ⵜⵉⵒⴰⵣⴰ", "name:kab": "Tibaẓa", "alt_name:fr": "Tipasa", "long_name:ar": "ولاية تيبازة", "long_name:en": "Tipaza Province", "long_name:fr": "Wilaya de Tipaza", "is_in:country": "Algeria", "is_in:continent": "Africa", "is_in:country_code": "DZ"}}, "center_lat": 36.54, "center_lon": 2.26, "timezone": "Africa/Algiers", "population": 591010, "wikidata_id": "Q235814", "wikipedia_id": "fr:Wilaya de Tipaza"}, "geometry": {"type": "MultiPolygon", "coordinates": [[[[2.803, 36.699], [2.811, 36.643], [2.476, 36.413], [1.642, 36.457], [1.695, 36.553], [2.803, 36.699]]], [[[2.261, 36.627], [2.261, 36.627], [2.261, 36.627], [2.261, 36.627]]], [[[2.691, 36.65], [2.691, 36.65], [2.691, 36.65], [2.691, 36.65]]]]}}