{"type": "Feature", "properties": {"name": "Relizane", "iso2": "DZ-48", "admin_level": 4, "osm_id": 1282091, "countrylevel_id": "iso2:DZ-48", "osm_data": {"localname": "Relizane", "official_name": "", "alltags": {"name:ar": "غليزان", "name:be": "Рэлізан", "name:bg": "Релизан", "name:ca": "Província de Relizane", "name:da": "Relizane", "name:el": "Ρελιζάν", "name:en": "Relizane", "name:eo": "Provinco Relizan", "name:es": "Provincia de Relizan", "name:fa": "غلیزان", "name:fr": "Relizane", "name:gl": "Vilaia de Relizane", "name:hi": "रेलिज़ेन प्रांत", "name:ia": "Provincia Relizane", "name:id": "Provinsi Relizane", "name:it": "Provincia di Relizane", "name:ja": "ルリザンヌ県", "name:ka": "რელიზანის პროვინცია", "name:ko": "렐리잔주", "name:ks": "غلیزان", "name:lt": "Relizano vilaja", "name:nl": "Relizane", "name:no": "Relizane", "name:pl": "Prowincja Ghulajzan", "name:pt": "Relizane", "name:ro": "Provincia Relizane", "name:ru": "Гализан", "name:se": "Relizane eanangoddi", "name:sr": "Релизан", "name:sv": "Relizane", "name:sw": "Wilaya ya Relizane", "name:tg": "Вилояти Ғилизон", "name:tl": "Lalawigan ng Relizane", "name:tr": "Relizane Vilayeti", "name:uk": "Релізан", "name:ur": "غلیزان", "name:vi": "Relizane", "name:zh": "埃利赞省", "name:azb": "غلیزان", "name:ber": "ⵉⵖⵉⵍ ⵉⵣⴰⵏ", "name:kab": "Iɣil n Yizan", "name:pnb": "غلیزان", "long_name": "ولاية غليزان", "long_name:ar": "ولاية غليزان", "long_name:en": "Relizane Province", "long_name:fa": "استان غلیزان", "long_name:fr": "Wilaya de Relizane", "long_name:ur": "صوبہ غلیزان"}}, "center_lat": 35.81, "center_lon": 0.8, "timezone": "Africa/Algiers", "wikidata_id": "Q236758", "wikipedia_id": "ar:ولاية غليزان"}, "geometry": {"type": "MultiPolygon", "coordinates": [[[[0.227, 35.704], [0.831, 35.445], [1.257, 35.687], [1.391, 35.851], [0.694, 36.206], [0.227, 35.704]]]]}}