{"type": "Feature", "properties": {"name": "Bolivar State", "iso2": "VE-F", "admin_level": 4, "osm_id": 2269155, "countrylevel_id": "iso2:VE-F", "osm_data": {"localname": "Bolívar", "official_name": "", "alltags": {"name:ar": "ولاية بوليفار", "name:en": "Bolivar State", "name:es": "Estado Bolívar", "name:ja": "ボリバル州", "name:ko": "볼리바르주", "name:mk": "Боливар", "name:ru": "Боливар", "name:th": "รัฐโบลีวาร์", "name:uk": "Болівар", "border_type": "state"}}, "center_lat": 6.25, "center_lon": -63.54, "timezone": "America/Caracas", "population": 2069064, "wikidata_id": "Q191164", "wikipedia_id": "es:Estado Bolívar"}, "geometry": {"type": "MultiPolygon", "coordinates": [[[[-67.437, 6.199], [-67.171, 6.108], [-67.245, 5.753], [-66.961, 5.639], [-66.502, 5.781], [-66.257, 5.569], [-65.61, 6.125], [-65.529, 5.654], [-65.266, 5.749], [-65.252, 5.251], [-64.875, 4.563], [-64.541, 4.658], [-64.646, 4.192], [-64.112, 4.092], [-63.964, 3.868], [-63.652, 4.002], [-63.204, 3.952], [-62.952, 3.612], [-62.748, 3.673], [-62.766, 4.013], [-62.462, 4.178], [-62.143, 4.078], [-61.56, 4.252], [-61.323, 4.535], [-60.994, 4.519], [-60.584, 4.956], [-60.738, 5.202], [-61.357, 5.903], [-61.127, 6.188], [-61.222, 6.593], [-60.725, 6.754], [-60.294, 7.134], [-60.545, 7.124], [-60.714, 7.541], [-60.264, 7.902], [-60.763, 7.902], [-60.944, 7.756], [-61.259, 7.988], [-61.466, 7.802], [-61.78, 8.218], [-61.707, 8.447], [-62.25, 8.302], [-62.603, 8.445], [-62.688, 8.381], [-63.774, 8.144], [-64.005, 7.947], [-64.308, 8.091], [-64.786, 7.671], [-65.314, 7.861], [-65.629, 7.912], [-65.844, 7.7], [-66.331, 7.657], [-66.622, 7.309], [-67.065, 7.114], [-67.156, 6.464], [-67.437, 6.199]]]]}}