{"type": "Feature", "properties": {"name": "Guarico State", "iso2": "VE-J", "admin_level": 4, "osm_id": 272663, "countrylevel_id": "iso2:VE-J", "osm_data": {"localname": "Guárico", "official_name": "", "alltags": {"name:ar": "غواريكو", "name:en": "Guarico State", "name:es": "Estado Guárico", "name:ja": "グアリコ州", "name:ko": "과리코주", "name:ru": "Гуарико", "name:th": "รัฐกวารีโก", "name:uk": "Гуаріко", "border_type": "state"}}, "center_lat": 8.82, "center_lon": -66.54, "timezone": "America/Caracas", "population": 964264, "wikidata_id": "Q202075", "wikipedia_id": "es:Guárico"}, "geometry": {"type": "MultiPolygon", "coordinates": [[[[-68.032, 8.533], [-67.569, 7.957], [-67.221, 7.776], [-66.331, 7.657], [-65.844, 7.7], [-65.629, 7.912], [-65.314, 7.861], [-65.506, 7.932], [-65.204, 8.374], [-65.174, 8.701], [-64.781, 8.87], [-65.176, 9.165], [-65.432, 9.654], [-65.662, 9.604], [-65.717, 9.962], [-66.612, 9.973], [-66.548, 9.613], [-66.703, 9.249], [-67.015, 9.436], [-66.851, 9.664], [-67.162, 9.929], [-67.534, 9.955], [-67.805, 9.849], [-67.939, 9.6], [-67.849, 9.093], [-68.032, 8.533]]]]}}