{"type": "Feature", "properties": {"name": "Paro District", "iso2": "BT-11", "admin_level": 4, "osm_id": 3899610, "countrylevel_id": "iso2:BT-11", "osm_data": {"localname": "སྤ་རོ་རྫོང་ཁག་", "official_name": "", "alltags": {"name:cs": "okres Paro", "name:en": "Paro District", "name:es": "Distrito de Paro", "name:fr": "Paro", "name:ja": "パロ", "name:ru": "Паро", "name:zh": "帕罗宗", "is_in:country": "Bhutan", "is_in:continent": "Asia", "sorting_name:cs": "Paro", "is_in:country_code": "BT"}}, "center_lat": 27.49, "center_lon": 89.36, "timezone": "Asia/Thimphu", "wikidata_id": "Q652784"}, "geometry": {"type": "MultiPolygon", "coordinates": [[[[89.128, 27.615], [89.162, 27.577], [89.237, 27.568], [89.26, 27.482], [89.291, 27.463], [89.322, 27.396], [89.384, 27.32], [89.328, 27.28], [89.341, 27.215], [89.417, 27.219], [89.511, 27.188], [89.515, 27.224], [89.547, 27.314], [89.495, 27.358], [89.494, 27.407], [89.462, 27.427], [89.474, 27.545], [89.482, 27.56], [89.406, 27.642], [89.374, 27.647], [89.402, 27.675], [89.387, 27.694], [89.385, 27.748], [89.279, 27.72], [89.229, 27.731], [89.133, 27.639], [89.128, 27.615]]]]}}