{"type": "Feature", "properties": {"name": "Haa District", "iso2": "BT-13", "admin_level": 4, "osm_id": 3899607, "countrylevel_id": "iso2:BT-13", "osm_data": {"localname": "ཧཱ་རྫོང་ཁག་", "official_name": "", "alltags": {"name:en": "Haa District", "name:es": "Distrito de Haa", "name:fr": "Haa", "name:ja": "ハ", "name:ru": "Хаа", "name:zh": "哈阿宗", "is_in:country": "Bhutan", "is_in:continent": "Asia", "is_in:country_code": "BT"}}, "center_lat": 27.27, "center_lon": 89.2, "timezone": "Asia/Thimphu", "wikidata_id": "Q754448"}, "geometry": {"type": "MultiPolygon", "coordinates": [[[[89.319, 27.08], [89.312, 27.108], [89.367, 27.175], [89.341, 27.215], [89.328, 27.28], [89.384, 27.32], [89.322, 27.396], [89.291, 27.463], [89.26, 27.482], [89.237, 27.568], [89.162, 27.577], [89.109, 27.54], [89.096, 27.473], [89.116, 27.444], [89.16, 27.425], [89.18, 27.376], [89.151, 27.317], [89.069, 27.285], [89.066, 27.241], [88.99, 27.212], [88.983, 27.144], [89.011, 27.135], [89.029, 27.098], [89.108, 27.038], [89.149, 27.051], [89.166, 27.091], [89.186, 27.054], [89.224, 27.033], [89.249, 27.082], [89.319, 27.08]]]]}}