{"type": "Feature", "properties": {"name": "Thimphu District", "iso2": "BT-15", "admin_level": 4, "osm_id": 3899616, "countrylevel_id": "iso2:BT-15", "osm_data": {"localname": "ཐིམ་ཕུ་རྫོང་ཁག་", "official_name": "", "alltags": {"name:ar": "تيمفو", "name:cs": "okres Thimbú", "name:en": "Thimphu District", "name:es": "Distrito de Timbu", "name:fa": "تیمفو", "name:fr": "Thimphou", "name:ja": "ティンプー", "name:ru": "Тхимпху", "name:ur": "تھمپو", "name:zh": "廷布宗", "sorting_name:cs": "Thimbú"}}, "center_lat": 27.58, "center_lon": 89.54, "timezone": "Asia/Thimphu", "wikidata_id": "Q254889"}, "geometry": {"type": "MultiPolygon", "coordinates": [[[[89.229, 27.731], [89.279, 27.72], [89.385, 27.748], [89.387, 27.694], [89.402, 27.675], [89.374, 27.647], [89.406, 27.642], [89.482, 27.56], [89.474, 27.545], [89.462, 27.427], [89.494, 27.407], [89.495, 27.358], [89.547, 27.314], [89.573, 27.267], [89.63, 27.252], [89.586, 27.219], [89.595, 27.163], [89.635, 27.149], [89.647, 27.211], [89.71, 27.261], [89.711, 27.343], [89.691, 27.361], [89.744, 27.402], [89.743, 27.459], [89.81, 27.485], [89.814, 27.522], [89.791, 27.525], [89.757, 27.57], [89.689, 27.539], [89.63, 27.62], [89.626, 27.691], [89.608, 27.715], [89.563, 27.742], [89.551, 27.778], [89.507, 27.755], [89.48, 27.776], [89.498, 27.847], [89.553, 27.907], [89.515, 27.915], [89.491, 27.973], [89.451, 27.988], [89.433, 27.947], [89.389, 27.89], [89.329, 27.854], [89.308, 27.857], [89.226, 27.784], [89.229, 27.731]]]]}}