{"type": "Feature", "properties": {"name": "Chari-Baguirmi", "iso2": "TD-CB", "admin_level": 4, "osm_id": 3106626, "countrylevel_id": "iso2:TD-CB", "osm_data": {"localname": "Chari-Baguirmi شاري باقرمي", "official_name": "", "alltags": {"name:ar": "شاري باقرمي", "name:en": "Chari-Baguirmi", "name:es": "Chari-Baguirmi", "name:fr": "Chari-Baguirmi", "name:pl": "Szari-Bagirmi", "name:ru": "Шари-Багирми", "name:uk": "Шарі-Багірмі", "population": "621785", "population:date": "2009-06-20"}}, "center_lat": 11.25, "center_lon": 16.32, "timezone": "Africa/Ndjamena", "population": 621785, "wikidata_id": "Q843975", "wikipedia_id": "fr:Chari-Baguirmi"}, "geometry": {"type": "MultiPolygon", "coordinates": [[[[15.026, 12.253], [15.06, 12.054], [15.098, 11.13], [15.397, 11.212], [15.544, 10.94], [16.149, 10.707], [16.194, 10.209], [16.584, 10.265], [16.662, 10.071], [17.381, 9.826], [17.543, 10.451], [17.327, 10.574], [17.332, 11.449], [16.858, 11.676], [16.666, 12.229], [16.09, 12.432], [15.506, 12.222], [15.026, 12.253]]]]}}