{"type": "Feature", "properties": {"name": "Guéra", "iso2": "TD-GR", "admin_level": 4, "osm_id": 3106508, "countrylevel_id": "iso2:TD-GR", "osm_data": {"localname": "Guéra قيرا", "official_name": "", "alltags": {"name:ar": "قيرا", "name:en": "Guéra", "name:es": "Guéra", "name:fr": "Guéra", "name:pl": "Guéra", "name:ru": "Гера", "name:uk": "Гера", "population": "553795", "is_in:country": "تشاد", "population:date": "2009-06-20"}}, "center_lat": 11.49, "center_lon": 18.65, "timezone": "Africa/Ndjamena", "wikidata_id": "Q175706", "wikipedia_id": "fr:Guéra"}, "geometry": {"type": "MultiPolygon", "coordinates": [[[[17.543, 10.451], [17.864, 10.497], [18.496, 10.186], [18.632, 9.919], [19.078, 9.988], [19.43, 10.469], [19.703, 10.588], [19.694, 11.001], [18.902, 11.331], [18.902, 11.692], [19.215, 11.638], [19.465, 12.123], [19.906, 12.04], [20.244, 12.764], [20.045, 12.935], [19.777, 13.031], [19.184, 12.687], [18.475, 12.692], [17.882, 12.446], [17.598, 12.125], [17.68, 11.68], [17.332, 11.449], [17.327, 10.574], [17.543, 10.451]]]]}}