{"type": "Feature", "properties": {"name": "Logone Oriental", "iso2": "TD-LR", "admin_level": 4, "osm_id": 3218249, "countrylevel_id": "iso2:TD-LR", "osm_data": {"localname": "Logone Oriental لوقون الشرقية", "official_name": "", "alltags": {"name:ar": "لوقون الشرقية", "name:en": "Logone Oriental", "name:es": "Logone Oriental", "name:fr": "Logone Oriental", "name:pl": "Logon Wschodni", "name:ru": "Восточный Логон", "name:uk": "Східний Логон", "population": "796453", "population:date": "2009-06-20"}}, "center_lat": 8.19, "center_lon": 16.39, "timezone": "Africa/Ndjamena", "wikidata_id": "Q167514", "wikipedia_id": "fr:Logone Oriental"}, "geometry": {"type": "MultiPolygon", "coordinates": [[[[15.223, 8.46], [15.506, 7.792], [15.493, 7.525], [15.81, 7.441], [16.398, 7.683], [16.592, 7.883], [16.838, 7.536], [17.277, 7.811], [17.108, 8.131], [17.295, 8.296], [17.046, 8.631], [17.134, 9.078], [16.443, 9.122], [16.616, 8.881], [15.803, 8.334], [15.529, 8.273], [15.272, 8.482], [15.223, 8.46]]]]}}