{"type": "Feature", "properties": {"name": "Mayo-Kebbi Est", "iso2": "TD-ME", "admin_level": 4, "osm_id": 3218251, "countrylevel_id": "iso2:TD-ME", "osm_data": {"localname": "Mayo-Kebbi Est مايو كيبي الشرقية", "official_name": "", "alltags": {"name:ar": "مايو كيبي الشرقية", "name:en": "Mayo-Kebbi Est", "name:es": "Mayo-Kebbi Este", "name:fr": "Mayo-Kebbi Est", "name:pl": "Mayo-Kebbi Est", "name:ru": "Восточное Майо-Кеби", "name:uk": "Східний Майо-Кебі", "population": "769198", "long_name:ar": "منطقة مايو كيبي الشرقي", "population:date": "2009-06-20", "official_name:ar": "منطقة مايو كيبي الشرقي"}}, "center_lat": 10.2, "center_lon": 15.55, "timezone": "Africa/Ndjamena", "wikidata_id": "Q911421", "wikipedia_id": "fr:Mayo-Kebbi Est"}, "geometry": {"type": "MultiPolygon", "coordinates": [[[[15.421, 9.21], [15.794, 9.725], [15.915, 9.656], [16.263, 10.031], [16.194, 10.209], [16.149, 10.707], [15.544, 10.94], [15.397, 11.212], [15.098, 11.13], [15.067, 10.824], [15.304, 10.312], [15.688, 9.993], [14.73, 9.948], [14.749, 9.67], [15.034, 9.661], [15.138, 9.357], [15.421, 9.21]]]]}}