{"type": "Feature", "properties": {"name": "Šavnik Municipality", "iso2": "ME-18", "admin_level": 6, "osm_id": 2319539, "countrylevel_id": "iso2:ME-18", "osm_data": {"localname": "Opština Šavnik", "official_name": "", "alltags": {"capital": "6", "name:bg": "Община Шавник", "name:bs": "Općina Šavnik", "name:cs": "Občina Šavnik", "name:en": "Šavnik Municipality", "name:es": "Municipio de Šavnik", "name:fr": "Municipalité de Šavnik", "name:hr": "Općina Šavnik", "name:mk": "Општина Шавник", "name:ro": "Comuna Šavnik", "name:ru": "Община Шавник", "name:sh": "Opština Šavnik", "name:sk": "Obec Šavnik", "name:sl": "Občina Šavnik", "name:sq": "Komuna e Šavnik", "name:sr": "Општина Шавник", "name:sr-Latn": "Opština Šavnik"}}, "center_lat": 42.98, "center_lon": 19.15, "timezone": "Europe/Podgorica", "population": 1794, "wikidata_id": "Q13365880"}, "geometry": {"type": "MultiPolygon", "coordinates": [[[[18.989, 42.933], [19.199, 42.86], [19.355, 42.937], [19.311, 42.997], [19.023, 43.116], [18.989, 42.933]]]]}}