{"type": "Feature", "properties": {"name": "Belgium", "iso1": "BE", "admin_level": 2, "osm_id": 52411, "countrylevel_id": "iso1:BE", "osm_data": {"localname": "België / Belgique / Belgien", "official_name": "Koninkrijk België / Royaume de Belgique / Königreich Belgien", "alltags": {"flag": "http://upload.wikimedia.org/wikipedia/commons/6/65/Flag_of_Belgium.svg", "name:af": "België", "name:ak": "Belgium", "name:am": "ቤልጅግ", "name:an": "Belchica", "name:ar": "بلجيكا", "name:av": "Бе́льгия", "name:ay": "Bilkiya", "name:az": "Belçika", "name:ba": "Бе́льгия", "name:be": "Бeльгія", "name:bg": "Белгия", "name:bh": "बेल्जियम", "name:bi": "Beljiom", "name:bm": "Bɛliziki", "name:bn": "বেলজিয়াম", "name:bo": "པེར་ཅིན།", "name:br": "Belgia", "name:bs": "Belgija", "name:ca": "Bèlgica", "name:ce": "Бельги", "name:co": "Belgica", "name:cs": "Belgie", "name:cu": "Бє́лгїѥ", "name:cv": "Бельги", "name:cy": "Gwlad Belg", "name:da": "Belgien", "name:dv": "ބެލްޖިއަމް", "name:dz": "བེལ་ཇིཡམ", "name:ee": "Belgium", "name:el": "Βέλγιο", "name:en": "Belgium", "name:eo": "Belgujo", "name:es": "Bélgica", "name:et": "Belgia", "name:eu": "Belgika", "name:fa": "بلژیک", "name:ff": "Beljik", "name:fi": "Belgia", "name:fo": "Belgia", "name:fr": "Belgique", "name:fy": "Belgje", "name:ga": "an Bheilg", "name:gd": "a' Bheilg", "name:gl": "Bélxica", "name:gn": "Véyhika", "name:gu": "બેલ્જિયમ", "name:gv": "Velg", "name:ha": "Beljik", "name:he": "בֶּלְגְיָה", "name:hi": "बेल्जियम", "name:hr": "Belgija", "name:ht": "Bèljik", "name:hu": "Belgium", "name:hy": "Բելգիա", "name:ia": "Belgica", "name:id": "Belgia", "name:ie": "Belgia", "name:ig": "Belgium", "name:io": "Belgia", "name:is": "Belgía", "name:it": "Belgio", "name:ja": "ベルギー", "name:jv": "Bèlgia", "name:ka": "ბელგია", "name:kg": "Belezi", "name:ki": "Ubelgiji", "name:kk": "Бельгия", "name:kl": "Belgia", "name:km": "បែលហ្ស៉ិក", "name:kn": "ಬೆಲ್ಜಿಯಂ", "name:ko": "벨기에", "name:ks": "बेल्जियम", "name:ku": "Belçîka", "name:kv": "Бельгия", "name:kw": "Pow Belg", "name:ky": "Бельгия", "name:la": "Belgica", "name:lb": "Belsch", "name:lg": "Bubirigi", "name:li": "Belsj", "name:ln": "Bɛ́ljika", "name:lo": "ປະເທດແບນຊິກ", "name:lt": "Belgija", "name:lv": "Beļģija", "name:mg": "Belzika", "name:mi": "Pehiamu", "name:mk": "Белгија", "name:ml": "ബെൽജിയം", "name:mn": "Бельги", "name:mr": "बेल्जियम", "name:ms": "Belgium", "name:mt": "Belġju", "name:my": "ဘယ်လ်ဂျီယမ်နိုင်ငံ", "name:na": "Berdjiyum", "name:nb": "Belgia", "name:ne": "बेल्जियम", "name:nl": "België", "name:nn": "Belgia", "name:no": "Belgia", "name:oc": "Belgica", "name:om": "Beeljiyeem", "name:or": "ବେଲଜିଅମ", "name:os": "Бельги", "name:pa": "ਬੈਲਜੀਅਮ", "name:pi": "बेल्जियम", "name:pl": "Belgia", "name:ps": "بلجیم", "name:pt": "Bélgica", "name:qu": "Bilhika", "name:rm": "Belgia", "name:rn": "Ububirigi", "name:ro": "Belgia", "name:ru": "Бельгия", "name:rw": "Ububiligi", "name:sa": "बेल्जियम", "name:sc": "Bèlgiu", "name:sd": "بيلجيم", "name:se": "Belgia", "name:sg": "Bêleze", "name:sh": "Belgija", "name:si": "බෙල්ජියම්", "name:sk": "Belgicko", "name:sl": "Bélgija", "name:sm": "Peleseuma", "name:sn": "Belgium", "name:so": "Beljim", "name:sq": "Belgjika", "name:sr": "Белгија", "name:ss": "iBhelijiyamu", "name:su": "Bélgia", "name:sv": "Belgien", "name:sw": "Ubelgiji", "name:ta": "பெல்ஜியம்", "name:te": "బెల్జియం", "name:tg": "Белгия", "name:th": "เบลเยียม", "name:ti": "ቤልጄም", "name:tk": "Belgiýa", "name:tl": "Belhika", "name:to": "Pelesiume", "name:tr": "Belçika", "name:ts": "Belgium", "name:tt": "Бе́льгия", "name:tw": "Belgium", "name:ug": "بېلگىيە", "name:uk": "Бе́льгія", "name:ur": "بلجئیم", "name:uz": "Belgiya", "name:vi": "Bỉ", "name:vo": "Belgän", "name:wa": "Beldjike", "name:wo": "Belsik", "name:yi": "בעלגיע", "name:yo": "Bẹ́ljíọ̀m", "name:zh": "比利時", "name:zu": "i-Belgium", "currency": "EUR", "int_name": "Belgium", "name:ace": "Bèlgia", "name:ady": "Белгие", "name:als": "Belgie", "name:ang": "Belgice", "name:arc": "ܒܠܓܝܩܐ", "name:arz": "بلجيكا", "name:ast": "Bélxica", "name:azb": "بلژیک", "name:bar": "Bäigien", "name:bcl": "Belhika", "name:bpy": "বেলজিয়াম", "name:bug": "Belgia", "name:bxr": "Бельги", "name:cdo": "Bī-lé-sì", "name:ceb": "Belhika", "name:chr": "ᏇᎵᏥᎥᎻ", "name:ckb": "بەلجیکا", "name:crh": "Belçika", "name:csb": "Belgijskô", "name:diq": "Belçıka", "name:dsb": "Belgiska", "name:dty": "बेल्जियम", "name:eml": "Bélgi", "name:ext": "Bélgica", "name:frp": "Bèlg·ique", "name:frr": "Bälgien", "name:fur": "Belgjo", "name:gag": "Belgiya", "name:gom": "बेल्जियम", "name:hak": "Pí-li-sṳ̀", "name:haw": "Pelekiuma", "name:hif": "Belgium", "name:hsb": "Belgiska", "name:ilo": "Belhika", "name:jam": "Beljiom", "name:jbo": "beldjym", "name:kaa": "Belgiya", "name:kab": "Biljik", "name:kbd": "Белгиэ", "name:kbp": "Pɛliziki", "name:koi": "Белгия", "name:krc": "Бельгия", "name:ksh": "Beljie", "name:lad": "Beljika", "name:lez": "Бельгия", "name:lij": "Belgiò", "name:lmo": "Belgi", "name:lrc": "بلجیک", "name:ltg": "Beļgeja", "name:lzh": "比利時", "name:mai": "बेल्जियम", "name:mdf": "Бельгие", "name:mhr": "Бельгий", "name:mwl": "Bélgica", "name:myv": "Бельгия", "name:mzn": "بلژیک", "name:nah": "Belgica", "name:nan": "Pe̍k-ní-gī", "name:nap": "Belge", "name:nds": "Belgien", "name:new": "बेल्जियम", "name:nov": "Belgia", "name:nrm": "Belgique", "name:nso": "Belgium", "name:olo": "Bel’gii", "name:pag": "Belhika", "name:pam": "Belgika", "name:pap": "Bélgika", "name:pcd": "Bergike", "name:pdc": "Belgien", "name:pfl": "Belgje", "name:pih": "Beljum", "name:pms": "Belgi", "name:pnb": "بیلجیم", "name:pnt": "Βέλγιον", "name:rmy": "Beljiya", "name:rue": "Белґія", "name:sah": "Бельгия", "name:scn": "Belgiu", "name:sco": "Belgium", "name:srn": "Belgikondre", "name:stq": "Belgien", "name:szl": "Belgijo", "name:tet": "Béljika", "name:tok": "ma Pesije", "name:tpi": "Beljiam", "name:tum": "Belgium", "name:tzl": "Belxhíc", "name:udm": "Бельгия", "name:vec": "Belgio", "name:vep": "Bel'gii", "name:vls": "België", "name:war": "Belhika", "name:wuu": "比利时", "name:xal": "Бельҗмудин Нутг", "name:xmf": "ბელგია", "name:yue": "比利時", "name:zea": "Belhië", "alt_name:ay": "Bilgasuyu", "alt_name:eo": "Belgio", "alt_name:fy": "België;it Belzelân", "alt_name:ku": "Belcîka", "alt_name:la": "Belgium", "alt_name:li": "Belzjiek", "alt_name:qu": "Bilgasuyu", "alt_name:rw": "Ububirigi", "alt_name:so": "Belgium", "name:nds-nl": "België", "alt_name:bar": "Bejgien", "alt_name:ckb": "بلژیک", "alt_name:frp": "Bèlg·ica", "alt_name:fur": "Belgjiche;Belgje", "alt_name:kbd": "Белгэ", "alt_name:ksh": "Belgien", "alt_name:mzn": "بلجیک", "alt_name:war": "Bélgica", "name:bat-smg": "Belgėjė", "name:cbk-zam": "Bélgica", "name:fiu-vro": "Belgiä", "name:roa-rup": "Belghia", "name:roa-tara": "Bèlge", "official_name": "Koninkrijk België / Royaume de Belgique / Königreich Belgien", "name:be-tarask": "Бэ́льгія", "name:zh_pinyin": "Bǐlìshí", "is_in:continent": "Europe", "official_name:af": "Koninkryk van België", "official_name:am": "የቤልጅግ መንግሥት", "official_name:an": "Reino de Belchica", "official_name:ar": "مملكة بلجيكا", "official_name:av": "Ханлъи Бе́льгия", "official_name:ay": "Bilhika Qhapaqsuyu", "official_name:az": "Belçika Krallığı", "official_name:ba": "Бельгия Короллеге", "official_name:be": "Каралеўства Бельгія", "official_name:bg": "Кралство Белгия", "official_name:bm": "Bɛliziki Mansamara", "official_name:bn": "রাজতন্ত্রী বেলজিয়াম", "official_name:bo": "Kraljevina Belgija", "official_name:br": "Rouantelezh Belgia", "official_name:bs": "Kraljevina Belgija", "official_name:ca": "Regne de Bèlgica", "official_name:ce": "Монархи Бельги", "official_name:co": "Regnu di Belgica", "official_name:cs": "Belgické království", "official_name:cu": "Кралѥ́вьство Бє́лгїѥ", "official_name:cy": "Teyrnas Gwlad Belg", "official_name:da": "Kongeriget Belgien", "official_name:de": "Königreich Belgien", "official_name:el": "Βασίλειο του Βελγίου", "official_name:en": "Kingdom of Belgium", "official_name:eo": "Reĝlando Belgujo", "official_name:es": "Reino de Bélgica", "official_name:et": "Belgia Kuningriik", "official_name:eu": "Belgikako Erresuma", "official_name:fa": "پادشاهی بلژیک", "official_name:fi": "Belgian kuningaskunta", "official_name:fr": "Royaume de Belgique", "official_name:ga": "Ríocht na Beilge", "official_name:gd": "Rìoghachd na Beilge", "official_name:gl": "Reino de Bélxica", "official_name:gn": "Tetã Véyhika", "official_name:gv": "Reeriaght ny Belg", "official_name:he": "ממלכת בלגיה", "official_name:hi": "किंगडम ऑफ़ बेल्जियम", "official_name:hr": "Kraljevina Belgija", "official_name:hu": "Belga Királyság", "official_name:hy": "Բելգիայի Թագավորություն", "official_name:ia": "Regno de Belgica", "official_name:id": "Kerajaan Belgia", "official_name:ig": "Obodoézè nke Belgium", "official_name:io": "Rejio di Belgia", "official_name:is": "Konungsríkið Belgía", "official_name:it": "Regno del Belgio", "official_name:ja": "ベルギー王国", "official_name:ka": "ბელგიის სამეფო", "official_name:kg": "Nsi ya ntotila ya Belezi", "official_name:kk": "Бельгия Корольдігі", "official_name:kl": "Kunngeqarfik Belgia", "official_name:kn": "ಬೆಲ್ಜಿಯಂ ಸಂಸ್ಥಾನ", "official_name:ko": "벨기에 왕국", "official_name:ku": "Keyaniya Belçîkayê", "official_name:kv": "Бельгия Корольув", "official_name:kw": "Ruwvaneth Belgek", "official_name:ky": "Бельгия Королдугу", "official_name:la": "Regnum Belgica", "official_name:lb": "Kinnekräich Belsch", "official_name:lg": "Obwakabaka bwa Bubirigi", "official_name:li": "Keuninkriek Belsj", "official_name:ln": "Mani ya Bɛ́ljika", "official_name:lo": "ລາຊະອານາຈັກແບນຊິກ", "official_name:lt": "Belgijos Karalystė", "official_name:lv": "Beļģijas Karaliste", "official_name:mk": "Кралство Белгија", "official_name:mn": "Бельгийн Вант Улс", "official_name:mr": "बेल्जियमचे राजतंत्र", "official_name:ms": "Kerajaan Belgium", "official_name:mt": "Renju tal-Belġju", "official_name:my": "ကင်းဒမ်းအော့ဖ် ဘယ်လ်ဂျီယမ်", "official_name:nl": "Koninkrijk België", "official_name:nn": "Kongeriket Belgia", "official_name:no": "Kongeriket Belgia", "official_name:oc": "Reialme de Belgica", "official_name:os": "Бельгийы Къаролад", "official_name:pa": "ਬੈਲਜੀਅਮ ਦੀ ਰਾਜਸ਼ਾਹੀ", "official_name:pl": "Królestwo Belgii", "official_name:ps": "د بلجیم بادشاهي", "official_name:pt": "Reino da Bélgica", "official_name:qu": "Bilhika Qhapaqsuyu", "official_name:rm": "Reginavel da la Belgia", "official_name:rn": "Irepuburika y’Ububirigi", "official_name:ro": "Regatul Belgiei", "official_name:ru": "Королевство Бельгия", "official_name:rw": "Igihugu cy’Ububirigi", "official_name:sc": "Rennu de Bèlgiu", "official_name:sd": "بيلجيم جي شهنشاهيت", "official_name:se": "Belgia gonagasriika", "official_name:sg": "Ködörö-gbïä tî Bêleze", "official_name:sh": "Kraljevina Belgija", "official_name:sk": "Belgické kráľovstvo", "official_name:sl": "Kraljevína Bélgija", "official_name:sm": "Malo o Peleseuma", "official_name:sq": "Mbretëria e Belgjikës", "official_name:sr": "Краљевина Белгија", "official_name:su": "Karajaan Bélgia", "official_name:sv": "Konungariket Belgien", "official_name:sw": "Ufalme wa Ubelgiji", "official_name:ta": "பெல்ஜியம் இராச்சியம்", "official_name:te": "బెల్జియం రాజ్యం", "official_name:tg": "Шоҳигарии Бeлгия", "official_name:th": "ราชอาณาจักรเบลเยียม", "official_name:tk": "Belgiýa korollygy", "official_name:tl": "Kaharian ng Belhika", "official_name:tr": "Belçika Krallığı", "official_name:tt": "Бе́льгия Корольлеге́", "official_name:ug": "بېلگىيە پادىشاھلىقى", "official_name:uk": "Королі́вство Бе́льгія", "official_name:ur": "مملکت بلجئیم", "official_name:uz": "Belgiya Qirolligi", "official_name:vi": "Vương quốc Bỉ", "official_name:vo": "Regän Belgäna", "official_name:wa": "Royåme di Beldjike", "official_name:wo": "Ruwaayom bu Beljik", "official_name:yi": "קעניגרייך פון בעלגיע", "official_name:yo": "Ilẹ̀ọba Bẹ́ljíọ̀m", "official_name:zh": "比利時王國", "official_name:als": "Königriich Belgie", "official_name:ang": "Belgice Cynerīce", "official_name:arc": "ܡܠܟܘܬܐ ܕܒܠܓܝܩܐ", "official_name:ast": "Reinu de Bélxica", "official_name:azb": "بلژیک کراللیغی", "official_name:bar": "Kinigraich Bäigien", "official_name:bpy": "রাজতান্ত্রিক বেলজিয়াম", "official_name:chr": "ᎤᎬᏫᏳᎯ ᎨᏒ ᎾᎿ ᎠᏲᎳᏂ", "official_name:crh": "Belçika Qırallığı", "official_name:dsb": "Kralojstwo Belgiskej", "official_name:eml": "Regno dal Bèlgi", "official_name:frp": "Royômo de Bèlg·ique", "official_name:frr": "Könangrik Belgien", "official_name:hsb": "Belgiske kralestwo", "official_name:ilo": "Pagarian ti Belhika", "official_name:jam": "Kindom a Beljiom", "official_name:kab": "Tigelda n Biljik", "official_name:kbd": "Белгэ Пэщтыхьей", "official_name:koi": "Короля Белгия", "official_name:krc": "Бельгия Королевство", "official_name:lad": "Reyno de Beljika", "official_name:lij": "Regno do Belgio", "official_name:lmo": "Regn del Belgi", "official_name:lzh": "比利時王國", "official_name:mdf": "Бельгие Оцязорксшись", "official_name:myv": "Бельгия Масторось", "official_name:nah": "Huēyitlahtohcāyōtl Belgica", "official_name:nan": "Pe̍k-ní-gī-kok", "official_name:nds": "Königriek vun Belgien", "official_name:new": "बेल्जियम राजतन्त्र", "official_name:olo": "Bel’gien kuningaskundu", "official_name:pam": "Ka-ariyan ning Belgika", "official_name:pap": "Reino Bélgika", "official_name:pcd": "Roéyôme d’ Bergike", "official_name:pfl": "Royaume de Belgique", "official_name:pnt": "Βασίλειον τη Βελγί", "official_name:rmy": "Thangaripen Beljiyako", "official_name:rue": "Белґіцьке кралёвство", "official_name:sah": "Бельгия Хоруоллуга", "official_name:sco": "Kinrick o Belgium", "official_name:szl": "Krůlestwo Belgije", "official_name:tet": "Reinu Béljika nian", "official_name:udm": "Королевство Бельгия", "official_name:vec": "Regno del Belgio", "official_name:vep": "Bel'gijan Kunigahuz", "official_name:vls": "Keunienkryk België", "official_name:war": "Ginhadi-an han Belhika", "official_name:xal": "Бельҗмудин Орн Нутг", "official_name:xmf": "ბელგიაშ ომაფე", "official_name:yue": "比利時王國", "official_name:zea": "Konienkriek België", "official_name:nds-nl": "Koninkriek België", "official_name:bat-smg": "Belgėjės Karalīstė", "official_name:fiu-vro": "Belgiä Kuningriik", "official_name:roa-tara": "Regne d'u Bèlgie", "official_name:be-tarask": "Каралеўства Бельгія", "TMC:cid_58:tabcd_1:Class": "Area", "TMC:cid_58:tabcd_1:LCLversion": "8.00", "TMC:cid_58:tabcd_1:LocationCode": "3"}}, "center_lat": 50.64, "center_lon": 4.66, "timezone": "Europe/Brussels", "population": 11372068, "wikidata_id": "Q31", "wikipedia_id": "nl:België"}, "geometry": {"type": "MultiPolygon", "coordinates": [[[[3.105, 51.312], [3.105, 51.312], [3.105, 51.312], [3.105, 51.312]]], [[[4.927, 51.408], [4.927, 51.408], [4.927, 51.408], [4.927, 51.408]]], [[[4.866, 51.414], [4.866, 51.414], [4.866, 51.414], [4.866, 51.414]]], [[[4.873, 51.416], [4.873, 51.416], [4.873, 51.416], [4.873, 51.416]]], [[[4.839, 51.418], [4.839, 51.418], [4.839, 51.418], [4.839, 51.418]]], [[[4.889, 51.425], [4.889, 51.425], [4.889, 51.425], [4.889, 51.425]]], [[[4.941, 51.439], [4.941, 51.439], [4.941, 51.439], [4.941, 51.439]]], [[[4.94, 51.44], [4.94, 51.44], [4.94, 51.44], [4.94, 51.44]]], [[[4.94, 51.436], [4.94, 51.436], [4.94, 51.436], [4.94, 51.436]]], [[[3.366, 51.369], [3.385, 51.334], [3.358, 51.315], [3.378, 51.275], [3.427, 51.245], [3.528, 51.246], [3.515, 51.287], [3.591, 51.304], [3.795, 51.256], [3.79, 51.216], [3.886, 51.2], [3.958, 51.216], [4.011, 51.244], [4.074, 51.252], [4.166, 51.293], [4.242, 51.354], [4.218, 51.374], [4.335, 51.378], [4.385, 51.354], [4.432, 51.375], [4.384, 51.421], [4.385, 51.45], [4.538, 51.482], [4.535, 51.423], [4.575, 51.433], [4.67, 51.426], [4.749, 51.497], [4.774, 51.505], [4.842, 51.481], [4.836, 51.417], [4.787, 51.433], [4.789, 51.409], [4.883, 51.416], [4.929, 51.396], [4.998, 51.44], [5.033, 51.487], [5.079, 51.472], [5.105, 51.431], [5.071, 51.393], [5.132, 51.347], [5.134, 51.316], [5.2, 51.323], [5.242, 51.305], [5.226, 51.268], [5.417, 51.262], [5.488, 51.3], [5.558, 51.263], [5.561, 51.222], [5.653, 51.198], [5.658, 51.185], [5.746, 51.189], [5.778, 51.151], [5.824, 51.168], [5.856, 51.145], [5.81, 51.118], [5.758, 51.034], [5.768, 51], [5.727, 50.913], [5.644, 50.871], [5.654, 50.82], [5.694, 50.812], [5.682, 50.758], [5.739, 50.757], [5.777, 50.782], [5.807, 50.756], [5.886, 50.77], [5.915, 50.75], [5.958, 50.762], [6.021, 50.754], [6.034, 50.725], [6.115, 50.722], [6.187, 50.641], [6.267, 50.642], [6.236, 50.566], [6.197, 50.53], [6.227, 50.494], [6.27, 50.505], [6.35, 50.489], [6.372, 50.456], [6.37, 50.41], [6.343, 50.381], [6.405, 50.323], [6.361, 50.307], [6.328, 50.325], [6.292, 50.279], [6.176, 50.236], [6.192, 50.182], [6.147, 50.178], [6.138, 50.13], [6.138, 50.13], [6.12, 50.163], [6.064, 50.153], [6.025, 50.183], [5.964, 50.173], [5.961, 50.131], [5.895, 50.112], [5.854, 50.059], [5.839, 49.989], [5.775, 49.961], [5.736, 49.897], [5.783, 49.879], [5.741, 49.839], [5.755, 49.791], [5.79, 49.796], [5.832, 49.747], [5.826, 49.724], [5.887, 49.709], [5.865, 49.676], [5.911, 49.662], [5.908, 49.639], [5.848, 49.596], [5.873, 49.574], [5.819, 49.546], [5.774, 49.563], [5.758, 49.543], [5.643, 49.55], [5.616, 49.527], [5.556, 49.529], [5.474, 49.497], [5.448, 49.518], [5.425, 49.598], [5.348, 49.631], [5.314, 49.611], [5.332, 49.653], [5.269, 49.697], [5.164, 49.693], [5.126, 49.712], [5.095, 49.762], [4.957, 49.802], [4.909, 49.786], [4.859, 49.797], [4.86, 49.865], [4.89, 49.909], [4.849, 49.948], [4.791, 49.958], [4.841, 50.038], [4.852, 50.101], [4.895, 50.14], [4.807, 50.153], [4.752, 50.112], [4.704, 50.096], [4.685, 50.008], [4.541, 49.968], [4.511, 49.947], [4.446, 49.937], [4.308, 49.969], [4.195, 49.957], [4.141, 49.979], [4.136, 50.021], [4.161, 50.048], [4.218, 50.061], [4.225, 50.086], [4.197, 50.135], [4.127, 50.135], [4.154, 50.161], [4.181, 50.232], [4.22, 50.252], [4.163, 50.289], [4.137, 50.257], [4.117, 50.304], [4.028, 50.358], [3.91, 50.329], [3.853, 50.351], [3.75, 50.351], [3.71, 50.303], [3.665, 50.347], [3.675, 50.402], [3.664, 50.452], [3.607, 50.497], [3.501, 50.487], [3.52, 50.524], [3.474, 50.534], [3.371, 50.494], [3.289, 50.526], [3.28, 50.596], [3.241, 50.669], [3.265, 50.677], [3.22, 50.71], [3.148, 50.79], [3.11, 50.794], [2.939, 50.745], [2.899, 50.694], [2.848, 50.723], [2.79, 50.726], [2.711, 50.814], [2.635, 50.813], [2.604, 50.917], [2.633, 50.946], [2.574, 51.003], [2.545, 51.089], [2.749, 51.162], [3.078, 51.303], [3.178, 51.334], [3.22, 51.361], [3.241, 51.343], [3.366, 51.369]], [[6.187, 50.526], [6.187, 50.526], [6.187, 50.526], [6.187, 50.526]], [[6.174, 50.556], [6.198, 50.536], [6.234, 50.565], [6.225, 50.59], [6.174, 50.556]], [[6.246, 50.597], [6.246, 50.597], [6.246, 50.597], [6.246, 50.597]], [[4.869, 51.412], [4.869, 51.412], [4.869, 51.412], [4.869, 51.412]], [[6.167, 50.644], [6.274, 50.63], [6.262, 50.643], [6.167, 50.644]], [[6.166, 50.662], [6.166, 50.662], [6.166, 50.662], [6.166, 50.662]]], [[[4.939, 51.444], [4.939, 51.444], [4.939, 51.444], [4.939, 51.444]]], [[[4.94, 51.436], [4.94, 51.436], [4.94, 51.436], [4.94, 51.436]], [[4.934, 51.433], [4.934, 51.433], [4.934, 51.433], [4.934, 51.433]], [[4.931, 51.435], [4.931, 51.435], [4.931, 51.435], [4.931, 51.435]], [[4.935, 51.438], [4.935, 51.438], [4.935, 51.438], [4.935, 51.438]], [[4.931, 51.437], [4.931, 51.437], [4.931, 51.437], [4.931, 51.437]], [[4.922, 51.439], [4.922, 51.439], [4.922, 51.439], [4.922, 51.439]], [[4.931, 51.44], [4.931, 51.44], [4.931, 51.44], [4.931, 51.44]]], [[[4.918, 51.444], [4.918, 51.444], [4.918, 51.444], [4.918, 51.444]]], [[[4.836, 51.448], [4.836, 51.448], [4.836, 51.448], [4.836, 51.448]]], [[[4.932, 51.448], [4.932, 51.448], [4.932, 51.448], [4.932, 51.448]]], [[[4.927, 51.449], [4.927, 51.449], [4.927, 51.449], [4.927, 51.449]]], [[[4.949, 51.455], [4.949, 51.455], [4.949, 51.455], [4.949, 51.455]]], [[[4.941, 51.455], [4.941, 51.455], [4.941, 51.455], [4.941, 51.455]]], [[[4.929, 51.45], [4.929, 51.45], [4.929, 51.45], [4.929, 51.45]]], [[[4.943, 51.453], [4.943, 51.453], [4.943, 51.453], [4.943, 51.453]]], [[[4.944, 51.444], [4.944, 51.444], [4.944, 51.444], [4.944, 51.444]]], [[[4.941, 51.445], [4.941, 51.445], [4.941, 51.445], [4.941, 51.445]]], [[[4.924, 51.446], [4.924, 51.446], [4.924, 51.446], [4.924, 51.446]]], [[[4.933, 51.45], [4.933, 51.45], [4.933, 51.45], [4.933, 51.45]], [[4.942, 51.448], [4.942, 51.448], [4.942, 51.448], [4.942, 51.448]]]]}}