{"type": "Feature", "properties": {"name": "Kuwait", "iso1": "KW", "admin_level": 2, "osm_id": 305099, "countrylevel_id": "iso1:KW", "osm_data": {"localname": "‏الكويت‎", "official_name": "", "alltags": {"flag": "http://upload.wikimedia.org/wikipedia/commons/a/aa/Flag_of_Kuwait.svg", "name:af": "Koeweit", "name:am": "ኩዌት", "name:an": "Kuwait", "name:ar": "الكويت", "name:az": "Küveyt", "name:ba": "Күвейт", "name:be": "Кувейт", "name:bg": "Кувейт", "name:bn": "কুয়েত", "name:bo": "ཁུ་ཝི་ཐི།", "name:br": "Koweit", "name:bs": "Kuvajt", "name:ca": "Kuwait", "name:ce": "Кувейт", "name:cs": "Kuvajt", "name:cv": "Кувейт", "name:cy": "Kuwait", "name:da": "Kuwait", "name:dv": "ކުވެއިތު", "name:dz": "ཀུ་ཝེཊ་", "name:el": "Κουβέιτ", "name:en": "Kuwait", "name:eo": "Kuvajto", "name:es": "Kuwait", "name:et": "Kuveit", "name:eu": "Kuwait", "name:fa": "کویت", "name:fi": "Kuwait", "name:fo": "Kuveit", "name:fr": "Koweït", "name:fy": "Koeweit", "name:ga": "Cuáit", "name:gd": "Cubhait", "name:gl": "Kuwait", "name:gu": "કુવૈત", "name:gv": "Yn Choowait", "name:he": "כווית", "name:hi": "कुवैत", "name:hr": "Kuvajt", "name:ht": "Kowet", "name:hu": "Kuvait", "name:hy": "Քուվեյթ", "name:ia": "Kuwait", "name:id": "Kuwait", "name:ie": "Kuwait", "name:io": "Kuwait", "name:is": "Kúveit", "name:it": "Kuwait", "name:ja": "クウェート", "name:jv": "Kuwait", "name:ka": "ქუვეითი", "name:kk": "Кувейт", "name:kl": "Kuwait", "name:km": "គុយវ៉ែត", "name:kn": "ಕುವೈತ್", "name:ko": "쿠웨이트", "name:ku": "Kuweyt", "name:kv": "Кувейт", "name:kw": "Koweyt", "name:la": "Cuvaitum", "name:lb": "Kuwait", "name:li": "Koeweit", "name:ln": "Koweit", "name:lt": "Kuveitas", "name:lv": "Kuveita", "name:mk": "Кувајт", "name:ml": "കുവൈറ്റ്‌", "name:mn": "Кувейт", "name:mr": "कुवेत", "name:ms": "Kuwait", "name:my": "ကူဝိတ်နိုင်ငံ", "name:na": "Kuwait", "name:ne": "कुवेत", "name:nl": "Koeweit", "name:nn": "Kuwait", "name:no": "Kuwait", "name:nv": "Kóóweiʼ", "name:oc": "Kowait", "name:or": "କୁଏତ", "name:os": "Кувейт", "name:pl": "Kuwejt", "name:ps": "کوېټ", "name:pt": "Kuwait", "name:qu": "Kuwait", "name:ro": "Kuweit", "name:ru": "Кувейт", "name:rw": "Koweti", "name:sa": "कुवैत", "name:se": "Kuwait", "name:sh": "Kuvajt", "name:sk": "Kuvajt", "name:sl": "Kuvajt", "name:so": "Kuwayt", "name:sq": "Kuvajti", "name:sr": "Кувајт", "name:ss": "IKhuwathi", "name:su": "Kuwait", "name:sv": "Kuwait", "name:sw": "Kuwait", "name:ta": "குவைத்", "name:te": "కువైట్", "name:tg": "Кувайт", "name:th": "ประเทศคูเวต", "name:tk": "Kuweýt", "name:tl": "Kuwait", "name:tr": "Kuveyt", "name:tt": "Күвәйт", "name:ug": "كۇۋەيت", "name:uk": "Кувейт", "name:ur": "کویت", "name:uz": "Quvayt", "name:vi": "Kuwait", "name:vo": "Kovätän", "name:wo": "Kowet", "name:yi": "קואווייט", "name:yo": "Kuwaiti", "name:zh": "科威特", "name:ace": "Kuwait", "name:als": "Kuwait", "name:ang": "Cuwait", "name:arc": "ܟܘܘܝܬ", "name:arz": "الكويت", "name:ast": "Kuwait", "name:bar": "Kuwait", "name:bcl": "Kuwait", "name:bpy": "কুয়েত", "name:bug": "Kuwait", "name:bxr": "Кувейт", "name:ceb": "Kuwait", "name:ckb": "کووەیت", "name:crh": "Küveyt", "name:csb": "Kùwejt", "name:dsb": "Kuwait", "name:ext": "Kuwait", "name:frp": "Koveyit", "name:gag": "Kuveyt", "name:hak": "Khô-vî-thi̍t", "name:haw": "Kuete", "name:hif": "Kuwait", "name:hsb": "Kuwait", "name:ilo": "Kuwait", "name:jbo": "ku,uait", "name:kbd": "Кувейт", "name:lez": "Кувейт", "name:lij": "Kuwait", "name:lmo": "Kuwait", "name:lzh": "科威特", "name:nah": "Cuhuait", "name:nan": "Kuwait", "name:nds": "Kuwait", "name:new": "कुवेत", "name:nov": "Kuwayt", "name:pam": "Kuwait", "name:pih": "Kyuuwait", "name:pms": "Kuwait", "name:pnb": "کویت", "name:sah": "Кувейт", "name:scn": "Kuwait", "name:sco": "Kuwait", "name:szl": "Kuwejt", "name:tzl": "Cuviet", "name:udm": "Кувейт", "name:war": "Kuwait", "name:wuu": "科威特", "name:xal": "Кувейтин Нутг", "name:yue": "科威特", "name:zea": "Koeweit", "border_type": "nation", "name:simple": "Kuwait", "name:bat-smg": "Kovėits", "name:fiu-vro": "Kuveit", "name:be-tarask": "Кувэйт", "is_in:continent": "Asia", "default_language": "ar", "official_name:cs": "Kuvajtský stát", "official_name:en": "State of Kuwait", "official_name:es": "Estado de Kuwait", "official_name:ru": "Государство Кувейт"}}, "center_lat": 29.35, "center_lon": 47.61, "timezone": "Asia/Kuwait", "population": 4136528, "wikidata_id": "Q817", "wikipedia_id": "ar:الكويت"}, "geometry": {"type": "MultiPolygon", "coordinates": [[[[48.651, 28.677], [48.651, 28.677], [48.651, 28.677], [48.651, 28.677]]], [[[48.778, 28.817], [48.778, 28.817], [48.778, 28.817], [48.778, 28.817]]], [[[48.491, 29.07], [48.491, 29.07], [48.491, 29.07], [48.491, 29.07]]], [[[48.051, 29.344], [48.051, 29.344], [48.051, 29.344], [48.051, 29.344]]], [[[48.1, 29.345], [48.1, 29.345], [48.1, 29.345], [48.1, 29.345]]], [[[48.028, 29.364], [48.028, 29.364], [48.028, 29.364], [48.028, 29.364]]], [[[48.028, 29.367], [48.028, 29.367], [48.028, 29.367], [48.028, 29.367]]], [[[48.438, 29.379], [48.438, 29.379], [48.438, 29.379], [48.438, 29.379]]], [[[47.855, 29.377], [47.855, 29.377], [47.855, 29.377], [47.855, 29.377]]], [[[46.553, 29.1], [46.609, 29.159], [46.661, 29.196], [46.767, 29.322], [46.785, 29.355], [46.867, 29.437], [46.904, 29.525], [46.998, 29.663], [47.007, 29.722], [47.031, 29.752], [47.082, 29.851], [47.104, 29.921], [47.139, 29.987], [47.19, 30.028], [47.287, 30.059], [47.371, 30.104], [47.708, 30.104], [47.955, 30.009], [48.008, 29.986], [47.999, 29.96], [48.016, 29.913], [48.013, 29.854], [48.053, 29.766], [48.106, 29.73], [48.107, 29.7], [48.188, 29.547], [48.165, 29.518], [48.091, 29.565], [48.028, 29.578], [47.957, 29.566], [47.864, 29.515], [47.8, 29.465], [47.75, 29.399], [47.729, 29.404], [47.703, 29.359], [47.747, 29.372], [47.827, 29.372], [47.823, 29.327], [47.886, 29.325], [48.005, 29.393], [48.008, 29.374], [48.054, 29.341], [48.101, 29.353], [48.091, 29.264], [48.133, 29.142], [48.16, 29.015], [48.185, 28.956], [48.242, 28.893], [48.29, 28.88], [48.28, 28.808], [48.307, 28.768], [48.341, 28.749], [48.396, 28.743], [48.379, 28.698], [48.394, 28.663], [48.385, 28.621], [48.403, 28.571], [48.431, 28.534], [47.704, 28.524], [47.709, 28.543], [47.605, 28.655], [47.59, 28.716], [47.598, 28.757], [47.585, 28.836], [47.465, 29], [46.841, 29.068], [46.553, 29.1]]], [[[47.929, 29.396], [47.929, 29.396], [47.929, 29.396], [47.929, 29.396]]], [[[48.29, 29.467], [48.355, 29.451], [48.403, 29.408], [48.392, 29.392], [48.338, 29.427], [48.269, 29.434], [48.29, 29.467]]], [[[48.255, 29.482], [48.255, 29.482], [48.255, 29.482], [48.255, 29.482]]], [[[48.015, 29.51], [48.015, 29.51], [48.015, 29.51], [48.015, 29.51]]], [[[48.162, 29.641], [48.162, 29.641], [48.162, 29.641], [48.162, 29.641]]], [[[48.065, 29.778], [48.112, 29.806], [48.104, 29.843], [48.176, 29.818], [48.187, 29.891], [48.215, 29.925], [48.175, 29.942], [48.166, 29.909], [48.144, 29.916], [48.108, 29.975], [48.155, 29.983], [48.22, 29.95], [48.289, 29.886], [48.335, 29.808], [48.368, 29.787], [48.378, 29.751], [48.335, 29.671], [48.257, 29.598], [48.227, 29.582], [48.187, 29.591], [48.127, 29.705], [48.108, 29.76], [48.065, 29.778]]], [[[48.176, 29.849], [48.176, 29.849], [48.176, 29.849], [48.176, 29.849]]]]}}