{"type": "Feature", "properties": {"name": "Mauritius", "iso1": "MU", "admin_level": 2, "osm_id": 535828, "countrylevel_id": "iso1:MU", "osm_data": {"localname": "Mauritius", "official_name": "", "alltags": {"flag": "https://commons.wikimedia.org/wiki/File:Flag_of_Mauritius.svg", "name:am": "ሞሪሸስ", "name:an": "Mauricio", "name:ar": "موريشيوس", "name:az": "Mavriki", "name:be": "Маўрыкій", "name:bg": "Мавриций", "name:bn": "মরিশাস", "name:bo": "མའུ་རི་ཊིའུ་སུ།", "name:br": "Maoris", "name:bs": "Mauricijus", "name:ca": "Maurici", "name:cs": "Mauricius", "name:cv": "Маврики", "name:dv": "މޮރިޝަސް", "name:el": "Μαυρίκιος", "name:en": "Mauritius", "name:eo": "Maŭricio", "name:es": "Mauricio", "name:eu": "Maurizio", "name:fa": "موریس", "name:fo": "Móritius", "name:fr": "Maurice", "name:fy": "Mauritsius", "name:ga": "Oileán Mhuirís", "name:gd": "Na h-Eileanan Mhoiriseas", "name:gl": "Mauricio - Maurice", "name:gv": "Ellan Wirrish", "name:he": "מאוריציוס", "name:hi": "मॉरिशस", "name:hr": "Mauricijus", "name:ht": "Moris", "name:hy": "Մավրիկիոս", "name:ia": "Mauritio", "name:io": "Maurico", "name:is": "Máritíus", "name:ja": "モーリシャス", "name:ka": "მავრიკი", "name:kk": "Маврикий", "name:kn": "ಮಾರಿಷಸ್", "name:ko": "모리셔스", "name:ku": "Maurîtius", "name:kw": "Ynys Morrys", "name:la": "Mauritia", "name:ln": "Morisi", "name:lt": "Mauricijus", "name:lv": "Maurīcija", "name:mg": "Maorisy", "name:mk": "Маврициус", "name:ml": "മൗറീഷ്യസ്", "name:mr": "मॉरिशस", "name:mt": "Mawrizji", "name:my": "မောရစ်ရှနိုင်ငံ", "name:ne": "मौरिसस", "name:nl": "Mauritius", "name:oc": "Maurici", "name:or": "ମରିସସ", "name:os": "Маврикий", "name:pa": "ਮਾਰੀਸ਼ਸ", "name:ps": "ماوریتوس", "name:pt": "Maurícia", "name:qu": "Mawrisyu", "name:ru": "Маврикий", "name:rw": "Morise", "name:sa": "मारिषस्", "name:sc": "Mauritzius", "name:sg": "Mörîsi", "name:si": "මුරුසි සමුහාණ්ඩුව", "name:sk": "Maurícius", "name:sq": "Mauritiusi", "name:sr": "Маурицијус", "name:ss": "IMorishiyasi", "name:sw": "Morisi", "name:ta": "மொரிசியசு", "name:te": "మారిషస్", "name:tg": "Маврикия", "name:th": "ประเทศมอริเชียส", "name:tk": "Mawrikiý", "name:tl": "Maurisyo", "name:tt": "Маврикий", "name:ug": "ماۋرىتىئۇس", "name:uk": "Маврикій", "name:ur": "موریشس", "name:uz": "Mavritsiya", "name:vo": "Moriseän", "name:wo": "Móoris", "name:yo": "Mọ́rísì", "name:zh": "毛里求斯", "name:zu": "IMorishisi", "name:tzl": "Mauriça", "driving_side": "left", "is_in:continent": "Africa", "official_name:cs": "Mauricijská republika"}}, "center_lat": -20.19, "center_lon": 57.9, "timezone": "Indian/Mauritius", "population": 1264613, "wikidata_id": "Q1027", "wikipedia_id": "en:Mauritius"}, "geometry": {"type": "MultiPolygon", "coordinates": [[[[57.823, -20.294], [57.823, -20.294], [57.823, -20.294], [57.823, -20.294]]], [[[57.796, -20.249], [57.796, -20.249], [57.796, -20.249], [57.796, -20.249]]], [[[57.798, -20.248], [57.798, -20.248], [57.798, -20.248], [57.798, -20.248]]], [[[57.472, -20.172], [57.472, -20.172], [57.472, -20.172], [57.472, -20.172]]], [[[57.793, -20.288], [57.793, -20.288], [57.793, -20.288], [57.793, -20.288]]], [[[57.795, -20.292], [57.795, -20.292], [57.795, -20.292], [57.795, -20.292]]], [[[57.797, -20.291], [57.797, -20.291], [57.797, -20.291], [57.797, -20.291]]], [[[57.794, -20.284], [57.794, -20.284], [57.794, -20.284], [57.794, -20.284]]], [[[57.792, -20.272], [57.792, -20.272], [57.792, -20.272], [57.792, -20.272]]], [[[57.806, -20.267], [57.806, -20.267], [57.806, -20.267], [57.806, -20.267]]], [[[57.801, -20.26], [57.801, -20.26], [57.801, -20.26], [57.801, -20.26]]], [[[57.797, -20.26], [57.797, -20.26], [57.797, -20.26], [57.797, -20.26]]], [[[57.805, -20.264], [57.805, -20.264], [57.805, -20.264], [57.805, -20.264]]], [[[57.8, -20.26], [57.8, -20.26], [57.8, -20.26], [57.8, -20.26]]], [[[57.801, -20.26], [57.801, -20.26], [57.801, -20.26], [57.801, -20.26]]], [[[57.338, -20.473], [57.338, -20.473], [57.338, -20.473], [57.338, -20.473]]], [[[57.336, -20.461], [57.336, -20.461], [57.336, -20.461], [57.336, -20.461]]], [[[57.711, -20.451], [57.711, -20.451], [57.711, -20.451], [57.711, -20.451]]], [[[57.341, -20.429], [57.341, -20.429], [57.341, -20.429], [57.341, -20.429]]], [[[57.73, -20.42], [57.73, -20.42], [57.73, -20.42], [57.73, -20.42]]], [[[57.714, -20.415], [57.714, -20.415], [57.714, -20.415], [57.714, -20.415]]], [[[57.712, -20.406], [57.712, -20.406], [57.712, -20.406], [57.712, -20.406]]], [[[57.77, -20.397], [57.77, -20.397], [57.77, -20.397], [57.77, -20.397]]], [[[57.777, -20.396], [57.777, -20.396], [57.777, -20.396], [57.777, -20.396]]], [[[57.369, -20.384], [57.369, -20.384], [57.369, -20.384], [57.369, -20.384]]], [[[57.714, -20.383], [57.714, -20.383], [57.714, -20.383], [57.714, -20.383]]], [[[57.788, -20.383], [57.788, -20.383], [57.788, -20.383], [57.788, -20.383]]], [[[57.787, -20.38], [57.787, -20.38], [57.787, -20.38], [57.787, -20.38]]], [[[57.374, -20.367], [57.374, -20.367], [57.374, -20.367], [57.374, -20.367]]], [[[57.767, -20.398], [57.767, -20.398], [57.767, -20.398], [57.767, -20.398]]], [[[57.366, -20.398], [57.366, -20.398], [57.366, -20.398], [57.366, -20.398]]], [[[57.748, -20.16], [57.748, -20.16], [57.748, -20.16], [57.748, -20.16]]], [[[57.749, -20.159], [57.749, -20.159], [57.749, -20.159], [57.749, -20.159]]], [[[57.751, -20.15], [57.751, -20.15], [57.751, -20.15], [57.751, -20.15]]], [[[57.746, -20.147], [57.746, -20.147], [57.746, -20.147], [57.746, -20.147]]], [[[57.729, -20.102], [57.729, -20.102], [57.729, -20.102], [57.729, -20.102]]], [[[57.712, -20.093], [57.712, -20.093], [57.712, -20.093], [57.712, -20.093]]], [[[57.693, -20.067], [57.693, -20.067], [57.693, -20.067], [57.693, -20.067]]], [[[57.692, -20.067], [57.692, -20.067], [57.692, -20.067], [57.692, -20.067]]], [[[57.693, -20.066], [57.693, -20.066], [57.693, -20.066], [57.693, -20.066]]], [[[57.686, -20.057], [57.686, -20.057], [57.686, -20.057], [57.686, -20.057]]], [[[57.691, -20.058], [57.691, -20.058], [57.691, -20.058], [57.691, -20.058]]], [[[57.688, -20.057], [57.688, -20.057], [57.688, -20.057], [57.688, -20.057]]], [[[57.689, -20.056], [57.689, -20.056], [57.689, -20.056], [57.689, -20.056]]], [[[57.687, -20.053], [57.687, -20.053], [57.687, -20.053], [57.687, -20.053]]], [[[57.684, -20.05], [57.684, -20.05], [57.684, -20.05], [57.684, -20.05]]], [[[57.687, -20.046], [57.687, -20.046], [57.687, -20.046], [57.687, -20.046]]], [[[57.694, -20.034], [57.694, -20.034], [57.694, -20.034], [57.694, -20.034]]], [[[57.695, -20.032], [57.695, -20.032], [57.695, -20.032], [57.695, -20.032]]], [[[57.699, -20.035], [57.699, -20.035], [57.699, -20.035], [57.699, -20.035]]], [[[57.693, -20.034], [57.693, -20.034], [57.693, -20.034], [57.693, -20.034]]], [[[57.691, -20.035], [57.691, -20.035], [57.691, -20.035], [57.691, -20.035]]], [[[57.69, -20.042], [57.69, -20.042], [57.69, -20.042], [57.69, -20.042]]], [[[57.686, -20.041], [57.686, -20.041], [57.686, -20.041], [57.686, -20.041]]], [[[57.689, -20.04], [57.689, -20.04], [57.689, -20.04], [57.689, -20.04]]], [[[57.69, -20.04], [57.69, -20.04], [57.69, -20.04], [57.69, -20.04]]], [[[57.69, -20.039], [57.69, -20.039], [57.69, -20.039], [57.69, -20.039]]], [[[57.685, -20.054], [57.685, -20.054], [57.685, -20.054], [57.685, -20.054]]], [[[57.688, -20.055], [57.688, -20.055], [57.688, -20.055], [57.688, -20.055]]], [[[57.689, -20.055], [57.689, -20.055], [57.689, -20.055], [57.689, -20.055]]], [[[57.687, -20.054], [57.687, -20.054], [57.687, -20.054], [57.687, -20.054]]], [[[57.625, -19.943], [57.625, -19.943], [57.625, -19.943], [57.625, -19.943]]], [[[57.625, -19.937], [57.625, -19.937], [57.625, -19.937], [57.625, -19.937]]], [[[57.675, -19.888], [57.675, -19.888], [57.675, -19.888], [57.675, -19.888]]], [[[57.656, -19.868], [57.656, -19.868], [57.656, -19.868], [57.656, -19.868]]], [[[57.658, -19.863], [57.658, -19.863], [57.658, -19.863], [57.658, -19.863]]], [[[57.79, -19.859], [57.79, -19.859], [57.79, -19.859], [57.79, -19.859]]], [[[57.808, -19.819], [57.808, -19.819], [57.808, -19.819], [57.808, -19.819]]], [[[63.433, -19.786], [63.433, -19.786], [63.433, -19.786], [63.433, -19.786]]], [[[63.299, -19.728], [63.299, -19.728], [63.299, -19.728], [63.299, -19.728]]], [[[63.351, -19.744], [63.351, -19.744], [63.351, -19.744], [63.351, -19.744]]], [[[63.328, -19.737], [63.328, -19.737], [63.328, -19.737], [63.328, -19.737]]], [[[63.341, -19.76], [63.341, -19.76], [63.341, -19.76], [63.341, -19.76]]], [[[63.341, -19.756], [63.341, -19.756], [63.341, -19.756], [63.341, -19.756]]], [[[63.443, -19.753], [63.443, -19.753], [63.443, -19.753], [63.443, -19.753]]], [[[63.321, -19.75], [63.321, -19.75], [63.321, -19.75], [63.321, -19.75]]], [[[63.437, -19.775], [63.437, -19.775], [63.437, -19.775], [63.437, -19.775]]], [[[63.362, -19.768], [63.362, -19.768], [63.362, -19.768], [63.362, -19.768]]], [[[63.405, -19.77], [63.405, -19.77], [63.405, -19.77], [63.405, -19.77]]], [[[63.423, -19.774], [63.423, -19.774], [63.423, -19.774], [63.423, -19.774]]], [[[63.409, -19.764], [63.409, -19.764], [63.409, -19.764], [63.409, -19.764]]], [[[63.397, -19.764], [63.397, -19.764], [63.397, -19.764], [63.397, -19.764]]], [[[63.403, -19.761], [63.403, -19.761], [63.403, -19.761], [63.403, -19.761]]], [[[63.4, -19.765], [63.4, -19.765], [63.4, -19.765], [63.4, -19.765]]], [[[63.389, -19.666], [63.389, -19.666], [63.389, -19.666], [63.389, -19.666]]], [[[59.483, -16.822], [59.483, -16.822], [59.483, -16.822], [59.483, -16.822]]], [[[59.489, -16.82], [59.489, -16.82], [59.489, -16.82], [59.489, -16.82]]], [[[59.494, -16.819], [59.494, -16.819], [59.494, -16.819], [59.494, -16.819]]], [[[59.521, -16.813], [59.521, -16.813], [59.521, -16.813], [59.521, -16.813]]], [[[59.523, -16.813], [59.523, -16.813], [59.523, -16.813], [59.523, -16.813]]], [[[59.528, -16.811], [59.528, -16.811], [59.528, -16.811], [59.528, -16.811]]], [[[59.537, -16.805], [59.537, -16.805], [59.537, -16.805], [59.537, -16.805]]], [[[59.544, -16.797], [59.544, -16.797], [59.544, -16.797], [59.544, -16.797]]], [[[59.545, -16.796], [59.545, -16.796], [59.545, -16.796], [59.545, -16.796]]], [[[59.551, -16.794], [59.551, -16.794], [59.551, -16.794], [59.551, -16.794]]], [[[59.508, -16.816], [59.508, -16.816], [59.508, -16.816], [59.508, -16.816]]], [[[59.498, -16.816], [59.498, -16.816], [59.498, -16.816], [59.498, -16.816]]], [[[63.403, -19.745], [63.382, -19.771], [63.335, -19.749], [63.335, -19.72], [63.442, -19.669], [63.501, -19.688], [63.501, -19.718], [63.468, -19.742], [63.403, -19.745]]], [[[63.306, -19.698], [63.306, -19.698], [63.306, -19.698], [63.306, -19.698]]], [[[63.397, -19.683], [63.397, -19.683], [63.397, -19.683], [63.397, -19.683]]], [[[63.417, -19.677], [63.417, -19.677], [63.417, -19.677], [63.417, -19.677]]], [[[59.556, -16.788], [59.556, -16.788], [59.556, -16.788], [59.556, -16.788]]], [[[59.561, -16.782], [59.561, -16.782], [59.561, -16.782], [59.561, -16.782]]], [[[59.565, -16.777], [59.565, -16.777], [59.565, -16.777], [59.565, -16.777]]], [[[59.57, -16.736], [59.57, -16.736], [59.57, -16.736], [59.57, -16.736]]], [[[59.568, -16.725], [59.568, -16.725], [59.568, -16.725], [59.568, -16.725]]], [[[59.568, -16.715], [59.568, -16.715], [59.568, -16.715], [59.568, -16.715]]], [[[59.652, -16.689], [59.652, -16.689], [59.652, -16.689], [59.652, -16.689]]], [[[59.606, -16.678], [59.606, -16.678], [59.606, -16.678], [59.606, -16.678]]], [[[59.658, -16.677], [59.658, -16.677], [59.658, -16.677], [59.658, -16.677]]], [[[59.648, -16.672], [59.648, -16.672], [59.648, -16.672], [59.648, -16.672]]], [[[59.625, -16.654], [59.625, -16.654], [59.625, -16.654], [59.625, -16.654]]], [[[59.64, -16.603], [59.64, -16.603], [59.64, -16.603], [59.64, -16.603]]], [[[59.511, -16.599], [59.511, -16.599], [59.511, -16.599], [59.511, -16.599]]], [[[59.612, -16.582], [59.612, -16.582], [59.612, -16.582], [59.612, -16.582]]], [[[59.699, -16.574], [59.699, -16.574], [59.699, -16.574], [59.699, -16.574]]], [[[59.622, -16.56], [59.622, -16.56], [59.622, -16.56], [59.622, -16.56]]], [[[59.502, -16.546], [59.502, -16.546], [59.502, -16.546], [59.502, -16.546]]], [[[59.709, -16.521], [59.709, -16.521], [59.709, -16.521], [59.709, -16.521]]], [[[59.684, -16.489], [59.684, -16.489], [59.684, -16.489], [59.684, -16.489]]], [[[59.578, -16.467], [59.578, -16.467], [59.578, -16.467], [59.578, -16.467]]], [[[59.614, -16.452], [59.614, -16.452], [59.614, -16.452], [59.614, -16.452]]], [[[59.61, -16.446], [59.61, -16.446], [59.61, -16.446], [59.61, -16.446]]], [[[59.607, -16.442], [59.607, -16.442], [59.607, -16.442], [59.607, -16.442]]], [[[59.603, -16.433], [59.603, -16.433], [59.603, -16.433], [59.603, -16.433]]], [[[59.608, -16.425], [59.608, -16.425], [59.608, -16.425], [59.608, -16.425]]], [[[59.64, -16.388], [59.64, -16.388], [59.64, -16.388], [59.64, -16.388]]], [[[59.587, -16.241], [59.587, -16.241], [59.587, -16.241], [59.587, -16.241]]], [[[56.674, -10.461], [56.674, -10.461], [56.674, -10.461], [56.674, -10.461]]], [[[56.644, -10.425], [56.615, -10.402], [56.585, -10.35], [56.598, -10.344], [56.644, -10.425]]], [[[57.653, -20], [57.684, -20.01], [57.683, -20.057], [57.71, -20.1], [57.747, -20.108], [57.741, -20.145], [57.771, -20.167], [57.808, -20.232], [57.765, -20.349], [57.7, -20.394], [57.728, -20.427], [57.681, -20.475], [57.53, -20.526], [57.447, -20.501], [57.416, -20.512], [57.354, -20.486], [57.336, -20.459], [57.378, -20.387], [57.36, -20.371], [57.379, -20.322], [57.364, -20.285], [57.402, -20.201], [57.496, -20.139], [57.525, -20.047], [57.553, -20], [57.6, -19.985], [57.653, -20]]], [[[57.684, -20.028], [57.684, -20.028], [57.684, -20.028], [57.684, -20.028]]], [[[57.693, -20.035], [57.693, -20.035], [57.693, -20.035], [57.693, -20.035]]], [[[57.7, -20.025], [57.7, -20.025], [57.7, -20.025], [57.7, -20.025]]], [[[57.581, -20.014], [57.581, -20.014], [57.581, -20.014], [57.581, -20.014]]], [[[57.698, -20.025], [57.698, -20.025], [57.698, -20.025], [57.698, -20.025]]], [[[57.699, -20.025], [57.699, -20.025], [57.699, -20.025], [57.699, -20.025]]], [[[57.679, -20.008], [57.679, -20.008], [57.679, -20.008], [57.679, -20.008]]], [[[57.658, -19.999], [57.658, -19.999], [57.658, -19.999], [57.658, -19.999]]], [[[57.648, -20.001], [57.648, -20.001], [57.648, -20.001], [57.648, -20.001]]], [[[57.648, -20], [57.648, -20], [57.648, -20], [57.648, -20]]]]}}