{"type": "Feature", "properties": {"name": "Maldives", "iso1": "MV", "admin_level": 2, "osm_id": 536773, "countrylevel_id": "iso1:MV", "osm_data": {"localname": "ދިވެހިރާއްޖެ", "official_name": "", "alltags": {"flag": "http://upload.wikimedia.org/wikipedia/commons/0/0f/Flag_of_Maldives.svg", "name:af": "Maldive", "name:am": "ማልዲቭስ", "name:ar": "ملديف", "name:az": "Maldiv", "name:be": "Мальдзівы", "name:bg": "Малдиви", "name:bm": "Maldivi", "name:bn": "মালদ্বীপ", "name:bo": "མལ་དྭིབ།", "name:br": "Maldivez", "name:bs": "Maldivi", "name:ca": "Maldives", "name:cs": "Maledivy", "name:da": "Maldiverne", "name:dv": "ދިވެހިރާއްޖެ", "name:dz": "མཱལ་དིབས", "name:ee": "maldivesdukɔ", "name:el": "Μαλδίβες", "name:en": "Maldives", "name:eo": "Maldivoj", "name:es": "Maldivas", "name:et": "Maldiivid", "name:eu": "Maldivak", "name:fa": "مالدیو", "name:ff": "Maldiiwe", "name:fi": "Malediivit", "name:fo": "Maldivuoyggjarnar", "name:fr": "Maldives", "name:fy": "de Maldiven", "name:ga": "Oileáin Mhaildíve", "name:gd": "Na h-Eileanan Mhaladaibh", "name:gl": "Maldivas", "name:gu": "માલદિવ્સ", "name:gv": "Ny Maldeevaghyn", "name:ha": "Maldibi", "name:he": "מלדיבים", "name:hi": "मालदीव", "name:hr": "Maldivi", "name:hu": "Maldív-szigetek", "name:hy": "Մալդիվներ", "name:id": "Maladewa", "name:ig": "Maldivesa", "name:io": "Maldivi", "name:is": "Maldíveyjar", "name:it": "Maldive", "name:ka": "მალდივის კუნძულები", "name:ki": "Modivu", "name:km": "ម៉ាល់ឌីវ", "name:kn": "ಮಾಲ್ಡಿವ್ಸ್", "name:ks": "مالدیٖو", "name:ku": "Maldîv", "name:la": "Insulae Maldivae", "name:lb": "Malediven", "name:lg": "Bizinga by'eMalidive", "name:ln": "Madívɛ", "name:lo": "ມັນດິຟ", "name:lt": "Maldyvai", "name:lv": "Maldīvija", "name:mg": "Maldiva", "name:mk": "Малдиви", "name:ml": "മാലിദ്വീപ്", "name:mn": "Мальдив", "name:mr": "मालदीव्ज", "name:ms": "Maldiv", "name:my": "မော်လဒိုက်", "name:ne": "माल्दिभ्स", "name:nl": "Malediven", "name:nn": "Maldivane", "name:no": "Maldivene", "name:or": "ମାଳଦ୍ବୀପ", "name:pl": "Malediwy", "name:pt": "Maldivas", "name:rm": "Maldivas", "name:rn": "Moludave", "name:ro": "Maldive", "name:ru": "Мальдивы", "name:se": "Malediivvat", "name:sg": "Maldîva", "name:si": "මාල දිවයින", "name:sk": "Maledivy", "name:sl": "Maldivi", "name:so": "Maaldiqeen", "name:sq": "Maldivit", "name:sr": "Малдиви", "name:sv": "Maldiverna", "name:sw": "Modivu", "name:ta": "மாலத்தீவு", "name:te": "మాల్దీవులు", "name:ti": "ማልዲቭስ", "name:to": "Malativisi", "name:tr": "Maldivler", "name:tt": "Мальдивлар", "name:uk": "Мальдіви", "name:ur": "مالدیو", "name:vo": "Maldivuäns", "name:yo": "Orílẹ́ède Maladifi", "name:zh": "马尔代夫/馬爾地夫", "name:zu": "i-Maldives", "name:ast": "Les Maldives", "name:cdo": "Maldives", "name:chr": "ᎹᎵᏗᏫᏍ", "name:fur": "Maldivis", "name:gan": "马尔代夫", "name:hak": "Maldives", "name:haw": "Maladiwa", "name:jbo": "maldives", "name:kab": "Maldib", "name:ksh": "de Mallediive", "name:nan": "Maldives", "name:tzl": "Divehins", "name:wuu": "马尔代芙", "population": "328536", "driving_side": "left", "name:zh-Hans": "马尔代夫", "name:zh-Hant": "馬爾地夫", "name:zh_pinyin": "Mǎěrdàifū", "is_in:continent": "Asia", "default_language": "dv", "official_name:be": "Мальдыўская Рэспубліка", "official_name:cs": "Maledivská republika", "official_name:eo": "Respubliko de Maldivoj", "official_name:es": "República de Maldivas", "official_name:et": "Maldiivi Vabariik", "official_name:fr": "îles Maldives", "official_name:id": "Republik Maladewa", "official_name:it": "Repubblica delle Maledive", "official_name:ku": "Komara Maldîvan", "official_name:lb": "Republik Malediven", "official_name:lt": "Maldyvų Respublika", "official_name:lv": "Maldīvijas Republika", "official_name:pl": "Republika Malediwów", "official_name:ru": "Мальдивская Республика", "official_name:sv": "Republiken Maldiverna"}}, "center_lat": 1.67, "center_lon": 73.39, "timezone": "Indian/Maldives", "population": 436330, "wikidata_id": "Q826", "wikipedia_id": "en:Maldives"}, "geometry": {"type": "MultiPolygon", "coordinates": [[[[73.191, -0.672], [73.191, -0.672], [73.191, -0.672], [73.191, -0.672]]], [[[73.184, -0.69], [73.184, -0.69], [73.184, -0.69], [73.184, -0.69]]], [[[73.127, -0.682], [73.127, -0.682], [73.127, -0.682], [73.127, -0.682]]], [[[73.145, -0.686], [73.145, -0.686], [73.145, -0.686], [73.145, -0.686]]], [[[73.131, -0.677], [73.131, -0.677], [73.131, -0.677], [73.131, -0.677]]], [[[73.123, -0.678], [73.123, -0.678], [73.123, -0.678], [73.123, -0.678]]], [[[73.226, -0.609], [73.226, -0.609], [73.226, -0.609], [73.226, -0.609]]], [[[73.221, -0.646], [73.221, -0.646], [73.221, -0.646], [73.221, -0.646]]], [[[73.142, -0.615], [73.142, -0.615], [73.142, -0.615], [73.142, -0.615]]], [[[73.148, -0.613], [73.148, -0.613], [73.148, -0.613], [73.148, -0.613]]], [[[73.149, -0.612], [73.149, -0.612], [73.149, -0.612], [73.149, -0.612]]], [[[73.214, -0.659], [73.214, -0.659], [73.214, -0.659], [73.214, -0.659]]], [[[73.129, -0.675], [73.129, -0.675], [73.129, -0.675], [73.129, -0.675]]], [[[73.11, -0.654], [73.11, -0.654], [73.11, -0.654], [73.11, -0.654]]], [[[73.207, -0.577], [73.207, -0.577], [73.207, -0.577], [73.207, -0.577]]], [[[73.411, -0.289], [73.411, -0.289], [73.411, -0.289], [73.411, -0.289]]], [[[73.214, 0.193], [73.214, 0.193], [73.214, 0.193], [73.214, 0.193]]], [[[73.198, 0.19], [73.198, 0.19], [73.198, 0.19], [73.198, 0.19]]], [[[73.09, -0.578], [73.1, -0.634], [73.076, -0.59], [73.09, -0.578]]], [[[73.099, -0.603], [73.099, -0.603], [73.099, -0.603], [73.099, -0.603]]], [[[73.087, -0.595], [73.087, -0.595], [73.087, -0.595], [73.087, -0.595]]], [[[73.089, -0.597], [73.089, -0.597], [73.089, -0.597], [73.089, -0.597]]], [[[73.09, -0.593], [73.09, -0.593], [73.09, -0.593], [73.09, -0.593]]], [[[73.222, -0.586], [73.222, -0.586], [73.222, -0.586], [73.222, -0.586]]], [[[73.222, -0.58], [73.222, -0.58], [73.222, -0.58], [73.222, -0.58]]], [[[73.219, -0.581], [73.219, -0.581], [73.219, -0.581], [73.219, -0.581]]], [[[73.186, 0.197], [73.186, 0.197], [73.186, 0.197], [73.186, 0.197]]], [[[73.179, 0.204], [73.179, 0.204], [73.179, 0.204], [73.179, 0.204]]], [[[73.182, 0.202], [73.182, 0.202], [73.182, 0.202], [73.182, 0.202]]], [[[73.175, 0.206], [73.175, 0.206], [73.175, 0.206], [73.175, 0.206]]], [[[73.17, 0.208], [73.17, 0.208], [73.17, 0.208], [73.17, 0.208]]], [[[73.17, 0.209], [73.17, 0.209], [73.17, 0.209], [73.17, 0.209]]], [[[73.264, 0.222], [73.264, 0.222], [73.264, 0.222], [73.264, 0.222]]], [[[73.216, 0.226], [73.216, 0.226], [73.216, 0.226], [73.216, 0.226]]], [[[73.127, 0.231], [73.127, 0.231], [73.127, 0.231], [73.127, 0.231]]], [[[73.138, 0.224], [73.138, 0.224], [73.138, 0.224], [73.138, 0.224]]], [[[73.131, 0.225], [73.131, 0.225], [73.131, 0.225], [73.131, 0.225]]], [[[73.128, 0.228], [73.128, 0.228], [73.128, 0.228], [73.128, 0.228]]], [[[73.128, 0.23], [73.128, 0.23], [73.128, 0.23], [73.128, 0.23]]], [[[73.159, 0.206], [73.159, 0.206], [73.159, 0.206], [73.159, 0.206]]], [[[73.119, 0.24], [73.119, 0.24], [73.119, 0.24], [73.119, 0.24]]], [[[73.12, 0.238], [73.12, 0.238], [73.12, 0.238], [73.12, 0.238]]], [[[73.121, 0.237], [73.121, 0.237], [73.121, 0.237], [73.121, 0.237]]], [[[73.121, 0.24], [73.121, 0.24], [73.121, 0.24], [73.121, 0.24]]], [[[73.117, 0.24], [73.117, 0.24], [73.117, 0.24], [73.117, 0.24]]], [[[73.109, 0.246], [73.109, 0.246], [73.109, 0.246], [73.109, 0.246]]], [[[73.108, 0.248], [73.108, 0.248], [73.108, 0.248], [73.108, 0.248]]], [[[73.235, 0.25], [73.235, 0.25], [73.235, 0.25], [73.235, 0.25]]], [[[73.342, 0.249], [73.342, 0.249], [73.342, 0.249], [73.342, 0.249]]], [[[73.111, 0.244], [73.111, 0.244], [73.111, 0.244], [73.111, 0.244]]], [[[73.113, 0.242], [73.113, 0.242], [73.113, 0.242], [73.113, 0.242]]], [[[73.123, 0.235], [73.123, 0.235], [73.123, 0.235], [73.123, 0.235]]], [[[73.121, 0.236], [73.121, 0.236], [73.121, 0.236], [73.121, 0.236]]], [[[73.226, 0.196], [73.226, 0.196], [73.226, 0.196], [73.226, 0.196]]], [[[73.218, 0.194], [73.218, 0.194], [73.218, 0.194], [73.218, 0.194]]], [[[73.192, 0.193], [73.192, 0.193], [73.192, 0.193], [73.192, 0.193]]], [[[73.201, 0.195], [73.201, 0.195], [73.201, 0.195], [73.201, 0.195]]], [[[73.191, 0.194], [73.191, 0.194], [73.191, 0.194], [73.191, 0.194]]], [[[73.194, 0.194], [73.194, 0.194], [73.194, 0.194], [73.194, 0.194]]], [[[73.188, 0.196], [73.188, 0.196], [73.188, 0.196], [73.188, 0.196]]], [[[73.097, 0.261], [73.097, 0.261], [73.097, 0.261], [73.097, 0.261]]], [[[73.094, 0.263], [73.094, 0.263], [73.094, 0.263], [73.094, 0.263]]], [[[73.377, 0.265], [73.377, 0.265], [73.377, 0.265], [73.377, 0.265]]], [[[73.083, 0.267], [73.083, 0.267], [73.083, 0.267], [73.083, 0.267]]], [[[73.071, 0.268], [73.071, 0.268], [73.071, 0.268], [73.071, 0.268]]], [[[73.081, 0.268], [73.081, 0.268], [73.081, 0.268], [73.081, 0.268]]], [[[73.072, 0.268], [73.072, 0.268], [73.072, 0.268], [73.072, 0.268]]], [[[73.09, 0.264], [73.09, 0.264], [73.09, 0.264], [73.09, 0.264]]], [[[73.092, 0.262], [73.092, 0.262], [73.092, 0.262], [73.092, 0.262]]], [[[73.088, 0.265], [73.088, 0.265], [73.088, 0.265], [73.088, 0.265]]], [[[73.061, 0.28], [73.061, 0.28], [73.061, 0.28], [73.061, 0.28]]], [[[73.061, 0.282], [73.061, 0.282], [73.061, 0.282], [73.061, 0.282]]], [[[73.059, 0.284], [73.059, 0.284], [73.059, 0.284], [73.059, 0.284]]], [[[73.061, 0.281], [73.061, 0.281], [73.061, 0.281], [73.061, 0.281]]], [[[73.053, 0.288], [73.053, 0.288], [73.053, 0.288], [73.053, 0.288]]], [[[73.056, 0.285], [73.056, 0.285], [73.056, 0.285], [73.056, 0.285]]], [[[73.06, 0.282], [73.06, 0.282], [73.06, 0.282], [73.06, 0.282]]], [[[73.055, 0.286], [73.055, 0.286], [73.055, 0.286], [73.055, 0.286]]], [[[73.426, 0.264], [73.426, 0.264], [73.426, 0.264], [73.426, 0.264]]], [[[73.07, 0.271], [73.07, 0.271], [73.07, 0.271], [73.07, 0.271]]], [[[73.358, 0.275], [73.358, 0.275], [73.358, 0.275], [73.358, 0.275]]], [[[73.062, 0.28], [73.062, 0.28], [73.062, 0.28], [73.062, 0.28]]], [[[73.469, 0.295], [73.469, 0.295], [73.469, 0.295], [73.469, 0.295]]], [[[73.037, 0.296], [73.037, 0.296], [73.037, 0.296], [73.037, 0.296]]], [[[73.036, 0.298], [73.036, 0.298], [73.036, 0.298], [73.036, 0.298]]], [[[73.026, 0.304], [73.026, 0.304], [73.026, 0.304], [73.026, 0.304]]], [[[73.029, 0.306], [73.029, 0.306], [73.029, 0.306], [73.029, 0.306]]], [[[73.027, 0.301], [73.027, 0.301], [73.027, 0.301], [73.027, 0.301]]], [[[73.034, 0.3], [73.034, 0.3], [73.034, 0.3], [73.034, 0.3]]], [[[73.404, 0.299], [73.404, 0.299], [73.404, 0.299], [73.404, 0.299]]], [[[73.038, 0.301], [73.038, 0.301], [73.038, 0.301], [73.038, 0.301]]], [[[73.033, 0.301], [73.033, 0.301], [73.033, 0.301], [73.033, 0.301]]], [[[73.417, 0.3], [73.417, 0.3], [73.417, 0.3], [73.417, 0.3]]], [[[73.029, 0.299], [73.029, 0.299], [73.029, 0.299], [73.029, 0.299]]], [[[73.025, 0.316], [73.025, 0.316], [73.025, 0.316], [73.025, 0.316]]], [[[73.483, 0.317], [73.483, 0.317], [73.483, 0.317], [73.483, 0.317]]], [[[73.025, 0.34], [73.025, 0.34], [73.025, 0.34], [73.025, 0.34]]], [[[73.028, 0.342], [73.028, 0.342], [73.028, 0.342], [73.028, 0.342]]], [[[73.025, 0.33], [73.025, 0.33], [73.025, 0.33], [73.025, 0.33]]], [[[73.437, 0.333], [73.437, 0.333], [73.437, 0.333], [73.437, 0.333]]], [[[73.504, 0.327], [73.504, 0.327], [73.504, 0.327], [73.504, 0.327]]], [[[73.488, 0.318], [73.488, 0.318], [73.488, 0.318], [73.488, 0.318]]], [[[73.379, 0.318], [73.379, 0.318], [73.379, 0.318], [73.379, 0.318]]], [[[73.025, 0.326], [73.025, 0.326], [73.025, 0.326], [73.025, 0.326]]], [[[73.5, 0.325], [73.5, 0.325], [73.5, 0.325], [73.5, 0.325]]], [[[73.484, 0.32], [73.484, 0.32], [73.484, 0.32], [73.484, 0.32]]], [[[73.025, 0.308], [73.025, 0.308], [73.025, 0.308], [73.025, 0.308]]], [[[73.475, 0.311], [73.475, 0.311], [73.475, 0.311], [73.475, 0.311]]], [[[73.025, 0.308], [73.025, 0.308], [73.025, 0.308], [73.025, 0.308]]], [[[73.026, 0.306], [73.026, 0.306], [73.026, 0.306], [73.026, 0.306]]], [[[73.412, 0.308], [73.412, 0.308], [73.412, 0.308], [73.412, 0.308]]], [[[73.025, 0.311], [73.025, 0.311], [73.025, 0.311], [73.025, 0.311]]], [[[73.449, 0.312], [73.449, 0.312], [73.449, 0.312], [73.449, 0.312]]], [[[73.024, 0.313], [73.024, 0.313], [73.024, 0.313], [73.024, 0.313]]], [[[73.453, 0.285], [73.453, 0.285], [73.453, 0.285], [73.453, 0.285]]], [[[73.046, 0.292], [73.046, 0.292], [73.046, 0.292], [73.046, 0.292]]], [[[73.049, 0.288], [73.049, 0.288], [73.049, 0.288], [73.049, 0.288]]], [[[73.193, 0.292], [73.193, 0.292], [73.193, 0.292], [73.193, 0.292]]], [[[73.337, 0.288], [73.337, 0.288], [73.337, 0.288], [73.337, 0.288]]], [[[73.2, 0.289], [73.2, 0.289], [73.2, 0.289], [73.2, 0.289]]], [[[73.348, 0.251], [73.348, 0.251], [73.348, 0.251], [73.348, 0.251]]], [[[73.105, 0.249], [73.105, 0.249], [73.105, 0.249], [73.105, 0.249]]], [[[73.326, 0.255], [73.326, 0.255], [73.326, 0.255], [73.326, 0.255]]], [[[73.297, 0.254], [73.297, 0.254], [73.297, 0.254], [73.297, 0.254]]], [[[73.341, 0.253], [73.341, 0.253], [73.341, 0.253], [73.341, 0.253]]], [[[73.1, 0.255], [73.1, 0.255], [73.1, 0.255], [73.1, 0.255]]], [[[73.1, 0.257], [73.1, 0.257], [73.1, 0.257], [73.1, 0.257]]], [[[73.345, 0.258], [73.345, 0.258], [73.345, 0.258], [73.345, 0.258]]], [[[73.026, 0.354], [73.026, 0.354], [73.026, 0.354], [73.026, 0.354]]], [[[73.32, 0.357], [73.32, 0.357], [73.32, 0.357], [73.32, 0.357]]], [[[73.539, 0.347], [73.539, 0.347], [73.539, 0.347], [73.539, 0.347]]], [[[73.541, 0.356], [73.541, 0.356], [73.541, 0.356], [73.541, 0.356]]], [[[73.024, 0.36], [73.024, 0.36], [73.024, 0.36], [73.024, 0.36]]], [[[73.497, 0.38], [73.497, 0.38], [73.497, 0.38], [73.497, 0.38]]], [[[73.551, 0.366], [73.551, 0.366], [73.551, 0.366], [73.551, 0.366]]], [[[73.024, 0.37], [73.024, 0.37], [73.024, 0.37], [73.024, 0.37]]], [[[73.022, 0.374], [73.022, 0.374], [73.022, 0.374], [73.022, 0.374]]], [[[73.023, 0.371], [73.023, 0.371], [73.023, 0.371], [73.023, 0.371]]], [[[73.561, 0.388], [73.561, 0.388], [73.561, 0.388], [73.561, 0.388]]], [[[73.013, 0.385], [73.013, 0.385], [73.013, 0.385], [73.013, 0.385]]], [[[73.009, 0.388], [73.009, 0.388], [73.009, 0.388], [73.009, 0.388]]], [[[73.012, 0.392], [73.012, 0.392], [73.012, 0.392], [73.012, 0.392]]], [[[73.008, 0.392], [73.008, 0.392], [73.008, 0.392], [73.008, 0.392]]], [[[73.014, 0.382], [73.014, 0.382], [73.014, 0.382], [73.014, 0.382]]], [[[73.555, 0.373], [73.555, 0.373], [73.555, 0.373], [73.555, 0.373]]], [[[73.55, 0.369], [73.55, 0.369], [73.55, 0.369], [73.55, 0.369]]], [[[73.013, 0.389], [73.013, 0.389], [73.013, 0.389], [73.013, 0.389]]], [[[73.543, 0.36], [73.543, 0.36], [73.543, 0.36], [73.543, 0.36]]], [[[73.024, 0.367], [73.024, 0.367], [73.024, 0.367], [73.024, 0.367]]], [[[73.391, 0.369], [73.391, 0.369], [73.391, 0.369], [73.391, 0.369]]], [[[73.37, 0.398], [73.37, 0.398], [73.37, 0.398], [73.37, 0.398]]], [[[73.005, 0.401], [73.005, 0.401], [73.005, 0.401], [73.005, 0.401]]], [[[73.005, 0.399], [73.005, 0.399], [73.005, 0.399], [73.005, 0.399]]], [[[73.005, 0.402], [73.005, 0.402], [73.005, 0.402], [73.005, 0.402]]], [[[73.57, 0.406], [73.57, 0.406], [73.57, 0.406], [73.57, 0.406]]], [[[73.005, 0.427], [73.005, 0.427], [73.005, 0.427], [73.005, 0.427]]], [[[73.002, 0.435], [73.002, 0.435], [73.002, 0.435], [73.002, 0.435]]], [[[73.572, 0.414], [73.572, 0.414], [73.572, 0.414], [73.572, 0.414]]], [[[73.005, 0.418], [73.005, 0.418], [73.005, 0.418], [73.005, 0.418]]], [[[73.005, 0.421], [73.005, 0.421], [73.005, 0.421], [73.005, 0.421]]], [[[73.569, 0.416], [73.569, 0.416], [73.569, 0.416], [73.569, 0.416]]], [[[73.571, 0.411], [73.571, 0.411], [73.571, 0.411], [73.571, 0.411]]], [[[73.566, 0.407], [73.566, 0.407], [73.566, 0.407], [73.566, 0.407]]], [[[73.006, 0.413], [73.006, 0.413], [73.006, 0.413], [73.006, 0.413]]], [[[73, 0.441], [73, 0.441], [73, 0.441], [73, 0.441]]], [[[72.999, 0.448], [72.999, 0.448], [72.999, 0.448], [72.999, 0.448]]], [[[73.535, 0.451], [73.535, 0.451], [73.535, 0.451], [73.535, 0.451]]], [[[72.998, 0.454], [72.998, 0.454], [72.998, 0.454], [72.998, 0.454]]], [[[73.567, 0.459], [73.567, 0.459], [73.567, 0.459], [73.567, 0.459]]], [[[73.562, 0.466], [73.562, 0.466], [73.562, 0.466], [73.562, 0.466]]], [[[73.56, 0.47], [73.56, 0.47], [73.56, 0.47], [73.56, 0.47]]], [[[72.991, 0.5], [72.991, 0.5], [72.991, 0.5], [72.991, 0.5]]], [[[72.993, 0.478], [72.993, 0.478], [72.993, 0.478], [72.993, 0.478]]], [[[73.553, 0.498], [73.553, 0.498], [73.553, 0.498], [73.553, 0.498]]], [[[73.173, 0.496], [73.173, 0.496], [73.173, 0.496], [73.173, 0.496]]], [[[72.989, 0.496], [72.989, 0.496], [72.989, 0.496], [72.989, 0.496]]], [[[73, 0.455], [73, 0.455], [73, 0.455], [73, 0.455]]], [[[73.565, 0.459], [73.565, 0.459], [73.565, 0.459], [73.565, 0.459]]], [[[73.156, 0.461], [73.156, 0.461], [73.156, 0.461], [73.156, 0.461]]], [[[73.57, 0.433], [73.57, 0.433], [73.57, 0.433], [73.57, 0.433]]], [[[73.567, 0.435], [73.567, 0.435], [73.567, 0.435], [73.567, 0.435]]], [[[73.008, 0.396], [73.008, 0.396], [73.008, 0.396], [73.008, 0.396]]], [[[73.006, 0.393], [73.006, 0.393], [73.006, 0.393], [73.006, 0.393]]], [[[73.006, 0.397], [73.006, 0.397], [73.006, 0.397], [73.006, 0.397]]], [[[73.542, 0.513], [73.542, 0.513], [73.542, 0.513], [73.542, 0.513]]], [[[72.994, 0.515], [72.994, 0.515], [72.994, 0.515], [72.994, 0.515]]], [[[72.992, 0.516], [72.992, 0.516], [72.992, 0.516], [72.992, 0.516]]], [[[73.147, 0.509], [73.147, 0.509], [73.147, 0.509], [73.147, 0.509]]], [[[73.538, 0.526], [73.538, 0.526], [73.538, 0.526], [73.538, 0.526]]], [[[72.999, 0.525], [72.999, 0.525], [72.999, 0.525], [72.999, 0.525]]], [[[73.075, 0.521], [73.075, 0.521], [73.075, 0.521], [73.075, 0.521]]], [[[73.538, 0.528], [73.538, 0.528], [73.538, 0.528], [73.538, 0.528]]], [[[73.005, 0.531], [73.005, 0.531], [73.005, 0.531], [73.005, 0.531]]], [[[73.19, 0.532], [73.19, 0.532], [73.19, 0.532], [73.19, 0.532]]], [[[73.192, 0.532], [73.192, 0.532], [73.192, 0.532], [73.192, 0.532]]], [[[73.217, 0.518], [73.217, 0.518], [73.217, 0.518], [73.217, 0.518]]], [[[73.541, 0.519], [73.541, 0.519], [73.541, 0.519], [73.541, 0.519]]], [[[73.094, 0.541], [73.094, 0.541], [73.094, 0.541], [73.094, 0.541]]], [[[73.348, 0.54], [73.348, 0.54], [73.348, 0.54], [73.348, 0.54]]], [[[73.123, 0.541], [73.123, 0.541], [73.123, 0.541], [73.123, 0.541]]], [[[73.242, 0.554], [73.242, 0.554], [73.242, 0.554], [73.242, 0.554]]], [[[73.528, 0.562], [73.528, 0.562], [73.528, 0.562], [73.528, 0.562]]], [[[73.52, 0.568], [73.52, 0.568], [73.52, 0.568], [73.52, 0.568]]], [[[73.193, 0.57], [73.193, 0.57], [73.193, 0.57], [73.193, 0.57]]], [[[73.516, 0.582], [73.516, 0.582], [73.516, 0.582], [73.516, 0.582]]], [[[73.094, 0.588], [73.094, 0.588], [73.094, 0.588], [73.094, 0.588]]], [[[73.501, 0.594], [73.501, 0.594], [73.501, 0.594], [73.501, 0.594]]], [[[73.491, 0.603], [73.491, 0.603], [73.491, 0.603], [73.491, 0.603]]], [[[73.458, 0.623], [73.458, 0.623], [73.458, 0.623], [73.458, 0.623]]], [[[73.345, 0.629], [73.345, 0.629], [73.345, 0.629], [73.345, 0.629]]], [[[73.45, 0.631], [73.45, 0.631], [73.45, 0.631], [73.45, 0.631]]], [[[73.31, 0.603], [73.31, 0.603], [73.31, 0.603], [73.31, 0.603]]], [[[73.535, 0.537], [73.535, 0.537], [73.535, 0.537], [73.535, 0.537]]], [[[73.441, 0.654], [73.441, 0.654], [73.441, 0.654], [73.441, 0.654]]], [[[73.44, 0.656], [73.44, 0.656], [73.44, 0.656], [73.44, 0.656]]], [[[73.419, 0.662], [73.419, 0.662], [73.419, 0.662], [73.419, 0.662]]], [[[73.203, 0.684], [73.203, 0.684], [73.203, 0.684], [73.203, 0.684]]], [[[73.267, 0.688], [73.267, 0.688], [73.267, 0.688], [73.267, 0.688]]], [[[73.44, 0.684], [73.44, 0.684], [73.44, 0.684], [73.44, 0.684]]], [[[73.368, 0.669], [73.368, 0.669], [73.368, 0.669], [73.368, 0.669]]], [[[73.438, 0.668], [73.438, 0.668], [73.438, 0.668], [73.438, 0.668]]], [[[73.44, 0.701], [73.44, 0.701], [73.44, 0.701], [73.44, 0.701]]], [[[73.331, 0.705], [73.331, 0.705], [73.331, 0.705], [73.331, 0.705]]], [[[73.286, 0.713], [73.286, 0.713], [73.286, 0.713], [73.286, 0.713]]], [[[73.285, 0.726], [73.285, 0.726], [73.285, 0.726], [73.285, 0.726]]], [[[73.436, 0.726], [73.436, 0.726], [73.436, 0.726], [73.436, 0.726]]], [[[73.439, 0.707], [73.439, 0.707], [73.439, 0.707], [73.439, 0.707]]], [[[73.436, 0.717], [73.436, 0.717], [73.436, 0.717], [73.436, 0.717]]], [[[73.235, 0.78], [73.235, 0.78], [73.235, 0.78], [73.235, 0.78]]], [[[73.225, 0.794], [73.225, 0.794], [73.225, 0.794], [73.225, 0.794]]], [[[73.204, 0.814], [73.204, 0.814], [73.204, 0.814], [73.204, 0.814]]], [[[73.207, 0.811], [73.207, 0.811], [73.207, 0.811], [73.207, 0.811]]], [[[73.206, 0.812], [73.206, 0.812], [73.206, 0.812], [73.206, 0.812]]], [[[73.217, 0.801], [73.217, 0.801], [73.217, 0.801], [73.217, 0.801]]], [[[73.423, 0.803], [73.423, 0.803], [73.423, 0.803], [73.423, 0.803]]], [[[73.204, 0.818], [73.204, 0.818], [73.204, 0.818], [73.204, 0.818]]], [[[73.252, 0.826], [73.252, 0.826], [73.252, 0.826], [73.252, 0.826]]], [[[73.414, 0.829], [73.414, 0.829], [73.414, 0.829], [73.414, 0.829]]], [[[73.18, 0.842], [73.18, 0.842], [73.18, 0.842], [73.18, 0.842]]], [[[73.182, 0.84], [73.182, 0.84], [73.182, 0.84], [73.182, 0.84]]], [[[73.181, 0.841], [73.181, 0.841], [73.181, 0.841], [73.181, 0.841]]], [[[73.437, 0.747], [73.437, 0.747], [73.437, 0.747], [73.437, 0.747]]], [[[73.43, 0.766], [73.43, 0.766], [73.43, 0.766], [73.43, 0.766]]], [[[73.453, 0.507], [73.453, 0.507], [73.453, 0.507], [73.453, 0.507]]], [[[73.499, 0.505], [73.499, 0.505], [73.499, 0.505], [73.499, 0.505]]], [[[72.992, 0.504], [72.992, 0.504], [72.992, 0.504], [72.992, 0.504]]], [[[73.405, 0.852], [73.405, 0.852], [73.405, 0.852], [73.405, 0.852]]], [[[73.179, 0.858], [73.179, 0.858], [73.179, 0.858], [73.179, 0.858]]], [[[73.21, 0.853], [73.21, 0.853], [73.21, 0.853], [73.21, 0.853]]], [[[73.404, 0.854], [73.404, 0.854], [73.404, 0.854], [73.404, 0.854]]], [[[73.4, 0.861], [73.4, 0.861], [73.4, 0.861], [73.4, 0.861]]], [[[73.401, 0.861], [73.401, 0.861], [73.401, 0.861], [73.401, 0.861]]], [[[73.191, 0.865], [73.191, 0.865], [73.191, 0.865], [73.191, 0.865]]], [[[73.246, 0.87], [73.246, 0.87], [73.246, 0.87], [73.246, 0.87]]], [[[73.337, 0.884], [73.337, 0.884], [73.337, 0.884], [73.337, 0.884]]], [[[73.35, 0.896], [73.35, 0.896], [73.35, 0.896], [73.35, 0.896]]], [[[73.287, 0.9], [73.287, 0.9], [73.287, 0.9], [73.287, 0.9]]], [[[73.256, 0.874], [73.256, 0.874], [73.256, 0.874], [73.256, 0.874]]], [[[73.355, 1.78], [73.355, 1.78], [73.355, 1.78], [73.355, 1.78]]], [[[73.366, 1.784], [73.366, 1.784], [73.366, 1.784], [73.366, 1.784]]], [[[73.387, 1.784], [73.387, 1.784], [73.387, 1.784], [73.387, 1.784]]], [[[73.339, 1.787], [73.339, 1.787], [73.339, 1.787], [73.339, 1.787]]], [[[73.329, 1.789], [73.329, 1.789], [73.329, 1.789], [73.329, 1.789]]], [[[73.353, 1.787], [73.353, 1.787], [73.353, 1.787], [73.353, 1.787]]], [[[73.301, 1.797], [73.301, 1.797], [73.301, 1.797], [73.301, 1.797]]], [[[73.301, 1.798], [73.301, 1.798], [73.301, 1.798], [73.301, 1.798]]], [[[73.301, 1.798], [73.301, 1.798], [73.301, 1.798], [73.301, 1.798]]], [[[73.29, 1.809], [73.29, 1.809], [73.29, 1.809], [73.29, 1.809]]], [[[73.285, 1.809], [73.285, 1.809], [73.285, 1.809], [73.285, 1.809]]], [[[73.278, 1.816], [73.278, 1.816], [73.278, 1.816], [73.278, 1.816]]], [[[73.407, 1.815], [73.407, 1.815], [73.407, 1.815], [73.407, 1.815]]], [[[73.279, 1.818], [73.279, 1.818], [73.279, 1.818], [73.279, 1.818]]], [[[73.278, 1.817], [73.278, 1.817], [73.278, 1.817], [73.278, 1.817]]], [[[73.271, 1.833], [73.271, 1.833], [73.271, 1.833], [73.271, 1.833]]], [[[73.27, 1.826], [73.27, 1.826], [73.27, 1.826], [73.27, 1.826]]], [[[73.275, 1.828], [73.275, 1.828], [73.275, 1.828], [73.275, 1.828]]], [[[73.258, 1.842], [73.258, 1.842], [73.258, 1.842], [73.258, 1.842]]], [[[73.258, 1.843], [73.258, 1.843], [73.258, 1.843], [73.258, 1.843]]], [[[73.516, 1.844], [73.516, 1.844], [73.516, 1.844], [73.516, 1.844]]], [[[73.256, 1.844], [73.256, 1.844], [73.256, 1.844], [73.256, 1.844]]], [[[73.253, 1.847], [73.253, 1.847], [73.253, 1.847], [73.253, 1.847]]], [[[73.246, 1.884], [73.246, 1.884], [73.246, 1.884], [73.246, 1.884]]], [[[73.256, 1.904], [73.256, 1.904], [73.256, 1.904], [73.256, 1.904]]], [[[73.253, 1.918], [73.253, 1.918], [73.253, 1.918], [73.253, 1.918]]], [[[73.524, 1.87], [73.524, 1.87], [73.524, 1.87], [73.524, 1.87]]], [[[73.526, 1.871], [73.539, 1.941], [73.552, 1.927], [73.526, 1.871]]], [[[73.49, 1.821], [73.49, 1.821], [73.49, 1.821], [73.49, 1.821]]], [[[73.254, 1.848], [73.254, 1.848], [73.254, 1.848], [73.254, 1.848]]], [[[73.452, 1.816], [73.452, 1.816], [73.452, 1.816], [73.452, 1.816]]], [[[73.273, 1.821], [73.273, 1.821], [73.273, 1.821], [73.273, 1.821]]], [[[73.395, 1.822], [73.395, 1.822], [73.395, 1.822], [73.395, 1.822]]], [[[73.279, 1.826], [73.279, 1.826], [73.279, 1.826], [73.279, 1.826]]], [[[73.283, 1.823], [73.283, 1.823], [73.283, 1.823], [73.283, 1.823]]], [[[73.392, 1.814], [73.392, 1.814], [73.392, 1.814], [73.392, 1.814]]], [[[73.378, 1.78], [73.378, 1.78], [73.378, 1.78], [73.378, 1.78]]], [[[73.331, 1.792], [73.331, 1.792], [73.331, 1.792], [73.331, 1.792]]], [[[73.385, 1.791], [73.385, 1.791], [73.385, 1.791], [73.385, 1.791]]], [[[73.54, 1.957], [73.54, 1.957], [73.54, 1.957], [73.54, 1.957]]], [[[73.539, 1.96], [73.539, 1.96], [73.539, 1.96], [73.539, 1.96]]], [[[73.537, 1.977], [73.537, 1.977], [73.537, 1.977], [73.537, 1.977]]], [[[73.535, 1.989], [73.535, 1.989], [73.535, 1.989], [73.535, 1.989]]], [[[73.308, 1.988], [73.308, 1.988], [73.308, 1.988], [73.308, 1.988]]], [[[73.534, 2], [73.534, 2], [73.534, 2], [73.534, 2]]], [[[73.372, 2.027], [73.372, 2.027], [73.372, 2.027], [73.372, 2.027]]], [[[73.532, 2.023], [73.532, 2.023], [73.532, 2.023], [73.532, 2.023]]], [[[73.532, 2.043], [73.532, 2.043], [73.532, 2.043], [73.532, 2.043]]], [[[73.533, 2.045], [73.533, 2.045], [73.533, 2.045], [73.533, 2.045]]], [[[73.533, 2.049], [73.533, 2.049], [73.533, 2.049], [73.533, 2.049]]], [[[73.535, 2.055], [73.535, 2.055], [73.535, 2.055], [73.535, 2.055]]], [[[73.535, 2.005], [73.535, 2.005], [73.535, 2.005], [73.535, 2.005]]], [[[73.36, 2.017], [73.36, 2.017], [73.36, 2.017], [73.36, 2.017]]], [[[73.538, 2.064], [73.538, 2.064], [73.538, 2.064], [73.538, 2.064]]], [[[73.537, 2.064], [73.537, 2.064], [73.537, 2.064], [73.537, 2.064]]], [[[73.54, 2.068], [73.54, 2.068], [73.54, 2.068], [73.54, 2.068]]], [[[73.527, 2.079], [73.527, 2.079], [73.527, 2.079], [73.527, 2.079]]], [[[73.537, 2.07], [73.537, 2.07], [73.537, 2.07], [73.537, 2.07]]], [[[73.53, 2.08], [73.53, 2.08], [73.53, 2.08], [73.53, 2.08]]], [[[73.539, 2.096], [73.539, 2.096], [73.539, 2.096], [73.539, 2.096]]], [[[73.553, 2.1], [73.553, 2.1], [73.553, 2.1], [73.553, 2.1]]], [[[73.543, 2.104], [73.543, 2.104], [73.543, 2.104], [73.543, 2.104]]], [[[73.541, 2.085], [73.541, 2.085], [73.541, 2.085], [73.541, 2.085]]], [[[73.542, 2.101], [73.542, 2.101], [73.542, 2.101], [73.542, 2.101]]], [[[73.541, 2.072], [73.541, 2.072], [73.541, 2.072], [73.541, 2.072]]], [[[73.54, 2.08], [73.54, 2.08], [73.54, 2.08], [73.54, 2.08]]], [[[73.533, 2.056], [73.533, 2.056], [73.533, 2.056], [73.533, 2.056]]], [[[73.536, 2.058], [73.536, 2.058], [73.536, 2.058], [73.536, 2.058]]], [[[73.538, 2.06], [73.538, 2.06], [73.538, 2.06], [73.538, 2.06]]], [[[73.063, 2.164], [73.063, 2.164], [73.063, 2.164], [73.063, 2.164]]], [[[73.069, 2.177], [73.069, 2.177], [73.069, 2.177], [73.069, 2.177]]], [[[72.978, 2.186], [72.978, 2.186], [72.978, 2.186], [72.978, 2.186]]], [[[73.011, 2.171], [73.011, 2.171], [73.011, 2.171], [73.011, 2.171]]], [[[73.014, 2.17], [73.014, 2.17], [73.014, 2.17], [73.014, 2.17]]], [[[73.033, 2.164], [73.033, 2.164], [73.033, 2.164], [73.033, 2.164]]], [[[73.022, 2.164], [73.022, 2.164], [73.022, 2.164], [73.022, 2.164]]], [[[73.067, 2.164], [73.067, 2.164], [73.067, 2.164], [73.067, 2.164]]], [[[73.051, 2.168], [73.051, 2.168], [73.051, 2.168], [73.051, 2.168]]], [[[73.048, 2.169], [73.048, 2.169], [73.048, 2.169], [73.048, 2.169]]], [[[73.014, 2.17], [73.014, 2.17], [73.014, 2.17], [73.014, 2.17]]], [[[73.08, 2.168], [73.08, 2.168], [73.08, 2.168], [73.08, 2.168]]], [[[73.13, 2.196], [73.13, 2.196], [73.13, 2.196], [73.13, 2.196]]], [[[73.143, 2.202], [73.143, 2.202], [73.143, 2.202], [73.143, 2.202]]], [[[73.149, 2.211], [73.149, 2.211], [73.149, 2.211], [73.149, 2.211]]], [[[73.204, 2.245], [73.204, 2.245], [73.204, 2.245], [73.204, 2.245]]], [[[73.211, 2.251], [73.211, 2.251], [73.211, 2.251], [73.211, 2.251]]], [[[73.217, 2.257], [73.217, 2.257], [73.217, 2.257], [73.217, 2.257]]], [[[73.223, 2.263], [73.223, 2.263], [73.223, 2.263], [73.223, 2.263]]], [[[73.226, 2.265], [73.226, 2.265], [73.226, 2.265], [73.226, 2.265]]], [[[73.228, 2.267], [73.228, 2.267], [73.228, 2.267], [73.228, 2.267]]], [[[72.94, 2.268], [72.94, 2.268], [72.94, 2.268], [72.94, 2.268]]], [[[72.932, 2.27], [72.932, 2.27], [72.932, 2.27], [72.932, 2.27]]], [[[73.232, 2.27], [73.232, 2.27], [73.232, 2.27], [73.232, 2.27]]], [[[73.236, 2.272], [73.236, 2.272], [73.236, 2.272], [73.236, 2.272]]], [[[73.256, 2.28], [73.256, 2.28], [73.256, 2.28], [73.256, 2.28]]], [[[73.259, 2.285], [73.259, 2.285], [73.259, 2.285], [73.259, 2.285]]], [[[73.098, 2.184], [73.098, 2.184], [73.098, 2.184], [73.098, 2.184]]], [[[72.971, 2.192], [72.971, 2.192], [72.971, 2.192], [72.971, 2.192]]], [[[72.974, 2.19], [72.974, 2.19], [72.974, 2.19], [72.974, 2.19]]], [[[73.115, 2.19], [73.115, 2.19], [73.115, 2.19], [73.115, 2.19]]], [[[73.543, 2.114], [73.543, 2.114], [73.543, 2.114], [73.543, 2.114]]], [[[73.555, 2.105], [73.555, 2.105], [73.555, 2.105], [73.555, 2.105]]], [[[73.269, 2.291], [73.269, 2.291], [73.269, 2.291], [73.269, 2.291]]], [[[72.943, 2.289], [72.943, 2.289], [72.943, 2.289], [72.943, 2.289]]], [[[73.262, 2.286], [73.262, 2.286], [73.262, 2.286], [73.262, 2.286]]], [[[73.267, 2.289], [73.267, 2.289], [73.267, 2.289], [73.267, 2.289]]], [[[73.277, 2.294], [73.277, 2.294], [73.277, 2.294], [73.277, 2.294]]], [[[73.285, 2.3], [73.285, 2.3], [73.285, 2.3], [73.285, 2.3]]], [[[73.29, 2.305], [73.29, 2.305], [73.29, 2.305], [73.29, 2.305]]], [[[72.942, 2.312], [72.942, 2.312], [72.942, 2.312], [72.942, 2.312]]], [[[73.303, 2.313], [73.303, 2.313], [73.303, 2.313], [73.303, 2.313]]], [[[72.983, 2.314], [72.983, 2.314], [72.983, 2.314], [72.983, 2.314]]], [[[73.297, 2.308], [73.297, 2.308], [73.297, 2.308], [73.297, 2.308]]], [[[73.297, 2.312], [73.297, 2.312], [73.297, 2.312], [73.297, 2.312]]], [[[72.952, 2.308], [72.952, 2.308], [72.952, 2.308], [72.952, 2.308]]], [[[72.955, 2.309], [72.955, 2.309], [72.955, 2.309], [72.955, 2.309]]], [[[73.344, 2.345], [73.344, 2.345], [73.344, 2.345], [73.344, 2.345]]], [[[73.335, 2.336], [73.335, 2.336], [73.335, 2.336], [73.335, 2.336]]], [[[73.34, 2.345], [73.34, 2.345], [73.34, 2.345], [73.34, 2.345]]], [[[73.355, 2.353], [73.355, 2.353], [73.355, 2.353], [73.355, 2.353]]], [[[72.909, 2.364], [72.909, 2.364], [72.909, 2.364], [72.909, 2.364]]], [[[73.362, 2.364], [73.362, 2.364], [73.362, 2.364], [73.362, 2.364]]], [[[73.362, 2.364], [73.362, 2.364], [73.362, 2.364], [73.362, 2.364]]], [[[72.909, 2.37], [72.909, 2.37], [72.909, 2.37], [72.909, 2.37]]], [[[73.361, 2.379], [73.361, 2.379], [73.361, 2.379], [73.361, 2.379]]], [[[73.316, 2.488], [73.316, 2.488], [73.316, 2.488], [73.316, 2.488]]], [[[73.313, 2.494], [73.313, 2.494], [73.313, 2.494], [73.313, 2.494]]], [[[73.309, 2.498], [73.309, 2.498], [73.309, 2.498], [73.309, 2.498]]], [[[73.258, 2.505], [73.258, 2.505], [73.258, 2.505], [73.258, 2.505]]], [[[73.232, 2.513], [73.232, 2.513], [73.232, 2.513], [73.232, 2.513]]], [[[73.226, 2.52], [73.226, 2.52], [73.226, 2.52], [73.226, 2.52]]], [[[72.919, 2.312], [72.919, 2.312], [72.919, 2.312], [72.919, 2.312]]], [[[73.315, 2.322], [73.315, 2.322], [73.315, 2.322], [73.315, 2.322]]], [[[72.962, 2.326], [72.962, 2.326], [72.962, 2.326], [72.962, 2.326]]], [[[72.987, 2.531], [72.987, 2.531], [72.987, 2.531], [72.987, 2.531]]], [[[73.18, 2.537], [73.18, 2.537], [73.18, 2.537], [73.18, 2.537]]], [[[73.176, 2.538], [73.176, 2.538], [73.176, 2.538], [73.176, 2.538]]], [[[73.111, 2.557], [73.111, 2.557], [73.111, 2.557], [73.111, 2.557]]], [[[72.896, 2.667], [72.896, 2.667], [72.896, 2.667], [72.896, 2.667]]], [[[73.155, 2.545], [73.155, 2.545], [73.155, 2.545], [73.155, 2.545]]], [[[73.157, 2.549], [73.157, 2.549], [73.157, 2.549], [73.157, 2.549]]], [[[72.862, 2.684], [72.862, 2.684], [72.862, 2.684], [72.862, 2.684]]], [[[72.961, 2.694], [72.961, 2.694], [72.961, 2.694], [72.961, 2.694]]], [[[72.853, 2.693], [72.853, 2.693], [72.853, 2.693], [72.853, 2.693]]], [[[72.848, 2.701], [72.848, 2.701], [72.848, 2.701], [72.848, 2.701]]], [[[72.884, 2.704], [72.884, 2.704], [72.884, 2.704], [72.884, 2.704]]], [[[72.982, 2.705], [72.982, 2.705], [72.982, 2.705], [72.982, 2.705]]], [[[72.844, 2.712], [72.844, 2.712], [72.844, 2.712], [72.844, 2.712]]], [[[72.842, 2.716], [72.842, 2.716], [72.842, 2.716], [72.842, 2.716]]], [[[72.842, 2.718], [72.842, 2.718], [72.842, 2.718], [72.842, 2.718]]], [[[73.001, 2.723], [73.001, 2.723], [73.001, 2.723], [73.001, 2.723]]], [[[72.839, 2.729], [72.839, 2.729], [72.839, 2.729], [72.839, 2.729]]], [[[72.889, 2.73], [72.889, 2.73], [72.889, 2.73], [72.889, 2.73]]], [[[72.84, 2.724], [72.84, 2.724], [72.84, 2.724], [72.84, 2.724]]], [[[72.987, 2.709], [72.987, 2.709], [72.987, 2.709], [72.987, 2.709]]], [[[72.927, 2.676], [72.927, 2.676], [72.927, 2.676], [72.927, 2.676]]], [[[72.934, 2.68], [72.934, 2.68], [72.934, 2.68], [72.934, 2.68]]], [[[73.261, 1.95], [73.261, 1.95], [73.261, 1.95], [73.261, 1.95]]], [[[73.541, 1.95], [73.541, 1.95], [73.541, 1.95], [73.541, 1.95]]], [[[73.021, 2.754], [73.021, 2.754], [73.021, 2.754], [73.021, 2.754]]], [[[73.421, 2.764], [73.421, 2.764], [73.421, 2.764], [73.421, 2.764]]], [[[73.023, 2.765], [73.023, 2.765], [73.023, 2.765], [73.023, 2.765]]], [[[73.411, 2.78], [73.411, 2.78], [73.411, 2.78], [73.411, 2.78]]], [[[73.026, 2.786], [73.026, 2.786], [73.026, 2.786], [73.026, 2.786]]], [[[73.37, 2.784], [73.37, 2.784], [73.37, 2.784], [73.37, 2.784]]], [[[73.369, 2.786], [73.369, 2.786], [73.369, 2.786], [73.369, 2.786]]], [[[73.42, 2.77], [73.42, 2.77], [73.42, 2.77], [73.42, 2.77]]], [[[73.372, 2.773], [73.372, 2.773], [73.372, 2.773], [73.372, 2.773]]], [[[73.371, 2.777], [73.371, 2.777], [73.371, 2.777], [73.371, 2.777]]], [[[73.418, 2.779], [73.418, 2.779], [73.418, 2.779], [73.418, 2.779]]], [[[73.024, 2.776], [73.024, 2.776], [73.024, 2.776], [73.024, 2.776]]], [[[73.373, 2.777], [73.373, 2.777], [73.373, 2.777], [73.373, 2.777]]], [[[73.429, 2.792], [73.429, 2.792], [73.429, 2.792], [73.429, 2.792]]], [[[73.025, 2.798], [73.025, 2.798], [73.025, 2.798], [73.025, 2.798]]], [[[73.026, 2.792], [73.026, 2.792], [73.026, 2.792], [73.026, 2.792]]], [[[73.43, 2.796], [73.43, 2.796], [73.43, 2.796], [73.43, 2.796]]], [[[73.432, 2.802], [73.432, 2.802], [73.432, 2.802], [73.432, 2.802]]], [[[73.368, 2.807], [73.368, 2.807], [73.368, 2.807], [73.368, 2.807]]], [[[73.368, 2.808], [73.368, 2.808], [73.368, 2.808], [73.368, 2.808]]], [[[73.368, 2.809], [73.368, 2.809], [73.368, 2.809], [73.368, 2.809]]], [[[73.369, 2.817], [73.369, 2.817], [73.369, 2.817], [73.369, 2.817]]], [[[73.45, 2.823], [73.45, 2.823], [73.45, 2.823], [73.45, 2.823]]], [[[73.369, 2.829], [73.369, 2.829], [73.369, 2.829], [73.369, 2.829]]], [[[73.442, 2.815], [73.442, 2.815], [73.442, 2.815], [73.442, 2.815]]], [[[73.369, 2.824], [73.369, 2.824], [73.369, 2.824], [73.369, 2.824]]], [[[73.369, 2.789], [73.369, 2.789], [73.369, 2.789], [73.369, 2.789]]], [[[73.421, 2.77], [73.421, 2.77], [73.421, 2.77], [73.421, 2.77]]], [[[73.026, 2.79], [73.026, 2.79], [73.026, 2.79], [73.026, 2.79]]], [[[73.46, 2.832], [73.46, 2.832], [73.46, 2.832], [73.46, 2.832]]], [[[73.515, 2.852], [73.515, 2.852], [73.515, 2.852], [73.515, 2.852]]], [[[73.539, 2.853], [73.539, 2.853], [73.539, 2.853], [73.539, 2.853]]], [[[73.535, 2.851], [73.535, 2.851], [73.535, 2.851], [73.535, 2.851]]], [[[73.557, 2.856], [73.557, 2.856], [73.557, 2.856], [73.557, 2.856]]], [[[72.843, 2.857], [72.843, 2.857], [72.843, 2.857], [72.843, 2.857]]], [[[73.553, 2.858], [73.553, 2.858], [73.553, 2.858], [73.553, 2.858]]], [[[73.552, 2.86], [73.552, 2.86], [73.552, 2.86], [73.552, 2.86]]], [[[73.026, 2.882], [73.026, 2.882], [73.026, 2.882], [73.026, 2.882]]], [[[72.836, 2.886], [72.836, 2.886], [72.836, 2.886], [72.836, 2.886]]], [[[73.575, 2.882], [73.575, 2.882], [73.575, 2.882], [73.575, 2.882]]], [[[73.551, 2.853], [73.551, 2.853], [73.551, 2.853], [73.551, 2.853]]], [[[73.025, 2.856], [73.025, 2.856], [73.025, 2.856], [73.025, 2.856]]], [[[73.54, 2.857], [73.54, 2.857], [73.54, 2.857], [73.54, 2.857]]], [[[73.578, 2.904], [73.578, 2.904], [73.578, 2.904], [73.578, 2.904]]], [[[72.868, 2.91], [72.868, 2.91], [72.868, 2.91], [72.868, 2.91]]], [[[72.886, 2.916], [72.886, 2.916], [72.886, 2.916], [72.886, 2.916]]], [[[72.898, 2.923], [72.898, 2.923], [72.898, 2.923], [72.898, 2.923]]], [[[72.961, 2.922], [72.961, 2.922], [72.961, 2.922], [72.961, 2.922]]], [[[73.028, 2.924], [73.028, 2.924], [73.028, 2.924], [73.028, 2.924]]], [[[73.578, 2.912], [73.578, 2.912], [73.578, 2.912], [73.578, 2.912]]], [[[72.96, 2.931], [72.96, 2.931], [72.96, 2.931], [72.96, 2.931]]], [[[72.99, 2.934], [72.99, 2.934], [72.99, 2.934], [72.99, 2.934]]], [[[72.916, 2.947], [72.916, 2.947], [72.916, 2.947], [72.916, 2.947]]], [[[73.603, 2.962], [73.603, 2.962], [73.603, 2.962], [73.603, 2.962]]], [[[72.987, 2.956], [72.987, 2.956], [72.987, 2.956], [72.987, 2.956]]], [[[72.945, 2.961], [72.945, 2.961], [72.945, 2.961], [72.945, 2.961]]], [[[73.588, 2.94], [73.588, 2.94], [73.588, 2.94], [73.588, 2.94]]], [[[73.376, 2.946], [73.376, 2.946], [73.376, 2.946], [73.376, 2.946]]], [[[73.577, 2.891], [73.577, 2.891], [73.577, 2.891], [73.577, 2.891]]], [[[73.38, 2.895], [73.38, 2.895], [73.38, 2.895], [73.38, 2.895]]], [[[73.027, 2.83], [73.027, 2.83], [73.027, 2.83], [73.027, 2.83]]], [[[73.458, 2.829], [73.458, 2.829], [73.458, 2.829], [73.458, 2.829]]], [[[73.027, 2.83], [73.027, 2.83], [73.027, 2.83], [73.027, 2.83]]], [[[72.991, 2.969], [72.991, 2.969], [72.991, 2.969], [72.991, 2.969]]], [[[73.014, 2.978], [73.014, 2.978], [73.014, 2.978], [73.014, 2.978]]], [[[73, 3.002], [73, 3.002], [73, 3.002], [73, 3.002]]], [[[73.38, 3.019], [73.38, 3.019], [73.38, 3.019], [73.38, 3.019]]], [[[73.38, 3.025], [73.38, 3.025], [73.38, 3.025], [73.38, 3.025]]], [[[73.007, 3.001], [73.007, 3.001], [73.007, 3.001], [73.007, 3.001]]], [[[72.993, 3], [72.993, 3], [72.993, 3], [72.993, 3]]], [[[72.993, 3], [72.993, 3], [72.993, 3], [72.993, 3]]], [[[72.893, 3.052], [72.893, 3.052], [72.893, 3.052], [72.893, 3.052]]], [[[73.378, 3.056], [73.378, 3.056], [73.378, 3.056], [73.378, 3.056]]], [[[72.89, 3.062], [72.89, 3.062], [72.89, 3.062], [72.89, 3.062]]], [[[72.924, 3.061], [72.924, 3.061], [72.924, 3.061], [72.924, 3.061]]], [[[73.642, 3.069], [73.642, 3.069], [73.642, 3.069], [73.642, 3.069]]], [[[73.644, 3.071], [73.644, 3.071], [73.644, 3.071], [73.644, 3.071]]], [[[73.645, 3.073], [73.645, 3.073], [73.645, 3.073], [73.645, 3.073]]], [[[73.378, 3.063], [73.378, 3.063], [73.378, 3.063], [73.378, 3.063]]], [[[72.952, 3.074], [72.952, 3.074], [72.952, 3.074], [72.952, 3.074]]], [[[72.961, 3.076], [72.961, 3.076], [72.961, 3.076], [72.961, 3.076]]], [[[73.648, 3.079], [73.648, 3.079], [73.648, 3.079], [73.648, 3.079]]], [[[73.638, 3.078], [73.638, 3.078], [73.638, 3.078], [73.638, 3.078]]], [[[73.636, 3.085], [73.636, 3.085], [73.636, 3.085], [73.636, 3.085]]], [[[73.389, 3.093], [73.389, 3.093], [73.389, 3.093], [73.389, 3.093]]], [[[73.578, 3.105], [73.578, 3.105], [73.578, 3.105], [73.578, 3.105]]], [[[73.571, 3.103], [73.571, 3.103], [73.571, 3.103], [73.571, 3.103]]], [[[73.564, 3.111], [73.564, 3.111], [73.564, 3.111], [73.564, 3.111]]], [[[72.987, 3.115], [72.987, 3.115], [72.987, 3.115], [72.987, 3.115]]], [[[73.019, 3.134], [73.019, 3.134], [73.019, 3.134], [73.019, 3.134]]], [[[72.856, 3.156], [72.856, 3.156], [72.856, 3.156], [72.856, 3.156]]], [[[72.855, 3.158], [72.855, 3.158], [72.855, 3.158], [72.855, 3.158]]], [[[72.855, 3.159], [72.855, 3.159], [72.855, 3.159], [72.855, 3.159]]], [[[73.008, 3.138], [73.008, 3.138], [73.008, 3.138], [73.008, 3.138]]], [[[73.031, 3.14], [73.031, 3.14], [73.031, 3.14], [73.031, 3.14]]], [[[72.854, 3.161], [72.854, 3.161], [72.854, 3.161], [72.854, 3.161]]], [[[72.853, 3.163], [72.853, 3.163], [72.853, 3.163], [72.853, 3.163]]], [[[72.853, 3.163], [72.853, 3.163], [72.853, 3.163], [72.853, 3.163]]], [[[72.998, 3.199], [72.998, 3.199], [72.998, 3.199], [72.998, 3.199]]], [[[73.034, 3.213], [73.034, 3.213], [73.034, 3.213], [73.034, 3.213]]], [[[73.427, 3.221], [73.427, 3.221], [73.427, 3.221], [73.427, 3.221]]], [[[72.979, 3.243], [72.979, 3.243], [72.979, 3.243], [72.979, 3.243]]], [[[72.837, 3.242], [72.837, 3.242], [72.837, 3.242], [72.837, 3.242]]], [[[73.025, 3.246], [73.025, 3.246], [73.025, 3.246], [73.025, 3.246]]], [[[72.821, 3.256], [72.821, 3.256], [72.821, 3.256], [72.821, 3.256]]], [[[73.012, 3.266], [73.012, 3.266], [73.012, 3.266], [73.012, 3.266]]], [[[72.929, 3.258], [72.929, 3.258], [72.929, 3.258], [72.929, 3.258]]], [[[73.004, 3.268], [73.004, 3.268], [73.004, 3.268], [73.004, 3.268]]], [[[72.898, 3.315], [72.898, 3.315], [72.898, 3.315], [72.898, 3.315]]], [[[73.47, 3.314], [73.47, 3.314], [73.47, 3.314], [73.47, 3.314]]], [[[73.522, 3.342], [73.522, 3.342], [73.522, 3.342], [73.522, 3.342]]], [[[73.599, 3.359], [73.599, 3.359], [73.599, 3.359], [73.599, 3.359]]], [[[73.649, 3.36], [73.649, 3.36], [73.649, 3.36], [73.649, 3.36]]], [[[73.439, 3.371], [73.439, 3.371], [73.439, 3.371], [73.439, 3.371]]], [[[73.601, 3.364], [73.601, 3.364], [73.601, 3.364], [73.601, 3.364]]], [[[73.604, 3.366], [73.604, 3.366], [73.604, 3.366], [73.604, 3.366]]], [[[73.641, 3.359], [73.641, 3.359], [73.641, 3.359], [73.641, 3.359]]], [[[73.5, 3.361], [73.5, 3.361], [73.5, 3.361], [73.5, 3.361]]], [[[73.511, 3.342], [73.511, 3.342], [73.511, 3.342], [73.511, 3.342]]], [[[73.748, 3.382], [73.748, 3.382], [73.748, 3.382], [73.748, 3.382]]], [[[73.437, 3.387], [73.437, 3.387], [73.437, 3.387], [73.437, 3.387]]], [[[73.753, 3.389], [73.753, 3.389], [73.753, 3.389], [73.753, 3.389]]], [[[73.765, 3.427], [73.765, 3.427], [73.765, 3.427], [73.765, 3.427]]], [[[73.766, 3.428], [73.766, 3.428], [73.766, 3.428], [73.766, 3.428]]], [[[73.754, 3.391], [73.754, 3.391], [73.754, 3.391], [73.754, 3.391]]], [[[73.754, 3.392], [73.754, 3.392], [73.754, 3.392], [73.754, 3.392]]], [[[73.325, 3.455], [73.325, 3.455], [73.325, 3.455], [73.325, 3.455]]], [[[73.547, 3.47], [73.547, 3.47], [73.547, 3.47], [73.547, 3.47]]], [[[73.548, 3.46], [73.548, 3.46], [73.548, 3.46], [73.548, 3.46]]], [[[72.829, 3.476], [72.829, 3.476], [72.829, 3.476], [72.829, 3.476]]], [[[73.325, 3.454], [73.325, 3.454], [73.325, 3.454], [73.325, 3.454]]], [[[73.756, 3.462], [73.756, 3.462], [73.756, 3.462], [73.756, 3.462]]], [[[72.79, 3.484], [72.79, 3.484], [72.79, 3.484], [72.79, 3.484]]], [[[73.535, 3.486], [73.535, 3.486], [73.535, 3.486], [73.535, 3.486]]], [[[72.802, 3.485], [72.802, 3.485], [72.802, 3.485], [72.802, 3.485]]], [[[72.786, 3.488], [72.786, 3.488], [72.786, 3.488], [72.786, 3.488]]], [[[73.531, 3.493], [73.531, 3.493], [73.531, 3.493], [73.531, 3.493]]], [[[72.761, 3.494], [72.761, 3.494], [72.761, 3.494], [72.761, 3.494]]], [[[72.892, 3.494], [72.892, 3.494], [72.892, 3.494], [72.892, 3.494]]], [[[72.905, 3.504], [72.905, 3.504], [72.905, 3.504], [72.905, 3.504]]], [[[72.908, 3.506], [72.908, 3.506], [72.908, 3.506], [72.908, 3.506]]], [[[73.529, 3.501], [73.529, 3.501], [73.529, 3.501], [73.529, 3.501]]], [[[72.803, 3.488], [72.803, 3.488], [72.803, 3.488], [72.803, 3.488]]], [[[72.872, 3.48], [72.872, 3.48], [72.872, 3.48], [72.872, 3.48]]], [[[72.856, 3.471], [72.856, 3.471], [72.856, 3.471], [72.856, 3.471]]], [[[72.84, 3.482], [72.84, 3.482], [72.84, 3.482], [72.84, 3.482]]], [[[72.871, 3.479], [72.871, 3.479], [72.871, 3.479], [72.871, 3.479]]], [[[72.871, 3.479], [72.871, 3.479], [72.871, 3.479], [72.871, 3.479]]], [[[73.703, 3.482], [73.703, 3.482], [73.703, 3.482], [73.703, 3.482]]], [[[72.876, 3.481], [72.876, 3.481], [72.876, 3.481], [72.876, 3.481]]], [[[72.912, 3.51], [72.912, 3.51], [72.912, 3.51], [72.912, 3.51]]], [[[73.287, 3.512], [73.287, 3.512], [73.287, 3.512], [73.287, 3.512]]], [[[72.928, 3.532], [72.928, 3.532], [72.928, 3.532], [72.928, 3.532]]], [[[72.721, 3.542], [72.721, 3.542], [72.721, 3.542], [72.721, 3.542]]], [[[73.303, 3.548], [73.303, 3.548], [73.303, 3.548], [73.303, 3.548]]], [[[73.307, 3.555], [73.307, 3.555], [73.307, 3.555], [73.307, 3.555]]], [[[72.717, 3.57], [72.717, 3.57], [72.717, 3.57], [72.717, 3.57]]], [[[72.912, 3.573], [72.912, 3.573], [72.912, 3.573], [72.912, 3.573]]], [[[72.903, 3.578], [72.903, 3.578], [72.903, 3.578], [72.903, 3.578]]], [[[73.499, 3.592], [73.499, 3.592], [73.499, 3.592], [73.499, 3.592]]], [[[72.884, 3.593], [72.884, 3.593], [72.884, 3.593], [72.884, 3.593]]], [[[72.901, 3.603], [72.901, 3.603], [72.901, 3.603], [72.901, 3.603]]], [[[72.9, 3.607], [72.9, 3.607], [72.9, 3.607], [72.9, 3.607]]], [[[72.719, 3.614], [72.719, 3.614], [72.719, 3.614], [72.719, 3.614]]], [[[72.723, 3.616], [72.723, 3.616], [72.723, 3.616], [72.723, 3.616]]], [[[73.378, 3.63], [73.378, 3.63], [73.378, 3.63], [73.378, 3.63]]], [[[72.964, 3.633], [72.964, 3.633], [72.964, 3.633], [72.964, 3.633]]], [[[72.959, 3.633], [72.959, 3.633], [72.959, 3.633], [72.959, 3.633]]], [[[72.955, 3.619], [72.955, 3.619], [72.955, 3.619], [72.955, 3.619]]], [[[72.78, 3.619], [72.78, 3.619], [72.78, 3.619], [72.78, 3.619]]], [[[73.366, 3.636], [73.366, 3.636], [73.366, 3.636], [73.366, 3.636]]], [[[73.487, 3.646], [73.487, 3.646], [73.487, 3.646], [73.487, 3.646]]], [[[72.823, 3.651], [72.823, 3.651], [72.823, 3.651], [72.823, 3.651]]], [[[72.951, 3.653], [72.951, 3.653], [72.951, 3.653], [72.951, 3.653]]], [[[72.775, 3.666], [72.775, 3.666], [72.775, 3.666], [72.775, 3.666]]], [[[72.903, 3.67], [72.903, 3.67], [72.903, 3.67], [72.903, 3.67]]], [[[73.417, 3.68], [73.417, 3.68], [73.417, 3.68], [73.417, 3.68]]], [[[72.706, 3.684], [72.706, 3.684], [72.706, 3.684], [72.706, 3.684]]], [[[72.956, 3.604], [72.956, 3.604], [72.956, 3.604], [72.956, 3.604]]], [[[72.728, 3.61], [72.728, 3.61], [72.728, 3.61], [72.728, 3.61]]], [[[72.917, 3.61], [72.917, 3.61], [72.917, 3.61], [72.917, 3.61]]], [[[73.284, 3.507], [73.284, 3.507], [73.284, 3.507], [73.284, 3.507]]], [[[72.909, 3.508], [72.909, 3.508], [72.909, 3.508], [72.909, 3.508]]], [[[72.713, 3.696], [72.713, 3.696], [72.713, 3.696], [72.713, 3.696]]], [[[72.732, 3.738], [72.732, 3.738], [72.732, 3.738], [72.732, 3.738]]], [[[72.965, 3.757], [72.965, 3.757], [72.965, 3.757], [72.965, 3.757]]], [[[72.771, 3.757], [72.771, 3.757], [72.771, 3.757], [72.771, 3.757]]], [[[72.927, 3.775], [72.927, 3.775], [72.927, 3.775], [72.927, 3.775]]], [[[72.731, 3.785], [72.731, 3.785], [72.731, 3.785], [72.731, 3.785]]], [[[72.964, 3.79], [72.964, 3.79], [72.964, 3.79], [72.964, 3.79]]], [[[72.759, 3.798], [72.759, 3.798], [72.759, 3.798], [72.759, 3.798]]], [[[73.418, 3.812], [73.418, 3.812], [73.418, 3.812], [73.418, 3.812]]], [[[73.411, 3.811], [73.411, 3.811], [73.411, 3.811], [73.411, 3.811]]], [[[73.416, 3.815], [73.416, 3.815], [73.416, 3.815], [73.416, 3.815]]], [[[72.753, 3.814], [72.753, 3.814], [72.753, 3.814], [72.753, 3.814]]], [[[72.829, 3.819], [72.829, 3.819], [72.829, 3.819], [72.829, 3.819]]], [[[73.377, 3.84], [73.377, 3.84], [73.377, 3.84], [73.377, 3.84]]], [[[72.731, 3.796], [72.731, 3.796], [72.731, 3.796], [72.731, 3.796]]], [[[72.711, 3.798], [72.711, 3.798], [72.711, 3.798], [72.711, 3.798]]], [[[72.96, 3.849], [72.96, 3.849], [72.96, 3.849], [72.96, 3.849]]], [[[73.459, 3.851], [73.459, 3.851], [73.459, 3.851], [73.459, 3.851]]], [[[73.455, 3.847], [73.455, 3.847], [73.455, 3.847], [73.455, 3.847]]], [[[72.915, 3.858], [72.915, 3.858], [72.915, 3.858], [72.915, 3.858]]], [[[73.458, 3.864], [73.458, 3.864], [73.458, 3.864], [73.458, 3.864]]], [[[73.459, 3.869], [73.459, 3.869], [73.459, 3.869], [73.459, 3.869]]], [[[73.366, 3.874], [73.366, 3.874], [73.366, 3.874], [73.366, 3.874]]], [[[73.456, 3.855], [73.456, 3.855], [73.456, 3.855], [73.456, 3.855]]], [[[72.956, 3.875], [72.956, 3.875], [72.956, 3.875], [72.956, 3.875]]], [[[73.367, 3.876], [73.367, 3.876], [73.367, 3.876], [73.367, 3.876]]], [[[72.728, 3.883], [72.728, 3.883], [72.728, 3.883], [72.728, 3.883]]], [[[72.815, 3.886], [72.815, 3.886], [72.815, 3.886], [72.815, 3.886]]], [[[72.889, 3.889], [72.889, 3.889], [72.889, 3.889], [72.889, 3.889]]], [[[73.471, 3.897], [73.471, 3.897], [73.471, 3.897], [73.471, 3.897]]], [[[73.473, 3.901], [73.473, 3.901], [73.473, 3.901], [73.473, 3.901]]], [[[73.456, 3.913], [73.456, 3.913], [73.456, 3.913], [73.456, 3.913]]], [[[73.47, 3.917], [73.47, 3.917], [73.47, 3.917], [73.47, 3.917]]], [[[72.746, 3.919], [72.746, 3.919], [72.746, 3.919], [72.746, 3.919]]], [[[73.458, 3.921], [73.458, 3.921], [73.458, 3.921], [73.458, 3.921]]], [[[73.488, 3.942], [73.488, 3.942], [73.488, 3.942], [73.488, 3.942]]], [[[72.88, 3.943], [72.88, 3.943], [72.88, 3.943], [72.88, 3.943]]], [[[73.356, 3.949], [73.356, 3.949], [73.356, 3.949], [73.356, 3.949]]], [[[72.948, 3.952], [72.948, 3.952], [72.948, 3.952], [72.948, 3.952]]], [[[72.912, 3.959], [72.912, 3.959], [72.912, 3.959], [72.912, 3.959]]], [[[72.912, 3.964], [72.912, 3.964], [72.912, 3.964], [72.912, 3.964]]], [[[73.506, 3.967], [73.506, 3.967], [73.506, 3.967], [73.506, 3.967]]], [[[73.503, 3.97], [73.503, 3.97], [73.503, 3.97], [73.503, 3.97]]], [[[73.507, 3.971], [73.507, 3.971], [73.507, 3.971], [73.507, 3.971]]], [[[73.502, 3.98], [73.502, 3.98], [73.502, 3.98], [73.502, 3.98]]], [[[72.724, 3.987], [72.724, 3.987], [72.724, 3.987], [72.724, 3.987]]], [[[72.948, 3.999], [72.948, 3.999], [72.948, 3.999], [72.948, 3.999]]], [[[72.883, 4.002], [72.883, 4.002], [72.883, 4.002], [72.883, 4.002]]], [[[72.949, 4.005], [72.949, 4.005], [72.949, 4.005], [72.949, 4.005]]], [[[72.957, 3.988], [72.957, 3.988], [72.957, 3.988], [72.957, 3.988]]], [[[73.508, 3.992], [73.508, 3.992], [73.508, 3.992], [73.508, 3.992]]], [[[72.811, 4.023], [72.811, 4.023], [72.811, 4.023], [72.811, 4.023]]], [[[72.918, 4.037], [72.918, 4.037], [72.918, 4.037], [72.918, 4.037]]], [[[72.723, 4.053], [72.723, 4.053], [72.723, 4.053], [72.723, 4.053]]], [[[73.411, 4.055], [73.411, 4.055], [73.411, 4.055], [73.411, 4.055]]], [[[72.947, 4.07], [72.947, 4.07], [72.947, 4.07], [72.947, 4.07]]], [[[72.888, 4.073], [72.888, 4.073], [72.888, 4.073], [72.888, 4.073]]], [[[73.513, 4.084], [73.513, 4.084], [73.513, 4.084], [73.513, 4.084]]], [[[73.505, 3.977], [73.505, 3.977], [73.505, 3.977], [73.505, 3.977]]], [[[73.506, 3.976], [73.506, 3.976], [73.506, 3.976], [73.506, 3.976]]], [[[73.468, 3.898], [73.468, 3.898], [73.468, 3.898], [73.468, 3.898]]], [[[72.898, 3.903], [72.898, 3.903], [72.898, 3.903], [72.898, 3.903]]], [[[73.356, 3.904], [73.356, 3.904], [73.356, 3.904], [73.356, 3.904]]], [[[73.012, 2.731], [73.012, 2.731], [73.012, 2.731], [73.012, 2.731]]], [[[72.887, 2.749], [72.887, 2.749], [72.887, 2.749], [72.887, 2.749]]], [[[73.179, 0.845], [73.179, 0.845], [73.179, 0.845], [73.179, 0.845]]], [[[73.408, 0.842], [73.408, 0.842], [73.408, 0.842], [73.408, 0.842]]], [[[73.208, 0.846], [73.208, 0.846], [73.208, 0.846], [73.208, 0.846]]], [[[73.179, 0.848], [73.179, 0.848], [73.179, 0.848], [73.179, 0.848]]], [[[73.243, 0.848], [73.243, 0.848], [73.243, 0.848], [73.243, 0.848]]], [[[73.201, 0.848], [73.201, 0.848], [73.201, 0.848], [73.201, 0.848]]], [[[73.526, 4.1], [73.526, 4.1], [73.526, 4.1], [73.526, 4.1]]], [[[72.747, 4.121], [72.747, 4.121], [72.747, 4.121], [72.747, 4.121]]], [[[73.458, 4.123], [73.458, 4.123], [73.458, 4.123], [73.458, 4.123]]], [[[73.458, 4.124], [73.458, 4.124], [73.458, 4.124], [73.458, 4.124]]], [[[72.936, 4.117], [72.936, 4.117], [72.936, 4.117], [72.936, 4.117]]], [[[72.942, 4.119], [72.942, 4.119], [72.942, 4.119], [72.942, 4.119]]], [[[73.436, 4.12], [73.436, 4.12], [73.436, 4.12], [73.436, 4.12]]], [[[72.733, 4.138], [72.733, 4.138], [72.733, 4.138], [72.733, 4.138]]], [[[72.749, 4.189], [72.749, 4.189], [72.749, 4.189], [72.749, 4.189]]], [[[72.751, 4.185], [72.751, 4.185], [72.751, 4.185], [72.751, 4.185]]], [[[73.412, 4.199], [73.412, 4.199], [73.412, 4.199], [73.412, 4.199]]], [[[72.753, 4.22], [72.753, 4.22], [72.753, 4.22], [72.753, 4.22]]], [[[72.865, 4.213], [72.865, 4.213], [72.865, 4.213], [72.865, 4.213]]], [[[73.486, 4.213], [73.486, 4.213], [73.486, 4.213], [73.486, 4.213]]], [[[72.884, 4.215], [72.884, 4.215], [72.884, 4.215], [72.884, 4.215]]], [[[73.393, 4.217], [73.393, 4.217], [73.393, 4.217], [73.393, 4.217]]], [[[73.547, 4.248], [73.547, 4.248], [73.547, 4.248], [73.547, 4.248]]], [[[73.548, 4.252], [73.548, 4.252], [73.548, 4.252], [73.548, 4.252]]], [[[73.541, 4.257], [73.541, 4.257], [73.541, 4.257], [73.541, 4.257]]], [[[72.979, 4.258], [72.979, 4.258], [72.979, 4.258], [72.979, 4.258]]], [[[73.537, 4.249], [73.537, 4.249], [73.537, 4.249], [73.537, 4.249]]], [[[73.535, 4.226], [73.535, 4.226], [73.535, 4.226], [73.535, 4.226]]], [[[73.52, 4.224], [73.52, 4.224], [73.52, 4.224], [73.52, 4.224]]], [[[73.494, 4.229], [73.494, 4.229], [73.494, 4.229], [73.494, 4.229]]], [[[73.536, 4.227], [73.536, 4.227], [73.536, 4.227], [73.536, 4.227]]], [[[73.501, 4.263], [73.501, 4.263], [73.501, 4.263], [73.501, 4.263]]], [[[73, 4.265], [73, 4.265], [73, 4.265], [73, 4.265]]], [[[73, 4.268], [73, 4.268], [73, 4.268], [73, 4.268]]], [[[73.489, 4.269], [73.489, 4.269], [73.489, 4.269], [73.489, 4.269]]], [[[73.003, 4.274], [73.003, 4.274], [73.003, 4.274], [73.003, 4.274]]], [[[73.007, 4.28], [73.007, 4.28], [73.007, 4.28], [73.007, 4.28]]], [[[73.426, 4.286], [73.426, 4.286], [73.426, 4.286], [73.426, 4.286]]], [[[73.551, 4.286], [73.551, 4.286], [73.551, 4.286], [73.551, 4.286]]], [[[73.553, 4.281], [73.553, 4.281], [73.553, 4.281], [73.553, 4.281]]], [[[73.555, 4.284], [73.555, 4.284], [73.555, 4.284], [73.555, 4.284]]], [[[73.553, 4.293], [73.553, 4.293], [73.553, 4.293], [73.553, 4.293]]], [[[73.557, 4.292], [73.557, 4.292], [73.557, 4.292], [73.557, 4.292]]], [[[73.011, 4.302], [73.011, 4.302], [73.011, 4.302], [73.011, 4.302]]], [[[73.555, 4.298], [73.555, 4.298], [73.555, 4.298], [73.555, 4.298]]], [[[73.38, 4.26], [73.38, 4.26], [73.38, 4.26], [73.38, 4.26]]], [[[72.991, 4.26], [72.991, 4.26], [72.991, 4.26], [72.991, 4.26]]], [[[73.487, 4.17], [73.487, 4.17], [73.487, 4.17], [73.487, 4.17]]], [[[73.519, 4.174], [73.519, 4.174], [73.519, 4.174], [73.519, 4.174]]], [[[72.766, 4.18], [72.766, 4.18], [72.766, 4.18], [72.766, 4.18]]], [[[73.525, 4.189], [73.525, 4.189], [73.525, 4.189], [73.525, 4.189]]], [[[73.525, 4.192], [73.525, 4.192], [73.525, 4.192], [73.525, 4.192]]], [[[73.515, 4.196], [73.515, 4.196], [73.515, 4.196], [73.515, 4.196]]], [[[72.817, 4.193], [72.817, 4.193], [72.817, 4.193], [72.817, 4.193]]], [[[73.457, 4.184], [73.457, 4.184], [73.457, 4.184], [73.457, 4.184]]], [[[73.518, 4.185], [73.518, 4.185], [73.518, 4.185], [73.518, 4.185]]], [[[73.447, 4.178], [73.447, 4.178], [73.447, 4.178], [73.447, 4.178]]], [[[73.437, 4.183], [73.437, 4.183], [73.437, 4.183], [73.437, 4.183]]], [[[72.772, 4.184], [72.772, 4.184], [72.772, 4.184], [72.772, 4.184]]], [[[73.437, 4.186], [73.437, 4.186], [73.437, 4.186], [73.437, 4.186]]], [[[73.528, 4.175], [73.541, 4.239], [73.552, 4.239], [73.528, 4.175]]], [[[73.417, 4.306], [73.417, 4.306], [73.417, 4.306], [73.417, 4.306]]], [[[73.424, 4.308], [73.424, 4.308], [73.424, 4.308], [73.424, 4.308]]], [[[73.506, 4.305], [73.506, 4.305], [73.506, 4.305], [73.506, 4.305]]], [[[73.58, 4.318], [73.58, 4.318], [73.58, 4.318], [73.58, 4.318]]], [[[73.576, 4.307], [73.576, 4.307], [73.576, 4.307], [73.576, 4.307]]], [[[73.488, 4.311], [73.488, 4.311], [73.488, 4.311], [73.488, 4.311]]], [[[73.597, 4.319], [73.597, 4.319], [73.597, 4.319], [73.597, 4.319]]], [[[73.594, 4.322], [73.594, 4.322], [73.594, 4.322], [73.594, 4.322]]], [[[73.611, 4.343], [73.611, 4.343], [73.611, 4.343], [73.611, 4.343]]], [[[73.606, 4.34], [73.606, 4.34], [73.606, 4.34], [73.606, 4.34]]], [[[73.596, 4.326], [73.596, 4.326], [73.596, 4.326], [73.596, 4.326]]], [[[73.596, 4.33], [73.596, 4.33], [73.596, 4.33], [73.596, 4.33]]], [[[73.6, 4.335], [73.6, 4.335], [73.6, 4.335], [73.6, 4.335]]], [[[73.592, 4.316], [73.592, 4.316], [73.592, 4.316], [73.592, 4.316]]], [[[73.584, 4.313], [73.584, 4.313], [73.584, 4.313], [73.584, 4.313]]], [[[73.583, 4.32], [73.583, 4.32], [73.583, 4.32], [73.583, 4.32]]], [[[73.61, 4.348], [73.61, 4.348], [73.61, 4.348], [73.61, 4.348]]], [[[73.618, 4.348], [73.618, 4.348], [73.618, 4.348], [73.618, 4.348]]], [[[73.615, 4.352], [73.615, 4.352], [73.615, 4.352], [73.615, 4.352]]], [[[73.615, 4.353], [73.615, 4.353], [73.615, 4.353], [73.615, 4.353]]], [[[73.625, 4.36], [73.625, 4.36], [73.625, 4.36], [73.625, 4.36]]], [[[73.369, 4.368], [73.369, 4.368], [73.369, 4.368], [73.369, 4.368]]], [[[73.409, 4.369], [73.409, 4.369], [73.409, 4.369], [73.409, 4.369]]], [[[73.663, 4.374], [73.663, 4.374], [73.663, 4.374], [73.663, 4.374]]], [[[73.351, 4.393], [73.351, 4.393], [73.351, 4.393], [73.351, 4.393]]], [[[73.381, 4.417], [73.381, 4.417], [73.381, 4.417], [73.381, 4.417]]], [[[73.384, 4.429], [73.384, 4.429], [73.384, 4.429], [73.384, 4.429]]], [[[72.964, 4.43], [72.964, 4.43], [72.964, 4.43], [72.964, 4.43]]], [[[73.712, 4.438], [73.712, 4.438], [73.712, 4.438], [73.712, 4.438]]], [[[73.716, 4.449], [73.716, 4.449], [73.716, 4.449], [73.716, 4.449]]], [[[73.655, 4.372], [73.655, 4.372], [73.655, 4.372], [73.655, 4.372]]], [[[73.654, 4.372], [73.654, 4.372], [73.654, 4.372], [73.654, 4.372]]], [[[73.66, 4.466], [73.66, 4.466], [73.66, 4.466], [73.66, 4.466]]], [[[73.368, 4.499], [73.368, 4.499], [73.368, 4.499], [73.368, 4.499]]], [[[73.391, 4.48], [73.391, 4.48], [73.391, 4.48], [73.391, 4.48]]], [[[73.393, 4.48], [73.393, 4.48], [73.393, 4.48], [73.393, 4.48]]], [[[73.37, 4.508], [73.37, 4.508], [73.37, 4.508], [73.37, 4.508]]], [[[73.373, 4.53], [73.373, 4.53], [73.373, 4.53], [73.373, 4.53]]], [[[73.407, 4.542], [73.407, 4.542], [73.407, 4.542], [73.407, 4.542]]], [[[73.57, 4.63], [73.57, 4.63], [73.57, 4.63], [73.57, 4.63]]], [[[73.562, 4.632], [73.562, 4.632], [73.562, 4.632], [73.562, 4.632]]], [[[73.401, 4.636], [73.401, 4.636], [73.401, 4.636], [73.401, 4.636]]], [[[73.502, 4.676], [73.502, 4.676], [73.502, 4.676], [73.502, 4.676]]], [[[73.452, 4.688], [73.452, 4.688], [73.452, 4.688], [73.452, 4.688]]], [[[73.487, 4.731], [73.487, 4.731], [73.487, 4.731], [73.487, 4.731]]], [[[73.401, 4.637], [73.401, 4.637], [73.401, 4.637], [73.401, 4.637]]], [[[73.416, 4.589], [73.416, 4.589], [73.416, 4.589], [73.416, 4.589]]], [[[73.591, 4.59], [73.591, 4.59], [73.591, 4.59], [73.591, 4.59]]], [[[73.5, 4.734], [73.5, 4.734], [73.5, 4.734], [73.5, 4.734]]], [[[72.999, 4.865], [72.999, 4.865], [72.999, 4.865], [72.999, 4.865]]], [[[72.877, 4.877], [72.877, 4.877], [72.877, 4.877], [72.877, 4.877]]], [[[72.888, 4.88], [72.888, 4.88], [72.888, 4.88], [72.888, 4.88]]], [[[72.976, 4.885], [72.976, 4.885], [72.976, 4.885], [72.976, 4.885]]], [[[72.927, 4.886], [72.927, 4.886], [72.927, 4.886], [72.927, 4.886]]], [[[72.891, 4.88], [72.891, 4.88], [72.891, 4.88], [72.891, 4.88]]], [[[72.977, 4.88], [72.977, 4.88], [72.977, 4.88], [72.977, 4.88]]], [[[72.903, 5], [72.903, 5], [72.903, 5], [72.903, 5]]], [[[73.456, 4.947], [73.456, 4.947], [73.456, 4.947], [73.456, 4.947]]], [[[73.44, 4.957], [73.44, 4.957], [73.44, 4.957], [73.44, 4.957]]], [[[73.45, 4.957], [73.45, 4.957], [73.45, 4.957], [73.45, 4.957]]], [[[72.925, 5.005], [72.925, 5.005], [72.925, 5.005], [72.925, 5.005]]], [[[72.86, 5.006], [72.86, 5.006], [72.86, 5.006], [72.86, 5.006]]], [[[72.939, 5.01], [72.939, 5.01], [72.939, 5.01], [72.939, 5.01]]], [[[72.966, 5.015], [72.966, 5.015], [72.966, 5.015], [72.966, 5.015]]], [[[72.971, 5.017], [72.971, 5.017], [72.971, 5.017], [72.971, 5.017]]], [[[72.84, 5.02], [72.84, 5.02], [72.84, 5.02], [72.84, 5.02]]], [[[72.991, 5.03], [72.991, 5.03], [72.991, 5.03], [72.991, 5.03]]], [[[72.881, 5.037], [72.881, 5.037], [72.881, 5.037], [72.881, 5.037]]], [[[72.838, 5.062], [72.838, 5.062], [72.838, 5.062], [72.838, 5.062]]], [[[73.032, 5.07], [73.032, 5.07], [73.032, 5.07], [73.032, 5.07]]], [[[72.876, 5.077], [72.876, 5.077], [72.876, 5.077], [72.876, 5.077]]], [[[73.065, 5.09], [73.065, 5.09], [73.065, 5.09], [73.065, 5.09]]], [[[73.074, 5.101], [73.074, 5.101], [73.074, 5.101], [73.074, 5.101]]], [[[73.083, 5.109], [73.083, 5.109], [73.083, 5.109], [73.083, 5.109]]], [[[73.086, 5.125], [73.086, 5.125], [73.086, 5.125], [73.086, 5.125]]], [[[72.912, 5.133], [72.912, 5.133], [72.912, 5.133], [72.912, 5.133]]], [[[73.032, 5.062], [73.032, 5.062], [73.032, 5.062], [73.032, 5.062]]], [[[72.858, 5.064], [72.858, 5.064], [72.858, 5.064], [72.858, 5.064]]], [[[73.111, 5.132], [73.111, 5.132], [73.111, 5.132], [73.111, 5.132]]], [[[73.117, 5.139], [73.117, 5.139], [73.117, 5.139], [73.117, 5.139]]], [[[72.977, 5.149], [72.977, 5.149], [72.977, 5.149], [72.977, 5.149]]], [[[73.136, 5.154], [73.136, 5.154], [73.136, 5.154], [73.136, 5.154]]], [[[73.056, 5.161], [73.056, 5.161], [73.056, 5.161], [73.056, 5.161]]], [[[73.058, 5.166], [73.058, 5.166], [73.058, 5.166], [73.058, 5.166]]], [[[72.926, 5.17], [72.926, 5.17], [72.926, 5.17], [72.926, 5.17]]], [[[73.1, 5.178], [73.1, 5.178], [73.1, 5.178], [73.1, 5.178]]], [[[73.032, 5.181], [73.032, 5.181], [73.032, 5.181], [73.032, 5.181]]], [[[72.935, 5.184], [72.935, 5.184], [72.935, 5.184], [72.935, 5.184]]], [[[73.165, 5.187], [73.165, 5.187], [73.165, 5.187], [73.165, 5.187]]], [[[73.133, 5.189], [73.133, 5.189], [73.133, 5.189], [73.133, 5.189]]], [[[73.123, 5.186], [73.123, 5.186], [73.123, 5.186], [73.123, 5.186]]], [[[73.134, 5.181], [73.134, 5.181], [73.134, 5.181], [73.134, 5.181]]], [[[72.922, 5.207], [72.922, 5.207], [72.922, 5.207], [72.922, 5.207]]], [[[73.086, 5.205], [73.086, 5.205], [73.086, 5.205], [73.086, 5.205]]], [[[73.152, 5.208], [73.152, 5.208], [73.152, 5.208], [73.152, 5.208]]], [[[72.857, 5.229], [72.857, 5.229], [72.857, 5.229], [72.857, 5.229]]], [[[73.16, 5.228], [73.16, 5.228], [73.16, 5.228], [73.16, 5.228]]], [[[72.88, 5.23], [72.88, 5.23], [72.88, 5.23], [72.88, 5.23]]], [[[73.128, 5.213], [73.128, 5.213], [73.128, 5.213], [73.128, 5.213]]], [[[73.155, 5.217], [73.155, 5.217], [73.155, 5.217], [73.155, 5.217]]], [[[73.14, 5.234], [73.14, 5.234], [73.14, 5.234], [73.14, 5.234]]], [[[73.168, 5.234], [73.168, 5.234], [73.168, 5.234], [73.168, 5.234]]], [[[73.193, 5.236], [73.193, 5.236], [73.193, 5.236], [73.193, 5.236]]], [[[73.192, 5.24], [73.192, 5.24], [73.192, 5.24], [73.192, 5.24]]], [[[73.192, 5.243], [73.192, 5.243], [73.192, 5.243], [73.192, 5.243]]], [[[73.517, 5.243], [73.517, 5.243], [73.517, 5.243], [73.517, 5.243]]], [[[73.153, 5.246], [73.153, 5.246], [73.153, 5.246], [73.153, 5.246]]], [[[72.894, 5.248], [72.894, 5.248], [72.894, 5.248], [72.894, 5.248]]], [[[73.163, 5.252], [73.163, 5.252], [73.163, 5.252], [73.163, 5.252]]], [[[73.156, 5.261], [73.156, 5.261], [73.156, 5.261], [73.156, 5.261]]], [[[73.56, 5.264], [73.56, 5.264], [73.56, 5.264], [73.56, 5.264]]], [[[73.129, 5.266], [73.129, 5.266], [73.129, 5.266], [73.129, 5.266]]], [[[73.161, 5.268], [73.161, 5.268], [73.161, 5.268], [73.161, 5.268]]], [[[73.571, 5.27], [73.571, 5.27], [73.571, 5.27], [73.571, 5.27]]], [[[73.117, 5.231], [73.117, 5.231], [73.117, 5.231], [73.117, 5.231]]], [[[72.946, 5.17], [72.946, 5.17], [72.946, 5.17], [72.946, 5.17]]], [[[72.997, 5.173], [72.997, 5.173], [72.997, 5.173], [72.997, 5.173]]], [[[72.951, 5.013], [72.951, 5.013], [72.951, 5.013], [72.951, 5.013]]], [[[72.961, 5.013], [72.961, 5.013], [72.961, 5.013], [72.961, 5.013]]], [[[72.997, 5.276], [72.997, 5.276], [72.997, 5.276], [72.997, 5.276]]], [[[73.621, 5.28], [73.621, 5.28], [73.621, 5.28], [73.621, 5.28]]], [[[73.019, 5.275], [73.019, 5.275], [73.019, 5.275], [73.019, 5.275]]], [[[73.619, 5.284], [73.619, 5.284], [73.619, 5.284], [73.619, 5.284]]], [[[73.112, 5.285], [73.112, 5.285], [73.112, 5.285], [73.112, 5.285]]], [[[72.994, 5.297], [72.994, 5.297], [72.994, 5.297], [72.994, 5.297]]], [[[73.137, 5.279], [73.137, 5.279], [73.137, 5.279], [73.137, 5.279]]], [[[73.501, 5.283], [73.501, 5.283], [73.501, 5.283], [73.501, 5.283]]], [[[73.489, 5.303], [73.489, 5.303], [73.489, 5.303], [73.489, 5.303]]], [[[73.487, 5.305], [73.487, 5.305], [73.487, 5.305], [73.487, 5.305]]], [[[73.078, 5.315], [73.078, 5.315], [73.078, 5.315], [73.078, 5.315]]], [[[73.474, 5.32], [73.474, 5.32], [73.474, 5.32], [73.474, 5.32]]], [[[73.085, 5.326], [73.085, 5.326], [73.085, 5.326], [73.085, 5.326]]], [[[73.658, 5.332], [73.658, 5.332], [73.658, 5.332], [73.658, 5.332]]], [[[73.648, 5.322], [73.648, 5.322], [73.648, 5.322], [73.648, 5.322]]], [[[72.953, 5.333], [72.953, 5.333], [72.953, 5.333], [72.953, 5.333]]], [[[72.968, 5.34], [72.968, 5.34], [72.968, 5.34], [72.968, 5.34]]], [[[73.079, 5.346], [73.079, 5.346], [73.079, 5.346], [73.079, 5.346]]], [[[73.654, 5.347], [73.654, 5.347], [73.654, 5.347], [73.654, 5.347]]], [[[72.991, 5.352], [72.991, 5.352], [72.991, 5.352], [72.991, 5.352]]], [[[73.65, 5.331], [73.65, 5.331], [73.65, 5.331], [73.65, 5.331]]], [[[73.465, 5.331], [73.465, 5.331], [73.465, 5.331], [73.465, 5.331]]], [[[73.058, 5.294], [73.058, 5.294], [73.058, 5.294], [73.058, 5.294]]], [[[72.956, 5.299], [72.956, 5.299], [72.956, 5.299], [72.956, 5.299]]], [[[72.968, 5.296], [72.968, 5.296], [72.968, 5.296], [72.968, 5.296]]], [[[73.07, 5.298], [73.07, 5.298], [73.07, 5.298], [73.07, 5.298]]], [[[73.432, 5.355], [73.432, 5.355], [73.432, 5.355], [73.432, 5.355]]], [[[72.876, 5.37], [72.876, 5.37], [72.876, 5.37], [72.876, 5.37]]], [[[72.919, 5.357], [72.919, 5.357], [72.919, 5.357], [72.919, 5.357]]], [[[73.425, 5.356], [73.425, 5.356], [73.425, 5.356], [73.425, 5.356]]], [[[73.335, 5.363], [73.335, 5.363], [73.335, 5.363], [73.335, 5.363]]], [[[73.408, 5.368], [73.408, 5.368], [73.408, 5.368], [73.408, 5.368]]], [[[73.375, 5.375], [73.375, 5.375], [73.375, 5.375], [73.375, 5.375]]], [[[73.394, 5.376], [73.394, 5.376], [73.394, 5.376], [73.394, 5.376]]], [[[72.954, 5.376], [72.954, 5.376], [72.954, 5.376], [72.954, 5.376]]], [[[72.899, 5.407], [72.899, 5.407], [72.899, 5.407], [72.899, 5.407]]], [[[72.98, 5.39], [72.98, 5.39], [72.98, 5.39], [72.98, 5.39]]], [[[72.99, 5.399], [72.99, 5.399], [72.99, 5.399], [72.99, 5.399]]], [[[72.9, 5.381], [72.9, 5.381], [72.9, 5.381], [72.9, 5.381]]], [[[73.631, 5.43], [73.631, 5.43], [73.631, 5.43], [73.631, 5.43]]], [[[73.621, 5.436], [73.621, 5.436], [73.621, 5.436], [73.621, 5.436]]], [[[72.942, 5.446], [72.942, 5.446], [72.942, 5.446], [72.942, 5.446]]], [[[73.038, 5.446], [73.038, 5.446], [73.038, 5.446], [73.038, 5.446]]], [[[73.582, 5.456], [73.582, 5.456], [73.582, 5.456], [73.582, 5.456]]], [[[72.905, 5.44], [72.905, 5.44], [72.905, 5.44], [72.905, 5.44]]], [[[73.611, 5.44], [73.611, 5.44], [73.611, 5.44], [73.611, 5.44]]], [[[73.367, 5.44], [73.367, 5.44], [73.367, 5.44], [73.367, 5.44]]], [[[73.648, 5.381], [73.648, 5.381], [73.648, 5.381], [73.648, 5.381]]], [[[73.353, 5.416], [73.353, 5.416], [73.353, 5.416], [73.353, 5.416]]], [[[73.646, 5.416], [73.646, 5.416], [73.646, 5.416], [73.646, 5.416]]], [[[73.022, 5.417], [73.022, 5.417], [73.022, 5.417], [73.022, 5.417]]], [[[73.032, 5.427], [73.032, 5.427], [73.032, 5.427], [73.032, 5.427]]], [[[73.359, 5.428], [73.359, 5.428], [73.359, 5.428], [73.359, 5.428]]], [[[73.07, 5.353], [73.07, 5.353], [73.07, 5.353], [73.07, 5.353]]], [[[73.653, 5.354], [73.653, 5.354], [73.653, 5.354], [73.653, 5.354]]], [[[73.426, 5.355], [73.426, 5.355], [73.426, 5.355], [73.426, 5.355]]], [[[72.887, 5.461], [72.887, 5.461], [72.887, 5.461], [72.887, 5.461]]], [[[72.915, 5.462], [72.915, 5.462], [72.915, 5.462], [72.915, 5.462]]], [[[73.563, 5.466], [73.563, 5.466], [73.563, 5.466], [73.563, 5.466]]], [[[72.947, 5.474], [72.947, 5.474], [72.947, 5.474], [72.947, 5.474]]], [[[73.043, 5.475], [73.043, 5.475], [73.043, 5.475], [73.043, 5.475]]], [[[73.382, 5.472], [73.382, 5.472], [73.382, 5.472], [73.382, 5.472]]], [[[72.898, 5.485], [72.898, 5.485], [72.898, 5.485], [72.898, 5.485]]], [[[73.515, 5.49], [73.515, 5.49], [73.515, 5.49], [73.515, 5.49]]], [[[72.976, 5.484], [72.976, 5.484], [72.976, 5.484], [72.976, 5.484]]], [[[73.403, 5.487], [73.403, 5.487], [73.403, 5.487], [73.403, 5.487]]], [[[73.434, 5.503], [73.434, 5.503], [73.434, 5.503], [73.434, 5.503]]], [[[72.978, 5.51], [72.978, 5.51], [72.978, 5.51], [72.978, 5.51]]], [[[72.85, 5.513], [72.85, 5.513], [72.85, 5.513], [72.85, 5.513]]], [[[72.825, 5.512], [72.825, 5.512], [72.825, 5.512], [72.825, 5.512]]], [[[72.971, 5.507], [72.971, 5.507], [72.971, 5.507], [72.971, 5.507]]], [[[73.042, 5.507], [73.042, 5.507], [73.042, 5.507], [73.042, 5.507]]], [[[72.907, 5.519], [72.907, 5.519], [72.907, 5.519], [72.907, 5.519]]], [[[73.442, 5.522], [73.442, 5.522], [73.442, 5.522], [73.442, 5.522]]], [[[72.841, 5.523], [72.841, 5.523], [72.841, 5.523], [72.841, 5.523]]], [[[72.808, 5.528], [72.808, 5.528], [72.808, 5.528], [72.808, 5.528]]], [[[73.437, 5.529], [73.437, 5.529], [73.437, 5.529], [73.437, 5.529]]], [[[73.045, 5.529], [73.045, 5.529], [73.045, 5.529], [73.045, 5.529]]], [[[72.938, 5.49], [72.938, 5.49], [72.938, 5.49], [72.938, 5.49]]], [[[73.425, 5.491], [73.425, 5.491], [73.425, 5.491], [73.425, 5.491]]], [[[73.409, 5.49], [73.409, 5.49], [73.409, 5.49], [73.409, 5.49]]], [[[73.041, 5.492], [73.041, 5.492], [73.041, 5.492], [73.041, 5.492]]], [[[72.879, 5.493], [72.879, 5.493], [72.879, 5.493], [72.879, 5.493]]], [[[73, 5.494], [73, 5.494], [73, 5.494], [73, 5.494]]], [[[73.504, 5.541], [73.504, 5.541], [73.504, 5.541], [73.504, 5.541]]], [[[73.501, 5.544], [73.501, 5.544], [73.501, 5.544], [73.501, 5.544]]], [[[72.878, 5.551], [72.878, 5.551], [72.878, 5.551], [72.878, 5.551]]], [[[72.885, 5.552], [72.885, 5.552], [72.885, 5.552], [72.885, 5.552]]], [[[73.047, 5.547], [73.047, 5.547], [73.047, 5.547], [73.047, 5.547]]], [[[73.465, 5.548], [73.465, 5.548], [73.465, 5.548], [73.465, 5.548]]], [[[72.947, 5.556], [72.947, 5.556], [72.947, 5.556], [72.947, 5.556]]], [[[73.482, 5.557], [73.482, 5.557], [73.482, 5.557], [73.482, 5.557]]], [[[73.045, 5.561], [73.045, 5.561], [73.045, 5.561], [73.045, 5.561]]], [[[72.929, 5.564], [72.929, 5.564], [72.929, 5.564], [72.929, 5.564]]], [[[72.83, 5.569], [72.83, 5.569], [72.83, 5.569], [72.83, 5.569]]], [[[72.87, 5.571], [72.87, 5.571], [72.87, 5.571], [72.87, 5.571]]], [[[72.956, 5.576], [72.956, 5.576], [72.956, 5.576], [72.956, 5.576]]], [[[72.908, 5.581], [72.908, 5.581], [72.908, 5.581], [72.908, 5.581]]], [[[73.047, 5.579], [73.047, 5.579], [73.047, 5.579], [73.047, 5.579]]], [[[72.927, 5.588], [72.927, 5.588], [72.927, 5.588], [72.927, 5.588]]], [[[72.833, 5.589], [72.833, 5.589], [72.833, 5.589], [72.833, 5.589]]], [[[72.915, 5.601], [72.915, 5.601], [72.915, 5.601], [72.915, 5.601]]], [[[72.862, 5.587], [72.862, 5.587], [72.862, 5.587], [72.862, 5.587]]], [[[73.483, 5.555], [73.483, 5.555], [73.483, 5.555], [73.483, 5.555]]], [[[73.49, 5.555], [73.49, 5.555], [73.49, 5.555], [73.49, 5.555]]], [[[73.506, 5.531], [73.506, 5.531], [73.506, 5.531], [73.506, 5.531]]], [[[72.985, 5.535], [72.985, 5.535], [72.985, 5.535], [72.985, 5.535]]], [[[72.944, 5.537], [72.944, 5.537], [72.944, 5.537], [72.944, 5.537]]], [[[72.981, 5.455], [72.981, 5.455], [72.981, 5.455], [72.981, 5.455]]], [[[72.958, 5.457], [72.958, 5.457], [72.958, 5.457], [72.958, 5.457]]], [[[72.871, 5.458], [72.871, 5.458], [72.871, 5.458], [72.871, 5.458]]], [[[73.369, 5.451], [73.369, 5.451], [73.369, 5.451], [73.369, 5.451]]], [[[73.04, 5.461], [73.04, 5.461], [73.04, 5.461], [73.04, 5.461]]], [[[72.919, 5.612], [72.919, 5.612], [72.919, 5.612], [72.919, 5.612]]], [[[72.856, 5.616], [72.856, 5.616], [72.856, 5.616], [72.856, 5.616]]], [[[72.852, 5.622], [72.852, 5.622], [72.852, 5.622], [72.852, 5.622]]], [[[72.936, 5.625], [72.936, 5.625], [72.936, 5.625], [72.936, 5.625]]], [[[73.042, 5.64], [73.042, 5.64], [73.042, 5.64], [73.042, 5.64]]], [[[72.895, 5.639], [72.895, 5.639], [72.895, 5.639], [72.895, 5.639]]], [[[72.841, 5.642], [72.841, 5.642], [72.841, 5.642], [72.841, 5.642]]], [[[72.989, 5.642], [72.989, 5.642], [72.989, 5.642], [72.989, 5.642]]], [[[73.327, 5.645], [73.327, 5.645], [73.327, 5.645], [73.327, 5.645]]], [[[72.925, 5.629], [72.925, 5.629], [72.925, 5.629], [72.925, 5.629]]], [[[73.045, 5.623], [73.045, 5.623], [73.045, 5.623], [73.045, 5.623]]], [[[72.862, 5.628], [72.862, 5.628], [72.862, 5.628], [72.862, 5.628]]], [[[72.889, 5.63], [72.889, 5.63], [72.889, 5.63], [72.889, 5.63]]], [[[73.372, 5.659], [73.372, 5.659], [73.372, 5.659], [73.372, 5.659]]], [[[72.854, 5.662], [72.854, 5.662], [72.854, 5.662], [72.854, 5.662]]], [[[72.958, 5.659], [72.958, 5.659], [72.958, 5.659], [72.958, 5.659]]], [[[72.847, 5.668], [72.847, 5.668], [72.847, 5.668], [72.847, 5.668]]], [[[73.382, 5.664], [73.382, 5.664], [73.382, 5.664], [73.382, 5.664]]], [[[73.389, 5.669], [73.389, 5.669], [73.389, 5.669], [73.389, 5.669]]], [[[73.405, 5.686], [73.405, 5.686], [73.405, 5.686], [73.405, 5.686]]], [[[73.254, 5.689], [73.254, 5.689], [73.254, 5.689], [73.254, 5.689]]], [[[73.278, 5.665], [73.278, 5.665], [73.278, 5.665], [73.278, 5.665]]], [[[73.033, 5.665], [73.033, 5.665], [73.033, 5.665], [73.033, 5.665]]], [[[73.278, 5.665], [73.278, 5.665], [73.278, 5.665], [73.278, 5.665]]], [[[73.277, 5.66], [73.277, 5.66], [73.277, 5.66], [73.277, 5.66]]], [[[73.296, 5.649], [73.296, 5.649], [73.296, 5.649], [73.296, 5.649]]], [[[72.886, 5.649], [72.886, 5.649], [72.886, 5.649], [72.886, 5.649]]], [[[73.345, 5.695], [73.345, 5.695], [73.345, 5.695], [73.345, 5.695]]], [[[73.313, 5.694], [73.313, 5.694], [73.313, 5.694], [73.313, 5.694]]], [[[73.336, 5.698], [73.336, 5.698], [73.336, 5.698], [73.336, 5.698]]], [[[73.412, 5.699], [73.412, 5.699], [73.412, 5.699], [73.412, 5.699]]], [[[73.407, 5.69], [73.407, 5.69], [73.407, 5.69], [73.407, 5.69]]], [[[73.336, 5.7], [73.336, 5.7], [73.336, 5.7], [73.336, 5.7]]], [[[73.412, 5.706], [73.412, 5.706], [73.412, 5.706], [73.412, 5.706]]], [[[73.027, 5.702], [73.027, 5.702], [73.027, 5.702], [73.027, 5.702]]], [[[73.244, 5.708], [73.244, 5.708], [73.244, 5.708], [73.244, 5.708]]], [[[73.413, 5.706], [73.413, 5.706], [73.413, 5.706], [73.413, 5.706]]], [[[72.857, 5.724], [72.857, 5.724], [72.857, 5.724], [72.857, 5.724]]], [[[73.236, 5.716], [73.236, 5.716], [73.236, 5.716], [73.236, 5.716]]], [[[73.413, 5.703], [73.413, 5.703], [73.413, 5.703], [73.413, 5.703]]], [[[73.408, 5.699], [73.408, 5.699], [73.408, 5.699], [73.408, 5.699]]], [[[73.019, 5.738], [73.019, 5.738], [73.019, 5.738], [73.019, 5.738]]], [[[72.867, 5.748], [72.867, 5.748], [72.867, 5.748], [72.867, 5.748]]], [[[73.217, 5.741], [73.217, 5.741], [73.217, 5.741], [73.217, 5.741]]], [[[73.326, 5.741], [73.326, 5.741], [73.326, 5.741], [73.326, 5.741]]], [[[72.939, 5.758], [72.939, 5.758], [72.939, 5.758], [72.939, 5.758]]], [[[72.963, 5.749], [72.963, 5.749], [72.963, 5.749], [72.963, 5.749]]], [[[73.017, 5.747], [73.017, 5.747], [73.017, 5.747], [73.017, 5.747]]], [[[73.263, 5.752], [73.263, 5.752], [73.263, 5.752], [73.263, 5.752]]], [[[73.249, 5.749], [73.249, 5.749], [73.249, 5.749], [73.249, 5.749]]], [[[73.209, 5.753], [73.209, 5.753], [73.209, 5.753], [73.209, 5.753]]], [[[72.936, 5.729], [72.936, 5.729], [72.936, 5.729], [72.936, 5.729]]], [[[73.364, 5.726], [73.364, 5.726], [73.364, 5.726], [73.364, 5.726]]], [[[72.92, 5.731], [72.92, 5.731], [72.92, 5.731], [72.92, 5.731]]], [[[73.413, 5.732], [73.413, 5.732], [73.413, 5.732], [73.413, 5.732]]], [[[73.341, 5.69], [73.341, 5.69], [73.341, 5.69], [73.341, 5.69]]], [[[73.345, 5.693], [73.345, 5.693], [73.345, 5.693], [73.345, 5.693]]], [[[73.028, 5.689], [73.028, 5.689], [73.028, 5.689], [73.028, 5.689]]], [[[72.876, 5.78], [72.876, 5.78], [72.876, 5.78], [72.876, 5.78]]], [[[73.012, 5.775], [73.012, 5.775], [73.012, 5.775], [73.012, 5.775]]], [[[73.277, 5.784], [73.277, 5.784], [73.277, 5.784], [73.277, 5.784]]], [[[73.354, 5.787], [73.354, 5.787], [73.354, 5.787], [73.354, 5.787]]], [[[73.365, 5.789], [73.365, 5.789], [73.365, 5.789], [73.365, 5.789]]], [[[73.299, 5.8], [73.299, 5.8], [73.299, 5.8], [73.299, 5.8]]], [[[73.008, 5.789], [73.008, 5.789], [73.008, 5.789], [73.008, 5.789]]], [[[73.228, 5.795], [73.228, 5.795], [73.228, 5.795], [73.228, 5.795]]], [[[73.346, 5.796], [73.346, 5.796], [73.346, 5.796], [73.346, 5.796]]], [[[73.387, 5.82], [73.387, 5.82], [73.387, 5.82], [73.387, 5.82]]], [[[73.458, 5.808], [73.458, 5.808], [73.458, 5.808], [73.458, 5.808]]], [[[73.208, 5.829], [73.208, 5.829], [73.208, 5.829], [73.208, 5.829]]], [[[72.903, 5.842], [72.903, 5.842], [72.903, 5.842], [72.903, 5.842]]], [[[73.447, 5.843], [73.447, 5.843], [73.447, 5.843], [73.447, 5.843]]], [[[73.337, 5.85], [73.337, 5.85], [73.337, 5.85], [73.337, 5.85]]], [[[73.307, 5.835], [73.307, 5.835], [73.307, 5.835], [73.307, 5.835]]], [[[73.475, 5.865], [73.475, 5.865], [73.475, 5.865], [73.475, 5.865]]], [[[73.466, 5.876], [73.466, 5.876], [73.466, 5.876], [73.466, 5.876]]], [[[73.481, 5.857], [73.481, 5.857], [73.481, 5.857], [73.481, 5.857]]], [[[73.001, 5.811], [73.001, 5.811], [73.001, 5.811], [73.001, 5.811]]], [[[73.38, 5.812], [73.38, 5.812], [73.38, 5.812], [73.38, 5.812]]], [[[73.328, 5.814], [73.328, 5.814], [73.328, 5.814], [73.328, 5.814]]], [[[73.32, 5.814], [73.32, 5.814], [73.32, 5.814], [73.32, 5.814]]], [[[73.174, 5.802], [73.174, 5.802], [73.174, 5.802], [73.174, 5.802]]], [[[73.457, 5.896], [73.457, 5.896], [73.457, 5.896], [73.457, 5.896]]], [[[73.315, 5.91], [73.315, 5.91], [73.315, 5.91], [73.315, 5.91]]], [[[73.157, 5.92], [73.157, 5.92], [73.157, 5.92], [73.157, 5.92]]], [[[73.436, 5.919], [73.436, 5.919], [73.436, 5.919], [73.436, 5.919]]], [[[73.387, 5.961], [73.387, 5.961], [73.387, 5.961], [73.387, 5.961]]], [[[73.394, 5.966], [73.394, 5.966], [73.394, 5.966], [73.394, 5.966]]], [[[73.37, 5.963], [73.37, 5.963], [73.37, 5.963], [73.37, 5.963]]], [[[73.306, 5.948], [73.306, 5.948], [73.306, 5.948], [73.306, 5.948]]], [[[73.422, 5.948], [73.422, 5.948], [73.422, 5.948], [73.422, 5.948]]], [[[73.134, 5.954], [73.134, 5.954], [73.134, 5.954], [73.134, 5.954]]], [[[73.111, 5.979], [73.111, 5.979], [73.111, 5.979], [73.111, 5.979]]], [[[73.325, 5.981], [73.325, 5.981], [73.325, 5.981], [73.325, 5.981]]], [[[73.224, 5.993], [73.224, 5.993], [73.224, 5.993], [73.224, 5.993]]], [[[73.223, 5.995], [73.223, 5.995], [73.223, 5.995], [73.223, 5.995]]], [[[73.221, 5.996], [73.221, 5.996], [73.221, 5.996], [73.221, 5.996]]], [[[72.958, 5.965], [72.958, 5.965], [72.958, 5.965], [72.958, 5.965]]], [[[72.956, 5.964], [72.956, 5.964], [72.956, 5.964], [72.956, 5.964]]], [[[73.126, 5.967], [73.126, 5.967], [73.126, 5.967], [73.126, 5.967]]], [[[72.937, 5.978], [72.937, 5.978], [72.937, 5.978], [72.937, 5.978]]], [[[73.344, 5.97], [73.344, 5.97], [73.344, 5.97], [73.344, 5.97]]], [[[72.994, 5.849], [72.994, 5.849], [72.994, 5.849], [72.994, 5.849]]], [[[73.207, 5.862], [73.207, 5.862], [73.207, 5.862], [73.207, 5.862]]], [[[73.143, 5.871], [73.143, 5.871], [73.143, 5.871], [73.143, 5.871]]], [[[73.346, 5.874], [73.346, 5.874], [73.346, 5.874], [73.346, 5.874]]], [[[73.399, 5.88], [73.399, 5.88], [73.399, 5.88], [73.399, 5.88]]], [[[73.369, 5.86], [73.369, 5.86], [73.369, 5.86], [73.369, 5.86]]], [[[72.937, 5.907], [72.937, 5.907], [72.937, 5.907], [72.937, 5.907]]], [[[73.38, 5.882], [73.38, 5.882], [73.38, 5.882], [73.38, 5.882]]], [[[73.319, 5.887], [73.319, 5.887], [73.319, 5.887], [73.319, 5.887]]], [[[73.412, 5.76], [73.412, 5.76], [73.412, 5.76], [73.412, 5.76]]], [[[72.893, 5.766], [72.893, 5.766], [72.893, 5.766], [72.893, 5.766]]], [[[72.966, 5.766], [72.966, 5.766], [72.966, 5.766], [72.966, 5.766]]], [[[73.015, 5.758], [73.015, 5.758], [73.015, 5.758], [73.015, 5.758]]], [[[73.343, 5.765], [73.343, 5.765], [73.343, 5.765], [73.343, 5.765]]], [[[73.364, 5.774], [73.364, 5.774], [73.364, 5.774], [73.364, 5.774]]], [[[73.047, 5.602], [73.047, 5.602], [73.047, 5.602], [73.047, 5.602]]], [[[72.954, 5.607], [72.954, 5.607], [72.954, 5.607], [72.954, 5.607]]], [[[72.99, 5.608], [72.99, 5.608], [72.99, 5.608], [72.99, 5.608]]], [[[72.973, 5.609], [72.973, 5.609], [72.973, 5.609], [72.973, 5.609]]], [[[73.114, 6.005], [73.114, 6.005], [73.114, 6.005], [73.114, 6.005]]], [[[73.297, 6.012], [73.297, 6.012], [73.297, 6.012], [73.297, 6.012]]], [[[73.07, 6.028], [73.07, 6.028], [73.07, 6.028], [73.07, 6.028]]], [[[73.287, 6.035], [73.287, 6.035], [73.287, 6.035], [73.287, 6.035]]], [[[73.09, 6.018], [73.09, 6.018], [73.09, 6.018], [73.09, 6.018]]], [[[73.071, 6.028], [73.071, 6.028], [73.071, 6.028], [73.071, 6.028]]], [[[73.047, 6.055], [73.047, 6.055], [73.047, 6.055], [73.047, 6.055]]], [[[73.286, 6.075], [73.286, 6.075], [73.286, 6.075], [73.286, 6.075]]], [[[73.044, 6.071], [73.044, 6.071], [73.044, 6.071], [73.044, 6.071]]], [[[73.045, 6.064], [73.045, 6.064], [73.045, 6.064], [73.045, 6.064]]], [[[73.203, 6.092], [73.203, 6.092], [73.203, 6.092], [73.203, 6.092]]], [[[73.288, 6.098], [73.288, 6.098], [73.288, 6.098], [73.288, 6.098]]], [[[73.228, 6.112], [73.228, 6.112], [73.228, 6.112], [73.228, 6.112]]], [[[73.054, 6.052], [73.054, 6.052], [73.054, 6.052], [73.054, 6.052]]], [[[73.037, 6.128], [73.037, 6.128], [73.037, 6.128], [73.037, 6.128]]], [[[73.036, 6.14], [73.036, 6.14], [73.036, 6.14], [73.036, 6.14]]], [[[73.293, 6.149], [73.293, 6.149], [73.293, 6.149], [73.293, 6.149]]], [[[73.255, 6.163], [73.255, 6.163], [73.255, 6.163], [73.255, 6.163]]], [[[73.03, 6.195], [73.03, 6.195], [73.03, 6.195], [73.03, 6.195]]], [[[73.299, 6.189], [73.299, 6.189], [73.299, 6.189], [73.299, 6.189]]], [[[73.248, 6.187], [73.248, 6.187], [73.248, 6.187], [73.248, 6.187]]], [[[73.3, 6.189], [73.3, 6.189], [73.3, 6.189], [73.3, 6.189]]], [[[72.998, 6.205], [72.998, 6.205], [72.998, 6.205], [72.998, 6.205]]], [[[73.063, 6.208], [73.063, 6.208], [73.063, 6.208], [73.063, 6.208]]], [[[73.242, 6.227], [73.242, 6.227], [73.242, 6.227], [73.242, 6.227]]], [[[73.27, 6.231], [73.27, 6.231], [73.27, 6.231], [73.27, 6.231]]], [[[73.219, 6.261], [73.219, 6.261], [73.219, 6.261], [73.219, 6.261]]], [[[73.256, 6.125], [73.256, 6.125], [73.256, 6.125], [73.256, 6.125]]], [[[73.108, 6.296], [73.108, 6.296], [73.108, 6.296], [73.108, 6.296]]], [[[72.639, 6.316], [72.639, 6.316], [72.639, 6.316], [72.639, 6.316]]], [[[73.229, 6.326], [73.229, 6.326], [73.229, 6.326], [73.229, 6.326]]], [[[73.21, 6.344], [73.21, 6.344], [73.21, 6.344], [73.21, 6.344]]], [[[73.049, 6.356], [73.049, 6.356], [73.049, 6.356], [73.049, 6.356]]], [[[73.149, 6.322], [73.149, 6.322], [73.149, 6.322], [73.149, 6.322]]], [[[72.969, 6.333], [72.969, 6.333], [72.969, 6.333], [72.969, 6.333]]], [[[72.926, 6.393], [72.926, 6.393], [72.926, 6.393], [72.926, 6.393]]], [[[72.696, 6.395], [72.696, 6.395], [72.696, 6.395], [72.696, 6.395]]], [[[72.645, 6.408], [72.645, 6.408], [72.645, 6.408], [72.645, 6.408]]], [[[72.7, 6.403], [72.7, 6.403], [72.7, 6.403], [72.7, 6.403]]], [[[72.927, 6.426], [72.927, 6.426], [72.927, 6.426], [72.927, 6.426]]], [[[73.07, 6.432], [73.07, 6.432], [73.07, 6.432], [73.07, 6.432]]], [[[72.907, 6.435], [72.907, 6.435], [72.907, 6.435], [72.907, 6.435]]], [[[72.908, 6.437], [72.908, 6.437], [72.908, 6.437], [72.908, 6.437]]], [[[73.059, 6.448], [73.059, 6.448], [73.059, 6.448], [73.059, 6.448]]], [[[72.903, 6.476], [72.903, 6.476], [72.903, 6.476], [72.903, 6.476]]], [[[73.054, 6.513], [73.054, 6.513], [73.054, 6.513], [73.054, 6.513]]], [[[72.904, 6.538], [72.904, 6.538], [72.904, 6.538], [72.904, 6.538]]], [[[72.957, 6.547], [72.957, 6.547], [72.957, 6.547], [72.957, 6.547]]], [[[72.983, 6.566], [72.983, 6.566], [72.983, 6.566], [72.983, 6.566]]], [[[73.054, 6.561], [73.054, 6.561], [73.054, 6.561], [73.054, 6.561]]], [[[72.98, 6.536], [72.98, 6.536], [72.98, 6.536], [72.98, 6.536]]], [[[73.012, 6.597], [73.012, 6.597], [73.012, 6.597], [73.012, 6.597]]], [[[73.072, 6.612], [73.072, 6.612], [73.072, 6.612], [73.072, 6.612]]], [[[72.921, 6.641], [72.921, 6.641], [72.921, 6.641], [72.921, 6.641]]], [[[73.082, 6.653], [73.082, 6.653], [73.082, 6.653], [73.082, 6.653]]], [[[72.997, 6.662], [72.997, 6.662], [72.997, 6.662], [72.997, 6.662]]], [[[72.894, 6.666], [72.894, 6.666], [72.894, 6.666], [72.894, 6.666]]], [[[72.938, 6.655], [72.938, 6.655], [72.938, 6.655], [72.938, 6.655]]], [[[73.028, 6.654], [73.028, 6.654], [73.028, 6.654], [73.028, 6.654]]], [[[73.199, 6.279], [73.199, 6.279], [73.199, 6.279], [73.199, 6.279]]], [[[73.15, 6.281], [73.15, 6.281], [73.15, 6.281], [73.15, 6.281]]], [[[73.013, 6.283], [73.013, 6.283], [73.013, 6.283], [73.013, 6.283]]], [[[73.249, 6.285], [73.249, 6.285], [73.249, 6.285], [73.249, 6.285]]], [[[73.111, 6.677], [73.111, 6.677], [73.111, 6.677], [73.111, 6.677]]], [[[73.114, 6.7], [73.114, 6.7], [73.114, 6.7], [73.114, 6.7]]], [[[72.95, 6.701], [72.95, 6.701], [72.95, 6.701], [72.95, 6.701]]], [[[72.901, 6.705], [72.901, 6.705], [72.901, 6.705], [72.901, 6.705]]], [[[72.926, 6.712], [72.926, 6.712], [72.926, 6.712], [72.926, 6.712]]], [[[72.948, 6.712], [72.948, 6.712], [72.948, 6.712], [72.948, 6.712]]], [[[73.168, 6.74], [73.168, 6.74], [73.168, 6.74], [73.168, 6.74]]], [[[72.938, 6.754], [72.938, 6.754], [72.938, 6.754], [72.938, 6.754]]], [[[73.054, 6.782], [73.054, 6.782], [73.054, 6.782], [73.054, 6.782]]], [[[72.939, 6.758], [72.939, 6.758], [72.939, 6.758], [72.939, 6.758]]], [[[73.127, 6.772], [73.127, 6.772], [73.127, 6.772], [73.127, 6.772]]], [[[73.088, 6.767], [73.088, 6.767], [73.088, 6.767], [73.088, 6.767]]], [[[73.027, 6.722], [73.027, 6.722], [73.027, 6.722], [73.027, 6.722]]], [[[73.035, 6.735], [73.035, 6.735], [73.035, 6.735], [73.035, 6.735]]], [[[72.935, 6.743], [72.935, 6.743], [72.935, 6.743], [72.935, 6.743]]], [[[73.056, 6.739], [73.056, 6.739], [73.056, 6.739], [73.056, 6.739]]], [[[73.2, 6.817], [73.2, 6.817], [73.2, 6.817], [73.2, 6.817]]], [[[73.158, 6.823], [73.158, 6.823], [73.158, 6.823], [73.158, 6.823]]], [[[73.109, 6.835], [73.109, 6.835], [73.109, 6.835], [73.109, 6.835]]], [[[73.014, 6.831], [73.014, 6.831], [73.014, 6.831], [73.014, 6.831]]], [[[73.17, 6.839], [73.17, 6.839], [73.17, 6.839], [73.17, 6.839]]], [[[72.984, 6.848], [72.984, 6.848], [72.984, 6.848], [72.984, 6.848]]], [[[73.102, 6.861], [73.102, 6.861], [73.102, 6.861], [73.102, 6.861]]], [[[73.158, 6.895], [73.158, 6.895], [73.158, 6.895], [73.158, 6.895]]], [[[73.212, 6.915], [73.212, 6.915], [73.212, 6.915], [73.212, 6.915]]], [[[73.118, 6.88], [73.118, 6.88], [73.118, 6.88], [73.118, 6.88]]], [[[73.126, 6.893], [73.126, 6.893], [73.126, 6.893], [73.126, 6.893]]], [[[72.997, 6.84], [72.997, 6.84], [72.997, 6.84], [72.997, 6.84]]], [[[73.152, 6.851], [73.152, 6.851], [73.152, 6.851], [73.152, 6.851]]], [[[73.055, 6.838], [73.055, 6.838], [73.055, 6.838], [73.055, 6.838]]], [[[73.134, 6.927], [73.134, 6.927], [73.134, 6.927], [73.134, 6.927]]], [[[72.984, 6.944], [72.984, 6.944], [72.984, 6.944], [72.984, 6.944]]], [[[73.21, 6.962], [73.21, 6.962], [73.21, 6.962], [73.21, 6.962]]], [[[72.928, 6.949], [72.928, 6.949], [72.928, 6.949], [72.928, 6.949]]], [[[72.908, 6.953], [72.908, 6.953], [72.908, 6.953], [72.908, 6.953]]], [[[72.902, 6.969], [72.902, 6.969], [72.902, 6.969], [72.902, 6.969]]], [[[72.886, 6.988], [72.886, 6.988], [72.886, 6.988], [72.886, 6.988]]], [[[72.941, 6.995], [72.941, 6.995], [72.941, 6.995], [72.941, 6.995]]], [[[72.877, 6.993], [72.877, 6.993], [72.877, 6.993], [72.877, 6.993]]], [[[72.853, 7.009], [72.853, 7.009], [72.853, 7.009], [72.853, 7.009]]], [[[73, 7.004], [73, 7.004], [73, 7.004], [73, 7.004]]], [[[72.934, 7.009], [72.934, 7.009], [72.934, 7.009], [72.934, 7.009]]], [[[72.919, 7.012], [72.919, 7.012], [72.919, 7.012], [72.919, 7.012]]], [[[72.865, 7.001], [72.865, 7.001], [72.865, 7.001], [72.865, 7.001]]], [[[72.893, 6.987], [72.893, 6.987], [72.893, 6.987], [72.893, 6.987]]], [[[72.831, 7.019], [72.831, 7.019], [72.831, 7.019], [72.831, 7.019]]], [[[72.821, 7.027], [72.821, 7.027], [72.821, 7.027], [72.821, 7.027]]], [[[72.989, 7.035], [72.989, 7.035], [72.989, 7.035], [72.989, 7.035]]], [[[72.973, 7.045], [72.973, 7.045], [72.973, 7.045], [72.973, 7.045]]], [[[72.955, 7.052], [72.955, 7.052], [72.955, 7.052], [72.955, 7.052]]], [[[72.813, 7.079], [72.813, 7.079], [72.813, 7.079], [72.813, 7.079]]], [[[72.877, 7.091], [72.877, 7.091], [72.877, 7.091], [72.877, 7.091]]], [[[72.93, 7.084], [72.93, 7.084], [72.93, 7.084], [72.93, 7.084]]], [[[72.9, 7.102], [72.9, 7.102], [72.9, 7.102], [72.9, 7.102]]], [[[73.23, 6.87], [73.23, 6.87], [73.23, 6.87], [73.23, 6.87]]], [[[72.971, 6.925], [72.971, 6.925], [72.971, 6.925], [72.971, 6.925]]], [[[73.128, 6.924], [73.128, 6.924], [73.128, 6.924], [73.128, 6.924]]], [[[73.21, 5.989], [73.21, 5.989], [73.21, 5.989], [73.21, 5.989]]], [[[73.299, 6], [73.299, 6], [73.299, 6], [73.299, 6]]], [[[73.584, 5.271], [73.584, 5.271], [73.584, 5.271], [73.584, 5.271]]], [[[73.034, 5.273], [73.034, 5.273], [73.034, 5.273], [73.034, 5.273]]], [[[73.044, 5.273], [73.044, 5.273], [73.044, 5.273], [73.044, 5.273]]], [[[73.025, 5.276], [73.025, 5.276], [73.025, 5.276], [73.025, 5.276]]], [[[73.011, 5.273], [73.011, 5.273], [73.011, 5.273], [73.011, 5.273]]], [[[73.603, 5.274], [73.603, 5.274], [73.603, 5.274], [73.603, 5.274]]], [[[72.754, 4.096], [72.754, 4.096], [72.754, 4.096], [72.754, 4.096]]], [[[73.402, 4.095], [73.402, 4.095], [73.402, 4.095], [73.402, 4.095]]]]}}