{"type": "Feature", "properties": {"name": "Uzbekistan", "iso1": "UZ", "admin_level": 2, "osm_id": 196240, "countrylevel_id": "iso1:UZ", "osm_data": {"localname": "Oʻzbekiston", "official_name": "O‘zbekiston Respublikasi", "alltags": {"flag": "http://upload.wikimedia.org/wikipedia/commons/8/84/Flag_of_Uzbekistan.svg", "name:af": "Oesbekistan", "name:am": "ኡዝቤኪስታን", "name:an": "Uzbekistán", "name:ar": "أوزبكستان", "name:az": "Özbəkistan", "name:ba": "Үзбәкстан", "name:be": "Узбекістан", "name:bg": "Узбекистан", "name:bn": "উজবেকিস্তান", "name:bo": "ཨུ་ཟ་བྷེ་ཁི་སི་ཐན།", "name:br": "Ouzbekistan", "name:bs": "Uzbekistan", "name:ca": "Uzbekistan", "name:ce": "Узбекистан", "name:cs": "Uzbekistán", "name:cv": "Ӳспекстан", "name:cy": "Uzbekistan", "name:da": "Usbekistan", "name:dv": "އުޒްބެކިސްތާން", "name:dz": "ཨུཛ་བེ་ཀིསི་ཏཱན་", "name:ee": "Uzbekistan", "name:el": "Ουζμπεκιστάν", "name:en": "Uzbekistan", "name:eo": "Uzbekujo", "name:es": "Uzbekistán", "name:et": "Usbekistan", "name:eu": "Uzbekistan", "name:fa": "ازبکستان", "name:fi": "Uzbekistan", "name:fo": "Usbekistan", "name:fr": "Ouzbékistan", "name:fy": "Oezbekistan", "name:ga": "An Úisbéiceastáin", "name:gd": "Usbagastàn", "name:gl": "Uzbequistán", "name:gu": "ઉઝબેકિસ્તાન", "name:gv": "Yn Oosbeckistaan", "name:he": "אוזבקיסטן", "name:hi": "उज़्बेकिस्तान", "name:hr": "Uzbekistan", "name:ht": "Ouzbekistan", "name:hu": "Üzbegisztán", "name:hy": "Ուզբեկստան", "name:ia": "Uzbekistan", "name:id": "Uzbekistan", "name:ie": "Uzbekistan", "name:io": "Uzbekistan", "name:is": "Úsbekistan", "name:it": "Uzbekistan", "name:ja": "ウズベキスタン", "name:jv": "Uzbekistan", "name:ka": "უზბეკეთი", "name:kk": "Өзбекстан", "name:kn": "ಉಜ್ಬೇಕಿಸ್ಥಾನ್", "name:ko": "우즈베키스탄", "name:ku": "Ûzbêkistan", "name:kv": "Узбекистан", "name:kw": "Pow Ousbek", "name:ky": "Өзбекстан", "name:la": "Uzbecia", "name:lb": "Usbekistan", "name:li": "Oesbekistan", "name:ln": "Uzbekistáni", "name:lt": "Uzbekija", "name:lv": "Uzbekistāna", "name:mk": "Узбекистан", "name:ml": "ഉസ്ബെക്കിസ്ഥാൻ", "name:mn": "Узбекистан", "name:mr": "उझबेकिस्तान", "name:ms": "Uzbekistan", "name:my": "ဥဇဘက်ကစ္စတန်နိုင်ငံ", "name:na": "Uzbekistan", "name:nl": "Oezbekistan", "name:nn": "Usbekistan", "name:no": "Usbekistan", "name:nv": "Ózbeʼ Bikéyah", "name:oc": "Ozbequistan", "name:or": "ଉଜବେକିସ୍ଥାନ", "name:os": "Узбекистан", "name:pa": "ਉਜ਼ਬੇਕਿਸਤਾਨ", "name:pl": "Uzbekistan", "name:ps": "اوزبکستان", "name:pt": "Uzbequistão", "name:qu": "Usbiksuyu", "name:ro": "Uzbekistan", "name:ru": "Узбекистан", "name:rw": "Uzubekisitani", "name:sa": "उजबेकिस्थान", "name:sd": "ازبڪستان", "name:se": "Usbekistan", "name:sh": "Uzbekistan", "name:sk": "Uzbekistan", "name:sl": "Uzbekistan", "name:so": "Usbekistan", "name:sq": "Uzbekistani", "name:sr": "Узбекистан", "name:ss": "IZubekhi", "name:su": "Uzbékistan", "name:sv": "Uzbekistan", "name:sw": "Uzbekistan", "name:ta": "உசுபெக்கிசுத்தான்", "name:te": "ఉజ్బెకిస్తాన్", "name:tg": "Ӯзбакистон", "name:th": "ประเทศอุซเบกิสถาน", "name:tk": "Özbegistan", "name:tl": "Uzbekistan", "name:tr": "Özbekistan", "name:tt": "Үзбәкстан", "name:ug": "ئۆزبېكىستان", "name:uk": "Узбекистан", "name:ur": "ازبکستان", "name:uz": "Oʻzbekiston", "name:vi": "Uzbekistan", "name:vo": "Lusbekän", "name:wo": "Usbekistaan", "name:yi": "אוזבעקיסטאן", "name:yo": "Ùsbẹ̀kìstán", "name:zh": "乌兹别克斯坦", "name:ace": "Uzbèkistan", "name:als": "Usbekistan", "name:ang": "Usbecastan", "name:arc": "ܐܘܙܒܩܣܛܐܢ", "name:arz": "اوزبيكيستان", "name:ast": "Uzbequistán", "name:bar": "Usbekistan", "name:bcl": "Usbekistan", "name:bpy": "উজবেকিস্তান", "name:bug": "Uzbekistan", "name:bxr": "Узбекистан", "name:ceb": "Uzbekistan", "name:chr": "ᎤᏍᏇᎩᏍᏔᏂ", "name:ckb": "ئۆزبەکستان", "name:crh": "Özbekistan", "name:csb": "Ùzbekistan", "name:diq": "Ozbekıstan", "name:dsb": "Usbekska", "name:ext": "Uzbequistán", "name:frp": "Ozbèquistan", "name:gag": "Özbekistan", "name:hak": "Vû-tsṳ̂-phe̍t-khiet-sṳ̂-thán", "name:hif": "Uzbekistan", "name:hsb": "Uzbekistan", "name:ilo": "Uzbekistan", "name:jbo": "uzbekistan", "name:kaa": "O'zbekstan", "name:kbd": "Узбэчыстэн", "name:lad": "Uzbekistan", "name:lez": "Узбекистан", "name:lij": "Uzbekistan", "name:lmo": "Uzbekistan", "name:lrc": "اوزبکستان", "name:mdf": "Узбекистан", "name:mhr": "Узбекистан", "name:min": "Uzbekistan", "name:mzn": "اوزبکستون", "name:nah": "Uzbequistan", "name:nan": "Uzbekistan", "name:nds": "Usbekistan", "name:new": "उज्बेकिस्तान", "name:nov": "Uzbekistan", "name:pam": "Uzbekistan", "name:pap": "Uzbekistan", "name:pms": "Uzbekistan", "name:pnb": "ازبکستان", "name:rue": "Узбекістан", "name:sah": "Узбекистаан", "name:scn": "Uzbekistan", "name:sco": "Uzbekistan", "name:szl": "Uzbekistůn", "name:udm": "Узбекистан", "name:vec": "Uzbekistan", "name:vep": "Uzbekistan", "name:war": "Usbekistan", "name:wuu": "乌兹别克斯坦", "name:xal": "Сартин Орн", "name:yue": "月即別", "name:zea": "Oezbekistan", "population": "29735700", "alt_name:eo": "Uzbekistano;Uzbekio", "alt_name:vi": "U-dơ-bê-kít-xtan;Uzbekstan;Ozbekistan", "name:uz-cyr": "Ўзбекистон", "name:bat-smg": "Ozbėkistans", "name:fiu-vro": "Usbekistan", "official_name": "O‘zbekiston Respublikasi", "name:be-tarask": "Узбэкістан", "is_in:continent": "Asia", "default_language": "uz", "official_name:ar": "جمهورية أوزبكستان", "official_name:cs": "Republika Uzbekistán", "official_name:en": "Republic of Uzbekistan", "official_name:eo": "Uzbeka Respubliko", "official_name:fa": "جمهوری ازبکستان", "official_name:ru": "Республика Узбекистан", "official_name:ur": "جمہوریہ ازبکستان"}}, "center_lat": 41.75, "center_lon": 63.17, "timezone": "Asia/Samarkand", "population": 32387200, "wikidata_id": "Q265", "wikipedia_id": "en:Uzbekistan"}, "geometry": {"type": "MultiPolygon", "coordinates": [[[[71.025, 40.24], [71.025, 40.24], [71.025, 40.24], [71.025, 40.24]]], [[[71.714, 39.966], [71.815, 40.003], [71.859, 39.984], [71.843, 39.945], [71.778, 39.962], [71.754, 39.935], [71.714, 39.966]]], [[[70.999, 40.183], [71.045, 40.184], [71.075, 40.157], [71.125, 40.015], [71.207, 40.035], [71.182, 40.001], [71.145, 40.001], [71.165, 39.971], [71.133, 39.955], [71.224, 39.932], [71.196, 39.897], [71.131, 39.886], [71.121, 39.922], [71.094, 39.885], [71.051, 39.9], [71.083, 39.943], [71.12, 39.96], [71.09, 39.99], [71.111, 40.02], [71.047, 40.023], [71.01, 40.051], [71.019, 40.12], [70.999, 40.183]]], [[[71.659, 40.205], [71.659, 40.205], [71.659, 40.205], [71.659, 40.205]]], [[[57.052, 41.921], [57.002, 41.896], [56.968, 41.805], [56.972, 41.672], [57.02, 41.586], [57.032, 41.446], [57.087, 41.375], [57.149, 41.384], [57.152, 41.358], [57.089, 41.335], [57.042, 41.263], [56.787, 41.281], [56.56, 41.289], [56.433, 41.3], [55.999, 41.32], [55.999, 45], [56.744, 45.177], [57.687, 45.39], [58.589, 45.591], [58.605, 45.582], [58.567, 45.524], [58.544, 45.407], [58.468, 45.349], [58.407, 45.266], [58.367, 45.131], [58.303, 45.049], [58.278, 44.969], [58.231, 44.904], [58.217, 44.859], [58.229, 44.779], [58.302, 44.65], [58.314, 44.603], [58.299, 44.565], [58.258, 44.557], [58.232, 44.511], [58.232, 44.466], [58.261, 44.42], [58.328, 44.406], [58.411, 44.421], [58.485, 44.474], [58.535, 44.497], [58.587, 44.57], [58.57, 44.687], [58.6, 44.75], [58.656, 44.81], [58.658, 44.881], [58.589, 44.932], [58.621, 45.044], [58.673, 45.098], [58.692, 45.143], [58.685, 45.21], [58.643, 45.285], [58.658, 45.387], [58.676, 45.43], [58.746, 45.504], [58.99, 45.369], [59.56, 45.138], [59.556, 44.996], [59.567, 44.959], [59.556, 44.903], [59.58, 44.884], [59.642, 44.903], [59.667, 44.86], [59.849, 44.966], [59.862, 45.014], [60.745, 44.644], [61.068, 44.371], [61.107, 44.36], [61.138, 44.226], [61.425, 43.999], [62.004, 43.505], [62.242, 43.519], [63.349, 43.65], [63.858, 43.599], [64.535, 43.571], [64.932, 43.735], [65.002, 43.715], [65.185, 43.495], [65.532, 43.315], [65.559, 43.289], [65.742, 43], [65.844, 42.858], [66.097, 42.938], [66.095, 42.566], [66.071, 42.338], [66.002, 42.361], [65.999, 41.937], [66.533, 41.877], [66.607, 41.494], [66.645, 41.348], [66.709, 41.143], [67, 41.141], [67.016, 41.137], [67.313, 41.135], [67.365, 41.127], [67.57, 41.167], [67.685, 41.171], [67.735, 41.182], [67.867, 41.135], [67.892, 41.152], [67.965, 41.149], [67.988, 41.086], [67.983, 41.025], [68.024, 41.018], [68.071, 41.08], [68.112, 41.067], [68.127, 41.032], [68.055, 41.009], [68.088, 40.97], [68.063, 40.946], [68.089, 40.926], [68.013, 40.891], [68.006, 40.861], [67.973, 40.862], [67.978, 40.831], [68.023, 40.801], [68.077, 40.789], [68.218, 40.688], [68.371, 40.617], [68.411, 40.615], [68.493, 40.572], [68.532, 40.583], [68.582, 40.569], [68.641, 40.6], [68.622, 40.63], [68.648, 40.649], [68.644, 40.694], [68.584, 40.709], [68.586, 40.78], [68.562, 40.806], [68.564, 40.849], [68.59, 40.865], [68.582, 40.925], [68.513, 40.963], [68.477, 40.951], [68.527, 41.024], [68.555, 41.007], [68.603, 41.031], [68.629, 40.997], [68.644, 40.943], [68.75, 40.982], [68.714, 41.032], [68.804, 41.116], [68.992, 41.214], [69.029, 41.225], [69.039, 41.255], [69.019, 41.299], [69.044, 41.311], [69.047, 41.349], [69.079, 41.377], [69.097, 41.358], [69.113, 41.391], [69.168, 41.4], [69.159, 41.425], [69.187, 41.453], [69.239, 41.46], [69.311, 41.439], [69.355, 41.473], [69.461, 41.467], [69.455, 41.488], [69.4, 41.503], [69.461, 41.569], [69.501, 41.547], [69.618, 41.663], [69.696, 41.673], [69.746, 41.701], [69.787, 41.7], [69.847, 41.721], [69.894, 41.707], [69.958, 41.734], [69.976, 41.778], [70.022, 41.798], [70.051, 41.782], [70.104, 41.838], [70.147, 41.837], [70.181, 41.883], [70.261, 41.954], [70.335, 41.975], [70.32, 42.037], [70.476, 42.109], [70.55, 42.068], [70.559, 42.024], [70.607, 42.007], [70.641, 42.02], [70.687, 42.121], [70.749, 42.166], [70.74, 42.184], [70.794, 42.209], [70.832, 42.195], [70.884, 42.211], [70.943, 42.263], [70.988, 42.253], [71.025, 42.292], [71.064, 42.295], [71.107, 42.274], [71.133, 42.282], [71.214, 42.223], [71.245, 42.228], [71.269, 42.196], [71.218, 42.137], [71.174, 42.144], [71.049, 42.081], [70.993, 42.03], [70.942, 42.031], [70.865, 42.054], [70.838, 42], [70.854, 41.942], [70.807, 41.921], [70.757, 41.936], [70.756, 41.916], [70.665, 41.907], [70.597, 41.818], [70.528, 41.799], [70.497, 41.72], [70.397, 41.684], [70.367, 41.647], [70.302, 41.631], [70.263, 41.607], [70.209, 41.612], [70.209, 41.573], [70.179, 41.557], [70.172, 41.517], [70.24, 41.491], [70.303, 41.521], [70.407, 41.47], [70.488, 41.398], [70.552, 41.41], [70.57, 41.442], [70.666, 41.47], [70.717, 41.466], [70.734, 41.427], [70.778, 41.388], [70.776, 41.217], [70.855, 41.25], [70.889, 41.214], [70.963, 41.166], [71.039, 41.19], [71.127, 41.144], [71.231, 41.193], [71.273, 41.173], [71.277, 41.099], [71.347, 41.127], [71.396, 41.107], [71.452, 41.157], [71.431, 41.189], [71.459, 41.207], [71.447, 41.285], [71.516, 41.307], [71.569, 41.293], [71.636, 41.343], [71.681, 41.422], [71.663, 41.452], [71.602, 41.477], [71.669, 41.497], [71.721, 41.548], [71.741, 41.531], [71.711, 41.488], [71.722, 41.467], [71.696, 41.423], [71.736, 41.452], [71.792, 41.439], [71.834, 41.362], [71.867, 41.349], [71.925, 41.294], [71.887, 41.256], [71.862, 41.201], [71.886, 41.168], [71.952, 41.146], [72.007, 41.157], [72.071, 41.117], [72.137, 41.162], [72.177, 41.157], [72.15, 41.125], [72.179, 41.117], [72.208, 41.06], [72.185, 40.997], [72.27, 41.011], [72.33, 41.037], [72.35, 41.06], [72.382, 41.032], [72.444, 41.032], [72.481, 41.009], [72.488, 40.974], [72.545, 40.966], [72.608, 40.871], [72.713, 40.849], [72.832, 40.856], [72.939, 40.8], [73, 40.843], [73.09, 40.85], [73.138, 40.828], [73.14, 40.785], [72.99, 40.764], [72.946, 40.732], [72.873, 40.711], [72.846, 40.673], [72.801, 40.677], [72.757, 40.622], [72.761, 40.577], [72.695, 40.598], [72.662, 40.583], [72.669, 40.523], [72.655, 40.51], [72.506, 40.561], [72.476, 40.551], [72.409, 40.619], [72.344, 40.601], [72.416, 40.556], [72.418, 40.534], [72.379, 40.512], [72.415, 40.508], [72.441, 40.473], [72.421, 40.405], [72.369, 40.412], [72.321, 40.446], [72.278, 40.434], [72.243, 40.46], [72.253, 40.479], [72.172, 40.495], [72.128, 40.46], [72.087, 40.451], [72.089, 40.405], [71.966, 40.319], [72.043, 40.29], [71.939, 40.25], [71.885, 40.263], [71.829, 40.241], [71.831, 40.205], [71.8, 40.208], [71.72, 40.154], [71.699, 40.244], [71.681, 40.265], [71.62, 40.267], [71.627, 40.216], [71.513, 40.231], [71.511, 40.268], [71.428, 40.284], [71.369, 40.319], [71.324, 40.318], [71.274, 40.344], [71.124, 40.335], [71.072, 40.285], [71.019, 40.296], [70.959, 40.285], [70.982, 40.226], [70.882, 40.232], [70.82, 40.202], [70.76, 40.188], [70.632, 40.177], [70.579, 40.234], [70.56, 40.312], [70.582, 40.339], [70.552, 40.355], [70.496, 40.348], [70.379, 40.387], [70.328, 40.455], [70.446, 40.497], [70.483, 40.502], [70.514, 40.55], [70.588, 40.566], [70.64, 40.627], [70.689, 40.655], [70.738, 40.664], [70.796, 40.733], [70.728, 40.769], [70.703, 40.801], [70.728, 40.809], [70.645, 40.865], [70.556, 40.979], [70.469, 41.042], [70.396, 41.027], [70.375, 41.003], [70.388, 40.954], [70.372, 40.898], [70.278, 40.871], [70.268, 40.852], [70.201, 40.822], [70.181, 40.834], [70.121, 40.816], [70.114, 40.787], [70.068, 40.755], [69.931, 40.717], [69.896, 40.72], [69.793, 40.702], [69.765, 40.652], [69.72, 40.629], [69.669, 40.634], [69.652, 40.671], [69.575, 40.719], [69.551, 40.77], [69.499, 40.782], [69.493, 40.812], [69.429, 40.784], [69.406, 40.752], [69.373, 40.791], [69.348, 40.775], [69.364, 40.744], [69.329, 40.704], [69.348, 40.615], [69.344, 40.581], [69.262, 40.576], [69.212, 40.546], [69.279, 40.493], [69.303, 40.367], [69.336, 40.349], [69.328, 40.297], [69.307, 40.282], [69.249, 40.303], [69.248, 40.275], [69.301, 40.245], [69.306, 40.195], [69.189, 40.215], [69.036, 40.229], [68.863, 40.21], [68.844, 40.183], [68.797, 40.173], [68.78, 40.204], [68.533, 40.144], [68.531, 40.118], [68.633, 40.077], [68.694, 40.095], [68.766, 40.098], [68.811, 40.117], [68.941, 40.147], [69.02, 40.154], [69.008, 40.099], [68.957, 40.084], [68.955, 40.063], [68.858, 40.046], [68.911, 39.974], [68.928, 39.93], [68.906, 39.881], [68.855, 39.863], [68.855, 39.921], [68.821, 39.98], [68.828, 39.904], [68.82, 39.87], [68.785, 39.84], [68.773, 39.875], [68.757, 39.847], [68.63, 39.855], [68.643, 39.776], [68.59, 39.737], [68.626, 39.696], [68.618, 39.637], [68.572, 39.621], [68.536, 39.571], [68.524, 39.532], [68.391, 39.544], [68.369, 39.53], [68.31, 39.554], [68.251, 39.562], [68.196, 39.554], [68.177, 39.569], [68.112, 39.561], [68.038, 39.577], [67.976, 39.605], [67.939, 39.599], [67.793, 39.657], [67.761, 39.64], [67.704, 39.658], [67.665, 39.642], [67.628, 39.601], [67.582, 39.6], [67.519, 39.579], [67.456, 39.574], [67.444, 39.55], [67.395, 39.523], [67.465, 39.463], [67.454, 39.414], [67.483, 39.377], [67.474, 39.323], [67.433, 39.31], [67.333, 39.304], [67.364, 39.262], [67.343, 39.232], [67.399, 39.226], [67.464, 39.197], [67.55, 39.18], [67.584, 39.188], [67.627, 39.17], [67.636, 39.145], [67.677, 39.146], [67.669, 39.085], [67.699, 39.003], [67.75, 39.002], [67.82, 39.016], [67.869, 39.001], [67.922, 39.026], [67.983, 39.035], [68.028, 39.01], [68.068, 39.025], [68.118, 39.011], [68.134, 38.963], [68.195, 38.94], [68.205, 38.916], [68.18, 38.88], [68.201, 38.867], [68.171, 38.831], [68.07, 38.818], [68.129, 38.733], [68.079, 38.727], [68.058, 38.708], [68.093, 38.642], [68.059, 38.56], [68.064, 38.532], [68.101, 38.512], [68.116, 38.468], [68.062, 38.393], [68.138, 38.41], [68.157, 38.374], [68.293, 38.298], [68.302, 38.256], [68.348, 38.237], [68.405, 38.181], [68.378, 38.118], [68.377, 38.085], [68.289, 37.999], [68.261, 37.909], [68.226, 37.932], [68.133, 37.929], [68.12, 37.872], [68.016, 37.707], [67.958, 37.678], [67.889, 37.629], [67.864, 37.638], [67.862, 37.592], [67.83, 37.544], [67.835, 37.523], [67.79, 37.419], [67.842, 37.329], [67.812, 37.268], [67.787, 37.186], [67.723, 37.219], [67.643, 37.221], [67.609, 37.237], [67.558, 37.222], [67.517, 37.265], [67.494, 37.269], [67.453, 37.236], [67.27, 37.182], [67.246, 37.189], [67.224, 37.244], [67.138, 37.266], [67.107, 37.291], [67.112, 37.328], [67.045, 37.38], [67.011, 37.373], [66.95, 37.398], [66.851, 37.353], [66.801, 37.363], [66.693, 37.357], [66.652, 37.324], [66.594, 37.369], [66.551, 37.354], [66.523, 37.375], [66.531, 37.403], [66.582, 37.431], [66.573, 37.506], [66.532, 37.529], [66.53, 37.578], [66.545, 37.702], [66.548, 37.792], [66.607, 37.868], [66.687, 37.915], [66.685, 37.969], [66.62, 38.004], [66.571, 38.006], [66.511, 38.032], [66.427, 38.024], [66.323, 38.066], [66.272, 38.107], [66.248, 38.155], [66.175, 38.154], [66.029, 38.227], [65.957, 38.239], [65.913, 38.277], [65.855, 38.274], [65.842, 38.253], [65.54, 38.289], [65.542, 38.3], [65.171, 38.503], [65.037, 38.606], [64.996, 38.611], [64.897, 38.671], [64.82, 38.683], [64.717, 38.752], [64.664, 38.771], [64.525, 38.847], [64.355, 38.977], [64.314, 38.966], [64.181, 38.962], [64.009, 39.053], [63.705, 39.224], [63.694, 39.272], [63.565, 39.338], [63.431, 39.412], [63.42, 39.445], [63.17, 39.574], [62.798, 39.776], [62.488, 39.951], [62.443, 39.991], [62.427, 40.065], [62.396, 40.099], [62.414, 40.174], [62.39, 40.245], [62.391, 40.318], [62.333, 40.383], [62.349, 40.438], [62.208, 40.509], [62.144, 40.556], [62.113, 40.596], [62.091, 40.657], [62.045, 40.712], [62.042, 40.758], [61.986, 40.837], [62, 40.892], [61.981, 40.984], [61.955, 41.034], [61.901, 41.053], [61.886, 41.107], [61.813, 41.154], [61.757, 41.176], [61.713, 41.215], [61.661, 41.226], [61.627, 41.265], [61.545, 41.262], [61.481, 41.287], [61.408, 41.288], [61.4, 41.201], [61.33, 41.148], [61.24, 41.145], [61.129, 41.19], [61.065, 41.254], [61.03, 41.26], [61.03, 41.223], [60.999, 41.242], [60.816, 41.259], [60.684, 41.257], [60.579, 41.223], [60.476, 41.221], [60.406, 41.253], [60.276, 41.33], [60.23, 41.337], [60.093, 41.413], [60.074, 41.457], [60.104, 41.542], [60.172, 41.576], [60.16, 41.643], [60.075, 41.728], [60.058, 41.764], [60.089, 41.811], [60.143, 41.804], [60.238, 41.766], [60.319, 41.751], [60.326, 41.768], [60.265, 41.815], [60.164, 41.85], [60.104, 41.903], [60.043, 41.909], [60.01, 41.955], [59.97, 41.941], [59.916, 41.992], [59.951, 42.02], [60.011, 41.991], [60.041, 42.027], [60.048, 42.09], [60.02, 42.118], [59.95, 42.144], [59.967, 42.179], [60.015, 42.165], [60.013, 42.213], [59.955, 42.232], [59.927, 42.278], [59.891, 42.302], [59.845, 42.277], [59.775, 42.272], [59.717, 42.291], [59.642, 42.283], [59.609, 42.297], [59.567, 42.281], [59.434, 42.293], [59.418, 42.325], [59.305, 42.361], [59.259, 42.414], [59.269, 42.431], [59.172, 42.531], [59.076, 42.519], [59.015, 42.527], [58.871, 42.611], [58.747, 42.712], [58.627, 42.797], [58.654, 42.726], [58.612, 42.704], [58.59, 42.644], [58.467, 42.638], [58.362, 42.675], [58.281, 42.685], [58.207, 42.655], [58.156, 42.621], [58.228, 42.574], [58.306, 42.548], [58.364, 42.449], [58.426, 42.38], [58.522, 42.322], [58.52, 42.273], [58.446, 42.296], [58.395, 42.287], [58.401, 42.339], [58.363, 42.421], [58.303, 42.455], [58.199, 42.47], [58.134, 42.444], [58.138, 42.48], [58.091, 42.501], [58.04, 42.504], [57.985, 42.476], [57.967, 42.426], [57.93, 42.461], [57.904, 42.426], [57.947, 42.372], [57.929, 42.245], [57.857, 42.248], [57.834, 42.219], [57.858, 42.182], [57.769, 42.181], [57.676, 42.152], [57.633, 42.156], [57.631, 42.201], [57.6, 42.254], [57.523, 42.301], [57.44, 42.317], [57.405, 42.354], [57.342, 42.359], [57.227, 42.311], [57.155, 42.209], [57.099, 42.077], [57.052, 41.921]], [[72.758, 40.666], [72.758, 40.666], [72.758, 40.666], [72.758, 40.666]], [[70.549, 40.992], [70.612, 40.974], [70.559, 41.004], [70.549, 40.992]]]]}}