{"type": "Feature", "properties": {"name": "Samoa", "iso1": "WS", "admin_level": 2, "osm_id": 1872673, "countrylevel_id": "iso1:WS", "osm_data": {"localname": "Sāmoa", "official_name": "Malo Sa'oloto Tuto'atasi o Sāmoa", "alltags": {"flag": "http://upload.wikimedia.org/wikipedia/commons/3/31/Flag_of_Samoa.svg", "name:am": "ሳሞአ", "name:ar": "ساموا", "name:be": "Самоа", "name:bg": "Самоа", "name:bm": "Samowa", "name:bn": "সামোয়া", "name:bo": "ནུ་བ་ས་མོ་འ།", "name:br": "Samoa", "name:ca": "Samoa", "name:cs": "Samoa", "name:da": "Samoa", "name:dz": "ས་མོ་ཨ", "name:ee": "Samoa nutome", "name:el": "Σαμόα", "name:en": "Samoa", "name:eo": "Samoo", "name:es": "Samoa", "name:et": "Samoa", "name:fa": "ساموآ", "name:ff": "Samowaa", "name:fi": "Samoa", "name:fo": "Sámoa", "name:fr": "Samoa", "name:fy": "Samoä", "name:ga": "Samó", "name:gd": "Samotha", "name:gu": "સમોઆ", "name:gv": "Samoa", "name:ha": "Samowa", "name:he": "סמואה", "name:hi": "समोआ", "name:hr": "Samoa", "name:hu": "Szamoa", "name:hy": "Սամոա", "name:ia": "Samoa", "name:io": "Samoa", "name:is": "Samóa", "name:it": "Samoa", "name:ja": "サモア", "name:ka": "სამოა", "name:km": "សាមូអា", "name:kn": "ಸಮೋವಾ", "name:ko": "사모아", "name:ks": "سیمووا", "name:ku": "Samoa", "name:lg": "Samowa", "name:li": "Samoa", "name:lo": "ຊາມົວ", "name:lv": "Samoa", "name:mi": "Hāmoa", "name:mk": "Самоа", "name:ml": "സാമോവ", "name:mn": "Самоа", "name:mr": "सामोआ", "name:ne": "सामोआ", "name:nl": "Samoa", "name:no": "Samoa", "name:or": "ସାମୋଆ", "name:pl": "Samoa", "name:rn": "Samowa", "name:ru": "Самоа", "name:sg": "Samoäa", "name:si": "සැමෝවා", "name:sk": "Samoa", "name:sr": "Самоа", "name:sv": "Samoa", "name:ta": "சமோவா", "name:te": "సమోవా", "name:th": "ประเทศซามัว", "name:ti": "ሳሞአ", "name:to": "Haʻamoa", "name:uk": "Самоа", "name:ur": "ساموآ", "name:vo": "Samovuäns", "name:yo": "Orílẹ́ède Samọ", "name:zh": "萨摩亚", "name:zu": "i-Samoa", "name:ckb": "ساموا", "name:jbo": "samoas", "name:kab": "Samwa", "name:ksh": "Sammoha", "name:tzl": "Samovia", "old_name": "Western Samoa;German Samoa", "old_name:cs": "Západní Samoa;Německá Samoa", "old_name:eo": "Okcidenta Samoo", "driving_side": "left", "official_name": "Malo Sa'oloto Tuto'atasi o Sāmoa", "is_in:continent": "Oceania", "official_name:be": "Незалежная Дзяржава Самоа", "official_name:cs": "Nezávislý stát Samoa", "official_name:de": "Unabhängiger Staat Samoa", "official_name:en": "Independent State of Samoa", "official_name:eo": "Sendependa Ŝtato Samoo", "official_name:es": "Estado Independiente de Samoa", "official_name:fr": "Samoa occidentales", "official_name:ja": "サモア独立国", "official_name:ku": "Dewleta Serbixweya Samoa", "official_name:lb": "Unabhängiger Stat Samoa", "official_name:lt": "Samoa Nepriklausomoji Valstybė", "official_name:no": "Den selvstendige staten Samoa", "official_name:pl": "Niezależne Państwo Samoa", "official_name:ru": "Независимое Государство Самоа", "official_name:sv": "Självständiga staten Samoa", "official_name:vi": "Nhà nước Độc lập Samoa"}}, "center_lat": -13.74, "center_lon": -172.17, "timezone": "Pacific/Apia", "population": 196440, "wikidata_id": "Q683", "wikipedia_id": "en:Samoa"}, "geometry": {"type": "MultiPolygon", "coordinates": [[[[-171.405, -14.072], [-171.405, -14.072], [-171.405, -14.072], [-171.405, -14.072]]], [[[-171.42, -14.059], [-171.42, -14.059], [-171.42, -14.059], [-171.42, -14.059]]], [[[-171.406, -14.076], [-171.406, -14.076], [-171.406, -14.076], [-171.406, -14.076]]], [[[-171.406, -14.071], [-171.406, -14.071], [-171.406, -14.071], [-171.406, -14.071]]], [[[-171.415, -14.026], [-171.415, -14.026], [-171.415, -14.026], [-171.415, -14.026]]], [[[-171.399, -14.016], [-171.399, -14.016], [-171.399, -14.016], [-171.399, -14.016]]], [[[-172.105, -13.861], [-172.105, -13.861], [-172.105, -13.861], [-172.105, -13.861]]], [[[-171.618, -13.881], [-171.618, -13.881], [-171.618, -13.881], [-171.618, -13.881]]], [[[-171.577, -13.88], [-171.577, -13.88], [-171.577, -13.88], [-171.577, -13.88]]], [[[-171.706, -13.846], [-171.706, -13.846], [-171.706, -13.846], [-171.706, -13.846]]], [[[-172.13, -13.843], [-172.13, -13.843], [-172.13, -13.843], [-172.13, -13.843]]], [[[-172.13, -13.842], [-172.13, -13.842], [-172.13, -13.842], [-172.13, -13.842]]], [[[-172.129, -13.841], [-172.129, -13.841], [-172.129, -13.841], [-172.129, -13.841]]], [[[-172.146, -13.822], [-172.146, -13.822], [-172.146, -13.822], [-172.146, -13.822]]], [[[-172.153, -13.814], [-172.153, -13.814], [-172.153, -13.814], [-172.153, -13.814]]], [[[-172.219, -13.758], [-172.214, -13.79], [-172.272, -13.794], [-172.291, -13.758], [-172.333, -13.778], [-172.355, -13.772], [-172.529, -13.803], [-172.578, -13.765], [-172.595, -13.719], [-172.667, -13.648], [-172.684, -13.62], [-172.787, -13.544], [-172.804, -13.516], [-172.757, -13.49], [-172.7, -13.519], [-172.662, -13.506], [-172.637, -13.519], [-172.614, -13.492], [-172.587, -13.496], [-172.544, -13.476], [-172.481, -13.461], [-172.422, -13.471], [-172.414, -13.45], [-172.357, -13.44], [-172.306, -13.46], [-172.21, -13.581], [-172.179, -13.665], [-172.22, -13.736], [-172.219, -13.758]]], [[[-172.647, -13.505], [-172.647, -13.505], [-172.647, -13.505], [-172.647, -13.505]]], [[[-171.69, -14.048], [-171.69, -14.048], [-171.69, -14.048], [-171.69, -14.048]]], [[[-171.54, -14.046], [-171.54, -14.046], [-171.54, -14.046], [-171.54, -14.046]]], [[[-171.557, -14.045], [-171.557, -14.045], [-171.557, -14.045], [-171.557, -14.045]]], [[[-171.559, -14.045], [-171.559, -14.045], [-171.559, -14.045], [-171.559, -14.045]]], [[[-171.477, -14.044], [-171.477, -14.044], [-171.477, -14.044], [-171.477, -14.044]]], [[[-171.902, -14.005], [-171.902, -14.005], [-171.902, -14.005], [-171.902, -14.005]]], [[[-171.478, -13.961], [-171.478, -13.961], [-171.478, -13.961], [-171.478, -13.961]]], [[[-171.922, -14], [-171.948, -13.981], [-171.976, -13.934], [-171.984, -13.952], [-172.005, -13.917], [-172.055, -13.903], [-172.072, -13.868], [-172.036, -13.829], [-171.973, -13.828], [-171.908, -13.799], [-171.83, -13.793], [-171.793, -13.827], [-171.722, -13.845], [-171.709, -13.863], [-171.666, -13.861], [-171.621, -13.885], [-171.571, -13.887], [-171.539, -13.914], [-171.571, -13.941], [-171.527, -13.929], [-171.456, -13.98], [-171.441, -13.976], [-171.424, -14.018], [-171.438, -14.045], [-171.53, -14.04], [-171.654, -14.044], [-171.702, -14.029], [-171.765, -14.043], [-171.79, -14.009], [-171.827, -14.009], [-171.834, -13.985], [-171.903, -14.005], [-171.922, -14]]]]}}