{"type": "Feature", "properties": {"name": "Andalusia", "iso2": "ES-AN", "admin_level": 4, "osm_id": 349044, "countrylevel_id": "iso2:ES-AN", "osm_data": {"localname": "Andalucía", "official_name": "Andalucía", "alltags": {"name:ar": "أندلوسيا", "name:be": "Андалусія", "name:ca": "Andalusia", "name:cs": "Andalusie", "name:el": "Ανδαλουσία", "name:en": "Andalusia", "name:es": "Andalucía", "name:eu": "Andaluzia", "name:fi": "Andalucia", "name:fr": "Andalousie", "name:hr": "Andaluzija", "name:hu": "Andalúzia", "name:is": "Andalúsía", "name:ja": "アンダルシア州", "name:lt": "Andalūzija", "name:nl": "Andalusië", "name:pl": "Andaluzja", "name:pt": "Andaluzia", "name:ru": "Андалусия", "name:sk": "Andalúzia", "name:sv": "Andalusien", "name:zh": "安达鲁西亚", "ine:ccaa": "01", "border_type": "region", "official_name": "Andalucía"}}, "center_lat": 37.45, "center_lon": -4.59, "timezone": "Europe/Madrid", "population": 8409738, "wikidata_id": "Q5783", "wikipedia_id": "es:Andalucía"}, "geometry": {"type": "MultiPolygon", "coordinates": [[[[-3.037, 35.939], [-3.037, 35.939], [-3.037, 35.939], [-3.037, 35.939]]], [[[-1.648, 37.359], [-1.648, 37.359], [-1.648, 37.359], [-1.648, 37.359]]], [[[-1.652, 37.347], [-1.652, 37.347], [-1.652, 37.347], [-1.652, 37.347]]], [[[-1.668, 37.357], [-1.668, 37.357], [-1.668, 37.357], [-1.668, 37.357]]], [[[-6.848, 37.304], [-6.848, 37.304], [-6.848, 37.304], [-6.848, 37.304]]], [[[-6.972, 37.278], [-6.972, 37.278], [-6.972, 37.278], [-6.972, 37.278]]], [[[-6.867, 37.274], [-6.867, 37.274], [-6.867, 37.274], [-6.867, 37.274]]], [[[-6.956, 37.281], [-6.956, 37.281], [-6.956, 37.281], [-6.956, 37.281]]], [[[-6.96, 37.276], [-6.96, 37.276], [-6.96, 37.276], [-6.96, 37.276]]], [[[-6.972, 37.292], [-6.972, 37.292], [-6.972, 37.292], [-6.972, 37.292]]], [[[-6.865, 37.293], [-6.865, 37.293], [-6.865, 37.293], [-6.865, 37.293]]], [[[-5.275, 36.289], [-5.275, 36.289], [-5.275, 36.289], [-5.275, 36.289]]], [[[-6.185, 36.437], [-6.185, 36.437], [-6.185, 36.437], [-6.185, 36.437]]], [[[-6.18, 36.482], [-6.18, 36.482], [-6.18, 36.482], [-6.18, 36.482]]], [[[-6.172, 36.498], [-6.172, 36.498], [-6.172, 36.498], [-6.172, 36.498]]], [[[-6.182, 36.51], [-6.182, 36.51], [-6.182, 36.51], [-6.182, 36.51]]], [[[-6.323, 36.613], [-6.323, 36.613], [-6.323, 36.613], [-6.323, 36.613]]], [[[-7.156, 37.213], [-7.156, 37.213], [-7.156, 37.213], [-7.156, 37.213]]], [[[-6.889, 37.255], [-6.889, 37.255], [-6.889, 37.255], [-6.889, 37.255]]], [[[-6.992, 37.265], [-6.992, 37.265], [-6.992, 37.265], [-6.992, 37.265]]], [[[-6.936, 37.165], [-6.936, 37.165], [-6.936, 37.165], [-6.936, 37.165]]], [[[-6.984, 37.248], [-6.984, 37.248], [-6.984, 37.248], [-6.984, 37.248]]], [[[-6.972, 37.245], [-6.972, 37.245], [-6.972, 37.245], [-6.972, 37.245]]], [[[-6.968, 37.265], [-6.968, 37.265], [-6.968, 37.265], [-6.968, 37.265]]], [[[-6.857, 37.278], [-6.857, 37.278], [-6.857, 37.278], [-6.857, 37.278]]], [[[-7.393, 37.166], [-7.512, 37.526], [-7.262, 37.977], [-6.931, 38.208], [-6.18, 37.941], [-5.585, 38.132], [-5.568, 38.433], [-5.047, 38.729], [-4.269, 38.347], [-2.762, 38.533], [-2.551, 38.084], [-2.342, 38.026], [-2.208, 37.917], [-1.63, 37.375], [-2.003, 36.836], [-2.652, 36.699], [-3.129, 36.751], [-3.778, 36.738], [-4.414, 36.718], [-4.639, 36.507], [-5.252, 36.311], [-5.609, 36.007], [-6.034, 36.181], [-6.44, 36.72], [-6.345, 36.799], [-7.002, 37.231], [-7.393, 37.166]]]]}}