{"type": "Feature", "properties": {"name": "Badajoz", "iso2": "ES-BA", "admin_level": 6, "osm_id": 348994, "countrylevel_id": "iso2:ES-BA", "osm_data": {"localname": "Badajoz", "official_name": "", "alltags": {"name:ar": "بطليوس", "name:be": "Бадахас", "name:ca": "Badajoz", "name:el": "Μπαδαχόθ", "name:en": "Badajoz", "name:eo": "Badaĥozo", "name:es": "Badajoz", "name:eu": "Badajoz", "name:fa": "باداخوس", "name:fr": "Badajoz", "name:gl": "Badaxoz", "name:ja": "バダホス", "name:ko": "바다호스", "name:pt": "Badajoz", "name:ru": "Бадахос", "name:sr": "Бадахоз", "name:uk": "Бадахос", "name:ur": "بطليوس", "name:zh": "巴達霍斯", "name:ast": "Badaxoz", "name:ext": "Baajós", "alt_name:ar": "باداخوز", "ine:provincia": "06", "official_name:be": "Правінцыя Бадахас"}}, "center_lat": 38.7, "center_lon": -6.13, "timezone": "Europe/Madrid", "population": 676376, "wikidata_id": "Q81803", "wikipedia_id": "es:Provincia de Badajoz"}, "geometry": {"type": "MultiPolygon", "coordinates": [[[[-7.108, 38.188], [-6.931, 38.208], [-6.18, 37.941], [-5.585, 38.132], [-5.568, 38.433], [-5.047, 38.729], [-4.688, 39.45], [-4.755, 39.416], [-4.941, 39.395], [-4.953, 39.395], [-6.142, 39.032], [-6.768, 39.188], [-7.049, 39.437], [-7.231, 39.278], [-6.951, 39.024], [-7.204, 38.751], [-7.318, 38.44], [-7.108, 38.188]]]]}}