{"type": "Feature", "properties": {"name": "Barcelona", "iso2": "ES-B", "admin_level": 6, "osm_id": 349035, "countrylevel_id": "iso2:ES-B", "osm_data": {"localname": "Barcelona", "official_name": "", "alltags": {"name:ar": "برشلونة", "name:be": "Барселона", "name:ca": "Barcelona", "name:el": "Βαρκελώνη", "name:es": "Barcelona", "name:eu": "Bartzelona", "name:fr": "Barcelone", "name:gl": "Barcelona", "name:lt": "Barselona", "name:oc": "Barcelona", "name:ru": "Барселона", "website": "http://www.diba.es/", "short_name": "BCN", "ine:provincia": "08", "official_name:be": "Правінцыя Барселона"}}, "center_lat": 41.71, "center_lon": 2.0, "timezone": "Europe/Madrid", "population": 5664579, "wikidata_id": "Q81949", "wikipedia_id": "ca:Província de Barcelona"}, "geometry": {"type": "MultiPolygon", "coordinates": [[[[1.645, 42.113], [1.645, 42.113], [1.645, 42.113], [1.645, 42.113]]], [[[2.227, 41.408], [2.227, 41.408], [2.227, 41.408], [2.227, 41.408]]], [[[1.676, 41.199], [1.676, 41.199], [1.676, 41.199], [1.676, 41.199]]], [[[2.17, 41.325], [2.17, 41.325], [2.17, 41.325], [2.17, 41.325]]], [[[2.222, 41.403], [2.222, 41.403], [2.222, 41.403], [2.222, 41.403]]], [[[1.646, 41.195], [1.393, 41.575], [1.843, 42.306], [2.506, 42.032], [2.325, 41.856], [2.778, 41.651], [2.143, 41.299], [1.646, 41.195]], [[1.63, 41.311], [1.63, 41.311], [1.63, 41.311], [1.63, 41.311]], [[1.706, 41.889], [1.706, 41.889], [1.706, 41.889], [1.706, 41.889]], [[2.001, 42.12], [2.001, 42.12], [2.001, 42.12], [2.001, 42.12]]]]}}