{"type": "Feature", "properties": {"name": "Cádiz", "iso2": "ES-CA", "admin_level": 6, "osm_id": 349017, "countrylevel_id": "iso2:ES-CA", "osm_data": {"localname": "Cádiz", "official_name": "Provincia de Cádiz", "alltags": {"name:ar": "قادس", "name:be": "Кадыс", "name:ca": "Cadis", "name:el": "Κάδιθ", "name:en": "Cádiz", "name:es": "Cádiz", "name:eu": "Cadiz", "name:fr": "Cadix", "name:pl": "Kadyks", "name:pt": "Cádiz", "name:ru": "Кадис", "name:zh": "加的斯省", "ine:provincia": "11", "official_name": "Provincia de Cádiz", "official_name:ar": "منطقة قادس", "official_name:be": "Правінцыя Кадыс", "official_name:de": "Provinz Cádiz", "official_name:en": "Province of Cádiz", "official_name:es": "Provincia de Cádiz", "official_name:fr": "Province de Cadix", "official_name:pt": "Província de Santander"}}, "center_lat": 36.56, "center_lon": -5.78, "timezone": "Europe/Madrid", "population": 1180817, "wikidata_id": "Q81978", "wikipedia_id": "es:Provincia de Cádiz"}, "geometry": {"type": "MultiPolygon", "coordinates": [[[[-6.323, 36.613], [-6.323, 36.613], [-6.323, 36.613], [-6.323, 36.613]]], [[[-5.275, 36.289], [-5.275, 36.289], [-5.275, 36.289], [-5.275, 36.289]]], [[[-6.185, 36.437], [-6.185, 36.437], [-6.185, 36.437], [-6.185, 36.437]]], [[[-6.18, 36.482], [-6.18, 36.482], [-6.18, 36.482], [-6.18, 36.482]]], [[[-6.172, 36.498], [-6.172, 36.498], [-6.172, 36.498], [-6.172, 36.498]]], [[[-6.182, 36.51], [-6.182, 36.51], [-6.182, 36.51], [-6.182, 36.51]]], [[[-6.345, 36.799], [-6.331, 36.899], [-5.142, 37.004], [-5.429, 36.533], [-5.252, 36.311], [-5.609, 36.007], [-6.034, 36.181], [-6.44, 36.72], [-6.345, 36.799]]]]}}