{"type": "Feature", "properties": {"name": "Girona", "iso2": "ES-GI", "admin_level": 6, "osm_id": 349023, "countrylevel_id": "iso2:ES-GI", "osm_data": {"localname": "Girona", "official_name": "", "alltags": {"name:an": "Chirona", "name:ar": "جرندة", "name:be": "Херона", "name:ca": "Girona", "name:el": "Ζιρόνα", "name:es": "Gerona", "name:eu": "Girona", "name:fa": "خرنا", "name:fr": "Gérone", "name:gl": "Xirona", "name:he": "ז'ירונה", "name:ja": "ジローナ", "name:ko": "지로나", "name:lt": "Cherona", "name:lv": "Žirona", "name:nl": "Gerona", "name:oc": "Gard", "name:pt": "Gerunda", "name:ru": "Жирона", "name:uk": "Жірона", "name:zh": "赫罗纳", "website": "http://www.ddgi.cat/", "name:ast": "Xerona", "name:lad": "Djirona", "alt_name:el": "Χερόνα", "alt_name:ru": "Херона", "ine:provincia": "17", "official_name:be": "Правінцыя Херона"}}, "center_lat": 42.11, "center_lon": 2.68, "timezone": "Europe/Madrid", "population": 755716, "wikidata_id": "Q7194", "wikipedia_id": "ca:Província de Girona"}, "geometry": {"type": "MultiPolygon", "coordinates": [[[[2.001, 42.12], [2.001, 42.12], [2.001, 42.12], [2.001, 42.12]]], [[[3.224, 42.044], [3.224, 42.044], [3.224, 42.044], [3.224, 42.044]]], [[[3.219, 42.048], [3.219, 42.048], [3.219, 42.048], [3.219, 42.048]]], [[[1.957, 42.458], [1.957, 42.458], [1.957, 42.458], [1.957, 42.458]]], [[[3.185, 41.863], [3.185, 41.863], [3.185, 41.863], [3.185, 41.863]]], [[[3.228, 42.042], [3.228, 42.042], [3.228, 42.042], [3.228, 42.042]]], [[[3.178, 41.867], [3.178, 41.867], [3.178, 41.867], [3.178, 41.867]]], [[[3.178, 41.868], [3.178, 41.868], [3.178, 41.868], [3.178, 41.868]]], [[[3.227, 42.042], [3.227, 42.042], [3.227, 42.042], [3.227, 42.042]]], [[[2.778, 41.651], [2.325, 41.856], [2.506, 42.032], [1.843, 42.306], [1.73, 42.492], [2.012, 42.353], [3.175, 42.435], [3.203, 41.892], [2.778, 41.651]]]]}}