{"type": "Feature", "properties": {"name": "Rioja", "iso2": "ES-LO", "admin_level": 6, "osm_id": 6426654, "countrylevel_id": "iso2:ES-LO", "osm_data": {"localname": "La Rioja", "official_name": "La Rioja", "alltags": {"name:ar": "لا ريوخا", "name:be": "Ла-Рыёха", "name:ca": "La Rioja", "name:el": "Λα Ριόχα", "name:en": "Rioja", "name:es": "La Rioja", "name:eu": "Errioxa", "name:fr": "La Rioja", "name:pl": "La Rioja", "name:pt": "La Rioja", "name:ru": "Риоха", "ine:provincia": "26", "official_name": "La Rioja"}}, "center_lat": 42.29, "center_lon": -2.54, "timezone": "Europe/Madrid", "population": 315675, "wikidata_id": "Q5727", "wikipedia_id": "es:La Rioja (España)"}, "geometry": {"type": "MultiPolygon", "coordinates": [[[[-2.914, 42.023], [-2.318, 42.145], [-1.856, 41.966], [-1.847, 42.008], [-1.709, 42.21], [-2.421, 42.489], [-2.858, 42.638], [-3.084, 42.641], [-3.129, 42.201], [-2.914, 42.023]], [[-2.999, 42.601], [-2.999, 42.601], [-2.999, 42.601], [-2.999, 42.601]], [[-2.945, 42.604], [-2.945, 42.604], [-2.945, 42.604], [-2.945, 42.604]]]]}}