{"type": "Feature", "properties": {"name": "Navarre", "iso2": "ES-NC", "admin_level": 4, "osm_id": 349027, "countrylevel_id": "iso2:ES-NC", "osm_data": {"localname": "Navarra - Nafarroa", "official_name": "Comunidad Foral de Navarra", "alltags": {"name:be": "Навара", "name:br": "Navarra", "name:ca": "Navarra", "name:cs": "Navarra", "name:el": "Ναβάρρα", "name:en": "Navarre", "name:es": "Navarra", "name:eu": "Nafarroa", "name:fr": "Navarre", "name:hu": "Navarra", "name:ja": "ナバーラ州", "name:pl": "Nawarra", "name:pt": "Navarra", "name:ru": "Наварра", "name:sk": "Navarra", "ine:ccaa": "15", "border_type": "region", "wikipedia:es": "Navarra", "wikipedia:eu": "Nafarroa Garaia", "official_name": "Comunidad Foral de Navarra", "official_name:be": "Аўтаномная супольнасць Навара", "official_name:ca": "Comunitat Foral de Navarra", "official_name:de": "Foralgemeinschaft Navarra", "official_name:en": "Chartered Community of Navarre", "official_name:es": "Comunidad Foral de Navarra", "official_name:eu": "Nafarroako Foru Komunitatea", "official_name:fr": "Communauté forale de Navarre", "official_name:oc": "Comunautat Forala de Navarra"}}, "center_lat": 42.68, "center_lon": -1.64, "timezone": "Europe/Madrid", "population": 647554, "wikidata_id": "Q4018", "wikipedia_id": "eu:Nafarroa Garaia"}, "geometry": {"type": "MultiPolygon", "coordinates": [[[[-2.421, 42.489], [-1.709, 42.21], [-1.847, 42.008], [-1.422, 41.913], [-1.265, 42.557], [-0.901, 42.743], [-0.723, 42.918], [-1.73, 43.296], [-2.251, 42.895], [-2.421, 42.489]]], [[[-1.188, 42.405], [-1.188, 42.405], [-1.188, 42.405], [-1.188, 42.405]]], [[[-1.129, 42.447], [-1.129, 42.447], [-1.129, 42.447], [-1.129, 42.447]]]]}}