{"type": "Feature", "properties": {"name": "Basque Country", "iso2": "ES-PV", "admin_level": 4, "osm_id": 349042, "countrylevel_id": "iso2:ES-PV", "osm_data": {"localname": "Euskadi", "official_name": "Euskal Autonomia Erkidegoa / Comunidad Autónoma del País Vasco", "alltags": {"name:ar": "إقليم الباسك", "name:be": "Краіна Баскаў", "name:br": "Euskadi", "name:ca": "País Basc", "name:cs": "Baskicko", "name:el": "Χώρα των Βάσκων", "name:en": "Basque Country", "name:eo": "Eŭskujo", "name:es": "País Vasco", "name:eu": "Euskal Herria", "name:fi": "Baskimaa", "name:fr": "Pays basque", "name:fy": "Baskelân", "name:hr": "Baskija", "name:hu": "Baszkföld", "name:is": "Baskaland", "name:ja": "バスク州", "name:lt": "Baskija", "name:ms": "Negara basque", "name:nl": "Baskenland", "name:pl": "Kraj Basków", "name:pt": "País Basco", "name:ru": "Страна Басков", "name:sc": "Paisu Bascu", "name:sk": "Baskicko", "name:sl": "Baskija", "name:sq": "Baskia", "name:sr": "Баскија", "name:sv": "Baskien", "name:tl": "Bayang Basko", "name:tr": "Bask Bölgesi", "name:wa": "Euskadeye", "name:zh": "巴斯克", "ine:ccaa": "16", "name:scn": "Paisi Baschi", "name:tok": "ma Esuka", "name:tzl": "Euscadì", "name:vec": "Paexi Baschi", "ref:NUTS-2": "ES21", "alt_name:eo": "Eŭskio", "border_type": "region", "official_name": "Euskal Autonomia Erkidegoa / Comunidad Autónoma del País Vasco", "official_name:ar": "منطقة إقليم الباسك", "official_name:es": "Comunidad Autónoma del País Vasco", "official_name:eu": "Euskal Autonomia Erkidegoa", "official_name:fr": "Communauté autonome basque", "official_name:zh": "巴斯克自治区"}}, "center_lat": 43.03, "center_lon": -2.57, "timezone": "Europe/Madrid", "population": 2167707, "wikidata_id": "Q3995", "wikipedia_id": "es:País Vasco"}, "geometry": {"type": "MultiPolygon", "coordinates": [[[[-3.123, 42.969], [-3.123, 42.969], [-3.123, 42.969], [-3.123, 42.969]]], [[[-2.001, 43.321], [-2.001, 43.321], [-2.001, 43.321], [-2.001, 43.321]]], [[[-1.792, 43.351], [-1.792, 43.351], [-1.792, 43.351], [-1.792, 43.351]]], [[[-3.08, 43.354], [-3.08, 43.354], [-3.08, 43.354], [-3.08, 43.354]]], [[[-2.497, 43.365], [-2.497, 43.365], [-2.497, 43.365], [-2.497, 43.365]]], [[[-1.785, 43.35], [-1.73, 43.296], [-2.251, 42.895], [-2.421, 42.489], [-2.858, 42.638], [-3.038, 42.982], [-3.089, 43.002], [-3.142, 43.161], [-3.418, 43.133], [-3.153, 43.353], [-3.03, 43.331], [-3.03, 43.33], [-3.029, 43.329], [-3.028, 43.329], [-2.413, 43.321], [-1.785, 43.35]], [[-2.868, 42.741], [-2.868, 42.741], [-2.868, 42.741], [-2.868, 42.741]], [[-3.306, 43.253], [-3.306, 43.253], [-3.306, 43.253], [-3.306, 43.253]]], [[[-3.077, 43.379], [-3.077, 43.379], [-3.077, 43.379], [-3.077, 43.379]]], [[[-1.793, 43.395], [-1.793, 43.395], [-1.793, 43.395], [-1.793, 43.395]]], [[[-2.687, 43.427], [-2.687, 43.427], [-2.687, 43.427], [-2.687, 43.427]]], [[[-2.935, 43.439], [-2.935, 43.439], [-2.935, 43.439], [-2.935, 43.439]]], [[[-2.776, 43.451], [-2.776, 43.451], [-2.776, 43.451], [-2.776, 43.451]]]]}}