{"type": "Feature", "properties": {"name": "Cantabria", "iso2": "ES-S", "admin_level": 6, "osm_id": 6426101, "countrylevel_id": "iso2:ES-S", "osm_data": {"localname": "Cantabria", "official_name": "Provincia de Cantabria", "alltags": {"name:ar": "منطقة كانتابريا", "name:be": "Кантабрыя", "name:bg": "Кантабрия", "name:ca": "Cantabria", "name:cs": "Kantábrie", "name:en": "Cantabria", "name:eo": "Kantabrio", "name:es": "Cantabria", "name:fa": "استان کانتابریا", "name:fr": "Cantabria", "name:he": "קנטבריה", "name:hu": "Cantabria", "name:ja": "カンタブリア州", "name:lt": "Kantabrija", "name:os": "Кантабри", "name:pt": "Cantabria", "name:ru": "Кантабрия", "name:zh": "坎塔布里亚", "ine:provincia": "39", "official_name": "Provincia de Cantabria", "official_name:be": "Правінцыя Кантабрыя", "official_name:de": "Provinz Cantabria", "official_name:en": "Province of Cantabria", "official_name:es": "Provincia de Cantabria", "official_name:fr": "Province de Cantabria", "official_name:pt": "Província de Cantabria"}}, "center_lat": 43.2, "center_lon": -4.03, "timezone": "Europe/Madrid", "population": 580229, "wikidata_id": "Q3946", "wikipedia_id": "es:Cantabria"}, "geometry": {"type": "MultiPolygon", "coordinates": [[[[-3.306, 43.253], [-3.306, 43.253], [-3.306, 43.253], [-3.306, 43.253]]], [[[-4.321, 43.39], [-4.321, 43.39], [-4.321, 43.39], [-4.321, 43.39]]], [[[-4.485, 43.395], [-4.485, 43.395], [-4.485, 43.395], [-4.485, 43.395]]], [[[-4.476, 43.396], [-4.476, 43.396], [-4.476, 43.396], [-4.476, 43.396]]], [[[-4.501, 43.397], [-4.501, 43.397], [-4.501, 43.397], [-4.501, 43.397]]], [[[-4.022, 43.451], [-4.022, 43.451], [-4.022, 43.451], [-4.022, 43.451]]], [[[-4.016, 43.452], [-4.016, 43.452], [-4.016, 43.452], [-4.016, 43.452]]], [[[-4.026, 43.453], [-4.026, 43.453], [-4.026, 43.453], [-4.026, 43.453]]], [[[-4.016, 43.453], [-4.016, 43.453], [-4.016, 43.453], [-4.016, 43.453]]], [[[-3.943, 43.471], [-3.943, 43.471], [-3.943, 43.471], [-3.943, 43.471]]], [[[-3.933, 43.473], [-3.933, 43.473], [-3.933, 43.473], [-3.933, 43.473]]], [[[-4.014, 43.453], [-4.014, 43.453], [-4.014, 43.453], [-4.014, 43.453]]], [[[-3.153, 43.353], [-3.418, 43.133], [-3.65, 43.181], [-4, 42.769], [-4.046, 42.767], [-4.081, 42.761], [-4.462, 43.061], [-4.737, 43.021], [-4.841, 43.181], [-4.512, 43.393], [-3.597, 43.513], [-3.153, 43.353]], [[-4.113, 42.817], [-4.113, 42.817], [-4.113, 42.817], [-4.113, 42.817]], [[-4.182, 42.82], [-4.182, 42.82], [-4.182, 42.82], [-4.182, 42.82]]], [[[-3.932, 43.473], [-3.932, 43.473], [-3.932, 43.473], [-3.932, 43.473]]], [[[-3.892, 43.474], [-3.892, 43.474], [-3.892, 43.474], [-3.892, 43.474]]], [[[-3.917, 43.475], [-3.917, 43.475], [-3.917, 43.475], [-3.917, 43.475]]], [[[-3.916, 43.475], [-3.916, 43.475], [-3.916, 43.475], [-3.916, 43.475]]], [[[-3.88, 43.479], [-3.88, 43.479], [-3.88, 43.479], [-3.88, 43.479]]], [[[-3.541, 43.494], [-3.541, 43.494], [-3.541, 43.494], [-3.541, 43.494]]], [[[-3.541, 43.495], [-3.541, 43.495], [-3.541, 43.495], [-3.541, 43.495]]], [[[-3.523, 43.495], [-3.523, 43.495], [-3.523, 43.495], [-3.523, 43.495]]], [[[-3.529, 43.496], [-3.529, 43.496], [-3.529, 43.496], [-3.529, 43.496]]], [[[-3.525, 43.497], [-3.525, 43.497], [-3.525, 43.497], [-3.525, 43.497]]], [[[-3.526, 43.496], [-3.526, 43.496], [-3.526, 43.496], [-3.526, 43.496]]], [[[-3.732, 43.473], [-3.732, 43.473], [-3.732, 43.473], [-3.732, 43.473]]], [[[-3.91, 43.475], [-3.91, 43.475], [-3.91, 43.475], [-3.91, 43.475]]]]}}