{"type": "Feature", "properties": {"name": "Tarragona", "iso2": "ES-T", "admin_level": 6, "osm_id": 348985, "countrylevel_id": "iso2:ES-T", "osm_data": {"localname": "Tarragona", "official_name": "", "alltags": {"name:be": "Тарагона", "name:el": "Ταρραγόνα", "name:eu": "Tarragona", "name:fr": "Tarragone", "name:lt": "Taragona", "name:ru": "Таррагона", "website": "http://www.diputaciodetarragona.cat/", "alt_name:el": "Ταραγόνα", "ine:provincia": "43", "addr:country_code": "ES"}}, "center_lat": 41.08, "center_lon": 0.8, "timezone": "Europe/Madrid", "population": 792256, "wikidata_id": "Q98392", "wikipedia_id": "ca:Província de Tarragona"}, "geometry": {"type": "MultiPolygon", "coordinates": [[[[1.63, 41.311], [1.63, 41.311], [1.63, 41.311], [1.63, 41.311]]], [[[0.734, 40.787], [0.734, 40.787], [0.734, 40.787], [0.734, 40.787]]], [[[0.756, 40.847], [0.756, 40.847], [0.756, 40.847], [0.756, 40.847]]], [[[0.861, 40.723], [0.861, 40.723], [0.861, 40.723], [0.861, 40.723]]], [[[0.857, 40.73], [0.857, 40.73], [0.857, 40.73], [0.857, 40.73]]], [[[0.722, 40.779], [0.722, 40.779], [0.722, 40.779], [0.722, 40.779]]], [[[0.734, 40.786], [0.734, 40.786], [0.734, 40.786], [0.734, 40.786]]], [[[0.515, 40.523], [0.17, 40.733], [0.221, 41.071], [0.386, 41.279], [0.964, 41.355], [1.393, 41.575], [1.646, 41.195], [0.991, 41.042], [0.515, 40.523]]]]}}