{"type": "Feature", "properties": {"name": "Zaragoza", "iso2": "ES-Z", "admin_level": 6, "osm_id": 349030, "countrylevel_id": "iso2:ES-Z", "osm_data": {"localname": "Zaragoza", "official_name": "", "alltags": {"name:an": "Zaragoza", "name:ar": "سرقسطة", "name:be": "Сарагоса", "name:ca": "Saragossa", "name:el": "Σαραγόσα", "name:es": "Zaragoza", "name:fa": "ساراگوسا", "name:fr": "Saragosse", "name:fy": "Saragossa", "name:he": "סרגוסה", "name:hy": "Սարագոսա", "name:it": "Saragozza", "name:ja": "サラゴサ", "name:ka": "სარაგოსა", "name:kk": "Сарагоса", "name:ko": "사라고사", "name:la": "Caesaraugusta", "name:lb": "Saragossa", "name:lt": "Saragosa", "name:lv": "Saragosa", "name:mk": "Сарагоса", "name:mr": "सारागोसा", "name:mt": "Żaragoża", "name:oc": "Saragossa", "name:pl": "Saragossa", "name:pt": "Saragoça", "name:ru": "Сарагоса", "name:sr": "Сарагоса", "name:th": "ซาราโกซา", "name:ug": "Saragossa", "name:uk": "Сарагоса", "name:zh": "萨拉戈萨", "name:ext": "Çaragoça", "name:lmo": "Saragoza", "name:pms": "Saragozza", "name:scn": "Saragozza", "name:vec": "Saragosa", "ine:provincia": "50", "official_name:be": "Правінцыя Сарагоса", "official_name:es": "Provincia de Zaragoza", "official_name:pt": "Província de Saragoça"}}, "center_lat": 41.63, "center_lon": -1.06, "timezone": "Europe/Madrid", "population": 968149, "wikidata_id": "Q55180", "wikipedia_id": "an:Provincia de Zaragoza"}, "geometry": {"type": "MultiPolygon", "coordinates": [[[[-2.052, 41.147], [-1.617, 40.944], [-0.945, 41.075], [-0.503, 41.354], [0.221, 41.071], [0.386, 41.279], [0.336, 41.407], [-0.07, 41.373], [-0.763, 42.067], [-0.901, 42.743], [-1.265, 42.557], [-1.422, 41.913], [-1.847, 42.008], [-1.856, 41.966], [-1.775, 41.725], [-2.052, 41.147]], [[-1.188, 42.405], [-1.188, 42.405], [-1.188, 42.405], [-1.188, 42.405]], [[-1.129, 42.447], [-1.129, 42.447], [-1.129, 42.447], [-1.129, 42.447]]]]}}