{"type": "Feature", "properties": {"name": "Addis Ababa", "iso2": "ET-AA", "admin_level": 4, "osm_id": 1707699, "countrylevel_id": "iso2:ET-AA", "osm_data": {"localname": "አዲስ አበባ", "official_name": "", "alltags": {"name:am": "አዲስ አበባ", "name:ar": "أديس أبابا", "name:az": "Əddis-Əbəbə", "name:be": "Адыс-Абеба", "name:bg": "Адис Абеба", "name:bn": "আদ্দিস আবাবা", "name:bo": "ཨ་ཌི་སི་ཨ་བ་བ།", "name:bs": "Adis Abeba", "name:cy": "Addis Ababa", "name:da": "Addis Ababa", "name:el": "Αντίς Αμπέμπα", "name:en": "Addis Ababa", "name:eo": "Adis-Abebo", "name:es": "Adís Abeba", "name:fa": "آدیس آبابا", "name:fo": "Addis Ababa", "name:fr": "Addis-Abeba", "name:ga": "Adas Ababa", "name:gd": "Addis Ababa", "name:gl": "Adís Abeba - አዲስ አበባ", "name:he": "אדיס אבבה", "name:hr": "Adis Abeba", "name:ht": "Adis-Abeba", "name:hu": "Addisz-Abeba", "name:hy": "Ադիս Աբեբա", "name:id": "Addis Ababa", "name:ig": "Addis Ababa", "name:io": "Addis Ababa", "name:is": "Addis Ababa", "name:ja": "アディスアベバ", "name:jv": "Addis Ababa", "name:ka": "ადის-აბება", "name:kn": "ಅಡಿಸ್ ಅಬಾಬ", "name:ko": "아디스아바바", "name:ky": "Аддис-Абеба", "name:la": "Neanthopolis", "name:lt": "Adis Abeba", "name:lv": "Adisabeba", "name:mk": "Адис Абеба", "name:ml": "അഡിസ് അബെബ", "name:mn": "Аддис-Абеба", "name:mr": "अदिस अबाबा", "name:ms": "Addis Ababa", "name:my": "အာဒစ် အာဘာဘာမြို့", "name:os": "Аддис-Абебæ", "name:pa": "ਆਦਿਸ ਆਬਬਾ", "name:pt": "Adis Abeba", "name:qu": "Adis Ababa", "name:ru": "Аддис-Абеба", "name:rw": "Addis Ababa", "name:sl": "Adis Abeba", "name:sr": "Адис Абеба", "name:sw": "Addis Ababa", "name:ta": "அடிஸ் அபாபா", "name:tg": "Аддис-Абеба", "name:th": "แอดดิสอาบาบา", "name:tl": "Adis Abeba", "name:tr": "Addis Ababa", "name:uk": "Аддис-Абеба", "name:ur": "ادیس ابابا", "name:vi": "Addis Ababa", "name:wo": "Addis-Abeba", "name:yo": "Addis Ababa", "name:zh": "亚的斯亚贝巴", "is_in:country": "Ethiopia", "is_in:continent": "Africa", "is_in:country_code": "ET"}}, "center_lat": 8.98, "center_lon": 38.79, "timezone": "Africa/Addis_Ababa", "population": 3041002, "wikidata_id": "Q3624", "wikipedia_id": "am:አዲስ አበባ"}, "geometry": {"type": "MultiPolygon", "coordinates": [[[[38.655, 8.997], [38.664, 8.983], [38.662, 8.973], [38.674, 8.962], [38.685, 8.935], [38.679, 8.929], [38.681, 8.916], [38.694, 8.914], [38.709, 8.894], [38.721, 8.903], [38.728, 8.891], [38.744, 8.888], [38.75, 8.869], [38.767, 8.853], [38.779, 8.848], [38.78, 8.836], [38.813, 8.833], [38.827, 8.844], [38.828, 8.871], [38.874, 8.871], [38.873, 8.901], [38.863, 8.913], [38.858, 8.946], [38.89, 8.936], [38.9, 8.938], [38.895, 8.945], [38.897, 8.959], [38.905, 8.962], [38.909, 8.977], [38.907, 8.996], [38.91, 9.004], [38.898, 9.022], [38.897, 9.038], [38.886, 9.053], [38.883, 9.075], [38.879, 9.084], [38.835, 9.079], [38.828, 9.076], [38.817, 9.097], [38.802, 9.087], [38.791, 9.075], [38.779, 9.097], [38.77, 9.098], [38.762, 9.092], [38.743, 9.085], [38.701, 9.081], [38.687, 9.064], [38.69, 9.051], [38.677, 9.042], [38.679, 9.036], [38.669, 9.017], [38.659, 9.016], [38.655, 8.997]]]]}}