{"type": "Feature", "properties": {"name": "Belgorod Oblast", "iso2": "RU-BEL", "admin_level": 4, "osm_id": 83184, "countrylevel_id": "iso2:RU-BEL", "osm_data": {"localname": "Белгородская область", "official_name": "", "alltags": {"int_ref": "RU-BEL", "name:af": "Belgorod-oblast", "name:az": "Belqorod vilayəti", "name:ba": "Белгород өлкәһе", "name:be": "Белгародская вобласць", "name:bg": "Белгородска област", "name:ca": "Província de Bélgorod", "name:ce": "Белгородан область", "name:cs": "Bělgorodská oblast", "name:el": "Περιφέρεια Μπέλγκοροντ", "name:en": "Belgorod Oblast", "name:eo": "Belgoroda provinco", "name:es": "Óblast de Bélgorod", "name:et": "Belgorodi oblast", "name:fr": "Oblast de Belgorod", "name:hu": "Belgorodi terület", "name:hy": "Բելգորոդի մարզ", "name:ka": "ბელგოროდის ოლქი", "name:kv": "Белгород обласьт", "name:lt": "Belgorodo sritis", "name:lv": "Belgorodas apgabals", "name:nl": "Oblast Belgorod", "name:pl": "Obwód biełgorodzki", "name:pt": "Oblast de Belgorod", "name:ro": "Regiunea Belgorod", "name:ru": "Белгородская область", "name:sh": "Belgorodska oblast", "name:sk": "Belgorodská oblasť", "name:sr": "Белгородска област", "name:sv": "Belgorod oblast", "name:tt": "Белгород өлкәсе", "name:uk": "Бєлгородська область", "name:uz": "Belgorod viloyati", "name:kbd": "Белгород област", "name:mhr": "Белгород вел", "name:myv": "Белгородонь ёнкс", "name:sah": "Белгород уобалаһа", "population": "1547936", "border_type": "region", "addr:country": "RU", "gost_7.67-2003": "РОФ-БЕЛ", "name:be-tarask": "Белгародзкая вобласьць", "official_status": "ru:область", "population:date": "2015"}}, "center_lat": 50.67, "center_lon": 37.49, "timezone": "Europe/Moscow", "population": 1549876, "wikidata_id": "Q3329", "wikipedia_id": "ru:Белгородская область"}, "geometry": {"type": "MultiPolygon", "coordinates": [[[[35.658, 50.351], [35.738, 50.354], [35.832, 50.434], [35.938, 50.434], [36.068, 50.451], [36.161, 50.432], [36.284, 50.336], [36.296, 50.292], [36.363, 50.288], [36.433, 50.331], [36.524, 50.286], [36.585, 50.286], [36.56, 50.251], [36.649, 50.218], [36.693, 50.269], [36.833, 50.313], [36.874, 50.339], [36.938, 50.35], [37.045, 50.345], [37.182, 50.363], [37.292, 50.401], [37.333, 50.437], [37.397, 50.431], [37.491, 50.457], [37.465, 50.431], [37.485, 50.357], [37.556, 50.33], [37.577, 50.307], [37.636, 50.311], [37.615, 50.217], [37.639, 50.179], [37.702, 50.134], [37.755, 50.078], [37.797, 50.084], [37.927, 50.034], [37.962, 49.983], [38.044, 49.933], [38.033, 49.9], [38.056, 49.923], [38.162, 49.951], [38.222, 49.979], [38.186, 50.023], [38.178, 50.08], [38.276, 50.073], [38.33, 50.085], [38.351, 50.007], [38.416, 49.982], [38.469, 49.995], [38.489, 49.963], [38.583, 49.977], [38.647, 49.956], [38.685, 50.008], [38.718, 49.983], [38.686, 49.962], [38.694, 49.935], [38.745, 49.897], [38.848, 49.864], [38.901, 49.869], [38.907, 49.828], [38.949, 49.796], [39.032, 49.823], [39.067, 49.816], [39.18, 49.889], [39.206, 49.97], [39.253, 49.987], [39.281, 50.035], [39.218, 50.048], [39.209, 50.079], [39.116, 50.156], [39.138, 50.225], [39.118, 50.268], [39.047, 50.277], [39.044, 50.316], [39.102, 50.34], [39.037, 50.379], [39.029, 50.413], [38.981, 50.439], [39.048, 50.492], [39.127, 50.507], [39.125, 50.534], [39.081, 50.531], [39.084, 50.606], [39.119, 50.625], [39.023, 50.655], [38.965, 50.653], [38.989, 50.698], [38.779, 50.719], [38.8, 50.78], [38.847, 50.789], [38.711, 50.792], [38.709, 50.829], [38.737, 50.842], [38.746, 50.899], [38.774, 50.918], [38.838, 50.893], [38.891, 50.937], [38.849, 50.938], [38.805, 50.984], [38.865, 51.006], [38.856, 51.036], [38.807, 51.048], [38.803, 51.077], [38.687, 51.058], [38.699, 51.022], [38.633, 50.998], [38.502, 51.049], [38.518, 51.071], [38.437, 51.065], [38.388, 51.077], [38.407, 51.13], [38.38, 51.15], [38.412, 51.166], [38.522, 51.163], [38.519, 51.211], [38.475, 51.211], [38.434, 51.286], [38.399, 51.287], [38.335, 51.256], [38.289, 51.296], [38.227, 51.3], [38.204, 51.338], [38.158, 51.333], [38.075, 51.372], [38.036, 51.367], [38.006, 51.423], [37.847, 51.43], [37.703, 51.357], [37.584, 51.371], [37.586, 51.389], [37.472, 51.368], [37.384, 51.385], [37.323, 51.359], [37.301, 51.332], [37.238, 51.328], [37.145, 51.355], [37.16, 51.32], [37.122, 51.284], [37.14, 51.231], [37.11, 51.254], [37.035, 51.235], [37.024, 51.209], [36.949, 51.171], [36.921, 51.179], [36.791, 51.16], [36.666, 51.086], [36.604, 51.08], [36.602, 51.1], [36.532, 51.134], [36.486, 51.063], [36.403, 51.119], [36.353, 51.092], [36.265, 51.107], [36.228, 51.143], [36.223, 51.118], [36.14, 51.11], [36.05, 51.167], [35.922, 51.13], [35.923, 51.097], [36.008, 51.052], [35.949, 51.054], [35.95, 51.035], [35.875, 50.998], [35.865, 50.959], [35.801, 50.937], [35.779, 50.968], [35.734, 50.977], [35.726, 50.929], [35.679, 50.908], [35.606, 50.936], [35.571, 50.902], [35.528, 50.921], [35.543, 50.945], [35.48, 50.938], [35.455, 50.957], [35.352, 50.973], [35.333, 50.935], [35.393, 50.924], [35.38, 50.896], [35.419, 50.844], [35.415, 50.799], [35.489, 50.777], [35.459, 50.689], [35.496, 50.679], [35.401, 50.656], [35.426, 50.603], [35.39, 50.58], [35.428, 50.562], [35.476, 50.489], [35.586, 50.448], [35.584, 50.395], [35.626, 50.352], [35.658, 50.351]]]]}}