{"type": "Feature", "properties": {"name": "Karachay-Cherkessia", "iso2": "RU-KC", "admin_level": 4, "osm_id": 109878, "countrylevel_id": "iso2:RU-KC", "osm_data": {"localname": "Карачаево-Черкесия", "official_name": "Карачаево-Черкесская республика", "alltags": {"int_ref": "RU-KC", "name:br": "Karatchay-Tcherkesia", "name:ca": "Karatxai-Txerkèssia", "name:ce": "Кхарачой-Чергазийчоь", "name:en": "Karachay-Cherkessia", "name:es": "Karacháyevo-Cherkesia", "name:fa": "قرهچای و چرکس", "name:fr": "Karatchaïévo-Tcherkessie", "name:hu": "Karacsáj- és Cserkeszföld", "name:ja": "カラチャイ・チェルケス共和国", "name:ka": "ყარაჩაი-ჩერქეზეთის რესპუბლიკა", "name:nl": "Karatsjaj-Tsjerkessië", "name:ru": "Карачаево-Черкесия", "name:sk": "Karačajsko-Čerkesko", "name:sl": "Republika Karačaj-Čerkezija", "name:uk": "Карача́єво-Черке́ська Респу́бліка", "name:zh": "卡拉恰伊-切尔克斯共和国", "alt_name": "Карачаево-Черкесская Республика", "name:aba": "Къарча-Черкес Республика", "name:kbd": "Къэрэшей-Шэрджэс Республикэ", "name:krc": "Къарачай-Черкес Республика", "name:nog": "Карашай-Шеркеш Республикасы", "oktmo:user": "91000000", "alt_name:sl": "Karačaj-Čerkezija", "addr:country": "RU", "official_name": "Карачаево-Черкесская республика", "gost_7.67-2003": "РОФ-КАО", "official_name:en": "Karachay-Cherkess Republic", "official_name:sk": "Karačajsko-čerkeská republika", "official_name:kbd": "Къэрэшей-Шэрджэс Республикэ", "official_name:krc": "Къарачай-Черкес Республика"}}, "center_lat": 43.77, "center_lon": 41.75, "timezone": "Europe/Moscow", "population": 466305, "wikidata_id": "Q5328", "wikipedia_id": "ru:Карачаево-Черкесия"}, "geometry": {"type": "MultiPolygon", "coordinates": [[[[40.713, 43.532], [40.828, 43.488], [40.892, 43.489], [40.893, 43.457], [40.95, 43.42], [41.004, 43.432], [41.039, 43.399], [41.098, 43.385], [41.151, 43.405], [41.169, 43.383], [41.221, 43.381], [41.277, 43.359], [41.288, 43.337], [41.363, 43.368], [41.412, 43.357], [41.413, 43.324], [41.488, 43.286], [41.544, 43.27], [41.583, 43.237], [41.635, 43.222], [41.659, 43.238], [41.684, 43.217], [41.726, 43.244], [41.804, 43.202], [41.848, 43.211], [41.888, 43.249], [41.903, 43.229], [41.972, 43.212], [42.019, 43.217], [42.038, 43.188], [42.081, 43.205], [42.216, 43.231], [42.253, 43.212], [42.341, 43.22], [42.358, 43.247], [42.414, 43.257], [42.397, 43.29], [42.418, 43.362], [42.403, 43.393], [42.422, 43.437], [42.456, 43.443], [42.451, 43.482], [42.474, 43.53], [42.456, 43.621], [42.603, 43.656], [42.676, 43.698], [42.667, 43.782], [42.678, 43.81], [42.647, 43.827], [42.655, 43.856], [42.628, 43.892], [42.66, 43.937], [42.618, 43.945], [42.625, 43.974], [42.578, 43.974], [42.585, 44.026], [42.503, 44.026], [42.48, 44.014], [42.48, 43.966], [42.376, 43.972], [42.358, 44.038], [42.303, 44.029], [42.335, 44.134], [42.38, 44.168], [42.441, 44.17], [42.441, 44.202], [42.472, 44.193], [42.503, 44.224], [42.552, 44.224], [42.553, 44.269], [42.61, 44.269], [42.609, 44.312], [42.553, 44.368], [42.495, 44.364], [42.479, 44.325], [42.408, 44.325], [42.408, 44.308], [42.341, 44.311], [42.22, 44.348], [42.03, 44.353], [42.021, 44.367], [41.92, 44.413], [41.925, 44.496], [41.736, 44.474], [41.706, 44.455], [41.694, 44.41], [41.628, 44.407], [41.634, 44.378], [41.592, 44.364], [41.69, 44.333], [41.744, 44.268], [41.709, 44.187], [41.638, 44.117], [41.551, 44.096], [41.539, 44.045], [41.484, 44.047], [41.48, 44.001], [41.414, 43.983], [41.354, 44.009], [41.36, 43.978], [41.315, 43.98], [41.274, 44.018], [41.247, 44.01], [41.291, 44.085], [41.17, 44.089], [41.152, 44.118], [41.085, 44.095], [40.955, 44.141], [40.891, 44.143], [40.891, 44.104], [40.926, 44.09], [40.919, 44.038], [40.935, 44.017], [40.886, 43.945], [40.803, 43.918], [40.771, 43.878], [40.756, 43.83], [40.723, 43.795], [40.757, 43.749], [40.676, 43.716], [40.717, 43.679], [40.699, 43.654], [40.742, 43.605], [40.713, 43.532]]]]}}