{"type": "Feature", "properties": {"name": "Kaluga Oblast", "iso2": "RU-KLU", "admin_level": 4, "osm_id": 81995, "countrylevel_id": "iso2:RU-KLU", "osm_data": {"localname": "Калужская область", "official_name": "", "alltags": {"int_ref": "RU-KLU", "name:az": "Kaluqa vilayəti", "name:be": "Калужская вобласць", "name:ca": "Província de Kaluga", "name:cs": "Kalužská oblast", "name:cv": "Калуга облаçĕ", "name:el": "Περιφέρεια Καλούγκα", "name:en": "Kaluga Oblast", "name:es": "Óblast de Kaluga", "name:et": "Kaluga oblast", "name:eu": "Kalugako oblasta", "name:fr": "Oblast de Kalouga", "name:hu": "Kalugai terület", "name:hy": "Կալուգայի մարզ", "name:ja": "カルーガ州", "name:ka": "კალუგის ოლქი", "name:kv": "Калуга обласьт", "name:lt": "Kalugos sritis", "name:lv": "Kalugas apgabals", "name:nl": "Oblast Kaloega", "name:os": "Калугæйы облæст", "name:pl": "Obwód kałuski", "name:pt": "Oblast de Kaluga", "name:ro": "Regiunea Kaluga", "name:ru": "Калужская область", "name:sh": "Kaluška oblast", "name:sk": "Kalužská oblasť", "name:sr": "Калушка област", "name:tg": "Вилояти Калуга", "name:tr": "Kaluga Oblastı", "name:tt": "Калуга өлкәсе", "name:uk": "Калузька область", "name:uz": "Kaluga viloyati", "name:zh": "卡卢加州", "name:sah": "Калуга уобалаһа", "name:xal": "Калуга төгәлң", "border_type": "region", "addr:country": "RU", "is_in:country": "Russia", "gost_7.67-2003": "РОФ-КАЛ", "name:be-tarask": "Калуская вобласьць", "is_in:continent": "Europe", "is_in:country_code": "RU"}}, "center_lat": 54.37, "center_lon": 35.45, "timezone": "Europe/Moscow", "population": 1000070, "wikidata_id": "Q2842", "wikipedia_id": "ru:Калужская область"}, "geometry": {"type": "MultiPolygon", "coordinates": [[[[33.507, 54.016], [33.579, 54.032], [33.709, 54.025], [33.751, 53.998], [33.816, 53.992], [33.798, 53.95], [33.806, 53.896], [33.912, 53.867], [34.003, 53.881], [34.002, 53.86], [34.089, 53.872], [34.201, 53.912], [34.233, 53.867], [34.228, 53.839], [34.292, 53.826], [34.356, 53.768], [34.369, 53.732], [34.408, 53.734], [34.442, 53.683], [34.496, 53.674], [34.473, 53.636], [34.506, 53.606], [34.502, 53.543], [34.52, 53.501], [34.569, 53.47], [34.572, 53.429], [34.638, 53.383], [34.833, 53.377], [34.861, 53.39], [34.877, 53.344], [34.899, 53.373], [35.023, 53.362], [35.03, 53.334], [35.084, 53.325], [35.083, 53.299], [35.141, 53.279], [35.238, 53.28], [35.247, 53.319], [35.384, 53.337], [35.384, 53.398], [35.464, 53.418], [35.44, 53.444], [35.529, 53.444], [35.63, 53.542], [35.685, 53.545], [35.772, 53.506], [35.824, 53.573], [35.875, 53.596], [35.925, 53.652], [35.991, 53.626], [36.003, 53.66], [36.074, 53.682], [36.029, 53.726], [35.963, 53.716], [35.958, 53.752], [35.918, 53.777], [35.973, 53.8], [35.965, 53.824], [35.901, 53.841], [36.001, 53.873], [35.984, 53.908], [36.066, 53.961], [36.141, 53.94], [36.098, 54.006], [36.156, 54.055], [36.204, 54.059], [36.217, 54.089], [36.177, 54.103], [36.127, 54.09], [36.132, 54.144], [36.073, 54.128], [36.08, 54.153], [36.018, 54.179], [35.966, 54.161], [35.986, 54.195], [36.035, 54.172], [36.092, 54.182], [36.234, 54.172], [36.249, 54.209], [36.316, 54.232], [36.377, 54.203], [36.392, 54.224], [36.505, 54.247], [36.486, 54.288], [36.648, 54.28], [36.686, 54.309], [36.716, 54.288], [36.791, 54.276], [36.884, 54.279], [36.975, 54.3], [36.967, 54.333], [36.931, 54.343], [36.984, 54.388], [36.941, 54.447], [36.892, 54.428], [36.857, 54.479], [36.878, 54.504], [36.942, 54.51], [36.895, 54.563], [36.921, 54.589], [36.982, 54.605], [37.05, 54.59], [37.079, 54.545], [37.142, 54.567], [37.148, 54.606], [37.193, 54.635], [37.246, 54.709], [37.207, 54.722], [37.237, 54.754], [37.23, 54.806], [37.269, 54.842], [37.166, 54.867], [37.193, 54.923], [37.15, 55], [37.096, 55.032], [37.116, 55.098], [37.052, 55.113], [37.046, 55.142], [37.02, 55.183], [36.983, 55.18], [36.937, 55.241], [36.856, 55.227], [36.822, 55.194], [36.8, 55.242], [36.763, 55.27], [36.697, 55.262], [36.601, 55.283], [36.617, 55.349], [36.502, 55.305], [36.435, 55.291], [36.417, 55.305], [36.343, 55.255], [36.328, 55.216], [36.265, 55.171], [36.248, 55.191], [36.17, 55.192], [36.139, 55.174], [36.104, 55.211], [36.022, 55.214], [35.959, 55.242], [35.889, 55.248], [35.843, 55.232], [35.741, 55.296], [35.663, 55.278], [35.573, 55.29], [35.535, 55.258], [35.446, 55.229], [35.357, 55.249], [35.334, 55.272], [35.308, 55.239], [35.343, 55.234], [35.28, 55.179], [35.273, 55.119], [35.209, 55.063], [35.1, 55.013], [35.125, 54.976], [35.051, 54.97], [34.991, 54.898], [34.943, 54.921], [34.873, 54.901], [34.894, 54.758], [34.79, 54.707], [34.706, 54.712], [34.702, 54.682], [34.621, 54.661], [34.586, 54.684], [34.518, 54.661], [34.521, 54.599], [34.413, 54.536], [34.416, 54.514], [34.252, 54.521], [34.222, 54.504], [34.159, 54.533], [34.134, 54.565], [34.08, 54.544], [33.985, 54.58], [33.915, 54.578], [33.89, 54.555], [33.859, 54.573], [33.793, 54.557], [33.771, 54.574], [33.649, 54.508], [33.634, 54.477], [33.702, 54.466], [33.627, 54.421], [33.625, 54.398], [33.574, 54.395], [33.629, 54.371], [33.689, 54.322], [33.652, 54.269], [33.603, 54.259], [33.629, 54.187], [33.564, 54.176], [33.573, 54.124], [33.485, 54.098], [33.442, 54.057], [33.49, 54.059], [33.507, 54.016]]]]}}