{"type": "Feature", "properties": {"name": "Pskov Oblast", "iso2": "RU-PSK", "admin_level": 4, "osm_id": 155262, "countrylevel_id": "iso2:RU-PSK", "osm_data": {"localname": "Псковская область", "official_name": "", "alltags": {"int_ref": "RU-PSK", "name:af": "Pskof-oblast", "name:ar": "بسكوف أوبلاست", "name:az": "Pskov vilayəti", "name:ba": "Псков өлкәһе", "name:be": "Пскоўская вобласць", "name:bg": "Псковска област", "name:bs": "Pskovska oblast", "name:ca": "Província de Pskov", "name:ce": "Пскован область", "name:cs": "Pskovská oblast", "name:cv": "Псков облаçĕ", "name:da": "Pskov oblast", "name:el": "Περιφέρεια Πσκοφ", "name:en": "Pskov Oblast", "name:es": "Óblast de Pskov", "name:et": "Pihkva oblast", "name:eu": "Pskov oblasta", "name:fa": "استان پسکوف", "name:fi": "Pihkovan alue", "name:fr": "Oblast de Pskov", "name:hr": "Pskovska oblast", "name:hu": "Pszkovi terület", "name:hy": "Պսկովի մարզ", "name:id": "Oblast Pskov", "name:it": "Oblast' di Pskov", "name:ja": "プスコフ州", "name:ka": "ფსკოვის ოლქი", "name:ko": "프스코프 주", "name:kv": "Псков обласьт", "name:la": "Regio Pscoviensis", "name:lt": "Pskovo sritis", "name:lv": "Pleskavas apgabals", "name:mk": "Псковска област", "name:nl": "Oblast Pskov", "name:os": "Псковы облæст", "name:pl": "Obwód pskowski", "name:ro": "Regiunea Pskov", "name:ru": "Псковская область", "name:sh": "Pskovska oblast", "name:sk": "Pskovská oblasť", "name:sl": "Pskovska oblast", "name:sr": "Псковска област", "name:ta": "பிசுக்கோவ் மாகாணம்", "name:tr": "Pskov Oblastı", "name:tt": "Псков өлкәсе", "name:uk": "Псковська область", "name:ur": "پسکوف اوبلاست", "name:uz": "Pskov viloyati", "name:zh": "普斯科夫州", "name:kbd": "Псков област", "name:mhr": "Псков вел", "name:myv": "Псковонь ёнкс", "name:sah": "Псков уобалаһа", "name:udm": "Псков улос", "name:xal": "Пскова төгәлң", "population": "661507", "name:uz-cyr": "Псков вилояти", "addr:country": "RU", "is_in:country": "Russia", "gost_7.67-2003": "РОФ-ПСК", "name:be-tarask": "Пскоўская вобласьць", "is_in:continent": "Europe", "population:date": "2013-01-01", "is_in:country_code": "RU"}}, "center_lat": 57.24, "center_lon": 29.23, "timezone": "Europe/Moscow", "population": 636546, "wikidata_id": "Q2218", "wikipedia_id": "ru:Псковская область"}, "geometry": {"type": "MultiPolygon", "coordinates": [[[[27.352, 57.518], [27.501, 57.54], [27.556, 57.538], [27.553, 57.469], [27.517, 57.427], [27.671, 57.395], [27.691, 57.371], [27.779, 57.343], [27.867, 57.297], [27.86, 57.245], [27.826, 57.192], [27.817, 57.142], [27.757, 57.131], [27.72, 57.093], [27.767, 57.083], [27.718, 57.013], [27.77, 57.005], [27.737, 56.92], [27.686, 56.916], [27.659, 56.834], [27.847, 56.88], [27.902, 56.821], [27.968, 56.837], [27.977, 56.812], [27.899, 56.753], [27.977, 56.695], [28.013, 56.672], [28.011, 56.637], [28.055, 56.584], [28.125, 56.583], [28.136, 56.549], [28.093, 56.53], [28.126, 56.496], [28.195, 56.443], [28.187, 56.404], [28.19, 56.362], [28.24, 56.271], [28.187, 56.232], [28.204, 56.215], [28.151, 56.17], [28.157, 56.143], [28.278, 56.095], [28.291, 56.069], [28.376, 56.06], [28.371, 56.096], [28.421, 56.088], [28.548, 56.116], [28.62, 56.099], [28.688, 56.102], [28.636, 56.075], [28.7, 56.026], [28.737, 55.967], [28.81, 55.972], [28.849, 55.954], [28.858, 55.989], [28.953, 56.013], [29.088, 56.034], [29.156, 56.027], [29.214, 55.989], [29.305, 55.991], [29.358, 55.971], [29.45, 55.958], [29.423, 55.945], [29.48, 55.918], [29.394, 55.902], [29.389, 55.82], [29.36, 55.799], [29.362, 55.758], [29.4, 55.754], [29.515, 55.702], [29.578, 55.734], [29.623, 55.78], [29.745, 55.802], [29.806, 55.783], [29.895, 55.863], [29.941, 55.852], [29.976, 55.872], [30.107, 55.831], [30.239, 55.872], [30.287, 55.832], [30.339, 55.835], [30.367, 55.809], [30.482, 55.813], [30.534, 55.75], [30.595, 55.747], [30.648, 55.71], [30.641, 55.676], [30.673, 55.639], [30.727, 55.664], [30.765, 55.59], [30.809, 55.591], [30.872, 55.63], [30.925, 55.623], [30.954, 55.666], [31.06, 55.705], [31.03, 55.725], [31.038, 55.761], [31.14, 55.758], [31.203, 55.728], [31.24, 55.742], [31.305, 55.726], [31.367, 55.741], [31.422, 55.716], [31.484, 55.718], [31.448, 55.743], [31.407, 55.806], [31.397, 55.869], [31.416, 55.892], [31.35, 55.945], [31.368, 55.969], [31.5, 56.034], [31.494, 56.076], [31.449, 56.133], [31.508, 56.158], [31.464, 56.193], [31.463, 56.254], [31.518, 56.306], [31.373, 56.304], [31.364, 56.325], [31.286, 56.324], [31.228, 56.342], [31.213, 56.427], [31.129, 56.438], [31.006, 56.487], [31.002, 56.525], [31.065, 56.621], [31.059, 56.655], [30.888, 56.645], [30.814, 56.7], [30.763, 56.759], [30.768, 56.791], [30.818, 56.824], [30.877, 56.806], [30.88, 56.886], [30.927, 56.863], [30.976, 56.912], [30.979, 56.97], [30.941, 56.973], [30.859, 56.936], [30.816, 56.96], [30.766, 56.946], [30.687, 56.985], [30.688, 57.149], [30.63, 57.174], [30.746, 57.263], [30.541, 57.304], [30.464, 57.35], [30.537, 57.386], [30.452, 57.398], [30.477, 57.373], [30.427, 57.366], [30.423, 57.424], [30.516, 57.501], [30.463, 57.522], [30.543, 57.547], [30.681, 57.644], [30.519, 57.642], [30.452, 57.688], [30.494, 57.721], [30.495, 57.772], [30.42, 57.776], [30.435, 57.803], [30.512, 57.806], [30.543, 57.864], [30.521, 57.884], [30.42, 57.881], [30.389, 57.903], [30.289, 57.911], [30.245, 57.892], [30.153, 57.908], [30.175, 57.926], [30.085, 57.939], [30.071, 57.959], [29.992, 57.942], [29.901, 57.941], [29.869, 57.96], [29.901, 57.99], [29.993, 58.032], [29.981, 58.05], [29.889, 58.045], [29.791, 58.091], [29.709, 58.094], [29.679, 58.076], [29.629, 58.1], [29.672, 58.135], [29.686, 58.211], [29.619, 58.252], [29.761, 58.25], [29.822, 58.258], [29.857, 58.304], [29.917, 58.311], [29.879, 58.423], [29.896, 58.45], [29.866, 58.427], [29.747, 58.424], [29.691, 58.46], [29.674, 58.443], [29.551, 58.48], [29.584, 58.523], [29.511, 58.541], [29.423, 58.59], [29.394, 58.554], [29.319, 58.574], [29.403, 58.592], [29.313, 58.614], [29.264, 58.595], [29.231, 58.633], [29.292, 58.649], [29.257, 58.67], [29.278, 58.701], [29.181, 58.71], [29.14, 58.7], [29.056, 58.74], [29.034, 58.833], [28.973, 58.805], [28.766, 58.825], [28.622, 58.865], [28.493, 58.862], [28.436, 58.881], [28.411, 58.855], [28.374, 58.878], [28.294, 58.826], [28.258, 58.899], [28.226, 58.896], [28.202, 58.935], [28.097, 59.001], [28.034, 58.987], [27.991, 59.016], [27.918, 59.021], [27.738, 58.978], [27.357, 58.787], [27.518, 58.441], [27.534, 58.407], [27.553, 58.366], [27.517, 58.333], [27.487, 58.304], [27.491, 58.224], [27.602, 58.117], [27.636, 58.1], [27.607, 58.054], [27.621, 58.005], [27.693, 58.005], [27.684, 57.928], [27.771, 57.895], [27.817, 57.895], [27.816, 57.863], [27.741, 57.828], [27.622, 57.84], [27.555, 57.834], [27.528, 57.79], [27.525, 57.709], [27.493, 57.723], [27.411, 57.7], [27.376, 57.668], [27.399, 57.637], [27.378, 57.596], [27.317, 57.58], [27.352, 57.518]]]]}}