{"type": "Feature", "properties": {"name": "Rostov Oblast", "iso2": "RU-ROS", "admin_level": 4, "osm_id": 85606, "countrylevel_id": "iso2:RU-ROS", "osm_data": {"localname": "Ростовская область", "official_name": "", "alltags": {"name:af": "Rostof-oblast", "name:ar": "روستوف أوبلاست", "name:az": "Rostov vilayəti", "name:ba": "Ростов өлкәһе", "name:be": "Растоўская вобласць", "name:bg": "Ростовска област", "name:ca": "Província de Rostov", "name:ce": "Ростован область", "name:cs": "Rostovská oblast", "name:el": "Περιφέρεια Ροστόφ", "name:en": "Rostov Oblast", "name:es": "Óblast de Rostov", "name:et": "Rostovi oblast", "name:eu": "Rostov oblasta", "name:fa": "استان روستوف", "name:fi": "Rostovin alue", "name:he": "מחוז רוסטוב", "name:hr": "Rostovska oblast", "name:hu": "Rosztovi terület", "name:hy": "Ռոստովի մարզ", "name:it": "Oblast' di Rostov", "name:ja": "ロストフ州", "name:ka": "როსტოვის ოლქი", "name:lt": "Rostovo sritis", "name:lv": "Rostovas apgabals", "name:nl": "Oblast Rostov", "name:no": "Rostov oblast", "name:os": "Ростовы облæст", "name:pl": "Obwód rostowski", "name:pt": "Oblast de Rostov", "name:ro": "Regiunea Rostov", "name:ru": "Ростовская область", "name:sh": "Rostovska oblast", "name:sk": "Rostovská oblasť", "name:sl": "Rostovska oblast", "name:sr": "Ростовска област", "name:sv": "Rostov oblast", "name:tt": "Ростов өлкәсе", "name:uk": "Ростовська область", "name:uz": "Rostov viloyati", "name:vi": "Rostov (tỉnh)", "name:zh": "罗斯托夫州", "int_name": "Rostov Oblast", "name:crh": "Rostov vilâyeti", "name:kbd": "Ростов област", "name:mhr": "Ростов вел", "name:myv": "Ростовонь ёнкс", "name:sah": "Ростов уобалаһа", "name:udm": "Ростов улос", "name:xal": "Ростова төгәлң", "population": "4245598", "short_name": "РОС", "border_type": "region", "addr:country": "RU", "short_name:en": "ROS", "short_name:ru": "РОС", "gost_7.67-2003": "РОФ-РОС", "official_status": "ru:область"}}, "center_lat": 47.74, "center_lon": 41.31, "timezone": "Europe/Moscow", "population": 4202320, "wikidata_id": "Q3573", "wikipedia_id": "ru:Ростовская область"}, "geometry": {"type": "MultiPolygon", "coordinates": [[[[38.23, 47.119], [38.235, 47.231], [38.324, 47.257], [38.336, 47.306], [38.221, 47.305], [38.257, 47.373], [38.302, 47.393], [38.302, 47.475], [38.285, 47.544], [38.311, 47.576], [38.351, 47.576], [38.35, 47.617], [38.457, 47.617], [38.456, 47.644], [38.616, 47.645], [38.666, 47.669], [38.669, 47.699], [38.773, 47.686], [38.789, 47.738], [38.789, 47.816], [38.829, 47.816], [38.838, 47.864], [38.878, 47.877], [39.074, 47.87], [39.083, 47.852], [39.15, 47.842], [39.236, 47.854], [39.242, 47.867], [39.387, 47.871], [39.412, 47.831], [39.478, 47.861], [39.521, 47.826], [39.566, 47.836], [39.738, 47.828], [39.763, 47.871], [39.795, 47.87], [39.794, 47.919], [39.822, 47.951], [39.816, 48.002], [39.776, 48.04], [39.883, 48.042], [39.834, 48.067], [39.869, 48.079], [39.87, 48.117], [39.937, 48.181], [39.942, 48.229], [40.004, 48.224], [40.021, 48.254], [39.99, 48.317], [39.91, 48.271], [39.888, 48.309], [39.841, 48.31], [39.845, 48.333], [39.948, 48.355], [39.906, 48.39], [39.898, 48.447], [39.853, 48.466], [39.867, 48.509], [39.855, 48.561], [39.787, 48.593], [39.688, 48.587], [39.661, 48.606], [39.723, 48.684], [39.705, 48.72], [39.761, 48.764], [39.801, 48.843], [39.976, 48.793], [40.08, 48.87], [40.061, 48.909], [40.004, 48.901], [39.993, 48.868], [39.925, 48.896], [39.852, 48.891], [39.774, 48.925], [39.752, 48.987], [39.727, 48.976], [39.664, 49.001], [39.693, 49.05], [39.766, 49.04], [39.805, 49.06], [39.938, 49.056], [39.938, 49.083], [40.031, 49.18], [40.077, 49.187], [40.137, 49.24], [40.208, 49.242], [40.228, 49.261], [40.186, 49.281], [40.196, 49.344], [40.114, 49.386], [40.029, 49.454], [40.039, 49.521], [40.17, 49.569], [40.135, 49.617], [40.161, 49.643], [40.277, 49.628], [40.375, 49.588], [40.549, 49.581], [40.576, 49.623], [40.637, 49.673], [40.779, 49.667], [40.796, 49.701], [40.921, 49.7], [41.004, 49.782], [41.047, 49.809], [41.041, 49.867], [41.082, 49.943], [41.193, 50.012], [41.298, 50.021], [41.338, 50.069], [41.384, 50.081], [41.384, 50.114], [41.346, 50.145], [41.289, 50.163], [41.35, 50.214], [41.401, 50.203], [41.494, 50.081], [41.611, 50.042], [41.576, 49.992], [41.617, 49.96], [41.722, 49.944], [41.751, 49.918], [41.877, 49.908], [41.921, 49.85], [41.985, 49.835], [42.065, 49.77], [42.136, 49.733], [42.184, 49.676], [42.13, 49.595], [42.103, 49.517], [42.081, 49.513], [42.064, 49.444], [42.037, 49.407], [42.03, 49.342], [42.078, 49.341], [42.075, 49.287], [42.045, 49.212], [42.099, 49.195], [42.021, 49.134], [42.189, 49.122], [42.34, 49.139], [42.381, 49.109], [42.387, 49.062], [42.35, 49.05], [42.418, 49.003], [42.5, 49.01], [42.568, 48.97], [42.638, 48.96], [42.682, 48.938], [42.682, 48.877], [42.748, 48.823], [42.745, 48.774], [42.667, 48.726], [42.67, 48.66], [42.696, 48.64], [42.704, 48.587], [42.662, 48.591], [42.621, 48.543], [42.559, 48.542], [42.526, 48.521], [42.437, 48.503], [42.396, 48.519], [42.363, 48.497], [42.309, 48.515], [42.221, 48.482], [42.214, 48.467], [42.086, 48.416], [42.181, 48.277], [42.063, 48.266], [42.089, 48.234], [42.129, 48.141], [42.081, 48.136], [42.021, 48.092], [42.018, 48.048], [42.052, 48.013], [42.095, 48.027], [42.172, 48.008], [42.216, 48.033], [42.338, 48.027], [42.352, 48.044], [42.392, 48.009], [42.447, 48.023], [42.525, 48.019], [42.547, 47.972], [42.63, 47.909], [42.72, 47.876], [42.759, 47.761], [42.793, 47.713], [42.846, 47.672], [42.926, 47.519], [42.987, 47.505], [43.05, 47.554], [43.164, 47.554], [43.155, 47.466], [43.251, 47.447], [43.315, 47.448], [43.402, 47.47], [43.587, 47.486], [43.687, 47.45], [43.711, 47.474], [43.787, 47.354], [43.793, 47.268], [43.94, 47.259], [43.926, 47.329], [43.964, 47.4], [44.133, 47.414], [44.135, 47.545], [44.188, 47.536], [44.234, 47.549], [44.233, 47.479], [44.312, 47.478], [44.318, 47.413], [44.324, 47.142], [44.268, 46.964], [44.266, 46.909], [44.157, 46.823], [44.087, 46.836], [44.034, 46.765], [43.912, 46.714], [43.913, 46.676], [43.882, 46.623], [43.827, 46.596], [43.813, 46.572], [43.931, 46.535], [43.916, 46.42], [43.924, 46.387], [43.972, 46.358], [43.959, 46.319], [43.896, 46.3], [43.862, 46.271], [43.849, 46.288], [43.89, 46.314], [43.847, 46.333], [43.81, 46.381], [43.739, 46.408], [43.751, 46.361], [43.691, 46.29], [43.63, 46.175], [43.538, 46.157], [43.339, 46.167], [42.932, 46.447], [42.781, 46.403], [42.769, 46.369], [42.692, 46.368], [42.598, 46.384], [42.489, 46.464], [42.444, 46.467], [42.397, 46.511], [42.279, 46.531], [42.2, 46.558], [42.122, 46.555], [42.045, 46.534], [42.101, 46.374], [42.164, 46.383], [42.17, 46.298], [41.962, 46.298], [41.963, 46.255], [41.911, 46.255], [41.911, 46.203], [41.962, 46.203], [41.963, 46.176], [41.886, 46.176], [41.863, 46.144], [41.738, 46.186], [41.699, 46.216], [41.688, 46.186], [41.641, 46.154], [41.702, 46.052], [41.714, 45.982], [41.667, 45.975], [41.471, 45.998], [41.393, 45.997], [41.393, 45.952], [41.161, 45.952], [41.161, 45.979], [41.122, 46.006], [41.122, 46.06], [41.07, 46.078], [41.07, 46.113], [40.979, 46.113], [40.991, 46.207], [40.99, 46.298], [40.926, 46.295], [40.926, 46.23], [40.744, 46.229], [40.744, 46.286], [40.566, 46.286], [40.537, 46.273], [40.408, 46.272], [40.324, 46.283], [40.324, 46.314], [40.272, 46.314], [40.248, 46.368], [40.286, 46.376], [40.286, 46.448], [40.238, 46.448], [40.221, 46.538], [40.064, 46.534], [40.064, 46.628], [40.117, 46.646], [40.116, 46.718], [40.142, 46.736], [40.079, 46.73], [40.063, 46.772], [39.841, 46.771], [39.841, 46.789], [39.564, 46.788], [39.565, 46.806], [39.487, 46.805], [39.446, 46.818], [39.419, 46.797], [39.263, 46.794], [39.262, 46.708], [39.209, 46.682], [39.209, 46.621], [39.069, 46.6], [39.057, 46.62], [38.963, 46.636], [38.902, 46.635], [38.902, 46.56], [38.868, 46.57], [38.869, 46.732], [38.896, 46.732], [38.896, 46.826], [38.686, 46.826], [38.686, 46.871], [38.849, 46.911], [38.905, 46.968], [38.936, 46.959], [39.106, 47.042], [39.118, 47.026], [39.191, 47.034], [39.294, 47.02], [39.307, 47.06], [39.275, 47.063], [39.261, 47.112], [39.23, 47.137], [39.244, 47.173], [39.214, 47.186], [39.237, 47.258], [39.201, 47.283], [39.087, 47.288], [39.04, 47.264], [38.955, 47.269], [38.938, 47.251], [38.945, 47.199], [38.89, 47.198], [38.865, 47.174], [38.761, 47.17], [38.637, 47.141], [38.577, 47.144], [38.568, 47.115], [38.505, 47.131], [38.504, 47.174], [38.606, 47.244], [38.755, 47.241], [38.807, 47.249], [38.824, 47.277], [38.655, 47.262], [38.524, 47.21], [38.467, 47.154], [38.397, 47.136], [38.308, 47.138], [38.23, 47.119]]]]}}