{"type": "Feature", "properties": {"name": "Jewish Autonomous Oblast", "iso2": "RU-YEV", "admin_level": 4, "osm_id": 147167, "countrylevel_id": "iso2:RU-YEV", "osm_data": {"localname": "Еврейская автономная область", "official_name": "", "alltags": {"int_ref": "RU-YEV", "name:ar": "الأوبلاست اليهودية الذاتية", "name:az": "Yəhudi Muxtar Vilayəti", "name:be": "Яўрэйская аўтаномная вобласць", "name:ca": "Província Autònoma dels Hebreus", "name:cs": "Židovská autonomní oblast", "name:el": "Εβραϊκή Αυτόνομη Περιφέρεια", "name:en": "Jewish Autonomous Oblast", "name:es": "Óblast Autónomo Hebreo", "name:fa": "استان خودگردان یهودی", "name:fi": "Juutalaisten autonominen alue", "name:fr": "Oblast autonome juif", "name:he": "המחוז היהודי האוטונומי", "name:hu": "Zsidó autonóm terület", "name:hy": "Հրեական ինքնավար մարզ", "name:it": "Oblast' autonoma ebraica", "name:ja": "ユダヤ自治州", "name:ka": "ებრაელთა ავტონომიური ოლქი", "name:nl": "Joodse Autonome Oblast", "name:os": "Дзутты автономон облæст", "name:pl": "Żydowski Obwód Autonomiczny", "name:pt": "Oblast Autônomo Judaico", "name:ru": "Еврейская автономная область", "name:sk": "Židovská autonómna oblasť", "name:sv": "Judiska autonoma länet", "name:uk": "Єврейська автономна область", "name:vi": "Tỉnh tự trị Do Thái", "name:yi": "יידישע אויטאנאמע געגנט", "name:zh": "犹太自治州", "int_name": "Jewish Autonomous Oblast", "name:hsb": "Židowska awtonomna oblasć", "name:xal": "Хар Уугрин автоном төгәлң", "population": "170377", "addr:country": "RU", "gis-lab:status": "subj", "gost_7.67-2003": "РОФ-ЕВР", "name:be-tarask": "Габрэйская аўтаномная вобласьць", "official_status": "ru:автономная область", "population:date": "2014-01-01"}}, "center_lat": 48.52, "center_lon": 132.26, "timezone": "Asia/Vladivostok", "population": 158381, "wikidata_id": "Q7730", "wikipedia_id": "ru:Еврейская автономная область"}, "geometry": {"type": "MultiPolygon", "coordinates": [[[[134.766, 48.364], [134.87, 48.41], [134.939, 48.515], [134.996, 48.533], [134.977, 48.603], [134.866, 48.635], [134.86, 48.615], [134.769, 48.574], [134.73, 48.571], [134.659, 48.626], [134.651, 48.609], [134.585, 48.609], [134.493, 48.674], [134.461, 48.681], [134.449, 48.728], [134.408, 48.746], [134.313, 48.723], [134.296, 48.742], [134.256, 48.719], [134.266, 48.666], [134.154, 48.662], [134.047, 48.635], [133.941, 48.654], [133.934, 48.64], [133.833, 48.68], [133.784, 48.738], [133.625, 48.744], [133.589, 48.73], [133.522, 48.766], [133.463, 48.829], [133.281, 48.848], [133.28, 48.879], [133.224, 48.961], [133.275, 48.984], [133.279, 49.03], [133.232, 49.081], [133.158, 49.12], [133.159, 49.153], [133.08, 49.171], [133.055, 49.215], [132.918, 49.232], [132.899, 49.256], [132.811, 49.236], [132.781, 49.287], [132.783, 49.33], [132.707, 49.321], [132.712, 49.3], [132.659, 49.283], [132.596, 49.311], [132.528, 49.292], [132.488, 49.265], [132.37, 49.313], [132.408, 49.369], [132.385, 49.414], [132.307, 49.42], [132.24, 49.489], [132.191, 49.473], [132.113, 49.494], [132.065, 49.462], [132.063, 49.411], [132.095, 49.385], [131.994, 49.378], [132.023, 49.329], [131.974, 49.308], [132.003, 49.285], [131.989, 49.256], [131.938, 49.279], [131.884, 49.273], [131.801, 49.339], [131.781, 49.319], [131.703, 49.304], [131.668, 49.312], [131.557, 49.248], [131.514, 49.249], [131.488, 49.21], [131.42, 49.255], [131.35, 49.263], [131.303, 49.236], [131.292, 49.256], [131.184, 49.227], [131.111, 49.233], [131.069, 49.169], [131.061, 49.116], [131.017, 49.037], [131.045, 48.975], [130.999, 48.969], [130.891, 48.992], [130.781, 48.978], [130.698, 48.926], [130.661, 48.921], [130.63, 48.881], [130.669, 48.877], [130.676, 48.845], [130.607, 48.775], [130.524, 48.608], [130.581, 48.597], [130.606, 48.574], [130.608, 48.502], [130.66, 48.49], [130.717, 48.512], [130.758, 48.497], [130.731, 48.444], [130.766, 48.358], [130.81, 48.344], [130.836, 48.302], [130.765, 48.247], [130.752, 48.19], [130.668, 48.132], [130.654, 48.096], [130.693, 48.041], [130.741, 48.006], [130.864, 47.936], [130.952, 47.815], [130.957, 47.72], [130.994, 47.696], [131.09, 47.683], [131.175, 47.695], [131.255, 47.735], [131.366, 47.727], [131.425, 47.743], [131.548, 47.727], [131.567, 47.665], [131.622, 47.657], [131.678, 47.702], [131.731, 47.705], [131.812, 47.667], [131.902, 47.691], [131.943, 47.661], [131.983, 47.67], [132.016, 47.715], [132.045, 47.7], [132.253, 47.708], [132.309, 47.757], [132.384, 47.751], [132.485, 47.716], [132.549, 47.714], [132.604, 47.742], [132.599, 47.81], [132.68, 47.872], [132.652, 47.936], [132.666, 47.956], [132.719, 47.962], [132.781, 47.925], [132.816, 47.935], [132.863, 47.992], [133.008, 48.04], [133.049, 48.105], [133.182, 48.109], [133.266, 48.093], [133.392, 48.124], [133.464, 48.109], [133.557, 48.13], [133.58, 48.189], [133.614, 48.2], [133.712, 48.187], [133.746, 48.257], [133.95, 48.304], [134.007, 48.309], [134.056, 48.346], [134.14, 48.338], [134.188, 48.384], [134.337, 48.379], [134.409, 48.388], [134.471, 48.422], [134.581, 48.407], [134.688, 48.408], [134.766, 48.364]]]]}}