{"type": "Feature", "properties": {"name": "Moheli", "iso2": "KM-M", "admin_level": 4, "osm_id": 2955018, "countrylevel_id": "iso2:KM-M", "osm_data": {"localname": "موهيلي Mwali", "official_name": "", "alltags": {"name:ar": "موهيلي", "name:be": "Востраў Мвалі", "name:br": "Mohéli", "name:ca": "Mohéli", "name:el": "Μοελί", "name:en": "Moheli", "name:eo": "Mohéli", "name:es": "Mohéli", "name:eu": "Moheli", "name:fr": "Mohéli", "name:gl": "Mohéli", "name:hr": "Mohéli", "name:id": "Mohéli", "name:it": "Mohéli", "name:ja": "モヘリ島", "name:ko": "모엘리 섬", "name:lt": "Mohelis", "name:nl": "Mohéli", "name:no": "Mohéli", "name:oc": "Mohéli", "name:pl": "Moheli", "name:pt": "Mohéli", "name:ro": "Mohéli", "name:ru": "Мвали", "name:sv": "Mohéli", "name:sw": "Moheli", "name:zh": "莫埃利島", "alt_name:ar": "موالي"}}, "center_lat": -12.38, "center_lon": 43.73, "timezone": "Indian/Comoro", "population": 40000, "wikidata_id": "Q271797", "wikipedia_id": "ar:موهيلي"}, "geometry": {"type": "MultiPolygon", "coordinates": [[[[43.729, -12.401], [43.729, -12.401], [43.729, -12.401], [43.729, -12.401]]], [[[43.639, -12.403], [43.639, -12.403], [43.639, -12.403], [43.639, -12.403]]], [[[43.715, -12.402], [43.715, -12.402], [43.715, -12.402], [43.715, -12.402]]], [[[43.652, -12.411], [43.652, -12.411], [43.652, -12.411], [43.652, -12.411]]], [[[43.668, -12.406], [43.668, -12.406], [43.668, -12.406], [43.668, -12.406]]], [[[43.695, -12.406], [43.695, -12.406], [43.695, -12.406], [43.695, -12.406]]], [[[43.696, -12.398], [43.696, -12.398], [43.696, -12.398], [43.696, -12.398]]], [[[43.918, -12.373], [43.918, -12.373], [43.918, -12.373], [43.918, -12.373]]], [[[43.662, -12.354], [43.662, -12.354], [43.662, -12.354], [43.662, -12.354]]], [[[43.736, -12.387], [43.736, -12.387], [43.736, -12.387], [43.736, -12.387]]], [[[43.894, -12.38], [43.894, -12.38], [43.894, -12.38], [43.894, -12.38]]], [[[43.877, -12.377], [43.877, -12.377], [43.877, -12.377], [43.877, -12.377]]], [[[43.761, -12.378], [43.761, -12.378], [43.761, -12.378], [43.761, -12.378]]], [[[43.7, -12.394], [43.7, -12.394], [43.7, -12.394], [43.7, -12.394]]], [[[43.625, -12.288], [43.625, -12.288], [43.625, -12.288], [43.625, -12.288]]]]}}