{"type": "Feature", "properties": {"name": "Redonda", "iso2": "AG-11", "admin_level": 4, "osm_id": 7742427, "countrylevel_id": "iso2:AG-11", "osm_data": {"localname": "Redonda", "official_name": "", "alltags": {"name:be": "Рэдо́нда", "name:br": "Redonda", "name:ca": "Redonda", "name:cs": "Redonda", "name:el": "Ρεντόντα", "name:en": "Redonda", "name:eo": "Redondo", "name:es": "Redonda", "name:et": "Redonda", "name:eu": "Redonda", "name:fi": "Redonda", "name:fr": "Redonda", "name:ga": "Redonda", "name:gl": "Redonda", "name:he": "רדונדה", "name:hi": "रेडोन्डा", "name:hu": "Redonda", "name:it": "Redonda", "name:ja": "レドンダ島", "name:kk": "Редонда", "name:ko": "레돈다 섬", "name:la": "Redonda", "name:lt": "Redonda", "name:mk": "Редонда", "name:nl": "Redonda", "name:no": "Redonda", "name:pl": "Redonda", "name:pt": "Redonda", "name:ro": "Redonda", "name:ru": "Редо́нда", "name:sr": "Редонда", "name:sv": "Redonda", "name:tl": "Redonda", "name:uk": "Редо́нда", "name:ur": "ریدوندا", "name:vi": "Redonda", "name:zh": "雷东达岛", "maritime": "yes", "name:ast": "Redonda", "name:ceb": "Redonda", "admin_type:AG": "territorial"}}, "center_lat": 16.94, "center_lon": -62.34, "timezone": "America/Antigua", "wikidata_id": "Q457261", "wikipedia_id": "en:Redonda"}, "geometry": {"type": "MultiPolygon", "coordinates": [[[[-62.342, 16.938], [-62.342, 16.938], [-62.341, 16.938], [-62.342, 16.938], [-62.342, 16.938], [-62.342, 16.937], [-62.342, 16.937], [-62.342, 16.938], [-62.343, 16.937], [-62.343, 16.937], [-62.343, 16.937], [-62.342, 16.938]]]]}}