{"type": "Feature", "properties": {"name": "Leeds", "iso2": "GB-LDS", "admin_level": 8, "osm_id": 118362, "countrylevel_id": "iso2:GB-LDS", "osm_data": {"localname": "Leeds", "official_name": "", "alltags": {"name:ar": "ليدز", "name:fa": "لیدز", "name:mk": "Лидс", "name:ur": "لیڈز", "name:zh": "列斯", "ref:gss": "E08000035", "website": "https://www.leeds.gov.uk/", "ons_code": "00DA", "designation": "metropolitan_district", "council_name": "Leeds City Council", "council_style": "city"}}, "center_lat": 53.82, "center_lon": -1.51, "timezone": "Europe/London", "population": 789194, "wikidata_id": "Q774015"}, "geometry": {"type": "MultiPolygon", "coordinates": [[[[-1.682, 53.756], [-1.623, 53.719], [-1.571, 53.706], [-1.511, 53.729], [-1.4, 53.719], [-1.302, 53.742], [-1.312, 53.814], [-1.353, 53.857], [-1.315, 53.863], [-1.307, 53.934], [-1.4, 53.941], [-1.463, 53.906], [-1.5, 53.915], [-1.622, 53.903], [-1.727, 53.91], [-1.717, 53.892], [-1.8, 53.886], [-1.715, 53.866], [-1.712, 53.783], [-1.64, 53.78], [-1.682, 53.756]]]]}}