{"type": "Feature", "properties": {"name": "Sheffield", "iso2": "GB-SHF", "admin_level": 8, "osm_id": 106956, "countrylevel_id": "iso2:GB-SHF", "osm_data": {"localname": "Sheffield", "official_name": "", "alltags": {"name:ar": "شفيلد", "name:be": "Шэфілд", "name:bg": "Шефилд", "name:el": "Σέφιλντ", "name:fa": "شفیلد", "name:he": "שפילד", "name:hi": "शेफ़ील्ड", "name:ja": "シェフィールド", "name:ko": "셰필드", "name:lt": "Šefildas", "name:lv": "Šefīlda", "name:mk": "Шефилд", "name:mr": "शेफील्ड", "name:os": "Шеффилд", "name:ru": "Шеффилд", "name:sr": "Шефилд", "name:te": "షెఫీల్డ్", "name:th": "เชฟฟีลด์", "name:uk": "Шеффілд", "name:zh": "谢菲尔德", "name:pnb": "شیفیلڈ", "is_capital": "County", "designation": "metropolitan_district", "council_name": "Sheffield City Council", "is_in:county": "South Yorkshire", "council_style": "city", "is_in:country": "United Kingdom", "is_in:continent": "Europe", "is_in:historic_county": "West Yorkshire"}}, "center_lat": 53.4, "center_lon": -1.55, "timezone": "Europe/London", "population": 518090, "wikidata_id": "Q42448", "wikipedia_id": "en:Sheffield"}, "geometry": {"type": "MultiPolygon", "coordinates": [[[[-1.801, 53.481], [-1.752, 53.465], [-1.747, 53.426], [-1.654, 53.385], [-1.664, 53.367], [-1.612, 53.343], [-1.633, 53.321], [-1.533, 53.306], [-1.387, 53.335], [-1.325, 53.329], [-1.329, 53.348], [-1.391, 53.383], [-1.394, 53.42], [-1.455, 53.472], [-1.49, 53.487], [-1.528, 53.439], [-1.544, 53.473], [-1.593, 53.49], [-1.711, 53.501], [-1.74, 53.477], [-1.801, 53.481]]]]}}