{"type": "Feature", "properties": {"name": "Herzegovina-Neretva Canton", "iso2": "BA-07", "admin_level": 5, "osm_id": 2528149, "countrylevel_id": "iso2:BA-07", "osm_data": {"localname": "Hercegovačko-neretvanska županija", "official_name": "", "alltags": {"name:bs": "Hercegovačko-neretvanski kanton", "name:ca": "Cantó d'Hercegovina-Neretva", "name:en": "Herzegovina-Neretva Canton", "name:fr": "Canton d'Herzégovine-Neretva", "name:hr": "Hercegovačko-neretvanska županija", "name:lt": "Hercegovinos-Neretvos kantonas", "name:ru": "Герцеговино-Неретвенский кантон"}}, "center_lat": 43.38, "center_lon": 17.84, "timezone": "Europe/Sarajevo", "population": 222007, "wikidata_id": "Q18273", "wikipedia_id": "en:Herzegovina-Neretva Canton"}, "geometry": {"type": "MultiPolygon", "coordinates": [[[[17.622, 42.902], [17.622, 42.902], [17.622, 42.902], [17.622, 42.902]]], [[[17.581, 42.938], [17.631, 43.093], [17.535, 43.655], [17.449, 43.882], [18.013, 43.803], [18.381, 43.588], [18.004, 43.459], [17.985, 42.872], [18.337, 42.619], [17.649, 42.889], [17.581, 42.938]]]]}}