{"type": "Feature", "properties": {"name": "Dhamar Governorate", "iso2": "YE-DH", "admin_level": 4, "osm_id": 383906, "countrylevel_id": "iso2:YE-DH", "osm_data": {"localname": "محافظة ذمار", "official_name": "", "alltags": {"GNS:id": "-3186338", "name:ar": "محافظة ذمار", "name:cs": "provincie Damár", "name:en": "Dhamar Governorate", "name:es": "Gobernación de Dhamar", "name:fr": "Gouvernorat de Dhamar", "name:ru": "Дамар", "alt_name": "Muḩāfaz̧at Dhamar", "population": "1330108", "GNS:dsg_code": "ADM1", "GNS:dsg_name": "first-order administrative division", "is_in:continent": "Asia", "population:date": "2004-12-17", "sorting_name:cs": "Damár"}}, "center_lat": 14.64, "center_lon": 44.24, "timezone": "Asia/Aden", "population": 1761000, "wikidata_id": "Q328193", "wikipedia_id": "ar:ذمار (محافظة)"}, "geometry": {"type": "MultiPolygon", "coordinates": [[[[43.748, 14.103], [44.077, 14.458], [44.598, 14.294], [44.837, 14.747], [44.702, 15.009], [44.049, 14.999], [43.755, 14.84], [43.936, 14.604], [43.535, 14.378], [43.748, 14.103]]]]}}