{"type": "Feature", "properties": {"name": "Walloon Brabant", "iso2": "BE-WBR", "admin_level": 6, "osm_id": 78748, "countrylevel_id": "iso2:BE-WBR", "osm_data": {"localname": "Brabant wallon", "official_name": "", "alltags": {"name:ca": "Brabant Való", "name:en": "Walloon Brabant", "name:es": "Brabante Valón", "name:fr": "Brabant wallon", "name:nl": "Waals-Brabant", "name:pl": "Brabancja Walońska", "name:ru": "Валлонский Брабант", "name:sk": "Valónske Brabantsko", "ref:INS": "20002", "border_type": "departement"}}, "center_lat": 50.67, "center_lon": 4.58, "timezone": "Europe/Brussels", "population": 401106, "wikidata_id": "Q1122", "wikipedia_id": "fr:Province du Brabant wallon"}, "geometry": {"type": "MultiPolygon", "coordinates": [[[[4.577, 50.542], [4.602, 50.569], [4.673, 50.571], [4.656, 50.599], [4.727, 50.611], [4.77, 50.601], [4.983, 50.642], [5.003, 50.665], [4.995, 50.717], [5.019, 50.751], [4.982, 50.77], [4.925, 50.743], [4.903, 50.761], [4.813, 50.778], [4.749, 50.807], [4.716, 50.789], [4.66, 50.793], [4.655, 50.758], [4.605, 50.741], [4.595, 50.763], [4.525, 50.738], [4.461, 50.754], [4.352, 50.715], [4.314, 50.72], [4.29, 50.694], [4.247, 50.689], [4.142, 50.729], [4.1, 50.706], [4.106, 50.633], [4.145, 50.634], [4.178, 50.663], [4.252, 50.594], [4.302, 50.568], [4.47, 50.559], [4.467, 50.528], [4.577, 50.542]]]]}}