{"type": "Feature", "properties": {"name": "Heredia Province", "iso2": "CR-H", "admin_level": 4, "osm_id": 3221947, "countrylevel_id": "iso2:CR-H", "osm_data": {"localname": "Provincia Heredia", "official_name": "", "alltags": {"name:ar": "إيريذيا", "name:be": "Эрэдзія", "name:bg": "Ередия", "name:ca": "Província d'Heredia", "name:cs": "Heredia", "name:da": "Heredia", "name:el": "Επαρχία Ερέδια", "name:en": "Heredia Province", "name:es": "Provincia de Heredia", "name:fa": "استان اردیا", "name:fi": "Heredian maakunta", "name:fr": "Heredia", "name:he": "ארדיה", "name:hr": "Heredia", "name:hy": "Էրեդիա", "name:id": "Provinsi Heredia", "name:it": "Provincia di Heredia", "name:ja": "エレディア州", "name:ka": "ერედიის პროვინცია", "name:ko": "에레디아 주", "name:lt": "Heredijos provincija", "name:nl": "Heredia", "name:no": "Heredia", "name:pl": "Heredia", "name:pt": "Heredia", "name:qu": "Heredia pruwinsya", "name:ru": "Эредия", "name:se": "Heredia", "name:sr": "Ередија", "name:sv": "Heredia", "name:tr": "Heredia", "name:uk": "Ередія", "name:ur": "ایریدیا صوبہ", "name:vi": "Heredia", "name:zh": "埃雷迪亚省", "alt_name": "Heredia"}}, "center_lat": 10.46, "center_lon": -84.02, "timezone": "America/Costa_Rica", "wikidata_id": "Q502192", "wikipedia_id": "de:Provinz Heredia"}, "geometry": {"type": "MultiPolygon", "coordinates": [[[[-84.184, 9.972], [-83.933, 10.188], [-83.765, 10.769], [-84.161, 10.785], [-84.184, 9.972]]]]}}