{"type": "Feature", "properties": {"name": "Kosovo", "iso2": "RS-KM", "admin_level": 2, "osm_id": 2088990, "countrylevel_id": "iso2:RS-KM", "osm_data": {"localname": "Kosova / Kosovo", "official_name": "Republika e Kosov√´s / –†–µ–ø—É–±–ª–∏–∫–∞ –ö–æ—Å–æ–≤–æ", "alltags": {"flag": "http://upload.wikimedia.org/wikipedia/commons/1/1f/Flag_of_Kosovo.svg", "name:af": "Kosovo", "name:am": "·äÆ·à∂·âÆ", "name:an": "Kosovo", "name:ar": "ŸÉŸàÿ≥ŸàŸÅŸà", "name:ay": "Kusuwu", "name:az": "Kosovo", "name:ba": "–ö–æ—Å–æ–≤–æ", "name:be": "–ö–æ—Å–∞–≤–∞", "name:bg": "–ö–æ—Å–æ–≤–æ", "name:bn": "‡¶ï‡¶∏‡ßã‡¶≠‡ßã", "name:bo": "‡ΩÅ‡Ωº‡ºã‡Ω¶‡Ωº‡ºã‡Ωù‡Ωº‡ºç", "name:br": "Kosovo", "name:bs": "Kosovo", "name:ca": "Kosovo", "name:ce": "–ö–æ—Å–æ–≤–æ", "name:cs": "Kosovo", "name:cv": "–ö–æ—Å–æ–≤–æ", "name:cy": "Cosofo", "name:da": "Kosovo", "name:el": "ŒöœåœÉŒøŒ≤Œø", "name:en": "Kosovo", "name:eo": "Kosovo", "name:es": "Kosovo", "name:et": "Kosovo", "name:eu": "Kosovo", "name:fa": "⁄©Ÿàÿ≤ŸàŸà", "name:fi": "Kosovo", "name:fo": "Kosovo", "name:fr": "Kosovo", "name:fy": "Kosovo", "name:ga": "An Chosaiv", "name:gd": "Cosobho", "name:gl": "Kosovo", "name:gn": "Kosovo", "name:gv": "Kosovo", "name:he": "◊ß◊ï◊°◊ï◊ë◊ï", "name:hi": "‡§ï‡•ã‡§∏‡•ã‡§µ‡•ã ‡§ó‡§£‡§∞‡§æ‡§ú‡•ç‡§Ø", "name:hr": "Kosovo", "name:hu": "Koszov√≥", "name:hy": "‘ø’∏’Ω’∏’æ’∏’∂", "name:ia": "Kosovo", "name:id": "Kosovo", "name:ie": "Kosovo", "name:ig": "Kosovo", "name:io": "Kosovo", "name:is": "Kos√≥v√≥", "name:it": "Kosovo", "name:ja": "„Ç≥„ÇΩ„Éú", "name:jv": "Kosovo", "name:ka": "·Éô·Éù·É°·Éù·Éï·Éù", "name:kk": "–ö–æ—Å–æ–≤–æ", "name:kl": "Kosovo", "name:kn": "‡≤ï‡≥ä‡≤∏‡≥ä‡≤µ‡≥ä", "name:ko": "ÏΩîÏÜåÎ≥¥", "name:ku": "Kosova", "name:kv": "–ö–æ—Å–æ–≤–æ", "name:kw": "Kosova", "name:ky": "–ö–æ—Å–æ–≤–æ", "name:la": "Kosovia", "name:lb": "Kosovo", "name:li": "Kosovo", "name:lo": "‡∫õ‡∫∞‡ªÄ‡∫ó‡∫î‡ªÇ‡∫Å‡ªÇ‡∫ä‡ªÇ‡∫ß", "name:lt": "Kosovas", "name:lv": "Kosova", "name:mk": "–ö–æ—Å–æ–≤–æ", "name:ml": "‡¥ï‡µä‡¥∏‡µã‡¥µ‡µã", "name:mn": "–ö–æ—Å–æ–≤–æ", "name:mr": "‡§ï‡•ã‡§∏‡•ã‡§µ‡•ç‡§π‡•ã", "name:ms": "Kosovo", "name:mt": "Kosovo", "name:my": "·ÄÄ·Ä≠·ÄØ·ÄÜ·Ä≠·ÄØ·Äó·Ä≠·ÄØ", "name:na": "Kosovo", "name:nl": "Kosovo", "name:nn": "Kosovo", "name:no": "Kosovo", "name:ny": "Kosovo", "name:oc": "Kosova", "name:os": "–ö–æ—Å–æ–≤–æ", "name:pa": "‡®ï‡©ã‡®∏‡©ã‡®µ‡©ã ‡®ó‡®£‡®∞‡®æ‡®ú", "name:pl": "Kosowo", "name:pt": "Kosovo", "name:qu": "Kusuwu", "name:rm": "Cosovo", "name:ro": "Kosovo", "name:ru": "–ö–æ—Å–æ–≤–æ", "name:rw": "Kosovo", "name:sc": "K√≤ssovu", "name:sh": "Kosovo i Metohija", "name:si": "‡∂ö‡∑ú‡∑É‡∑ù‡∑Ä‡∑ú", "name:sk": "Kosovo", "name:sl": "Kosovo", "name:sm": "Kosovo", "name:sn": "Kosovo", "name:so": "Kosofo", "name:sq": "Kosovo", "name:sr": "–ö–æ—Å–æ–≤–æ", "name:su": "Kosovo", "name:sv": "Kosovo", "name:sw": "Kosovo", "name:ta": "‡Æï‡Øä‡Æö‡Øã‡Æµ‡Øã", "name:te": "‡∞ï‡±ä‡∞∏‡∞æ‡∞µ‡±ã", "name:th": "‡∏õ‡∏£‡∏∞‡πÄ‡∏ó‡∏®‡∏Ñ‡∏≠‡∏ã‡∏≠‡∏ß‡∏≠", "name:tl": "Kosovo", "name:tr": "Kosova", "name:ts": "Kosovo", "name:tt": "–ö–æ—Å–æ–≤–æ “ñ”©–º“ª“Ø—Ä–∏—è—Ç–µ", "name:uk": "–ö–æ—Å–æ–≤–æ", "name:ur": "⁄©Ÿàÿ≥ŸàŸà€Å", "name:uz": "Kosovo", "name:vi": "Kosovo", "name:vo": "Kosov√§n", "name:yo": "K√≥s√≥f√≤", "name:zh": "ÁßëÁ¥¢Ê≤É", "currency": "Euro", "int_name": "Kosovo", "name:als": "Kosovo", "name:ast": "Kosovu", "name:azb": "⁄©Ÿàÿ≤ŸàŸàŸà", "name:bar": "Kosovo", "name:bat": "Kuosuovs", "name:bcl": "Kosobo", "name:cbk": "Kosovo", "name:cdo": "Kosovo", "name:ceb": "Kosovo", "name:chr": "·é™·èó·èâ", "name:ckb": "⁄©€Üÿ≥€Ü⁄§€Ü", "name:crh": "Kosovo", "name:diq": "Kosova", "name:dsw": "Kosowo", "name:ext": "Cosovu", "name:fiu": "Kosovo", "name:frp": "Kosovo", "name:frr": "Kosovo", "name:gag": "Kosova", "name:gan": "ÁßëÁ¥¢Ê≤É", "name:got": "êå∫êå∞êåøêçÉêçâêå±êçâ", "name:hak": "Kosovo", "name:hsb": "Kosowo", "name:jbo": "kosovas", "name:kab": "Kosovo", "name:kbd": "–ö–æ—Å–æ–≤–æ", "name:ksh": "Kosovo", "name:lad": "Kosovo", "name:lbe": "–ö–æ—Å–æ–≤–∞", "name:lfn": "Cosovo", "name:lij": "Kosovo", "name:lmo": "Kosovo", "name:lrc": "⁄©Ÿàÿ≤Ÿà⁄§Ÿà", "name:mzn": "⁄©Ÿàÿ≤ŸàŸà ÿ¨ŸÖŸáŸàÿ±€å", "name:nah": "Cosovo", "name:nds": "Kosovo", "name:nov": "Kosovo", "name:nrm": "Kosovo", "name:pap": "Kosovo", "name:pcd": "Kosovo", "name:pms": "Kosovo", "name:pnb": "⁄©Ÿàÿ≥ŸàŸà", "name:pnt": "ŒöœåœÉŒøŒ≤Œø", "name:roa": "Cosova", "name:rue": "–ö–æ—Å–æ–≤–æ", "name:sah": "–ö–æ—Å–æ–≤–∞", "name:scn": "K√≤ssuvu", "name:sco": "Kosovo", "name:srn": "Kosovokondre", "name:stq": "Kosovo", "name:szl": "Kosowo", "name:tzl": "Kosove", "name:vec": "Kosovo", "name:vls": "Kosovo", "name:war": "Kosovo", "name:wuu": "ÁßëÁ¥¢Ê≤É", "name:xal": "–ö–æ—Å–æ–≤–∏–Ω –¢–∞“£“ª—á", "name:xmf": "·Éô·Éù·É°·Éù·Éï·Éù", "name:yue": "ÁßëÁ¥¢Ê≤É", "capital_city": "Prishtina", "name:sr-Latn": "Kosovo", "official_name": "Republika e Kosov√´s / –†–µ–ø—É–±–ª–∏–∫–∞ –ö–æ—Å–æ–≤–æ", "name:be-tarask": "–ö–æ—Å–∞–≤–∞", "according_to:CN": "no", "according_to:IN": "no", "according_to:RS": "no", "according_to:RU": "no", "according_to:UA": "no", "according_to:XK": "yes", "is_in:continent": "Europe", "official_name:ar": "ÿ¨ŸÖŸáŸàÿ±Ÿäÿ© ŸÉŸàÿ≥ŸàŸÅŸà", "official_name:cs": "Kosovsk√° republika", "official_name:de": "Republik Kosovo", "official_name:en": "Republic of Kosovo", "official_name:eo": "Respubliko Kosovo", "official_name:es": "Rep√∫blica de Kosovo", "official_name:fa": "ÿ¨ŸÖŸáŸàÿ±€å ⁄©Ÿàÿ≤ŸàŸà", "official_name:fr": "R√©publique du Kosovo", "official_name:ru": "–ö–æ—Å–æ–≤–æ (—Ä–µ—Å–ø—É–±–ª–∏–∫–∞)", "official_name:sq": "Republika e Kosov√´s", "official_name:sr": "–†–µ–ø—É–±–ª–∏–∫–∞ –ö–æ—Å–æ–≤–æ", "official_name:sr-Latn": "Republika Kosovo", "official_name:sr:1945-1999": "–ê—É—Ç–æ–Ω–æ–º–Ω–∞ –ø–æ–∫—Ä–∞—ò–∏–Ω–∞ –ö–æ—Å–æ–≤–æ –∏ –ú–µ—Ç–æ—Ö–∏—ò–∞"}, "iso1": "XK"}, "center_lat": 42.58, "center_lon": 20.89, "timezone": "Europe/Belgrade", "population": 1883018, "wikidata_id": "Q1246", "wikipedia_id": "en:Kosovo"}, "geometry": {"type": "MultiPolygon", "coordinates": [[[[20.016, 42.71], [20.112, 42.655], [20.076, 42.621], [20.078, 42.556], [20.168, 42.506], [20.193, 42.453], [20.221, 42.433], [20.208, 42.401], [20.24, 42.38], [20.257, 42.319], [20.329, 42.328], [20.354, 42.31], [20.457, 42.272], [20.524, 42.211], [20.543, 42.161], [20.568, 42.098], [20.555, 42.083], [20.595, 42.043], [20.627, 41.961], [20.576, 41.918], [20.594, 41.877], [20.619, 41.858], [20.649, 41.875], [20.683, 41.858], [20.728, 41.864], [20.77, 41.926], [20.767, 41.963], [20.749, 41.983], [20.758, 42.053], [20.785, 42.079], [20.842, 42.098], [20.892, 42.097], [20.928, 42.128], [21.05, 42.167], [21.104, 42.206], [21.162, 42.197], [21.216, 42.129], [21.213, 42.111], [21.222, 42.094], [21.322, 42.108], [21.302, 42.141], [21.331, 42.199], [21.401, 42.249], [21.443, 42.238], [21.444, 42.278], [21.511, 42.271], [21.521, 42.241], [21.587, 42.263], [21.583, 42.283], [21.528, 42.327], [21.557, 42.362], [21.616, 42.371], [21.647, 42.409], [21.623, 42.452], [21.707, 42.513], [21.707, 42.55], [21.748, 42.559], [21.738, 42.601], [21.789, 42.651], [21.752, 42.701], [21.682, 42.688], [21.659, 42.669], [21.632, 42.7], [21.558, 42.738], [21.54, 42.724], [21.448, 42.751], [21.398, 42.745], [21.435, 42.873], [21.361, 42.873], [21.34, 42.901], [21.282, 42.896], [21.236, 42.951], [21.239, 43.006], [21.197, 43.024], [21.175, 43], [21.156, 43.03], [21.137, 43.114], [21.092, 43.136], [21.054, 43.107], [21, 43.138], [20.971, 43.125], [20.926, 43.148], [20.842, 43.174], [20.845, 43.207], [20.891, 43.204], [20.828, 43.266], [20.791, 43.244], [20.728, 43.249], [20.677, 43.209], [20.593, 43.205], [20.611, 43.17], [20.659, 43.154], [20.685, 43.123], [20.688, 43.082], [20.668, 43.034], [20.579, 43.011], [20.548, 42.961], [20.515, 42.97], [20.487, 42.928], [20.536, 42.883], [20.487, 42.868], [20.439, 42.833], [20.409, 42.847], [20.356, 42.832], [20.281, 42.83], [20.255, 42.814], [20.25, 42.759], [20.191, 42.745], [20.098, 42.777], [20.056, 42.778], [20.025, 42.765], [20.016, 42.71]]]]}}