{"type": "Feature", "properties": {"name": "Almaty", "iso2": "KZ-ALA", "admin_level": 4, "osm_id": 2465058, "countrylevel_id": "iso2:KZ-ALA", "osm_data": {"localname": "Алматы", "official_name": "", "alltags": {"name:ca": "Almati", "name:en": "Almaty", "name:es": "Almatý", "name:et": "Almatõ", "name:fr": "Almaty", "name:hr": "Almati", "name:hu": "Almati", "name:it": "Almaty", "name:ja": "アルマトイ", "name:lt": "Almata", "name:lv": "Almati", "name:nl": "Almaty", "name:oc": "Almaty", "name:pt": "Almaty", "name:ro": "Almatî", "name:ru": "Алматы", "name:tr": "Almatı", "name:zh": "阿拉木圖", "int_name": "Almaty", "old_name": "Verniys Alma-Ata", "addr:city": "Алматы", "population": "1475400", "old_name:ru": "Алма-Ата", "addr:country": "KZ", "old_name2:ru": "Верный", "old_name3:ru": "Заилийский", "is_in:country": "Kazakhstan", "is_in:continent": "Asia", "population:date": "2013-01-01", "is_in:country_code": "KZ"}}, "center_lat": 43.22, "center_lon": 76.94, "timezone": "Asia/Almaty", "population": 1806833, "wikidata_id": "Q35493", "wikipedia_id": "ru:Алма-Ата"}, "geometry": {"type": "MultiPolygon", "coordinates": [[[[76.738, 43.314], [76.754, 43.297], [76.782, 43.289], [76.785, 43.282], [76.796, 43.287], [76.8, 43.274], [76.786, 43.266], [76.789, 43.253], [76.776, 43.25], [76.786, 43.232], [76.77, 43.23], [76.779, 43.2], [76.79, 43.196], [76.793, 43.167], [76.78, 43.162], [76.794, 43.158], [76.8, 43.146], [76.808, 43.147], [76.808, 43.136], [76.836, 43.134], [76.834, 43.123], [76.851, 43.123], [76.866, 43.133], [76.87, 43.127], [76.895, 43.126], [76.901, 43.084], [76.909, 43.08], [76.931, 43.085], [76.957, 43.082], [76.967, 43.074], [76.957, 43.053], [76.937, 43.041], [76.945, 43.034], [76.967, 43.05], [76.986, 43.043], [76.994, 43.047], [77.03, 43.043], [77.032, 43.038], [77.057, 43.033], [77.077, 43.034], [77.09, 43.071], [77.08, 43.101], [77.08, 43.115], [77.11, 43.113], [77.092, 43.128], [77.078, 43.133], [77.063, 43.145], [77.06, 43.16], [77.07, 43.165], [77.093, 43.161], [77.117, 43.152], [77.122, 43.167], [77.135, 43.167], [77.147, 43.178], [77.138, 43.198], [77.12, 43.204], [77.113, 43.199], [77.115, 43.184], [77.105, 43.176], [77.097, 43.184], [77.069, 43.197], [77.059, 43.217], [77.014, 43.265], [77.01, 43.29], [77.041, 43.31], [77.026, 43.32], [77.041, 43.338], [77.032, 43.347], [77.065, 43.362], [77.078, 43.371], [77.068, 43.374], [77.045, 43.363], [77.012, 43.36], [77.011, 43.38], [77, 43.398], [76.987, 43.404], [76.98, 43.39], [76.966, 43.38], [76.944, 43.381], [76.93, 43.374], [76.917, 43.358], [76.893, 43.344], [76.88, 43.328], [76.879, 43.343], [76.866, 43.347], [76.859, 43.334], [76.843, 43.355], [76.813, 43.355], [76.801, 43.329], [76.791, 43.329], [76.783, 43.32], [76.76, 43.314], [76.738, 43.314]]], [[[77.127, 43.365], [77.142, 43.348], [77.137, 43.339], [77.146, 43.333], [77.167, 43.348], [77.161, 43.359], [77.127, 43.365]]]]}}