{"type": "Feature", "properties": {"name": "Chiayi County", "iso2": "TW-CYI", "admin_level": 6, "osm_id": 2908173, "countrylevel_id": "iso2:TW-CYI", "osm_data": {"localname": "嘉義縣", "official_name": "", "alltags": {"name:ar": "مقاطعة شياي", "name:en": "Chiayi County", "name:es": "Condado de Chiayi", "name:fr": "Comté de Chiayi", "name:id": "Kabupaten Chiayi", "name:it": "Contea di Chiayi", "name:ja": "嘉義県", "name:ko": "자이 현", "name:pt": "Condado de Chiayi", "name:ru": "Цзяи", "name:th": "เจียอี้", "name:vi": "Gia Nghĩa", "name:zh": "嘉義縣", "nat_ref": "10010", "name:cdo": "Gă-ngiê", "name:ceb": "Chiayi", "name:hak": "Kâ-ngi-yen", "name:nan": "Ka-gī-koān", "name:yue": "嘉義縣"}}, "center_lat": 23.45, "center_lon": 120.55, "timezone": "Asia/Taipei", "population": 507068, "wikidata_id": "Q166977", "wikipedia_id": "zh:嘉義縣"}, "geometry": {"type": "MultiPolygon", "coordinates": [[[[120.147, 23.521], [120.15, 23.519], [120.147, 23.521], [120.147, 23.521]]], [[[120.141, 23.411], [120.141, 23.411], [120.141, 23.411], [120.141, 23.411]]], [[[120.124, 23.336], [120.123, 23.336], [120.124, 23.336], [120.124, 23.336]]], [[[120.139, 23.369], [120.139, 23.369], [120.139, 23.369], [120.139, 23.369]]], [[[120.153, 23.388], [120.153, 23.388], [120.153, 23.388], [120.153, 23.388]]], [[[120.152, 23.518], [120.731, 23.611], [120.958, 23.469], [120.653, 23.225], [120.441, 23.413], [120.125, 23.335], [120.152, 23.518]], [[120.389, 23.494], [120.389, 23.494], [120.389, 23.494], [120.389, 23.494]]]]}}