{"type": "Feature", "properties": {"name": "Taitung County", "iso2": "TW-TTT", "admin_level": 6, "osm_id": 2921155, "countrylevel_id": "iso2:TW-TTT", "osm_data": {"localname": "臺東縣", "official_name": "", "alltags": {"name:ar": "مقاطعة تايتونغ", "name:cs": "Okres Tchaj-tung", "name:en": "Taitung County", "name:es": "Condado de Taitung", "name:eu": "Taitung konderria", "name:fr": "Comté de Taitung", "name:id": "Kabupaten Taitung", "name:it": "Contea di Taitung", "name:ja": "台東県", "name:ko": "타이둥현", "name:lt": "Taidongo apskritis", "name:mn": "Тайдун", "name:nl": "Taitung", "name:pl": "Taidong", "name:pt": "Condado de Taitung", "name:ru": "Тайдун", "name:th": "ไถตง", "name:tr": "Taitung", "name:uk": "Повіт Тайдун", "name:ur": "تائیتونگ کاؤنٹی", "name:vi": "Đài Đông", "name:zh": "臺東縣", "nat_ref": "10014", "name:cdo": "Dài-dĕ̤ng", "name:ceb": "Taitung", "name:frr": "Taitung", "name:hak": "Thòi-tûng-yen", "name:nan": "Tâi-tang-koān", "name:szy": "pusung", "name:yue": "臺東縣"}}, "center_lat": 22.86, "center_lon": 121.03, "timezone": "Asia/Taipei", "population": 218919, "wikidata_id": "Q249904", "wikipedia_id": "zh:臺東縣"}, "geometry": {"type": "MultiPolygon", "coordinates": [[[[121.604, 21.952], [121.604, 21.952], [121.604, 21.952], [121.604, 21.952]]], [[[121.601, 21.953], [121.601, 21.953], [121.601, 21.953], [121.601, 21.953]]], [[[121.577, 22.08], [121.577, 22.08], [121.577, 22.08], [121.577, 22.08]]], [[[121.5, 22.081], [121.5, 22.081], [121.5, 22.081], [121.5, 22.081]]], [[[121.578, 22.081], [121.578, 22.081], [121.578, 22.081], [121.578, 22.081]]], [[[121.511, 22.682], [121.511, 22.682], [121.511, 22.682], [121.511, 22.682]]], [[[121.464, 22.672], [121.464, 22.672], [121.464, 22.672], [121.464, 22.672]]], [[[121.512, 22.681], [121.512, 22.681], [121.512, 22.681], [121.512, 22.681]]], [[[120.896, 22.246], [120.74, 22.551], [120.865, 22.843], [121.028, 23.297], [121.316, 23.111], [121.496, 23.435], [121.383, 23.096], [121.027, 22.658], [120.896, 22.246]]], [[[121.415, 23.124], [121.415, 23.124], [121.415, 23.124], [121.415, 23.124]]]]}}