{"type": "Feature", "properties": {"name": "Glarus", "iso2": "CH-GL", "admin_level": 4, "osm_id": 1685673, "countrylevel_id": "iso2:CH-GL", "osm_data": {"localname": "Glarus", "official_name": "", "alltags": {"name:ca": "Cantó de Glarus", "name:es": "Glaris", "name:fr": "Glaris", "name:it": "Glarona", "name:rm": "Glaruna", "name:ru": "Гларус", "alt_name": "Kanton Glarus", "name:prefix": "Kanton", "swisstopo:KANTONSNUM": "8"}}, "center_lat": 46.98, "center_lon": 9.07, "timezone": "Europe/Zurich", "population": 40403, "wikidata_id": "Q11922", "wikipedia_id": "de:Kanton Glarus"}, "geometry": {"type": "MultiPolygon", "coordinates": [[[[8.877, 46.813], [8.928, 46.797], [9.02, 46.817], [9.045, 46.865], [9.095, 46.871], [9.113, 46.851], [9.153, 46.88], [9.188, 46.876], [9.249, 46.916], [9.25, 46.998], [9.236, 47.024], [9.138, 47.039], [9.184, 47.06], [9.19, 47.124], [9.069, 47.13], [9.005, 47.173], [8.967, 47.137], [8.976, 47.086], [8.948, 47.05], [8.893, 47.024], [8.971, 46.958], [8.935, 46.92], [8.956, 46.875], [8.872, 46.842], [8.877, 46.813]]]]}}