{"type": "Feature", "properties": {"name": "Sejong", "iso2": "KR-50", "admin_level": 4, "osm_id": 2349795, "countrylevel_id": "iso2:KR-50", "osm_data": {"localname": "세종특별자치시", "official_name": "세종특별자치시", "alltags": {"name:bi": "Sejong", "name:el": "Σέτζονγκ", "name:en": "Sejong", "name:es": "Sejong", "name:fr": "Sejong", "name:it": "Sejong", "name:ja": "世宗特別自治市", "name:ko": "세종특별자치시", "name:lt": "Sedžongas", "name:ms": "Sejong", "name:nl": "Sejong", "name:no": "Sejong", "name:ru": "Седжон", "name:sv": "Sejong", "name:th": "เมืองเซจง", "name:vi": "Sejong", "name:zh": "世宗特别自治市", "alt_name": "세종시", "population": "333217", "short_name": "세종", "alt_name:en": "Sejong Special Autonomous City", "is_in:country": "Republic of Korea", "name:ko_hanja": "世宗特別自治市", "official_name": "세종특별자치시", "is_in:continent": "Asia", "official_name:en": "Sejong Metropolitan Autonomous City", "official_name:ja": "世宗特別自治市", "official_name:ko": "세종특별자치시", "official_name:zh": "世宗特別自治市", "is_in:country_code": "KR", "official_name:ko_hanja": "世宗特別自治市"}}, "center_lat": 36.56, "center_lon": 127.26, "timezone": "Asia/Seoul", "population": 204088, "wikidata_id": "Q20929", "wikipedia_id": "ko:세종특별자치시"}, "geometry": {"type": "MultiPolygon", "coordinates": [[[[127.283, 36.415], [127.304, 36.425], [127.327, 36.422], [127.341, 36.431], [127.345, 36.444], [127.359, 36.456], [127.356, 36.464], [127.364, 36.475], [127.361, 36.491], [127.371, 36.49], [127.38, 36.499], [127.396, 36.492], [127.411, 36.496], [127.41, 36.509], [127.401, 36.519], [127.41, 36.523], [127.402, 36.541], [127.385, 36.541], [127.375, 36.56], [127.367, 36.563], [127.338, 36.562], [127.337, 36.57], [127.321, 36.583], [127.306, 36.583], [127.306, 36.602], [127.292, 36.626], [127.292, 36.636], [127.279, 36.635], [127.289, 36.659], [127.306, 36.668], [127.308, 36.682], [127.286, 36.69], [127.275, 36.695], [127.257, 36.691], [127.245, 36.696], [127.237, 36.708], [127.221, 36.711], [127.205, 36.725], [127.183, 36.73], [127.16, 36.733], [127.145, 36.717], [127.128, 36.708], [127.135, 36.707], [127.144, 36.689], [127.161, 36.691], [127.164, 36.676], [127.154, 36.663], [127.161, 36.656], [127.153, 36.643], [127.16, 36.625], [127.15, 36.62], [127.155, 36.606], [127.184, 36.592], [127.194, 36.581], [127.208, 36.578], [127.202, 36.567], [127.192, 36.565], [127.185, 36.554], [127.192, 36.546], [127.171, 36.545], [127.171, 36.537], [127.182, 36.522], [127.171, 36.509], [127.179, 36.492], [127.196, 36.49], [127.19, 36.479], [127.205, 36.459], [127.201, 36.443], [127.218, 36.433], [127.228, 36.421], [127.243, 36.419], [127.251, 36.407], [127.259, 36.415], [127.283, 36.415]]]]}}