{"type": "Feature", "properties": {"name": "Bokeo Province", "iso2": "LA-BK", "admin_level": 4, "osm_id": 5831654, "countrylevel_id": "iso2:LA-BK", "osm_data": {"localname": "ບໍ່ແກ້ວ", "official_name": "", "alltags": {"name:ar": "محافظة بوكيو", "name:en": "Bokeo Province", "name:eo": "Provinco Bokeo", "name:es": "Provincia de Bokeo", "name:fa": "استان بوکیو", "name:fi": "Bokeo", "name:fr": "Province de Bokeo", "name:hi": "बोकैओ प्रान्त", "name:hr": "Provincija Bokeo", "name:hu": "Bokeo tartomány", "name:id": "Provinsi Bokeo", "name:it": "Provincia di Bokeo", "name:ja": "ボーケーオ", "name:km": "ខេត្តបកែវ", "name:ko": "보케오 주", "name:lo": "ບໍ່ແກ້ວ", "name:lt": "Bokeo provincija", "name:ms": "Wilayah Bokeo", "name:nl": "Bokeo", "name:no": "Provins Bokeo", "name:pl": "Prowincja Bokéo", "name:pt": "Bokeo", "name:ru": "Бокэу", "name:sv": "Provins Bokeo", "name:tg": "Вилояти Бокео", "name:th": "แขวงบ่อแก้ว", "name:uk": "Бокеу", "name:ur": "بوکیو صوبہ", "name:vi": "Bokeo", "name:zh": "博胶省", "alt_name": "Bokeo", "old_name": "Hua Khong", "name:lo_rm": "Bokèo"}}, "center_lat": 20.35, "center_lon": 100.64, "timezone": "Asia/Vientiane", "population": 179243, "wikidata_id": "Q334884", "wikipedia_id": "en:Bokeo Province"}, "geometry": {"type": "MultiPolygon", "coordinates": [[[[100.085, 20.352], [100.331, 20.398], [100.528, 20.144], [100.438, 19.791], [100.772, 19.88], [101.216, 20.309], [101.07, 20.308], [100.612, 20.844], [100.362, 20.825], [100.085, 20.352]]]]}}