{"type": "Feature", "properties": {"name": "Khammouane", "iso2": "LA-KH", "admin_level": 4, "osm_id": 5831658, "countrylevel_id": "iso2:LA-KH", "osm_data": {"localname": "ຄໍາມ່ວນ", "official_name": "", "alltags": {"name:ar": "محافظة خامواني", "name:en": "Khammouane", "name:eo": "Provinco Ĥamuan", "name:es": "Provincia de Khammouan", "name:fa": "استان خاموان", "name:fi": "Khammouan", "name:fr": "Province de Khammouane", "name:hi": "खम्मुआन प्रान्त", "name:hr": "Khammouane", "name:hu": "Khammuan tartomány", "name:id": "Provinsi Khammouan", "name:it": "Provincia di Khammouan", "name:ja": "カムムアン", "name:km": "ខេត្តខាំមួន", "name:ko": "캄무안 주", "name:lo": "ຄໍາມ່ວນ", "name:ms": "Wilayah Khammouane", "name:nl": "Khammuan", "name:no": "Khammuan", "name:pl": "Prowincja Khammouan", "name:pt": "Khammouane", "name:ru": "Кхаммуан", "name:sv": "Khammuan", "name:tg": "Вилояти Хаммоуан", "name:th": "แขวงคำม่วน", "name:uk": "Кхаммуан провінція", "name:ur": "خاموان صوبہ", "name:vi": "Khammuane", "name:zh": "甘蒙省", "name:lo_rm": "Khammon", "alt_name:uk": "Кхамуан провінція"}}, "center_lat": 17.58, "center_lon": 105.25, "timezone": "Asia/Vientiane", "wikidata_id": "Q506641", "wikipedia_id": "en:Khammouane Province"}, "geometry": {"type": "MultiPolygon", "coordinates": [[[[104.271, 17.87], [104.796, 17.402], [104.735, 16.929], [104.827, 17.077], [105.653, 17.114], [106.426, 17.022], [105.608, 17.877], [105.644, 17.992], [105.255, 18.255], [105.065, 17.94], [104.543, 18.225], [104.271, 17.87]]]]}}