{"type": "Feature", "properties": {"name": "Luang Prabang", "iso2": "LA-LP", "admin_level": 4, "osm_id": 5831660, "countrylevel_id": "iso2:LA-LP", "osm_data": {"localname": "ຫລວງພະບາງ", "official_name": "", "alltags": {"name:ar": "محافظة لوانغ برابانغ", "name:en": "Luang Prabang", "name:eo": "Provinco Luangprabango", "name:es": "Provincia de Luang Prabang", "name:fa": "استان لوآنگ پرابانگ", "name:fi": "Louangphabang", "name:fr": "Province de Luang Prabang", "name:hi": "लुअंग प्रबांग प्रान्त", "name:hu": "Luangprabang tartomány", "name:id": "Provinsi Louangphabang", "name:it": "Provincia di Luang Prabang", "name:ja": "ルアンパバーン", "name:km": "ខេត្តហ្លួងព្រះបាង", "name:ko": "루앙프라방", "name:lo": "ຫລວງພະບາງ", "name:mn": "Луангпхабанг аймаг", "name:ms": "Wilayah Luang Prabang", "name:pl": "Prowincja Louangphrabang", "name:ru": "Луангпхабанг", "name:sv": "Louang Prabang", "name:tg": "Вилояти Лоуангпабанг", "name:th": "แขวงหลวงพระบาง", "name:ur": "لوانگ پرابانگ صوبہ", "name:vi": "Luangprabang", "name:zh": "琅勃拉邦省", "alt_name": "Luangprabang;Louangphabang", "name:lo_rm": "Louangphabang"}}, "center_lat": 20.12, "center_lon": 102.55, "timezone": "Asia/Vientiane", "wikidata_id": "Q747881", "wikipedia_id": "en:Luang Prabang Province"}, "geometry": {"type": "MultiPolygon", "coordinates": [[[[101.722, 19.936], [101.851, 19.36], [101.8, 19.042], [102.181, 19.414], [102.544, 19.216], [102.745, 19.311], [102.651, 19.495], [103.136, 19.921], [103.218, 20.699], [103.4, 20.783], [103.216, 20.896], [102.94, 21.13], [102.358, 20.858], [102.143, 20.09], [101.722, 19.936]]]]}}