{"type": "Feature", "properties": {"name": "Vientiane Province", "iso2": "LA-VI", "admin_level": 4, "osm_id": 5831667, "countrylevel_id": "iso2:LA-VI", "osm_data": {"localname": "ວຽງຈັນ", "official_name": "", "alltags": {"name:ar": "محافظة فيينتيان", "name:en": "Vientiane Province", "name:eo": "Provinco Vjentiano", "name:es": "Provincia de Vientián", "name:fa": "استان وینتیان", "name:fr": "Province de Vientiane", "name:hi": "व्यिंचन प्रान्त", "name:hr": "Provincija Vientiane", "name:hu": "Vientián tartomány", "name:id": "Provinsi Vientiane", "name:it": "Provincia di Vientiane", "name:ja": "ヴィエンチャン", "name:ko": "비엔티안 주", "name:lo": "ວຽງຈັນ", "name:mn": "Вьентьян аймаг", "name:ms": "Wilayah Vientiane", "name:nl": "Vientiane", "name:no": "Provins Vientiane", "name:pl": "Prowincja Wientian", "name:pt": "Província Vientiane", "name:ru": "Вьентьян", "name:sv": "Provins Vientiane", "name:tg": "Вилояти Виентиан", "name:th": "แขวงเวียงจันทน์", "name:uk": "провінція В'єнтьян", "name:ur": "وینتیان صوبہ", "name:vi": "Tỉnh Viêng Chăn", "name:zh": "万象省", "alt_name": "Vientiane", "name:lo_rm": "Viangchan"}}, "center_lat": 18.62, "center_lon": 102.13, "timezone": "Asia/Vientiane", "population": 388833, "wikidata_id": "Q720066", "wikipedia_id": "en:Vientiane Province"}, "geometry": {"type": "MultiPolygon", "coordinates": [[[[101.551, 17.821], [102.025, 18.15], [102.032, 18.412], [102.593, 18.202], [102.896, 18.304], [102.81, 18.505], [102.58, 18.771], [102.544, 19.216], [102.181, 19.414], [101.8, 19.042], [101.845, 18.792], [101.386, 18.144], [101.551, 17.821]]]]}}