{"type": "Feature", "properties": {"name": "Friuli Venezia Giulia", "iso2": "IT-36", "admin_level": 4, "osm_id": 179296, "countrylevel_id": "iso2:IT-36", "osm_data": {"localname": "Friuli Venezia Giulia", "official_name": "Regione Autonoma Friuli Venezia Giulia", "alltags": {"name:ca": "Friül - Venècia Júlia", "name:cs": "Furlansko-Julské Benátsko", "name:en": "Friuli Venezia Giulia", "name:eo": "Friulo-Venecio Julia", "name:es": "Friuli-Venecia Julia", "name:fr": "Frioul-Vénétie julienne", "name:it": "Friuli Venezia Giulia", "name:ja": "フリウリ＝ヴェネツィア・ジュリア州", "name:nl": "Friuli-Venezia Giulia", "name:pl": "Friuli-Wenecja Julijska", "name:pt": "Friul-Veneza Júlia", "name:ro": "Friuli-Veneția Giulia", "name:ru": "Фриули-Венеция-Джулия", "name:sc": "Friuli-Venètzia Giùlia", "name:sk": "Furlansko-Júlske Benátky", "name:sl": "Furlanija - Julijska krajina", "name:fur": "Friûl Vignesie Julie", "old_name": "Friuli-Venezia Giulia", "ref:ISTAT": "06", "short_name": "FVG", "alt_name:cs": "Furlansko a Julské Benátsko", "wikipedia:sl": "Furlanija - Julijska krajina", "official_name": "Regione Autonoma Friuli Venezia Giulia"}}, "center_lat": 46.14, "center_lon": 13.06, "timezone": "Europe/Rome", "population": 1215220, "wikidata_id": "Q1250", "wikipedia_id": "it:Friuli-Venezia Giulia"}, "geometry": {"type": "MultiPolygon", "coordinates": [[[[13.538, 45.782], [13.538, 45.782], [13.538, 45.782], [13.538, 45.782]]], [[[13.433, 45.676], [13.433, 45.676], [13.433, 45.676], [13.433, 45.676]]], [[[13.102, 45.644], [12.662, 45.793], [12.399, 46.041], [12.338, 46.239], [12.732, 46.635], [13.714, 46.523], [13.684, 46.437], [13.403, 46.3], [13.634, 46.192], [13.664, 46.17], [13.53, 46.067], [13.621, 45.985], [13.637, 45.938], [13.611, 45.904], [13.597, 45.82], [13.596, 45.809], [13.596, 45.809], [13.708, 45.775], [13.899, 45.643], [13.877, 45.611], [13.735, 45.596], [13.724, 45.595], [13.724, 45.595], [13.723, 45.595], [13.629, 45.771], [13.102, 45.644]]]]}}