{"type": "Feature", "properties": {"name": "Calabria", "iso2": "IT-78", "admin_level": 4, "osm_id": 1783980, "countrylevel_id": "iso2:IT-78", "osm_data": {"localname": "Calabria", "official_name": "", "alltags": {"name:ar": "قلورية", "name:ca": "Calàbria", "name:cs": "Kalábrie", "name:en": "Calabria", "name:eo": "Kalabrio", "name:fa": "کالابریا", "name:fr": "Calabre", "name:it": "Calabria", "name:ja": "カラブリア州", "name:lt": "Kalabrija", "name:nl": "Calabrië", "name:pl": "Kalabria", "name:pt": "Calábria", "name:ru": "Калабрия", "name:sc": "Calàbria", "name:sk": "Kalábria", "name:sl": "Kalabrija", "name:ur": "کلابریا", "name:fur": "Calabrie", "name:scn": "Calabbrî", "ref:ISTAT": "18", "short_name": "CAL", "alt_name:ar": "كالابريا"}}, "center_lat": 39.07, "center_lon": 16.34, "timezone": "Europe/Rome", "population": 1947131, "wikidata_id": "Q1458", "wikipedia_id": "it:Calabria"}, "geometry": {"type": "MultiPolygon", "coordinates": [[[[16.567, 38.753], [16.567, 38.753], [16.567, 38.753], [16.567, 38.753]]], [[[15.857, 38.381], [15.857, 38.381], [15.857, 38.381], [15.857, 38.381]]], [[[15.857, 38.381], [15.857, 38.381], [15.857, 38.381], [15.857, 38.381]]], [[[15.826, 38.623], [15.826, 38.623], [15.826, 38.623], [15.826, 38.623]]], [[[15.999, 38.725], [15.999, 38.725], [15.999, 38.725], [15.999, 38.725]]], [[[15.918, 38.506], [16.213, 38.811], [16.096, 39.049], [15.756, 39.923], [16.399, 40.057], [16.646, 40.118], [16.528, 39.669], [17.024, 39.482], [17.1, 38.903], [16.891, 38.928], [16.605, 38.811], [16.582, 38.469], [16.064, 37.925], [15.764, 37.916], [15.635, 38.231], [15.918, 38.506]]], [[[15.8, 39.698], [15.8, 39.698], [15.8, 39.698], [15.8, 39.698]]], [[[15.779, 39.848], [15.779, 39.848], [15.779, 39.848], [15.779, 39.848]]], [[[15.788, 39.856], [15.788, 39.856], [15.788, 39.856], [15.788, 39.856]]], [[[15.78, 39.848], [15.78, 39.848], [15.78, 39.848], [15.78, 39.848]]], [[[15.769, 39.872], [15.769, 39.872], [15.769, 39.872], [15.769, 39.872]]]]}}