{"type": "Feature", "properties": {"name": "Agrigento", "iso2": "IT-AG", "admin_level": 6, "osm_id": 39151, "countrylevel_id": "iso2:IT-AG", "osm_data": {"localname": "Agrigento", "official_name": "Libero Consorzio Comunale di Agrigento", "alltags": {"name:ar": "جرجنت", "name:el": "Αγκριτζέντο", "name:fr": "Agrigente", "name:he": "אגריג'נטו", "name:it": "Agrigento", "name:lt": "Agridžentas", "name:ru": "Агридженто", "name:uk": "Агрідженто", "name:zh": "阿格里真托", "name:scn": "Girgenti", "old_name": "Girgenti", "ref:ISTAT": "084", "population": "435677", "short_name": "AG", "alt_name:ar": "كركنت;أغريجنتو", "official_name": "Libero Consorzio Comunale di Agrigento"}}, "center_lat": 37.47, "center_lon": 13.44, "timezone": "Europe/Rome", "wikidata_id": "Q26160406", "wikipedia_id": "it:Libero consorzio comunale di Agrigento"}, "geometry": {"type": "MultiPolygon", "coordinates": [[[[12.557, 35.51], [12.557, 35.51], [12.557, 35.51], [12.557, 35.51]]], [[[12.32, 35.551], [12.32, 35.551], [12.32, 35.551], [12.32, 35.551]]], [[[12.517, 35.521], [12.517, 35.521], [12.517, 35.521], [12.517, 35.521]]], [[[12.528, 35.529], [12.528, 35.529], [12.528, 35.529], [12.528, 35.529]]], [[[13.856, 37.113], [13.856, 37.113], [13.856, 37.113], [13.856, 37.113]]], [[[12.897, 37.577], [13.012, 37.743], [13.4, 37.557], [13.734, 37.683], [13.686, 37.46], [14.035, 37.106], [12.897, 37.577]], [[13.143, 37.639], [13.143, 37.639], [13.143, 37.639], [13.143, 37.639]]], [[[12.849, 35.868], [12.849, 35.868], [12.849, 35.868], [12.849, 35.868]]], [[[12.882, 35.867], [12.882, 35.867], [12.882, 35.867], [12.882, 35.867]]], [[[12.88, 35.871], [12.88, 35.871], [12.88, 35.871], [12.88, 35.871]]]]}}