{"type": "Feature", "properties": {"name": "Mantua", "iso2": "IT-MN", "admin_level": 6, "osm_id": 43798, "countrylevel_id": "iso2:IT-MN", "osm_data": {"localname": "Mantova", "official_name": "Provincia di Mantova", "alltags": {"name:ar": "مانتوفا", "name:ca": "Província de Màntua", "name:en": "Mantua", "name:es": "Mantua", "name:fr": "Mantoue", "name:it": "Mantova", "name:la": "Mantua", "name:nl": "Mantua", "name:pl": "Mantua", "name:ru": "Мантуя", "name:zh": "曼托瓦", "name:vec": "Màntoa", "ref:nuts": "ITC4B", "ref:ISTAT": "020", "population": "410231", "ref:nuts:3": "ITC4B", "short_name": "MN", "official_name": "Provincia di Mantova"}}, "center_lat": 45.11, "center_lon": 10.78, "timezone": "Europe/Rome", "wikidata_id": "Q16204", "wikipedia_id": "it:Provincia di Mantova"}, "geometry": {"type": "MultiPolygon", "coordinates": [[[[10.467, 44.938], [10.509, 44.92], [10.852, 44.926], [10.852, 44.926], [10.889, 44.915], [11.251, 44.95], [11.426, 44.949], [11.206, 45.11], [10.654, 45.416], [10.315, 45.205], [10.467, 44.938]]]]}}