{"type": "Feature", "properties": {"name": "Trapani", "iso2": "IT-TP", "admin_level": 6, "osm_id": 39166, "countrylevel_id": "iso2:IT-TP", "osm_data": {"localname": "Trapani", "official_name": "Libero Consorzio Comunale di Trapani", "alltags": {"name:an": "Tràpani", "name:ar": "تراباني", "name:bg": "Трапани", "name:el": "Δρέπανον", "name:fa": "تراپانی", "name:he": "טרפאני", "name:ja": "トラーパニ", "name:la": "Drepanum", "name:pt": "Trápani", "name:ru": "Трапани", "name:sr": "Трапани", "name:uk": "Трапані", "name:zh": "特拉帕尼", "name:pms": "Tràpani", "name:scn": "Tràpani", "ref:ISTAT": "081", "population": "430944", "short_name": "TP", "name:roa-tara": "Trapane", "official_name": "Libero Consorzio Comunale di Trapani"}}, "center_lat": 37.87, "center_lon": 12.77, "timezone": "Europe/Rome", "wikidata_id": "Q26160403", "wikipedia_id": "it:Libero consorzio comunale di Trapani"}, "geometry": {"type": "MultiPolygon", "coordinates": [[[[12.052, 36.799], [12.052, 36.799], [12.052, 36.799], [12.052, 36.799]]], [[[12.052, 36.755], [12.052, 36.755], [12.052, 36.755], [12.052, 36.755]]], [[[12.053, 36.757], [12.053, 36.757], [12.053, 36.757], [12.053, 36.757]]], [[[11.926, 36.816], [11.926, 36.816], [11.926, 36.816], [11.926, 36.816]]], [[[12.469, 37.731], [12.469, 37.731], [12.469, 37.731], [12.469, 37.731]]], [[[12.464, 37.868], [12.464, 37.868], [12.464, 37.868], [12.464, 37.868]]], [[[12.456, 37.863], [12.456, 37.863], [12.456, 37.863], [12.456, 37.863]]], [[[12.456, 37.887], [12.456, 37.887], [12.456, 37.887], [12.456, 37.887]]], [[[12.298, 37.912], [12.298, 37.912], [12.298, 37.912], [12.298, 37.912]]], [[[12.289, 37.914], [12.289, 37.914], [12.289, 37.914], [12.289, 37.914]]], [[[12.977, 38.04], [13.012, 37.743], [12.897, 37.577], [12.424, 37.802], [12.767, 38.18], [12.977, 38.04]]], [[[12.429, 37.891], [12.429, 37.891], [12.429, 37.891], [12.429, 37.891]]], [[[12.3, 37.915], [12.3, 37.915], [12.3, 37.915], [12.3, 37.915]]], [[[12.271, 37.935], [12.271, 37.935], [12.271, 37.935], [12.271, 37.935]]], [[[12.042, 37.958], [12.042, 37.958], [12.042, 37.958], [12.042, 37.958]]], [[[12.028, 37.991], [12.028, 37.991], [12.028, 37.991], [12.028, 37.991]]], [[[12.424, 37.99], [12.424, 37.99], [12.424, 37.99], [12.424, 37.99]]], [[[12.414, 37.989], [12.414, 37.989], [12.414, 37.989], [12.414, 37.989]]], [[[12.489, 38.012], [12.489, 38.012], [12.489, 38.012], [12.489, 38.012]]], [[[12.488, 38.013], [12.488, 38.013], [12.488, 38.013], [12.488, 38.013]]], [[[12.498, 38.013], [12.498, 38.013], [12.498, 38.013], [12.498, 38.013]]], [[[12.529, 38.064], [12.529, 38.064], [12.529, 38.064], [12.529, 38.064]]], [[[12.328, 37.987], [12.328, 37.987], [12.328, 37.987], [12.328, 37.987]]], [[[12.32, 38.001], [12.32, 38.001], [12.32, 38.001], [12.32, 38.001]]]]}}