{"type": "Feature", "properties": {"name": "South Sinai Governorate", "iso2": "EG-JS", "admin_level": 4, "osm_id": 3060793, "countrylevel_id": "iso2:EG-JS", "osm_data": {"localname": "جنوب سيناء", "official_name": "", "alltags": {"name:en": "South Sinai Governorate", "name:et": "Lõuna-Siinai kubernerkond", "name:fi": "Etelä-Siinai", "name:fr": "Gouvernorat du Sinaï Sud", "name:hu": "Dél-Sínai kormányzóság", "name:ka": "სამხრეთ სინის მუჰაფაზა", "name:kk": "Оңтүстік Синай провинциясының", "name:pl": "prowincja gubernatorska Synaj Południowy", "name:ru": "мухафаза Южный Синай", "name:sr": "Јужни Синај гувернорат", "name:uk": "Південний Синай губернаторство", "name:be-tarask": "мугафаза Паўднёвы Сынай"}}, "center_lat": 29.03, "center_lon": 33.82, "timezone": "Africa/Cairo", "population": 102018, "wikidata_id": "Q30815"}, "geometry": {"type": "MultiPolygon", "coordinates": [[[[34.86, 29.461], [34.86, 29.461], [34.86, 29.461], [34.86, 29.461]]], [[[34.243, 27.731], [34.243, 27.731], [34.243, 27.731], [34.243, 27.731]]], [[[32.632, 29.807], [32.833, 29.923], [33.722, 29.833], [34.334, 29.594], [34.876, 29.559], [34.902, 29.491], [34.259, 27.789], [33.821, 27.973], [33.198, 28.671], [33.181, 29.001], [32.83, 29.316], [32.632, 29.807]]]]}}