{"type": "Feature", "properties": {"name": "Minya Governate", "iso2": "EG-MN", "admin_level": 4, "osm_id": 3726175, "countrylevel_id": "iso2:EG-MN", "osm_data": {"localname": "المنيا", "official_name": "محافظة المنيا", "alltags": {"name:ar": "المنيا", "name:en": "Minya Governate", "name:eo": "Provinco Fajum", "name:es": "Menia", "name:fr": "Gouvernorat de Minya", "name:hu": "el-Minja kormányzóság", "name:pl": "Muhafaza Fajum", "name:ru": "мухафаза Эль-Минья", "alt_name:ar": "منيا", "official_name": "محافظة المنيا", "official_name:ar": "محافظة المنيا"}}, "center_lat": 28.13, "center_lon": 30.63, "timezone": "Africa/Cairo", "population": 5497095, "wikidata_id": "Q30675", "wikipedia_id": "ar:محافظة المنيا"}, "geometry": {"type": "MultiPolygon", "coordinates": [[[[28.625, 27.74], [30.654, 27.73], [30.671, 27.642], [31.635, 27.695], [32.654, 27.903], [32.407, 28.259], [31.907, 28.269], [31.438, 28.324], [31.037, 28.718], [29.78, 28.803], [29.585, 28.345], [28.823, 27.98], [28.625, 27.74]]]]}}