{"type": "Feature", "properties": {"name": "New Valley Governorate", "iso2": "EG-WAD", "admin_level": 4, "osm_id": 3061827, "countrylevel_id": "iso2:EG-WAD", "osm_data": {"localname": "الوادي الجديد", "official_name": "محافظة الوادي الجديد", "alltags": {"name:ar": "الوادي الجديد", "name:en": "New Valley Governorate", "name:es": "Nuevo Valle", "name:fr": "Gouvernorat de la Nouvelle-Vallée", "name:hu": "Új völgy kormányzóság", "name:ru": "мухафаза Новая Долина", "official_name": "محافظة الوادي الجديد", "official_name:ar": "محافظة الوادي الجديد"}}, "center_lat": 24.85, "center_lon": 28.44, "timezone": "Africa/Cairo", "population": 241247, "wikidata_id": "Q30650", "wikipedia_id": "ar:محافظة الوادي الجديد"}, "geometry": {"type": "MultiPolygon", "coordinates": [[[[31.477, 22.748], [31.476, 22.746], [31.477, 22.748], [31.477, 22.748]]], [[[31.472, 22.739], [31.098, 22], [28.316, 22], [25, 22], [25, 27.05], [25, 27.749], [27.311, 27.738], [28.625, 27.74], [30.654, 27.73], [30.756, 27.433], [31.296, 26.893], [31.93, 26.214], [32.289, 26.037], [32.666, 26.176], [32.709, 25.984], [32.436, 25.666], [32.485, 25.408], [32.647, 25.21], [32.672, 25.11], [31.477, 22.749], [31.472, 22.739]]]]}}