{"type": "Feature", "properties": {"name": "Atyrau Region", "iso2": "KZ-ATY", "admin_level": 4, "osm_id": 214834, "countrylevel_id": "iso2:KZ-ATY", "osm_data": {"localname": "Атырауская область", "official_name": "", "alltags": {"name:cs": "Atyrauská oblast", "name:en": "Atyrau Region", "name:es": "Atyrau", "name:fr": "Oblys d'Atyraou", "name:ja": "アティラウ州", "name:kk": "Атырау облысы", "name:lt": "Atyrau sritis", "name:ru": "Атырауская область", "int_name": "Atyrau", "addr:country": "KZ", "is_in:country": "Kazakhstan", "is_in:continent": "Asia", "is_in:country_code": "KZ"}}, "center_lat": 47.58, "center_lon": 52.09, "timezone": "Asia/Aqtau", "population": 556388, "wikidata_id": "Q427658", "wikipedia_id": "ru:Атырауская область"}, "geometry": {"type": "MultiPolygon", "coordinates": [[[[51.674, 46.909], [51.674, 46.909], [51.674, 46.909], [51.674, 46.909]]], [[[47.111, 48.234], [49.417, 48.049], [49.96, 48.089], [51.042, 48.688], [52.556, 48.514], [52.706, 48.996], [53.263, 49.018], [53.631, 49.24], [53.992, 49.172], [54.027, 48.763], [54.912, 48.709], [54.939, 48.097], [55.122, 47.779], [55.002, 47.202], [55.45, 46.726], [56.288, 46.513], [56.467, 46.132], [55.821, 46.261], [55.488, 46.52], [55.27, 46.367], [53.972, 46.246], [53.684, 46.016], [53.192, 46.012], [53.398, 46.3], [53.102, 46.891], [52.309, 47.059], [51.84, 46.927], [51.246, 47.129], [50.891, 47.068], [49.917, 46.553], [49.84, 46.193], [49.314, 46.273], [48.478, 46.671], [48.996, 46.743], [48.112, 47.745], [47.194, 47.761], [47.111, 48.234]]]]}}