{"type": "Feature", "properties": {"name": "Akmola Region", "iso2": "KZ-AKM", "admin_level": 4, "osm_id": 215743, "countrylevel_id": "iso2:KZ-AKM", "osm_data": {"localname": "Акмолинская область", "official_name": "", "alltags": {"name:cs": "Akmolská oblast", "name:en": "Akmola Region", "name:es": "Provincia de Akmola", "name:fr": "Oblys d'Aqmola", "name:ja": "アクモラ州", "name:kk": "Ақмола облысы", "name:lt": "Akmolos sritis", "name:ru": "Акмолинская область", "addr:country": "KZ", "is_in:country": "Kazakhstan", "is_in:continent": "Asia", "is_in:country_code": "KZ"}}, "center_lat": 51.78, "center_lon": 69.9, "timezone": "Asia/Almaty", "population": 733113, "wikidata_id": "Q485056", "wikipedia_id": "ru:Акмолинская область"}, "geometry": {"type": "MultiPolygon", "coordinates": [[[[67.939, 50.553], [68.801, 50.8], [68.674, 50.244], [69.447, 50.377], [70.062, 50.258], [70.148, 50.039], [70.751, 50.25], [71.335, 50.722], [71.837, 50.683], [71.71, 50.429], [72.123, 50.41], [72.792, 50.887], [73.671, 51.279], [74.26, 51.523], [73.792, 51.625], [74, 51.932], [73.922, 52.593], [72.912, 52.714], [72.869, 53.027], [71.669, 52.945], [71.573, 53.423], [71.249, 53.304], [70.584, 53.43], [70.319, 53.228], [70.074, 53.507], [69.136, 53.677], [68.481, 53.461], [68.784, 53.091], [68.688, 52.828], [67.99, 52.544], [67.86, 52.274], [67.299, 52.428], [67.297, 52.207], [66.007, 52.434], [65.388, 51.327], [65.605, 50.831], [65.994, 50.949], [66.316, 50.685], [66.991, 50.658], [67.132, 50.384], [67.939, 50.553]], [[71.224, 51.1], [71.224, 51.1], [71.224, 51.1], [71.224, 51.1]], [[71.298, 51.273], [71.298, 51.273], [71.298, 51.273], [71.298, 51.273]], [[71.642, 51.332], [71.642, 51.332], [71.642, 51.332], [71.642, 51.332]], [[71.74, 51.166], [71.74, 51.166], [71.74, 51.166], [71.74, 51.166]]]]}}