{"type": "Feature", "properties": {"name": "Karaganda Region", "iso2": "KZ-KAR", "admin_level": 4, "osm_id": 215776, "countrylevel_id": "iso2:KZ-KAR", "osm_data": {"localname": "Карагандинская область", "official_name": "", "alltags": {"kato": "350000000", "name:cs": "Karagandská oblast", "name:en": "Karaganda Region", "name:es": "Provincia de Karagandá", "name:fr": "Oblys de Karaganda", "name:ja": "カラガンダ州", "name:kk": "Қарағанды облысы", "name:lt": "Karagandos sritis", "name:ru": "Карагандинская область", "addr:country": "KZ", "is_in:country": "Kazakhstan", "is_in:continent": "Asia", "is_in:country_code": "KZ"}}, "center_lat": 48.22, "center_lon": 71.0, "timezone": "Asia/Almaty", "population": 1363638, "wikidata_id": "Q485429", "wikipedia_id": "ru:Карагандинская область"}, "geometry": {"type": "MultiPolygon", "coordinates": [[[[62.95, 47.191], [63.74, 46.83], [65.141, 46.477], [65.586, 46.213], [67.138, 46.143], [67.175, 46.001], [69.067, 46], [71.549, 46.005], [74.061, 46.001], [74.744, 46.526], [76.049, 46.738], [76.947, 46.552], [77.556, 46.621], [77.466, 47.161], [76.783, 47.247], [77.155, 48.27], [76.841, 48.369], [77.317, 48.63], [77.289, 48.854], [76.605, 49.44], [77.159, 49.498], [77.166, 49.929], [77.697, 50.222], [77.646, 50.465], [77.077, 50.668], [76.651, 50.273], [74.803, 50.107], [75.14, 50.255], [74.4, 50.662], [73.994, 50.611], [74.031, 51.202], [73.671, 51.279], [72.792, 50.887], [72.123, 50.41], [71.71, 50.429], [71.837, 50.683], [71.335, 50.722], [70.751, 50.25], [70.148, 50.039], [70.062, 50.258], [69.447, 50.377], [68.674, 50.244], [68.801, 50.8], [67.939, 50.553], [67.964, 50.317], [66.073, 48.993], [65.486, 48.828], [64.746, 48.938], [64.579, 48.511], [64.016, 48.17], [64.277, 47.9], [62.95, 47.191]]]]}}