{"type": "Feature", "properties": {"name": "East Kazakhstan Region", "iso2": "KZ-VOS", "admin_level": 4, "osm_id": 215699, "countrylevel_id": "iso2:KZ-VOS", "osm_data": {"localname": "Восточно-Казахстанская область", "official_name": "", "alltags": {"name:be": "Усходне-Казахстанская вобласць", "name:cs": "Východokazašská oblast", "name:en": "East Kazakhstan Region", "name:es": "Provincia de Kazajistán Oriental", "name:fr": "Kazakhstan-Oriental", "name:ja": "東カザフスタン州", "name:kk": "Шығыс Қазақстан облысы", "name:ru": "Восточно-Казахстанская область", "name:uk": "Східно-Казахстанська область", "name:zh": "東哈薩克斯坦州", "addr:country": "KZ", "name:kk_arab": "شىعىس قازاقستان وبلىسى", "name:kk_latn": "Şığıs Qazaqstan oblısı", "is_in:country": "Kazakhstan", "is_in:continent": "Asia", "is_in:country_code": "KZ"}}, "center_lat": 48.8, "center_lon": 81.52, "timezone": "Asia/Almaty", "population": 1393932, "wikidata_id": "Q36156", "wikipedia_id": "ru:Восточно-Казахстанская область"}, "geometry": {"type": "MultiPolygon", "coordinates": [[[[77.466, 47.161], [78.303, 47.331], [78.817, 47.047], [79.263, 47.082], [79.577, 46.78], [80.008, 46.915], [80.863, 46.563], [81.142, 46.56], [81.885, 46.104], [82.28, 45.535], [83.032, 47.224], [83.917, 46.973], [84.759, 47.005], [84.944, 46.863], [85.682, 47.223], [85.551, 48.129], [85.756, 48.403], [86.584, 48.54], [86.896, 49.135], [87.286, 49.116], [86.783, 49.789], [86.272, 49.583], [85.211, 49.627], [85.049, 50.01], [84.252, 50.29], [84.08, 50.64], [83.649, 50.955], [82.733, 50.927], [82.567, 50.747], [81.583, 50.742], [81.177, 51.162], [80.678, 51.317], [80.076, 50.738], [79.347, 51.709], [78.785, 51.299], [78.064, 51.127], [78.82, 50.321], [78.414, 50.038], [77.697, 50.222], [77.166, 49.929], [77.159, 49.498], [76.605, 49.44], [77.289, 48.854], [77.317, 48.63], [76.841, 48.369], [77.155, 48.27], [76.783, 47.247], [77.466, 47.161]]]]}}