{"type": "Feature", "properties": {"name": "Ingushetia", "iso2": "RU-IN", "admin_level": 4, "osm_id": 253252, "countrylevel_id": "iso2:RU-IN", "osm_data": {"localname": "Ингушетия", "official_name": "Республика Ингушетия", "alltags": {"int_ref": "RU-IN", "name:av": "Гъалгъай", "name:az": "İnquşetiya", "name:br": "Ingouchia", "name:ca": "Ingúixia", "name:ce": "ГӀалгӀайчоь", "name:en": "Ingushetia", "name:es": "Ingusetia", "name:fr": "Ingouchie", "name:hu": "Ingusföld", "name:hy": "Ինգուշեթիա", "name:ka": "ინგუშეთის რესპუბლიკა", "name:nl": "Ingoesjetië", "name:os": "Мæхъхъæл", "name:pl": "Inguszetia", "name:ro": "Ingușetia", "name:ru": "Ингушетия", "name:sk": "Ingušsko", "name:sl": "Ingušetija", "name:tt": "Ингушетия", "alt_name": "Республика Ингушетия", "name:inh": "ГӀалгӏайче", "name:kbd": "Ингушей", "name:krc": "Ингушетия", "name:myv": "Ингушетия Республикась", "oktmo:user": "82000000", "addr:country": "RU", "official_name": "Республика Ингушетия", "gost_7.67-2003": "РОФ-ИНГ", "official_status": "ru:республика", "official_name:en": "Republic of Ingushetia", "official_name:ru": "Республика Ингушетия", "official_name:sk": "Ingušská republika", "official_name:inh": "Гӏалгӏай Мохк"}}, "center_lat": 43.18, "center_lon": 44.87, "timezone": "Europe/Moscow", "population": 488043, "wikidata_id": "Q5219", "wikipedia_id": "ru:Ингушетия"}, "geometry": {"type": "MultiPolygon", "coordinates": [[[[44.68, 42.756], [44.698, 42.743], [44.714, 42.742], [44.73, 42.729], [44.741, 42.727], [44.753, 42.714], [44.745, 42.7], [44.765, 42.655], [44.767, 42.643], [44.785, 42.633], [44.804, 42.615], [44.829, 42.619], [44.824, 42.642], [44.831, 42.648], [44.836, 42.674], [44.848, 42.673], [44.864, 42.688], [44.865, 42.704], [44.871, 42.712], [44.869, 42.724], [44.887, 42.747], [44.91, 42.751], [44.946, 42.751], [44.98, 42.745], [44.983, 42.737], [45.011, 42.713], [45.03, 42.704], [45.038, 42.693], [45.053, 42.693], [45.07, 42.699], [45.08, 42.71], [45.092, 42.731], [45.107, 42.74], [45.116, 42.751], [45.138, 42.763], [45.158, 42.783], [45.172, 42.78], [45.179, 42.796], [45.194, 42.805], [45.194, 42.823], [45.18, 42.823], [45.163, 42.834], [45.087, 42.842], [45.089, 42.858], [45.084, 42.882], [45.072, 42.896], [45.074, 42.904], [45.092, 42.928], [45.095, 42.939], [45.074, 42.961], [45.069, 42.972], [45.071, 42.992], [45.087, 43.019], [45.109, 43.027], [45.128, 43.045], [45.162, 43.067], [45.163, 43.073], [45.183, 43.092], [45.195, 43.118], [45.174, 43.142], [45.185, 43.166], [45.171, 43.167], [45.163, 43.178], [45.143, 43.174], [45.141, 43.185], [45.126, 43.193], [45.127, 43.223], [45.106, 43.281], [45.109, 43.312], [45.126, 43.327], [45.136, 43.398], [45.137, 43.42], [45.115, 43.453], [45.065, 43.454], [45.064, 43.463], [45.011, 43.462], [44.972, 43.469], [44.972, 43.48], [44.957, 43.48], [44.957, 43.521], [44.936, 43.519], [44.895, 43.524], [44.873, 43.534], [44.86, 43.55], [44.861, 43.564], [44.847, 43.565], [44.828, 43.553], [44.812, 43.558], [44.789, 43.557], [44.802, 43.582], [44.795, 43.597], [44.695, 43.595], [44.708, 43.551], [44.693, 43.547], [44.672, 43.551], [44.656, 43.542], [44.622, 43.547], [44.631, 43.614], [44.503, 43.588], [44.5, 43.562], [44.507, 43.543], [44.5, 43.529], [44.483, 43.518], [44.483, 43.502], [44.491, 43.498], [44.488, 43.485], [44.497, 43.476], [44.482, 43.476], [44.478, 43.468], [44.483, 43.452], [44.492, 43.448], [44.489, 43.436], [44.512, 43.406], [44.535, 43.416], [44.562, 43.419], [44.578, 43.414], [44.573, 43.272], [44.571, 43.236], [44.609, 43.227], [44.624, 43.22], [44.645, 43.221], [44.681, 43.211], [44.682, 43.234], [44.669, 43.234], [44.67, 43.278], [44.697, 43.271], [44.773, 43.158], [44.799, 43.167], [44.798, 43.146], [44.831, 43.14], [44.844, 43.134], [44.847, 43.12], [44.834, 43.119], [44.871, 43.098], [44.902, 43.096], [44.915, 43.079], [44.931, 43.071], [44.932, 43.063], [44.957, 43.049], [44.956, 43.032], [44.938, 43.027], [44.932, 43.016], [44.934, 43.001], [44.944, 42.985], [44.925, 42.98], [44.946, 42.979], [44.954, 42.947], [44.943, 42.948], [44.943, 42.94], [44.928, 42.931], [44.905, 42.937], [44.905, 42.924], [44.882, 42.915], [44.879, 42.883], [44.86, 42.884], [44.865, 42.864], [44.857, 42.857], [44.86, 42.845], [44.854, 42.836], [44.83, 42.84], [44.81, 42.855], [44.796, 42.86], [44.777, 42.86], [44.751, 42.843], [44.734, 42.852], [44.703, 42.857], [44.702, 42.868], [44.675, 42.87], [44.664, 42.879], [44.647, 42.881], [44.632, 42.892], [44.634, 42.877], [44.648, 42.859], [44.648, 42.843], [44.666, 42.832], [44.659, 42.811], [44.668, 42.798], [44.667, 42.773], [44.678, 42.765], [44.68, 42.756]]]]}}