{"type": "Feature", "properties": {"name": "Benghazi", "iso2": "LY-BA", "admin_level": 4, "osm_id": 2060170, "countrylevel_id": "iso2:LY-BA", "osm_data": {"localname": "بنغازي", "official_name": "", "alltags": {"name:ar": "بنغازي", "name:en": "Benghazi", "name:es": "Bengasi", "name:fr": "Benghazi", "name:it": "Distretto di Bengasi", "name:pl": "Bengazi", "name:ru": "Бенгази", "name:uk": "Бенгазі", "int_name": "Benghazi"}}, "center_lat": 31.65, "center_lon": 20.57, "timezone": "Africa/Tripoli", "wikidata_id": "Q33507", "wikipedia_id": "ar:شعبية_بنغازي"}, "geometry": {"type": "MultiPolygon", "coordinates": [[[[20.579, 32.546], [20.639, 32.408], [20.702, 32.31], [20.771, 32.189], [20.797, 32.12], [20.809, 31.965], [20.843, 31.913], [20.964, 31.771], [21.054, 31.673], [21.215, 31.541], [21.242, 31.356], [21.289, 31.276], [21.319, 31.035], [20.934, 31.046], [20.738, 31.014], [20.594, 31.007], [20.524, 31.025], [20.418, 31.088], [20.299, 31.232], [20.189, 31.263], [20.132, 31.261], [20.087, 31.341], [20.052, 31.36], [20.017, 31.423], [20.015, 31.462], [19.965, 31.594], [19.956, 31.673], [19.921, 31.759], [19.926, 31.825], [19.942, 31.871], [19.962, 31.993], [20.034, 32.06], [20.04, 32.101], [20.102, 32.179], [20.214, 32.286], [20.36, 32.405], [20.579, 32.546]]]]}}