{"type": "Feature", "properties": {"name": "Jafara", "iso2": "LY-JI", "admin_level": 4, "osm_id": 2060176, "countrylevel_id": "iso2:LY-JI", "osm_data": {"localname": "الجفارة", "official_name": "", "alltags": {"name:ar": "الجفارة", "name:en": "Jafara", "name:es": "Al Jfara", "name:fr": "Al Djfara", "name:it": "Distretto di Gefara", "name:pl": "Al-Dżifara", "name:ru": "Эль-Джифара", "name:uk": "Ель-Джифара", "int_name": "Jafara"}}, "center_lat": 32.56, "center_lon": 13.07, "timezone": "Africa/Tripoli", "wikidata_id": "Q329060", "wikipedia_id": "en:Jafara"}, "geometry": {"type": "MultiPolygon", "coordinates": [[[[12.828, 32.8], [12.893, 32.809], [13.066, 32.857], [13.082, 32.84], [13.082, 32.789], [13.138, 32.772], [13.146, 32.712], [13.2, 32.719], [13.21, 32.777], [13.25, 32.759], [13.298, 32.759], [13.333, 32.681], [13.361, 32.662], [13.372, 32.491], [13.357, 32.447], [13.37, 32.401], [13.328, 32.422], [13.298, 32.411], [13.277, 32.335], [13.279, 32.294], [13.221, 32.299], [13.201, 32.285], [13.046, 32.325], [12.973, 32.326], [12.959, 32.406], [12.88, 32.404], [12.792, 32.413], [12.797, 32.489], [12.778, 32.5], [12.768, 32.554], [12.804, 32.602], [12.804, 32.684], [12.835, 32.696], [12.807, 32.735], [12.828, 32.8]]], [[[13.053, 32.854], [13.053, 32.854], [13.053, 32.854], [13.053, 32.854]]]]}}