{"type": "Feature", "properties": {"name": "Sabha", "iso2": "LY-SB", "admin_level": 4, "osm_id": 2060184, "countrylevel_id": "iso2:LY-SB", "osm_data": {"localname": "سبها", "official_name": "", "alltags": {"name:ar": "سبها", "name:en": "Sabha", "name:es": "Sabha", "name:fr": "Sebha", "name:it": "Distretto di Seba", "name:pl": "Sabha", "name:ru": "Сабха", "name:uk": "Сабха", "int_name": "Sabha"}}, "center_lat": 27.09, "center_lon": 15.03, "timezone": "Africa/Tripoli", "wikidata_id": "Q26132", "wikipedia_id": "en:Sabha District"}, "geometry": {"type": "MultiPolygon", "coordinates": [[[[13.934, 26.247], [14.133, 26.268], [14.247, 26.307], [14.424, 26.376], [14.538, 26.481], [14.641, 26.586], [14.828, 26.758], [14.974, 26.807], [15.1, 26.837], [15.278, 26.877], [15.467, 26.898], [15.656, 26.928], [15.761, 26.948], [16.28, 27.075], [16.281, 27.084], [16.258, 27.152], [16.192, 27.185], [16.128, 27.239], [16.062, 27.272], [16.023, 27.306], [15.992, 27.384], [15.963, 27.467], [15.868, 27.595], [15.795, 27.692], [15.796, 27.721], [15.564, 27.741], [15.417, 27.693], [15.353, 27.664], [15.174, 27.643], [15.068, 27.632], [14.921, 27.574], [14.849, 27.461], [14.723, 27.393], [14.619, 27.335], [14.525, 27.278], [14.484, 27.221], [14.421, 27.173], [14.316, 27.162], [13.983, 27.129], [14.022, 27.09], [14.046, 26.988], [14.129, 26.91], [14.183, 26.847], [14.189, 26.812], [14.135, 26.727], [14.146, 26.671], [14.085, 26.558], [13.972, 26.462], [13.932, 26.348], [13.934, 26.247]]]]}}