{"type": "Feature", "properties": {"name": "Mary Region", "iso2": "TM-M", "admin_level": 4, "osm_id": 223030, "countrylevel_id": "iso2:TM-M", "osm_data": {"localname": "Mary welaýaty", "official_name": "", "alltags": {"name:en": "Mary Region", "name:es": "Provincia de Mary", "name:fa": "استان مرو", "name:fr": "Mary", "name:ja": "マル州", "name:lt": "Maro velajatas", "name:ps": "ماري ولايت", "name:ru": "Марыйский велаят", "name:tk": "Mary welaýaty", "name:tr": "Merv", "is_in:country": "Turkmenistan", "is_in:continent": "Asia", "is_in:country_code": "TM"}}, "center_lat": 37.18, "center_lon": 62.28, "timezone": "Asia/Ashgabat", "population": 1480400, "wikidata_id": "Q487401", "wikipedia_id": "ru:Марыйский велаят"}, "geometry": {"type": "MultiPolygon", "coordinates": [[[[61.4, 35.586], [62.064, 35.434], [62.306, 35.129], [62.733, 35.25], [63.099, 35.418], [63.108, 35.822], [63.998, 36.032], [64.636, 36.442], [64.758, 36.866], [63.438, 36.861], [63.406, 37.373], [63.637, 37.587], [63.107, 38.08], [62.686, 38.202], [61.139, 39.515], [60.963, 39.507], [60.652, 38.934], [60.388, 38.724], [60.526, 38.301], [60.952, 37.884], [60.866, 37.414], [61.44, 36.696], [61.4, 35.586]]]]}}