{"type": "Feature", "properties": {"name": "Dibër County", "iso2": "AL-09", "admin_level": 6, "osm_id": 1249567, "countrylevel_id": "iso2:AL-09", "osm_data": {"localname": "Qarku i Dibrës", "official_name": "", "alltags": {"name:an": "Prefectura de Dibër", "name:ar": "مقاطعة ديبر", "name:be": "Дзібра", "name:bg": "Дебър (област)", "name:br": "Dibër (rannvro)", "name:ca": "Comtat de Dibër", "name:cs": "Dibrë (kraj)", "name:el": "Νομός Ντίμπρα", "name:en": "Dibër County", "name:eo": "Provinco Dibër", "name:es": "Condado de Dibër", "name:et": "Dibëri maakond", "name:eu": "Dibër konderria", "name:fa": "شهرستان دیبر", "name:fi": "Dibërin maakunta", "name:fr": "Préfecture de Dibër", "name:ga": "Contae Dibër", "name:gl": "Condado de Dibër", "name:hi": "डिबॅर प्रांत", "name:hr": "Dibrski okrug", "name:hy": "Դիբարի գավառ", "name:it": "Prefettura di Dibër", "name:ja": "ディブラ州", "name:ka": "დიბრის ოლქი", "name:ko": "디버르 주", "name:lv": "Dibras apgabals", "name:mk": "Дебар (област)", "name:nl": "Dibër (prefectuur)", "name:no": "Dibër (region)", "name:pa": "ਡਿਬਰ ਕਾਉਂਟੀ", "name:pl": "Obwód Dibra", "name:pt": "Dibër (prefeitura)", "name:ro": "Regiunea Dibër", "name:ru": "Дибра (область)", "name:sk": "Dibër (kraj)", "name:sv": "Dibër prefektur", "name:tl": "Kondado ng Dibër", "name:tr": "Debre ili", "name:uk": "Дібер (область)", "name:ur": "صوبہ دیبر", "name:vi": "Dibër (hạt)", "name:zh": "第巴爾州", "name:ceb": "Qarku i Dibrës", "name:lmo": "Prefettura de Dibër", "name:pnb": "صوبہ دیبر", "name:sco": "Dibër Coonty", "name:war": "Dibër (condado)", "ref:nuts": "AL011", "population": "120978", "ref:nuts:3": "AL011", "name:simple": "Dibër County", "name:be-tarask": "Дзібра", "contact:website": "http://www.qarkudiber.gov.al"}}, "center_lat": 41.6, "center_lon": 20.24, "timezone": "Europe/Tirane", "population": 137047, "wikidata_id": "Q192866", "wikipedia_id": "en:Dibër County"}, "geometry": {"type": "MultiPolygon", "coordinates": [[[[19.853, 41.571], [19.866, 41.545], [19.907, 41.522], [19.908, 41.512], [19.928, 41.515], [19.936, 41.503], [19.975, 41.493], [19.991, 41.465], [20.004, 41.432], [20.024, 41.418], [20.05, 41.414], [20.062, 41.385], [20.074, 41.386], [20.076, 41.411], [20.117, 41.402], [20.128, 41.391], [20.125, 41.378], [20.139, 41.362], [20.181, 41.359], [20.198, 41.363], [20.237, 41.354], [20.24, 41.351], [20.254, 41.355], [20.258, 41.363], [20.277, 41.37], [20.286, 41.38], [20.308, 41.382], [20.329, 41.374], [20.332, 41.366], [20.367, 41.381], [20.398, 41.385], [20.417, 41.396], [20.421, 41.392], [20.428, 41.361], [20.446, 41.361], [20.498, 41.347], [20.52, 41.338], [20.527, 41.354], [20.552, 41.38], [20.546, 41.384], [20.56, 41.408], [20.557, 41.417], [20.538, 41.427], [20.538, 41.437], [20.514, 41.437], [20.513, 41.45], [20.502, 41.467], [20.495, 41.492], [20.478, 41.499], [20.468, 41.498], [20.477, 41.508], [20.455, 41.513], [20.454, 41.522], [20.472, 41.531], [20.457, 41.551], [20.471, 41.559], [20.519, 41.563], [20.542, 41.578], [20.558, 41.582], [20.544, 41.622], [20.525, 41.637], [20.526, 41.653], [20.517, 41.661], [20.529, 41.685], [20.527, 41.705], [20.514, 41.723], [20.521, 41.751], [20.536, 41.769], [20.532, 41.776], [20.546, 41.78], [20.547, 41.79], [20.567, 41.786], [20.573, 41.798], [20.56, 41.824], [20.561, 41.845], [20.54, 41.849], [20.51, 41.841], [20.485, 41.861], [20.428, 41.861], [20.42, 41.847], [20.421, 41.826], [20.399, 41.816], [20.366, 41.816], [20.356, 41.821], [20.331, 41.857], [20.346, 41.896], [20.333, 41.905], [20.314, 41.907], [20.311, 41.898], [20.296, 41.894], [20.264, 41.874], [20.243, 41.869], [20.232, 41.88], [20.213, 41.879], [20.197, 41.873], [20.185, 41.86], [20.178, 41.845], [20.158, 41.843], [20.146, 41.827], [20.165, 41.809], [20.181, 41.786], [20.179, 41.759], [20.153, 41.756], [20.124, 41.745], [20.075, 41.743], [20.058, 41.73], [20.047, 41.713], [20.026, 41.703], [20.015, 41.715], [19.989, 41.703], [19.974, 41.702], [19.966, 41.689], [19.955, 41.686], [19.934, 41.697], [19.918, 41.698], [19.909, 41.708], [19.883, 41.694], [19.857, 41.696], [19.833, 41.682], [19.823, 41.67], [19.825, 41.652], [19.813, 41.626], [19.833, 41.611], [19.834, 41.596], [19.853, 41.571]]]]}}