{"type": "Feature", "properties": {"name": "Korçë County", "iso2": "AL-06", "admin_level": 6, "osm_id": 1252589, "countrylevel_id": "iso2:AL-06", "osm_data": {"localname": "Qarku i Korçës", "official_name": "", "alltags": {"name:an": "Prefectura de Korçë", "name:ar": "مقاطعة كورتشي", "name:be": "Корча", "name:bg": "Корча (област)", "name:br": "Korçë (rannvro)", "name:ca": "Comtat de Korçë", "name:cs": "Korçë (kraj)", "name:el": "Νομός Κορυτσάς", "name:en": "Korçë County", "name:eo": "Provinco Korçë", "name:es": "Condado de Korçë", "name:et": "Korçë maakond", "name:eu": "Korçë konderria", "name:fi": "Korçën maakunta", "name:fr": "Préfecture de Korçë", "name:ga": "Contae Korçë", "name:gl": "Condado de Korçë", "name:hi": "कोर्से प्रांत", "name:hr": "Korčanski okrug", "name:hu": "Korça megye", "name:hy": "Կորչայի գավառ", "name:it": "Prefettura di Coriza", "name:ja": "コルチャ州", "name:kg": "Korçë (kizunga)", "name:ko": "코르처 주", "name:lt": "Korčės apskritis", "name:mk": "Горица (област)", "name:nl": "Korçë (prefectuur)", "name:no": "Korçë (region)", "name:pl": "Obwód Korcza", "name:pt": "Korçë (prefeitura)", "name:ro": "Regiunea Korçë", "name:ru": "Корча (область)", "name:sk": "Korçë (kraj)", "name:sv": "Korçë prefektur", "name:tl": "Kondado ng Korçë", "name:tr": "Görice ili", "name:uk": "Корча (область)", "name:ur": "صوبہ کورچہ", "name:vi": "Korçë (hạt)", "name:zh": "科赤州", "name:ceb": "Qarku i Korçës", "name:lmo": "Prefettura de Coriza", "name:pnb": "صوبہ کورچہ", "name:sco": "Korçë Coonty", "name:war": "Korçë (condado)", "ref:nuts": "AL034", "population": "210178", "ref:nuts:3": "AL034", "name:simple": "Korçë County", "contact:email": "qarkukorce@gmail.com", "contact:phone": "+355 8224 2009", "name:be-tarask": "Корча", "contact:website": "http://www.korcaregion.com"}}, "center_lat": 40.62, "center_lon": 20.67, "timezone": "Europe/Tirane", "population": 220357, "wikidata_id": "Q193464", "wikipedia_id": "sq:Qarku i Korçës"}, "geometry": {"type": "MultiPolygon", "coordinates": [[[[20.984, 40.801], [20.978, 40.782], [20.956, 40.77], [20.973, 40.762], [20.983, 40.763], [20.984, 40.737], [21.007, 40.725], [21.025, 40.709], [21.057, 40.668], [21.052, 40.635], [21.056, 40.617], [21.045, 40.614], [21.048, 40.602], [21.04, 40.592], [21.047, 40.572], [21.043, 40.559], [21.032, 40.554], [21.019, 40.557], [21.006, 40.552], [21, 40.535], [20.97, 40.52], [20.964, 40.507], [20.969, 40.488], [20.961, 40.484], [20.955, 40.469], [20.932, 40.463], [20.908, 40.476], [20.875, 40.474], [20.843, 40.48], [20.832, 40.465], [20.831, 40.454], [20.822, 40.446], [20.789, 40.43], [20.792, 40.414], [20.787, 40.4], [20.792, 40.382], [20.79, 40.362], [20.777, 40.357], [20.78, 40.348], [20.764, 40.342], [20.758, 40.331], [20.764, 40.322], [20.755, 40.314], [20.739, 40.312], [20.731, 40.297], [20.713, 40.283], [20.707, 40.268], [20.723, 40.253], [20.721, 40.229], [20.726, 40.223], [20.707, 40.199], [20.679, 40.19], [20.681, 40.184], [20.675, 40.165], [20.693, 40.154], [20.675, 40.126], [20.68, 40.111], [20.678, 40.095], [20.659, 40.092], [20.637, 40.093], [20.618, 40.083], [20.611, 40.101], [20.574, 40.12], [20.576, 40.134], [20.565, 40.142], [20.52, 40.159], [20.505, 40.176], [20.507, 40.185], [20.52, 40.202], [20.504, 40.223], [20.512, 40.232], [20.505, 40.247], [20.488, 40.26], [20.473, 40.259], [20.48, 40.267], [20.485, 40.288], [20.479, 40.308], [20.47, 40.315], [20.471, 40.33], [20.463, 40.338], [20.493, 40.361], [20.485, 40.372], [20.463, 40.377], [20.451, 40.399], [20.443, 40.4], [20.445, 40.413], [20.454, 40.424], [20.447, 40.44], [20.449, 40.44], [20.436, 40.459], [20.422, 40.472], [20.436, 40.481], [20.443, 40.497], [20.439, 40.529], [20.425, 40.528], [20.431, 40.548], [20.448, 40.574], [20.445, 40.581], [20.423, 40.588], [20.386, 40.589], [20.376, 40.612], [20.364, 40.624], [20.358, 40.638], [20.347, 40.643], [20.339, 40.665], [20.325, 40.669], [20.317, 40.699], [20.295, 40.721], [20.293, 40.729], [20.336, 40.749], [20.361, 40.744], [20.425, 40.738], [20.431, 40.75], [20.45, 40.773], [20.468, 40.789], [20.466, 40.815], [20.449, 40.822], [20.455, 40.849], [20.433, 40.852], [20.424, 40.858], [20.422, 40.873], [20.399, 40.891], [20.4, 40.904], [20.39, 40.918], [20.405, 40.93], [20.417, 40.958], [20.415, 40.975], [20.421, 40.989], [20.438, 41.001], [20.447, 40.999], [20.471, 41.006], [20.487, 41.018], [20.497, 41.018], [20.513, 41.03], [20.562, 41.031], [20.584, 41.02], [20.603, 41.027], [20.606, 41.052], [20.601, 41.076], [20.592, 41.086], [20.595, 41.095], [20.596, 41.092], [20.633, 41.087], [20.628, 41.073], [20.65, 41.06], [20.635, 41.048], [20.637, 41.019], [20.633, 41.006], [20.646, 40.961], [20.642, 40.951], [20.642, 40.919], [20.659, 40.903], [20.685, 40.901], [20.721, 40.903], [20.732, 40.911], [20.759, 40.903], [20.775, 40.905], [20.801, 40.898], [20.826, 40.905], [20.838, 40.928], [20.848, 40.938], [20.885, 40.925], [20.899, 40.918], [20.915, 40.924], [20.941, 40.925], [20.968, 40.911], [20.979, 40.898], [20.978, 40.89], [20.966, 40.88], [20.948, 40.88], [20.936, 40.894], [20.922, 40.885], [20.942, 40.87], [20.943, 40.859], [20.956, 40.86], [20.967, 40.852], [20.961, 40.842], [20.94, 40.839], [20.934, 40.832], [20.941, 40.806], [20.918, 40.798], [20.907, 40.789], [20.909, 40.769], [20.92, 40.763], [20.942, 40.777], [20.972, 40.79], [20.984, 40.801]]], [[[20.932, 40.792], [20.932, 40.792], [20.932, 40.792], [20.932, 40.792]]]]}}