{"type": "Feature", "properties": {"name": "Puducherry", "iso2": "IN-PY", "admin_level": 4, "osm_id": 107001, "countrylevel_id": "iso2:IN-PY", "osm_data": {"localname": "Puducherry", "official_name": "", "alltags": {"name:ar": "بودوتشيري", "name:cs": "Puttuččéri", "name:fa": "پودوچری", "name:hi": "पुदुच्चेरी", "name:ja": "ポンディシェリ", "name:kn": "ಪುದುಚೆರಿ", "name:ku": "Puduçerî", "name:pa": "ਪਾਂਡੀਚਰੀ", "name:ru": "Пудучерри", "name:ta": "புதுச்சேரி", "name:uk": "Пудучеррі", "name:ur": "پدوچیری", "name:zh": "本地治里中央直辖区", "old_name": "Pondicherry", "is_in:country_code": "IN"}}, "center_lat": 11.74, "center_lon": 79.85, "timezone": "Asia/Kolkata", "population": 973829, "wikidata_id": "Q66743", "wikipedia_id": "en:Puducherry"}, "geometry": {"type": "MultiPolygon", "coordinates": [[[[79.852, 10.828], [79.831, 10.828], [79.829, 10.884], [79.765, 10.896], [79.723, 10.93], [79.721, 10.968], [79.762, 10.961], [79.747, 11.002], [79.784, 10.995], [79.84, 11.003], [79.854, 10.983], [79.852, 10.828]]], [[[75.531, 11.704], [75.536, 11.692], [75.531, 11.704], [75.531, 11.704]]], [[[75.529, 11.72], [75.529, 11.72], [75.529, 11.72], [75.529, 11.72]]], [[[79.675, 11.806], [79.675, 11.806], [79.675, 11.806], [79.675, 11.806]]], [[[79.693, 11.813], [79.693, 11.813], [79.693, 11.813], [79.693, 11.813]]], [[[79.657, 11.958], [79.657, 11.958], [79.657, 11.958], [79.657, 11.958]]], [[[79.859, 12.009], [79.85, 12.051], [79.875, 12.042], [79.859, 12.009]]], [[[82.186, 16.733], [82.239, 16.722], [82.314, 16.728], [82.296, 16.707], [82.263, 16.705], [82.186, 16.733]]], [[[79.617, 11.99], [79.625, 12.032], [79.651, 12.023], [79.637, 11.978], [79.669, 11.918], [79.625, 11.903], [79.617, 11.99]]], [[[79.66, 11.996], [79.685, 12.033], [79.72, 11.996], [79.661, 11.985], [79.66, 11.996]]], [[[79.787, 12.026], [79.787, 12.026], [79.787, 12.026], [79.787, 12.026]]], [[[79.697, 11.871], [79.697, 11.871], [79.697, 11.871], [79.697, 11.871]]], [[[79.796, 11.785], [79.758, 11.776], [79.721, 11.785], [79.739, 11.841], [79.807, 11.832], [79.796, 11.785]]], [[[79.642, 11.821], [79.648, 11.844], [79.672, 11.814], [79.642, 11.821]]], [[[79.599, 11.882], [79.621, 11.891], [79.662, 11.862], [79.652, 11.851], [79.6, 11.861], [79.599, 11.882]]], [[[79.808, 11.836], [79.801, 11.855], [79.762, 11.848], [79.708, 11.869], [79.741, 11.906], [79.697, 11.942], [79.712, 11.986], [79.747, 12.008], [79.75, 11.922], [79.818, 11.979], [79.841, 11.958], [79.808, 11.836]], [[79.769, 11.902], [79.785, 11.863], [79.797, 11.9], [79.769, 11.902]]]]}}