{"type": "Feature", "properties": {"name": "Aragatsotn Province", "iso2": "AM-AG", "admin_level": 4, "osm_id": 3917110, "countrylevel_id": "iso2:AM-AG", "osm_data": {"localname": "Արագածոտնի մարզ", "official_name": "", "alltags": {"is_in": "Armenia", "name:az": "Araqacotn mərzi", "name:el": "Αραγκατσότν", "name:en": "Aragatsotn Province", "name:es": "Aragatsotn", "name:fr": "Aragatsotn", "name:hy": "Արագածոտնի մարզ", "name:ru": "Арагацотнская область", "name:uk": "Араґацотн", "is_in:country": "Armenia", "is_in:continent": "Asia", "is_in:country_code": "AM"}}, "center_lat": 40.44, "center_lon": 44.14, "timezone": "Asia/Yerevan", "wikidata_id": "Q17915", "wikipedia_id": "hy:Արագածոտնի մարզ"}, "geometry": {"type": "MultiPolygon", "coordinates": [[[[43.672, 40.265], [43.757, 40.284], [43.875, 40.266], [43.943, 40.221], [44.078, 40.196], [44.18, 40.201], [44.174, 40.262], [44.215, 40.243], [44.257, 40.263], [44.414, 40.218], [44.424, 40.24], [44.456, 40.291], [44.447, 40.312], [44.406, 40.306], [44.475, 40.38], [44.517, 40.397], [44.542, 40.479], [44.538, 40.521], [44.556, 40.558], [44.532, 40.594], [44.45, 40.672], [44.454, 40.707], [44.403, 40.693], [44.393, 40.713], [44.318, 40.729], [44.22, 40.765], [44.193, 40.763], [44.189, 40.728], [44.138, 40.723], [44.105, 40.699], [44.102, 40.67], [44.137, 40.604], [44.184, 40.599], [44.173, 40.546], [44.191, 40.505], [44.123, 40.483], [44.028, 40.48], [43.969, 40.503], [43.911, 40.489], [43.798, 40.511], [43.722, 40.497], [43.655, 40.45], [43.597, 40.44], [43.618, 40.39], [43.591, 40.346], [43.672, 40.265]]]]}}