{"type": "Feature", "properties": {"name": "Shirak Province", "iso2": "AM-SH", "admin_level": 4, "osm_id": 364077, "countrylevel_id": "iso2:AM-SH", "osm_data": {"localname": "Շիրակի մարզ", "official_name": "", "alltags": {"is_in": "Armenia", "name:ar": "محافظة شيراك", "name:az": "Şirak mərzi", "name:en": "Shirak Province", "name:es": "Shirak", "name:fr": "Shirak", "name:hy": "Շիրակի մարզ", "name:ja": "シラク地方", "name:ka": "შირაკის პროვინცია", "name:ku": "Şîrak", "name:ru": "Ширакская область", "is_in:country": "Armenia", "is_in:continent": "Asia", "is_in:country_code": "AM"}}, "center_lat": 40.83, "center_lon": 43.87, "timezone": "Asia/Yerevan", "wikidata_id": "Q201063", "wikipedia_id": "hy:Շիրակի մարզ"}, "geometry": {"type": "MultiPolygon", "coordinates": [[[[43.468, 41.033], [43.598, 40.983], [43.672, 40.937], [43.678, 40.845], [43.707, 40.821], [43.748, 40.731], [43.747, 40.676], [43.667, 40.568], [43.644, 40.562], [43.639, 40.523], [43.558, 40.495], [43.547, 40.468], [43.597, 40.44], [43.655, 40.45], [43.722, 40.497], [43.798, 40.511], [43.911, 40.489], [43.969, 40.503], [44.028, 40.48], [44.123, 40.483], [44.191, 40.505], [44.173, 40.546], [44.184, 40.599], [44.137, 40.604], [44.102, 40.67], [44.105, 40.699], [44.138, 40.723], [44.189, 40.728], [44.193, 40.763], [44.133, 40.766], [44.131, 40.785], [44.068, 40.791], [44.047, 40.82], [44.043, 40.868], [44.109, 40.906], [44.171, 40.956], [44.188, 40.988], [44.114, 41], [44.117, 41.037], [44.08, 41.079], [44.022, 41.103], [44.035, 41.189], [43.953, 41.166], [43.939, 41.176], [43.841, 41.161], [43.751, 41.109], [43.685, 41.134], [43.597, 41.129], [43.568, 41.145], [43.474, 41.123], [43.447, 41.099], [43.472, 41.068], [43.468, 41.033]]]]}}