{"type": "Feature", "properties": {"name": "Vayots Dzor Province", "iso2": "AM-VD", "admin_level": 4, "osm_id": 364081, "countrylevel_id": "iso2:AM-VD", "osm_data": {"localname": "Վայոց ձորի մարզ", "official_name": "", "alltags": {"name:el": "Βαγιότζ Τζορ", "name:en": "Vayots Dzor Province", "name:es": "Vayots' Dzor", "name:fr": "Vayots Dzor", "name:hy": "Վայոց ձորի մարզ", "name:ja": "ヴァヨツ・ゾル地方", "name:ka": "ვაიოცძორის პროვინცია", "name:ku": "Vayots Cor", "name:ru": "Вайоцдзорская область", "is_in:country": "Armenia", "is_in:continent": "Asia", "is_in:country_code": "AM"}}, "center_lat": 39.77, "center_lon": 45.45, "timezone": "Asia/Yerevan", "wikidata_id": "Q200124", "wikipedia_id": "hy:Վայոց ձորի մարզ"}, "geometry": {"type": "MultiPolygon", "coordinates": [[[[45.061, 39.794], [45.135, 39.743], [45.187, 39.677], [45.172, 39.593], [45.213, 39.582], [45.243, 39.612], [45.306, 39.612], [45.3, 39.581], [45.342, 39.542], [45.377, 39.539], [45.435, 39.524], [45.47, 39.493], [45.591, 39.57], [45.623, 39.563], [45.694, 39.604], [45.735, 39.716], [45.727, 39.78], [45.788, 39.849], [45.815, 39.862], [45.781, 39.947], [45.734, 39.947], [45.701, 39.968], [45.611, 39.974], [45.599, 40.005], [45.527, 40.012], [45.496, 39.98], [45.331, 39.966], [45.237, 39.94], [45.132, 39.875], [45.104, 39.876], [45.1, 39.849], [45.062, 39.835], [45.061, 39.794]]]]}}