{"type": "Feature", "properties": {"name": "Chihuahua", "iso2": "MX-CHH", "admin_level": 4, "osm_id": 1673425, "countrylevel_id": "iso2:MX-CHH", "osm_data": {"localname": "Chihuahua", "official_name": "", "alltags": {"name:ar": "شيواوا", "name:en": "Chihuahua", "name:es": "Chihuahua", "name:ja": "チワワ州", "name:lt": "Čihuahua", "name:pl": "Chihuahua", "name:ru": "Чиуауа", "name:uk": "Чіуауа", "alt_name:ar": "تشيهواهوا;شيواو", "is_in:country": "México", "is_in:country_code": "MX"}}, "center_lat": 28.8, "center_lon": -106.46, "timezone": "America/Chihuahua", "population": 3556574, "wikidata_id": "Q655", "wikipedia_id": "es:Chihuahua"}, "geometry": {"type": "MultiPolygon", "coordinates": [[[[-108.502, 26.987], [-108.194, 27.032], [-107.856, 26.226], [-107.416, 26.141], [-106.994, 25.662], [-106.631, 25.586], [-106.547, 25.952], [-106.047, 26.845], [-105.489, 26.518], [-104.574, 26.34], [-104.228, 26.777], [-103.699, 26.725], [-103.877, 27.312], [-103.868, 28.112], [-103.308, 29.004], [-104.029, 29.316], [-104.509, 29.633], [-104.899, 30.57], [-105.396, 30.849], [-106.528, 31.784], [-108.208, 31.784], [-108.208, 31.333], [-108.756, 31.333], [-108.683, 31.006], [-108.939, 30.907], [-108.661, 30.522], [-108.608, 29.798], [-108.745, 29.162], [-108.489, 28.375], [-109.075, 28.272], [-108.502, 26.987]]]]}}