{"type": "Feature", "properties": {"name": "Michoacán", "iso2": "MX-MIC", "admin_level": 4, "osm_id": 2340636, "countrylevel_id": "iso2:MX-MIC", "osm_data": {"localname": "Michoacán de Ocampo", "official_name": "", "alltags": {"name:en": "Michoacán", "name:es": "Michoacán de Ocampo", "name:ja": "ミチョアカン州", "name:pl": "Michoacán", "name:ru": "Мичоакан", "name:uk": "Мічоакан", "is_in:country": "México", "is_in:country_code": "MX"}}, "center_lat": 19.21, "center_lon": -101.89, "timezone": "America/Mexico_City", "population": 4584471, "wikidata_id": "Q79861", "wikipedia_id": "es:Michoacán"}, "geometry": {"type": "MultiPolygon", "coordinates": [[[[-103.738, 18.684], [-103.489, 18.965], [-102.67, 19.212], [-102.784, 19.951], [-103.048, 20.005], [-102.432, 20.341], [-102.096, 20.384], [-101.919, 20.198], [-101.464, 20.328], [-101.402, 20.035], [-101.017, 20.086], [-100.747, 19.913], [-100.363, 19.99], [-100.351, 20.288], [-100.138, 20.044], [-100.196, 19.532], [-100.613, 18.887], [-100.799, 18.481], [-101.639, 18.603], [-102.14, 18.188], [-102.137, 17.94], [-103.492, 18.33], [-103.738, 18.684]]]]}}