{"type": "Feature", "properties": {"name": "Querétaro", "iso2": "MX-QUE", "admin_level": 4, "osm_id": 2340903, "countrylevel_id": "iso2:MX-QUE", "osm_data": {"localname": "Querétaro", "official_name": "Estado Libre y Soberano de Querétaro de Arteaga", "alltags": {"name:ar": "كيريتارو", "name:en": "Querétaro", "name:es": "Querétaro", "name:ja": "ケレタロ州", "name:pl": "Querétaro", "name:ru": "Керетаро", "name:uk": "Керетаро", "population": "1827937", "is_in:country": "México", "official_name": "Estado Libre y Soberano de Querétaro de Arteaga", "population:date": "2010", "is_in:country_code": "MX"}}, "center_lat": 20.85, "center_lon": -99.87, "timezone": "America/Mexico_City", "population": 2038372, "wikidata_id": "Q79754", "wikipedia_id": "es:Querétaro"}, "geometry": {"type": "MultiPolygon", "coordinates": [[[[-100.351, 20.288], [-100.138, 20.044], [-99.859, 20.268], [-99.828, 20.543], [-99.309, 21.147], [-99.055, 21.283], [-99.188, 21.67], [-99.416, 21.429], [-99.777, 21.495], [-99.829, 21.158], [-100.081, 20.95], [-100.453, 20.923], [-100.597, 20.717], [-100.351, 20.288]]]]}}