{"type": "Feature", "properties": {"name": "Region of Banská Bystrica", "iso2": "SK-BC", "admin_level": 4, "osm_id": 388270, "countrylevel_id": "iso2:SK-BC", "osm_data": {"localname": "Banskobystrický kraj", "official_name": "", "alltags": {"name:ar": "إقليم بانسكا بيستريتسا", "name:en": "Region of Banská Bystrica", "name:es": "Región de Banská Bystrica", "name:fr": "Région de Banská Bystrica", "name:hr": "Banskobistrički kraj", "name:hu": "Besztercebányai kerület", "name:pl": "Kraj bańskobystrzycki", "name:ru": "Банскобистрицкий край", "name:uk": "Банськобистрицький край", "is_in:country": "Slovakia", "is_in:continent": "Europe", "is_in:country_code": "SK"}}, "center_lat": 48.53, "center_lon": 19.51, "timezone": "Europe/Bratislava", "population": 649788, "wikidata_id": "Q183640"}, "geometry": {"type": "MultiPolygon", "coordinates": [[[[18.479, 48.549], [19.014, 48.078], [19.631, 48.25], [20.052, 48.168], [20.464, 48.464], [20.267, 48.874], [19.992, 48.908], [19.023, 48.875], [18.826, 48.744], [18.479, 48.549]]]]}}