{"type": "Feature", "properties": {"name": "Jerusalem District", "iso2": "IL-JM", "admin_level": 4, "osm_id": 1384720, "countrylevel_id": "iso2:IL-JM", "osm_data": {"localname": "מחוז ירושלים", "official_name": "", "alltags": {"name:ar": "منطقة القدس", "name:en": "Jerusalem District", "name:es": "Distrito de Jerusalén", "name:fi": "Jerusalemin hallintoalue", "name:fr": "District de Jérusalem", "name:he": "מחוז ירושלים", "name:hu": "Jeruzsálemi körzet", "name:it": "Distretto di Gerusalemme", "name:pt": "Distrito de Jerusalém", "name:ro": "Districtul Ierusalim", "name:ru": "Иерусалимский округ", "int_name": "Jerusalem District"}}, "center_lat": 31.75, "center_lon": 35.03, "timezone": "Asia/Jerusalem", "population": 1034200, "wikidata_id": "Q192232", "wikipedia_id": "en:Jerusalem District"}, "geometry": {"type": "MultiPolygon", "coordinates": [[[[34.82, 31.789], [34.837, 31.783], [34.844, 31.762], [34.84, 31.756], [34.875, 31.749], [34.861, 31.731], [34.872, 31.715], [34.864, 31.693], [34.872, 31.69], [34.866, 31.668], [34.88, 31.667], [34.878, 31.654], [34.909, 31.634], [34.927, 31.617], [34.947, 31.614], [34.961, 31.603], [34.961, 31.603], [34.988, 31.636], [35.006, 31.653], [35.027, 31.659], [35.049, 31.671], [35.085, 31.691], [35.106, 31.715], [35.116, 31.714], [35.127, 31.73], [35.141, 31.729], [35.149, 31.736], [35.165, 31.732], [35.18, 31.721], [35.206, 31.724], [35.219, 31.716], [35.225, 31.719], [35.239, 31.71], [35.25, 31.726], [35.252, 31.738], [35.263, 31.749], [35.253, 31.763], [35.26, 31.792], [35.255, 31.813], [35.265, 31.826], [35.251, 31.83], [35.257, 31.839], [35.249, 31.845], [35.23, 31.843], [35.225, 31.853], [35.228, 31.864], [35.22, 31.883], [35.21, 31.882], [35.204, 31.873], [35.211, 31.863], [35.216, 31.839], [35.215, 31.819], [35.195, 31.827], [35.182, 31.821], [35.188, 31.809], [35.161, 31.809], [35.137, 31.815], [35.12, 31.825], [35.106, 31.825], [35.083, 31.853], [35.057, 31.855], [35.031, 31.834], [35.016, 31.828], [34.984, 31.831], [34.978, 31.838], [34.999, 31.854], [34.962, 31.854], [34.934, 31.841], [34.925, 31.843], [34.91, 31.832], [34.917, 31.815], [34.843, 31.803], [34.82, 31.789]]]]}}