{"type": "Feature", "properties": {"name": "Colorado", "iso2": "US-CO", "admin_level": 4, "osm_id": 161961, "countrylevel_id": "iso2:US-CO", "osm_data": {"localname": "Colorado", "official_name": "", "alltags": {"name:ar": "كولورادو", "name:az": "Kolorado", "name:br": "Colorado", "name:el": "Κολοράντο", "name:en": "Colorado", "name:eo": "Koloradio", "name:eu": "Kolorado", "name:he": "קולורדו", "name:ja": "コロラド州", "name:kn": "ಕೊಲೊರಾಡೋ", "name:ko": "콜로라도", "name:la": "Coloratum", "name:lt": "Koloradas", "name:lv": "Kolorādo", "name:nv": "Dibé Nitsaa Hahoodzo", "name:pl": "Kolorado", "name:ru": "Колорадо", "name:sl": "Kolorado", "name:ta": "கொலராடோ", "name:tr": "Kolorado", "name:uk": "Колорадо", "name:yi": "קאלאראדא", "name:zh": "科羅拉多州", "website": "https://www.colorado.gov/", "name:haw": "Kololako", "name:scn": "Coloradu", "ref:fips": "08", "is_in:country_code": "US"}}, "center_lat": 39.0, "center_lon": -105.55, "timezone": "America/Denver", "population": 5758736, "wikidata_id": "Q1261", "wikipedia_id": "en:Colorado"}, "geometry": {"type": "MultiPolygon", "coordinates": [[[[-109.045, 36.999], [-108.129, 37], [-107.421, 37], [-106.877, 37], [-106.87, 36.992], [-106.202, 36.994], [-105.221, 36.995], [-104.483, 36.994], [-103.442, 36.998], [-103.002, 37], [-102.759, 37], [-102.698, 36.995], [-102.042, 36.993], [-102.042, 37.644], [-102.045, 38.269], [-102.045, 38.813], [-102.052, 40.003], [-102.052, 41.002], [-102.506, 41.002], [-103.385, 41.002], [-104.053, 41.002], [-104.645, 41.001], [-104.855, 40.998], [-105.667, 40.997], [-106.191, 40.998], [-106.436, 41.002], [-106.89, 41.003], [-107.915, 41.001], [-108.467, 41.001], [-109.05, 41.001], [-109.048, 40.581], [-109.05, 40.528], [-109.051, 39.143], [-109.054, 38.882], [-109.06, 38.716], [-109.06, 38.276], [-109.043, 38.166], [-109.042, 37.562], [-109.046, 37.356], [-109.045, 36.999]]]]}}