{"type": "Feature", "properties": {"name": "Illinois", "iso2": "US-IL", "admin_level": 4, "osm_id": 122586, "countrylevel_id": "iso2:US-IL", "osm_data": {"localname": "Illinois", "official_name": "", "alltags": {"name:ar": "إلينوي", "name:bg": "Илинойс", "name:br": "Illinois", "name:el": "Ιλινόις", "name:en": "Illinois", "name:eo": "Ilinojso", "name:fa": "ایلینوی", "name:he": "אילינוי", "name:hi": "इलिनॉय", "name:hy": "Իլինոյս", "name:iu": "ᐄᓚᓄᐃᔅ", "name:ja": "イリノイ州", "name:ka": "ილინოისი", "name:kn": "ಇಲ್ಲಿನಾಯ್", "name:ko": "일리노이", "name:lt": "Ilinojus", "name:lv": "Ilinoisa", "name:mn": "Иллиной", "name:nv": "Ílínóo Hahoodzo", "name:pl": "Illinois", "name:ru": "Иллинойс", "name:sr": "Илиноис", "name:ta": "இலினொய்", "name:th": "รัฐอิลลินอยส์", "name:tl": "Ilinoy", "name:uk": "Іллінойс", "name:yi": "אילינוי", "name:zh": "伊利諾伊州", "name:arc": "ܐܠܝܢܘܝ", "name:haw": "‘Ilinoe", "name:tzl": "Idinois", "ref:fips": "17", "is_in:country_code": "US"}}, "center_lat": 40.06, "center_lon": -89.2, "timezone": "America/Chicago", "population": 12671821, "wikidata_id": "Q1204", "wikipedia_id": "en:Illinois"}, "geometry": {"type": "MultiPolygon", "coordinates": [[[[-87.524, 41.708], [-87.527, 41.298], [-87.527, 40.479], [-87.533, 39.883], [-87.531, 39.348], [-87.578, 39.34], [-87.6, 39.313], [-87.605, 39.261], [-87.575, 39.218], [-87.64, 39.167], [-87.643, 39.129], [-87.573, 39.057], [-87.578, 38.989], [-87.512, 38.954], [-87.553, 38.863], [-87.501, 38.792], [-87.497, 38.743], [-87.543, 38.678], [-87.599, 38.665], [-87.62, 38.639], [-87.661, 38.541], [-87.654, 38.512], [-87.74, 38.475], [-87.73, 38.447], [-87.773, 38.377], [-87.828, 38.338], [-87.834, 38.293], [-87.857, 38.278], [-87.877, 38.31], [-87.906, 38.271], [-87.924, 38.3], [-87.983, 38.218], [-87.966, 38.187], [-87.915, 38.16], [-87.945, 38.131], [-88.011, 38.104], [-88.008, 38.085], [-87.966, 38.102], [-87.957, 38.078], [-88.034, 38.034], [-88.01, 37.978], [-88.028, 37.933], [-88.014, 37.886], [-88.1, 37.904], [-88.055, 37.846], [-88.026, 37.83], [-88.089, 37.828], [-88.055, 37.8], [-88.025, 37.8], [-88.064, 37.739], [-88.125, 37.707], [-88.158, 37.665], [-88.133, 37.574], [-88.063, 37.514], [-88.093, 37.471], [-88.256, 37.455], [-88.31, 37.44], [-88.371, 37.403], [-88.409, 37.425], [-88.477, 37.387], [-88.516, 37.285], [-88.511, 37.261], [-88.448, 37.203], [-88.425, 37.152], [-88.459, 37.075], [-88.49, 37.064], [-88.566, 37.077], [-88.601, 37.107], [-88.688, 37.139], [-88.732, 37.144], [-88.806, 37.189], [-88.917, 37.224], [-88.983, 37.229], [-89.03, 37.211], [-89.093, 37.156], [-89.111, 37.119], [-89.155, 37.089], [-89.183, 37.037], [-89.133, 36.982], [-89.187, 36.975], [-89.203, 37.019], [-89.259, 37.066], [-89.308, 37.07], [-89.302, 37.046], [-89.258, 37.02], [-89.28, 36.988], [-89.38, 37.041], [-89.376, 37.087], [-89.435, 37.152], [-89.461, 37.198], [-89.469, 37.253], [-89.501, 37.252], [-89.521, 37.284], [-89.491, 37.331], [-89.434, 37.346], [-89.421, 37.386], [-89.438, 37.434], [-89.478, 37.475], [-89.517, 37.537], [-89.521, 37.579], [-89.476, 37.596], [-89.515, 37.636], [-89.511, 37.684], [-89.574, 37.709], [-89.616, 37.749], [-89.668, 37.759], [-89.661, 37.786], [-89.74, 37.847], [-89.796, 37.859], [-89.798, 37.88], [-89.845, 37.906], [-89.898, 37.871], [-89.95, 37.881], [-89.974, 37.918], [-89.931, 37.948], [-89.941, 37.971], [-89.996, 37.963], [-90.139, 38.066], [-90.169, 38.069], [-90.238, 38.107], [-90.276, 38.158], [-90.351, 38.212], [-90.37, 38.266], [-90.372, 38.323], [-90.349, 38.377], [-90.293, 38.428], [-90.262, 38.527], [-90.19, 38.604], [-90.178, 38.637], [-90.212, 38.708], [-90.166, 38.773], [-90.118, 38.806], [-90.113, 38.851], [-90.25, 38.919], [-90.309, 38.924], [-90.399, 38.962], [-90.47, 38.961], [-90.508, 38.902], [-90.558, 38.87], [-90.619, 38.886], [-90.661, 38.925], [-90.679, 38.992], [-90.712, 39.057], [-90.682, 39.106], [-90.709, 39.154], [-90.725, 39.247], [-90.797, 39.312], [-90.854, 39.349], [-90.994, 39.423], [-91.059, 39.469], [-91.1, 39.539], [-91.148, 39.546], [-91.186, 39.605], [-91.241, 39.63], [-91.276, 39.666], [-91.37, 39.733], [-91.362, 39.785], [-91.378, 39.811], [-91.43, 39.838], [-91.448, 39.878], [-91.421, 39.915], [-91.495, 40.036], [-91.51, 40.128], [-91.507, 40.236], [-91.462, 40.342], [-91.42, 40.378], [-91.376, 40.392], [-91.381, 40.437], [-91.369, 40.513], [-91.406, 40.543], [-91.36, 40.602], [-91.248, 40.638], [-91.187, 40.637], [-91.124, 40.669], [-91.116, 40.725], [-91.092, 40.78], [-91.09, 40.825], [-90.998, 40.908], [-90.963, 40.925], [-90.942, 41.035], [-90.947, 41.097], [-90.99, 41.156], [-91.042, 41.166], [-91.114, 41.241], [-91.078, 41.302], [-91.048, 41.411], [-90.975, 41.434], [-90.93, 41.421], [-90.858, 41.453], [-90.738, 41.45], [-90.656, 41.462], [-90.599, 41.509], [-90.541, 41.526], [-90.461, 41.524], [-90.413, 41.565], [-90.343, 41.588], [-90.343, 41.647], [-90.315, 41.695], [-90.315, 41.734], [-90.279, 41.767], [-90.188, 41.803], [-90.154, 41.907], [-90.162, 41.961], [-90.14, 42.003], [-90.164, 42.042], [-90.163, 42.117], [-90.209, 42.153], [-90.391, 42.225], [-90.431, 42.278], [-90.416, 42.323], [-90.477, 42.384], [-90.555, 42.416], [-90.571, 42.442], [-90.654, 42.479], [-90.641, 42.508], [-90.086, 42.508], [-89.229, 42.498], [-88.804, 42.492], [-88.657, 42.495], [-88.094, 42.496], [-87.807, 42.493], [-87.802, 42.391], [-87.824, 42.364], [-87.834, 42.294], [-87.802, 42.211], [-87.747, 42.135], [-87.682, 42.075], [-87.669, 42.029], [-87.61, 41.891], [-87.604, 41.833], [-87.559, 41.764], [-87.531, 41.748], [-87.524, 41.708]]]]}}