{"type": "Feature", "properties": {"name": "Idaho", "iso2": "US-ID", "admin_level": 4, "osm_id": 162116, "countrylevel_id": "iso2:US-ID", "osm_data": {"localname": "Idaho", "official_name": "", "alltags": {"name:ar": "أيداهو", "name:az": "Aydaho", "name:be": "Айдаха", "name:bg": "Айдахо", "name:bn": "আইডাহো", "name:br": "Idaho", "name:el": "Αϊντάχο", "name:en": "Idaho", "name:eo": "Idaho", "name:fa": "آیداهو", "name:he": "איידהו", "name:hi": "आयडाहो", "name:ht": "Aydawo", "name:hy": "Այդահո", "name:ja": "アイダホ州", "name:ka": "აიდაჰო", "name:kn": "ಐಡಹೋ", "name:ko": "아이다호", "name:la": "Idahum", "name:lt": "Aidahas", "name:lv": "Aidaho", "name:ml": "ഐഡഹോ", "name:mr": "आयडाहो", "name:nv": "Áadihoo Hahoodzo", "name:pl": "Idaho", "name:qu": "Idaho suyu", "name:ru": "Айдахо", "name:sr": "Ајдахо", "name:ta": "ஐடஹோ", "name:th": "รัฐไอดาโฮ", "name:uk": "Айдахо", "name:ur": "ایڈاہو", "name:uz": "Aydaho", "name:yi": "איידעהא", "name:zh": "爱达荷州", "name:arc": "ܐܝܕܐܗܘ", "name:hak": "Oi-tha̍t-hòt", "name:haw": "‘Ikahō", "ref:fips": "16", "is_in:country_code": "US"}}, "center_lat": 44.39, "center_lon": -114.66, "timezone": "America/Boise", "population": 1787065, "wikidata_id": "Q1221", "wikipedia_id": "en:Idaho"}, "geometry": {"type": "MultiPolygon", "coordinates": [[[[-117.026, 42], [-116.368, 41.996], [-115.314, 41.996], [-115.032, 41.996], [-114.806, 42.002], [-114.598, 41.995], [-114.042, 41.994], [-113.796, 41.989], [-112.173, 42.002], [-112.154, 41.997], [-111.507, 42], [-111.046, 42], [-111.047, 42.514], [-111.044, 42.723], [-111.044, 43.205], [-111.049, 44.133], [-111.045, 44.48], [-111.131, 44.5], [-111.131, 44.532], [-111.228, 44.577], [-111.219, 44.623], [-111.297, 44.691], [-111.324, 44.73], [-111.393, 44.752], [-111.414, 44.711], [-111.489, 44.706], [-111.469, 44.679], [-111.526, 44.605], [-111.507, 44.562], [-111.468, 44.54], [-111.515, 44.537], [-111.586, 44.563], [-111.614, 44.549], [-111.704, 44.56], [-111.763, 44.526], [-111.822, 44.509], [-111.866, 44.563], [-111.948, 44.557], [-111.976, 44.536], [-112.033, 44.547], [-112.096, 44.523], [-112.137, 44.54], [-112.184, 44.533], [-112.229, 44.564], [-112.289, 44.568], [-112.352, 44.538], [-112.357, 44.493], [-112.387, 44.447], [-112.473, 44.479], [-112.5, 44.463], [-112.55, 44.485], [-112.661, 44.486], [-112.718, 44.504], [-112.78, 44.485], [-112.84, 44.424], [-112.812, 44.377], [-112.845, 44.358], [-112.902, 44.399], [-113.002, 44.45], [-113.027, 44.496], [-113.007, 44.526], [-113.048, 44.548], [-113.04, 44.567], [-113.088, 44.6], [-113.057, 44.618], [-113.068, 44.679], [-113.102, 44.729], [-113.194, 44.802], [-113.247, 44.823], [-113.34, 44.785], [-113.356, 44.82], [-113.422, 44.838], [-113.455, 44.865], [-113.496, 44.948], [-113.444, 44.96], [-113.449, 45.047], [-113.523, 45.092], [-113.513, 45.117], [-113.577, 45.131], [-113.589, 45.177], [-113.693, 45.264], [-113.679, 45.276], [-113.739, 45.33], [-113.734, 45.392], [-113.774, 45.406], [-113.784, 45.455], [-113.76, 45.481], [-113.766, 45.521], [-113.835, 45.521], [-113.797, 45.582], [-113.895, 45.644], [-113.939, 45.696], [-113.988, 45.706], [-114.019, 45.693], [-114.014, 45.658], [-114.121, 45.585], [-114.136, 45.557], [-114.195, 45.536], [-114.248, 45.545], [-114.27, 45.485], [-114.344, 45.46], [-114.368, 45.492], [-114.423, 45.509], [-114.464, 45.545], [-114.526, 45.571], [-114.565, 45.563], [-114.538, 45.606], [-114.561, 45.64], [-114.5, 45.669], [-114.504, 45.722], [-114.566, 45.773], [-114.51, 45.845], [-114.438, 45.863], [-114.41, 45.852], [-114.388, 45.884], [-114.431, 45.936], [-114.412, 45.978], [-114.488, 46.004], [-114.507, 46.031], [-114.467, 46.066], [-114.474, 46.113], [-114.521, 46.125], [-114.515, 46.168], [-114.445, 46.168], [-114.452, 46.241], [-114.471, 46.265], [-114.428, 46.283], [-114.41, 46.365], [-114.422, 46.387], [-114.369, 46.437], [-114.402, 46.501], [-114.343, 46.518], [-114.344, 46.59], [-114.321, 46.647], [-114.358, 46.669], [-114.424, 46.661], [-114.467, 46.632], [-114.542, 46.65], [-114.613, 46.638], [-114.641, 46.679], [-114.621, 46.707], [-114.665, 46.739], [-114.699, 46.74], [-114.752, 46.697], [-114.788, 46.714], [-114.765, 46.758], [-114.831, 46.784], [-114.866, 46.815], [-114.896, 46.802], [-114.921, 46.827], [-114.926, 46.919], [-114.961, 46.93], [-115.001, 46.972], [-115.048, 46.97], [-115.087, 47.046], [-115.139, 47.079], [-115.144, 47.102], [-115.243, 47.151], [-115.341, 47.263], [-115.412, 47.264], [-115.529, 47.299], [-115.549, 47.347], [-115.617, 47.383], [-115.643, 47.377], [-115.675, 47.409], [-115.759, 47.425], [-115.747, 47.442], [-115.64, 47.46], [-115.629, 47.48], [-115.686, 47.485], [-115.755, 47.552], [-115.688, 47.595], [-115.694, 47.624], [-115.736, 47.655], [-115.723, 47.695], [-115.773, 47.718], [-115.797, 47.757], [-115.824, 47.753], [-115.852, 47.828], [-115.901, 47.843], [-116.049, 47.977], [-116.049, 49.001], [-116.397, 49], [-116.439, 49], [-117.032, 48.999], [-117.035, 48.371], [-117.041, 48.125], [-117.042, 47.839], [-117.04, 47.463], [-117.04, 46.425], [-117.063, 46.365], [-116.985, 46.293], [-116.956, 46.226], [-116.963, 46.2], [-116.924, 46.171], [-116.96, 46.099], [-116.982, 46.091], [-116.943, 46.061], [-116.917, 45.997], [-116.844, 45.892], [-116.796, 45.858], [-116.783, 45.825], [-116.698, 45.821], [-116.665, 45.782], [-116.593, 45.779], [-116.547, 45.751], [-116.535, 45.692], [-116.488, 45.65], [-116.464, 45.603], [-116.549, 45.51], [-116.555, 45.463], [-116.588, 45.443], [-116.674, 45.322], [-116.674, 45.276], [-116.704, 45.24], [-116.729, 45.144], [-116.775, 45.106], [-116.799, 45.058], [-116.848, 45.022], [-116.858, 44.977], [-116.832, 44.933], [-116.864, 44.872], [-116.896, 44.856], [-116.935, 44.784], [-117.044, 44.745], [-117.062, 44.727], [-117.121, 44.615], [-117.144, 44.546], [-117.226, 44.479], [-117.215, 44.427], [-117.243, 44.397], [-117.19, 44.337], [-117.223, 44.298], [-117.17, 44.259], [-117.104, 44.28], [-117.047, 44.23], [-117.032, 44.249], [-116.976, 44.243], [-116.972, 44.197], [-116.925, 44.192], [-116.895, 44.155], [-116.943, 44.094], [-116.977, 44.085], [-116.973, 44.049], [-116.943, 44.036], [-116.935, 43.991], [-116.975, 43.967], [-116.962, 43.928], [-116.984, 43.866], [-117.027, 43.832], [-117.026, 42]]]]}}