{"type": "Feature", "properties": {"name": "New Hampshire", "iso2": "US-NH", "admin_level": 4, "osm_id": 67213, "countrylevel_id": "iso2:US-NH", "osm_data": {"localname": "New Hampshire", "official_name": "", "alltags": {"name:an": "Nueba Hampshire", "name:ar": "نيوهامشير", "name:az": "Nyu-Hempşir", "name:bg": "Ню Хампшър", "name:bn": "নিউ হ্যাম্প্‌শায়ার", "name:br": "New Hampshire", "name:ca": "Nou Hampshire", "name:cv": "Çĕнĕ Гэмпшир", "name:el": "Νιου Χάμσαϊρ", "name:en": "New Hampshire", "name:eo": "Nov-Hampŝiro", "name:es": "Nuevo Hampshire", "name:eu": "Hampshire Berria", "name:fa": "نیوهمپشر", "name:fy": "Nij Hampshire", "name:gd": "Hampshire Nuadh", "name:gl": "Nova Hampshire", "name:gn": "Pyahu Hampshire", "name:he": "ניו המפשייר", "name:hi": "नया हेम्पशायर", "name:ht": "Nou Anpchi", "name:hy": "Նյու Հեմպշիր", "name:ie": "Nov-Hampshire", "name:ik": "Tchiaq Hampshire", "name:ja": "ニューハンプシャー州", "name:ka": "ნიუ-ჰემფშირი", "name:ko": "뉴햄프셔", "name:kw": "Hampshire Nowydh", "name:la": "Nova Hantonia", "name:lt": "Naujasis Hampšyras", "name:lv": "Ņūhempšīra", "name:ml": "ന്യൂ ഹാംഷെയര്‍", "name:mr": "न्यू हॅम्पशायर", "name:nv": "Niihémpshoo Hahoodzo", "name:oc": "Nòu Hampshire", "name:os": "Нью-Хэмпшир", "name:pl": "New Hampshire", "name:pt": "Nova Hampshire", "name:ru": "Нью-Гэмпшир", "name:sr": "Њу Хемпшир", "name:ta": "நியூ ஹாம்சயர்", "name:th": "รัฐนิวแฮมป์เชียร์", "name:tl": "Bagong Hampshire", "name:uk": "Нью-Гемпшир", "name:ur": "نیو ہیمپشائر", "name:uz": "N'yu-Xempshir", "name:yi": "ניו העמפשער", "name:zh": "新罕布什尔州", "name:ang": "Nīƿu Hāmtūnscīr", "name:arc": "ܢܝܘ ܗܐܡܦܫܪ", "name:hak": "Néu Hàn-pu-ha", "name:haw": "Nū Hamekia", "name:lad": "Nueva Hampshire", "name:nah": "Yancuīc Hampshire", "ref:fips": "33", "is_in:country_code": "US"}}, "center_lat": 43.69, "center_lon": -71.58, "timezone": "America/New_York", "population": 1359711, "wikidata_id": "Q759", "wikipedia_id": "en:New Hampshire"}, "geometry": {"type": "MultiPolygon", "coordinates": [[[[-70.616, 42.978], [-70.616, 42.978], [-70.616, 42.978], [-70.616, 42.978]]], [[[-70.816, 42.872], [-70.848, 42.861], [-70.93, 42.885], [-71.031, 42.859], [-71.064, 42.806], [-71.133, 42.821], [-71.186, 42.791], [-71.182, 42.737], [-71.245, 42.743], [-71.295, 42.697], [-71.697, 42.706], [-72.458, 42.727], [-72.491, 42.773], [-72.541, 42.807], [-72.553, 42.885], [-72.525, 42.915], [-72.532, 42.955], [-72.476, 42.971], [-72.444, 43.01], [-72.468, 43.053], [-72.434, 43.086], [-72.453, 43.139], [-72.437, 43.256], [-72.396, 43.311], [-72.415, 43.364], [-72.38, 43.491], [-72.399, 43.513], [-72.38, 43.574], [-72.328, 43.601], [-72.305, 43.695], [-72.272, 43.733], [-72.232, 43.748], [-72.185, 43.804], [-72.185, 43.864], [-72.118, 43.923], [-72.117, 43.994], [-72.032, 44.08], [-72.053, 44.119], [-72.033, 44.132], [-72.066, 44.189], [-72.048, 44.24], [-72.068, 44.272], [-72.03, 44.322], [-71.9, 44.347], [-71.872, 44.337], [-71.812, 44.358], [-71.792, 44.4], [-71.714, 44.41], [-71.664, 44.438], [-71.648, 44.473], [-71.601, 44.486], [-71.572, 44.537], [-71.598, 44.554], [-71.535, 44.588], [-71.554, 44.593], [-71.558, 44.643], [-71.585, 44.657], [-71.631, 44.753], [-71.579, 44.785], [-71.546, 44.866], [-71.5, 44.911], [-71.516, 44.964], [-71.541, 44.984], [-71.501, 45.013], [-71.496, 45.065], [-71.427, 45.127], [-71.438, 45.142], [-71.397, 45.203], [-71.44, 45.234], [-71.384, 45.234], [-71.284, 45.302], [-71.235, 45.259], [-71.234, 45.258], [-71.232, 45.251], [-71.23, 45.249], [-71.133, 45.245], [-71.084, 45.305], [-71.034, 44.71], [-71.013, 44.341], [-70.99, 43.846], [-70.973, 43.57], [-70.951, 43.552], [-70.968, 43.481], [-70.963, 43.436], [-70.986, 43.379], [-70.957, 43.335], [-70.931, 43.336], [-70.882, 43.273], [-70.81, 43.226], [-70.828, 43.187], [-70.825, 43.125], [-70.738, 43.073], [-70.704, 43.065], [-70.794, 42.94], [-70.816, 42.872]]], [[[-70.623, 42.967], [-70.623, 42.967], [-70.623, 42.967], [-70.623, 42.967]]], [[[-70.631, 42.976], [-70.631, 42.976], [-70.631, 42.976], [-70.631, 42.976]]], [[[-70.625, 42.976], [-70.625, 42.976], [-70.625, 42.976], [-70.625, 42.976]]], [[[-70.626, 42.978], [-70.626, 42.978], [-70.626, 42.978], [-70.626, 42.978]]]]}}