{"type": "Feature", "properties": {"name": "Oklahoma", "iso2": "US-OK", "admin_level": 4, "osm_id": 161645, "countrylevel_id": "iso2:US-OK", "osm_data": {"localname": "Oklahoma", "official_name": "", "alltags": {"name:ar": "أوكلاهوما", "name:be": "Аклахома", "name:br": "Oklahoma", "name:el": "Οκλαχόμα", "name:en": "Oklahoma", "name:eo": "Oklahomo", "name:fa": "اکلاهما", "name:he": "אוקלהומה", "name:hi": "ओक्लाहोमा", "name:hy": "Օկլահոմա", "name:ja": "オクラホマ州", "name:ka": "ოკლაჰომა", "name:ko": "오클라호마", "name:nv": "Halgai Hóteel Hahoodzo", "name:pl": "Oklahoma", "name:ru": "Оклахома", "name:sr": "Оклахома", "name:ta": "ஓக்லகோமா", "name:th": "รัฐโอคลาโฮมา", "name:uk": "Оклахома", "name:yi": "אקלעהאמע", "name:zh": "俄克拉何马州", "name:arc": "ܐܘܟܠܐܗܘܡܐ", "name:haw": "‘Okalahoma", "name:szl": "Uoklahůma", "ref:fips": "40", "is_in:country_code": "US"}}, "center_lat": 35.58, "center_lon": -97.51, "timezone": "America/Chicago", "population": 3956971, "wikidata_id": "Q1649", "wikipedia_id": "en:Oklahoma"}, "geometry": {"type": "MultiPolygon", "coordinates": [[[[-103.002, 36.5], [-102.535, 36.5], [-101.814, 36.5], [-101.415, 36.5], [-100.75, 36.5], [-100, 36.5], [-100, 34.561], [-99.946, 34.579], [-99.887, 34.549], [-99.754, 34.421], [-99.696, 34.381], [-99.6, 34.375], [-99.58, 34.417], [-99.5, 34.41], [-99.441, 34.374], [-99.397, 34.378], [-99.395, 34.442], [-99.381, 34.457], [-99.32, 34.409], [-99.287, 34.41], [-99.272, 34.38], [-99.213, 34.34], [-99.195, 34.227], [-99.119, 34.202], [-99.08, 34.212], [-99.043, 34.198], [-98.991, 34.222], [-98.949, 34.21], [-98.909, 34.177], [-98.807, 34.156], [-98.757, 34.125], [-98.69, 34.133], [-98.648, 34.164], [-98.577, 34.149], [-98.486, 34.063], [-98.42, 34.082], [-98.398, 34.128], [-98.364, 34.157], [-98.3, 34.135], [-98.241, 34.133], [-98.169, 34.114], [-98.123, 34.155], [-98.093, 34.135], [-98.119, 34.084], [-98.088, 34.005], [-98.041, 33.993], [-97.967, 34], [-97.947, 33.971], [-97.984, 33.899], [-97.867, 33.85], [-97.832, 33.862], [-97.796, 33.91], [-97.733, 33.938], [-97.69, 33.987], [-97.65, 33.993], [-97.588, 33.949], [-97.6, 33.927], [-97.557, 33.898], [-97.49, 33.919], [-97.457, 33.902], [-97.456, 33.831], [-97.424, 33.82], [-97.357, 33.83], [-97.305, 33.887], [-97.267, 33.858], [-97.237, 33.915], [-97.178, 33.894], [-97.166, 33.853], [-97.204, 33.819], [-97.189, 33.757], [-97.165, 33.73], [-97.123, 33.718], [-97.087, 33.743], [-97.097, 33.797], [-97.051, 33.818], [-97.09, 33.842], [-97.067, 33.861], [-97.041, 33.838], [-96.984, 33.895], [-96.992, 33.926], [-96.913, 33.958], [-96.886, 33.936], [-96.889, 33.881], [-96.867, 33.853], [-96.814, 33.872], [-96.753, 33.825], [-96.708, 33.834], [-96.668, 33.916], [-96.592, 33.897], [-96.62, 33.843], [-96.573, 33.819], [-96.524, 33.82], [-96.502, 33.774], [-96.422, 33.776], [-96.361, 33.711], [-96.353, 33.688], [-96.313, 33.707], [-96.292, 33.771], [-96.23, 33.752], [-96.17, 33.771], [-96.166, 33.809], [-96.088, 33.838], [-96.014, 33.844], [-95.943, 33.862], [-95.918, 33.883], [-95.834, 33.836], [-95.82, 33.859], [-95.765, 33.847], [-95.748, 33.897], [-95.691, 33.889], [-95.63, 33.906], [-95.598, 33.933], [-95.557, 33.93], [-95.544, 33.881], [-95.524, 33.887], [-95.52, 33.891], [-95.469, 33.887], [-95.438, 33.865], [-95.364, 33.867], [-95.326, 33.891], [-95.279, 33.877], [-95.257, 33.891], [-95.249, 33.943], [-95.211, 33.962], [-95.078, 33.919], [-95.054, 33.872], [-94.983, 33.866], [-94.947, 33.842], [-94.957, 33.823], [-94.91, 33.812], [-94.901, 33.772], [-94.87, 33.769], [-94.861, 33.743], [-94.799, 33.752], [-94.765, 33.722], [-94.751, 33.737], [-94.709, 33.685], [-94.663, 33.693], [-94.63, 33.669], [-94.618, 33.689], [-94.581, 33.639], [-94.563, 33.659], [-94.486, 33.638], [-94.457, 34.638], [-94.431, 35.394], [-94.586, 36.3], [-94.618, 36.5], [-94.618, 36.999], [-95.408, 36.999], [-96.141, 36.999], [-97.03, 36.999], [-97.462, 36.999], [-98.354, 36.998], [-99.05, 36.999], [-99.558, 37], [-100.089, 37.002], [-100.946, 36.998], [-101.485, 36.996], [-102.042, 36.993], [-102.698, 36.995], [-102.759, 37], [-103.002, 37], [-103.002, 36.5]]]]}}