{"type": "Feature", "properties": {"name": "Pennsylvania", "iso2": "US-PA", "admin_level": 4, "osm_id": 162109, "countrylevel_id": "iso2:US-PA", "osm_data": {"localname": "Pennsylvania", "official_name": "Commonwealth of Pennsylvania", "alltags": {"name:af": "Pennsilvanië", "name:ar": "بنسيلفانيا", "name:az": "Pensilvaniya", "name:bg": "Пенсилвания", "name:bn": "পেন্সিল্‌ভেনিয়া", "name:br": "Pennsylvania", "name:ca": "Pennsilvània", "name:cs": "Pensylvánie", "name:cy": "Pensylfania", "name:el": "Πενσυλβάνια", "name:en": "Pennsylvania", "name:eo": "Pensilvanio", "name:es": "Pensilvania", "name:fa": "پنسیلوانیا", "name:fr": "Pennsylvanie", "name:he": "פנסילבניה", "name:ht": "Pènsilvani", "name:hy": "Պենսիլվանիա", "name:is": "Pennsylvanía", "name:ja": "ペンシルベニア州", "name:ka": "პენსილვანია", "name:ko": "펜실베이니아", "name:kw": "Pennsylvani", "name:la": "Pennsilvania", "name:lt": "Pensilvanija", "name:lv": "Pensilvānija", "name:ml": "പെന്‍‌സില്‍‌വാനിയ", "name:mn": "Пеннсилвани", "name:mr": "पेनसिल्व्हेनिया", "name:nv": "Pénsówéíniyah Hahoodzo", "name:oc": "Pensilvània", "name:os": "Пенсильвани", "name:pl": "Pensylwania", "name:pt": "Pensilvânia", "name:qu": "Pennsylvania suyu", "name:ru": "Пенсильвания", "name:sk": "Pensylvánia", "name:sl": "Pensilvanija", "name:sr": "Пенсилванија", "name:ta": "பென்சில்வேனியா", "name:tr": "Pensilvanya", "name:uk": "Пенсильванія", "name:ur": "پنسلوانیا", "name:uz": "Pennsilvaniya", "name:yi": "פענסילוועניע", "name:zh": "宾夕法尼亚", "name:arc": "ܦܢܣܝܠܒܐܢܝܐ", "name:hak": "Pîn-sé-fap-nì-â", "name:haw": "Penekelewinia", "name:lad": "Pennsilvania", "name:pdc": "Pennsilfaani", "name:szl": "Pynsylwańijo", "ref:fips": "42", "official_name": "Commonwealth of Pennsylvania", "is_in:country_code": "US"}}, "center_lat": 40.87, "center_lon": -77.8, "timezone": "America/New_York", "population": 12801989, "wikidata_id": "Q1400", "wikipedia_id": "en:Pennsylvania"}, "geometry": {"type": "MultiPolygon", "coordinates": [[[[-75.278, 39.852], [-75.278, 39.852], [-75.278, 39.852], [-75.278, 39.852]]], [[[-75.423, 39.807], [-75.503, 39.834], [-75.617, 39.834], [-75.68, 39.814], [-75.789, 39.722], [-76.185, 39.721], [-77.013, 39.72], [-77.503, 39.72], [-78.56, 39.723], [-79.477, 39.721], [-79.915, 39.721], [-80.519, 39.721], [-80.519, 40.639], [-80.519, 41.977], [-80.328, 42.037], [-80.156, 42.113], [-80.061, 42.145], [-79.902, 42.216], [-79.762, 42.269], [-79.762, 41.999], [-79.452, 41.998], [-79.1, 42], [-78.857, 41.997], [-78.622, 42], [-77.904, 41.998], [-77.181, 42], [-76.83, 42.002], [-76.443, 41.999], [-75.742, 41.998], [-75.36, 42], [-75.312, 41.95], [-75.291, 41.953], [-75.258, 41.862], [-75.204, 41.87], [-75.114, 41.843], [-75.072, 41.81], [-75.104, 41.773], [-75.061, 41.765], [-75.05, 41.714], [-75.046, 41.616], [-75.075, 41.606], [-75.027, 41.564], [-75.023, 41.533], [-74.982, 41.48], [-74.942, 41.484], [-74.891, 41.456], [-74.896, 41.44], [-74.812, 41.443], [-74.79, 41.422], [-74.741, 41.431], [-74.736, 41.398], [-74.695, 41.358], [-74.754, 41.346], [-74.839, 41.276], [-74.88, 41.184], [-74.93, 41.134], [-74.982, 41.108], [-74.971, 41.085], [-75.013, 41.067], [-75.026, 41.04], [-75.127, 40.994], [-75.136, 40.976], [-75.051, 40.869], [-75.095, 40.847], [-75.084, 40.823], [-75.134, 40.774], [-75.168, 40.778], [-75.197, 40.752], [-75.182, 40.73], [-75.204, 40.692], [-75.177, 40.676], [-75.198, 40.655], [-75.195, 40.578], [-75.098, 40.566], [-75.069, 40.542], [-75.071, 40.457], [-75.06, 40.42], [-74.969, 40.4], [-74.938, 40.336], [-74.871, 40.298], [-74.842, 40.25], [-74.772, 40.216], [-74.724, 40.164], [-74.739, 40.136], [-74.826, 40.125], [-74.861, 40.084], [-74.928, 40.071], [-75.064, 39.986], [-75.13, 39.959], [-75.137, 39.89], [-75.254, 39.853], [-75.312, 39.862], [-75.423, 39.807]]]]}}