{"type": "Feature", "properties": {"name": "Utah", "iso2": "US-UT", "admin_level": 4, "osm_id": 161993, "countrylevel_id": "iso2:US-UT", "osm_data": {"localname": "Utah", "official_name": "", "alltags": {"name:ar": "يوتا", "name:az": "Yuta", "name:bg": "Юта", "name:br": "Utah", "name:el": "Γιούτα", "name:en": "Utah", "name:eo": "Utaho", "name:fa": "یوتا", "name:he": "יוטה", "name:hi": "यूटा", "name:hy": "Յուտա", "name:ja": "ユタ州", "name:ka": "იუტა", "name:ko": "유타 주", "name:la": "Uta", "name:lt": "Juta", "name:lv": "Jūta", "name:nv": "Áshįįh Bii'tó Hahoodzo", "name:pl": "Utah", "name:qu": "Utah suyu", "name:ru": "Юта", "name:sr": "Јута", "name:ta": "யூட்டா", "name:uk": "Юта", "name:yi": "יוטא", "name:zh": "犹他州", "name:haw": "Uka", "ref:fips": "49", "is_in:country_code": "US"}}, "center_lat": 39.28, "center_lon": -111.66, "timezone": "America/Denver", "population": 3205958, "wikidata_id": "Q829", "wikipedia_id": "en:Utah"}, "geometry": {"type": "MultiPolygon", "coordinates": [[[[-114.042, 41.994], [-113.796, 41.989], [-112.173, 42.002], [-112.154, 41.997], [-111.507, 42], [-111.046, 42], [-111.047, 40.998], [-110.505, 40.995], [-110.274, 40.995], [-109.657, 40.998], [-109.05, 41.001], [-109.048, 40.581], [-109.05, 40.528], [-109.051, 39.143], [-109.054, 38.882], [-109.06, 38.716], [-109.06, 38.276], [-109.043, 38.166], [-109.042, 37.562], [-109.046, 37.356], [-109.045, 36.999], [-109.626, 36.998], [-110.47, 36.998], [-110.501, 37.004], [-111.279, 37.001], [-112.002, 37.001], [-112.629, 37.001], [-113.247, 37], [-114.05, 37], [-114.053, 37.594], [-114.05, 37.824], [-114.05, 38.5], [-114.047, 39.5], [-114.046, 40.398], [-114.04, 41], [-114.041, 41.208], [-114.04, 41.885], [-114.042, 41.994]], [[-112.703, 40.905], [-112.66, 40.868], [-112.55, 40.867], [-112.53, 40.915], [-112.563, 40.942], [-112.697, 40.918], [-112.703, 40.905]], [[-113.101, 41.624], [-113.04, 41.575], [-113.097, 41.565], [-113.062, 41.473], [-113.014, 41.392], [-113.003, 41.337], [-112.973, 41.331], [-112.94, 41.294], [-112.904, 41.28], [-112.883, 41.231], [-112.833, 41.208], [-112.817, 41.172], [-112.832, 41.138], [-112.816, 41.114], [-112.84, 41.047], [-112.827, 41.025], [-112.782, 41.026], [-112.807, 41.003], [-112.786, 40.967], [-112.726, 40.953], [-112.698, 40.919], [-112.579, 40.934], [-112.529, 40.916], [-112.512, 40.934], [-112.471, 40.85], [-112.468, 40.786], [-112.422, 40.728], [-112.414, 40.681], [-112.356, 40.671], [-112.256, 40.707], [-112.195, 40.738], [-112.132, 40.794], [-112.123, 40.847], [-112.061, 40.882], [-112.017, 40.893], [-111.93, 40.955], [-111.956, 40.998], [-112.085, 41.04], [-112.119, 41.069], [-112.132, 41.108], [-112.181, 41.136], [-112.25, 41.265], [-112.339, 41.271], [-112.302, 41.322], [-112.263, 41.351], [-112.173, 41.357], [-112.076, 41.416], [-112.165, 41.418], [-112.219, 41.401], [-112.28, 41.409], [-112.273, 41.425], [-112.33, 41.446], [-112.345, 41.488], [-112.415, 41.481], [-112.433, 41.424], [-112.398, 41.398], [-112.421, 41.367], [-112.363, 41.23], [-112.429, 41.204], [-112.492, 41.216], [-112.509, 41.273], [-112.498, 41.335], [-112.532, 41.347], [-112.542, 41.424], [-112.607, 41.451], [-112.666, 41.437], [-112.725, 41.472], [-112.747, 41.51], [-112.799, 41.56], [-112.754, 41.599], [-112.739, 41.649], [-112.77, 41.688], [-112.835, 41.705], [-112.872, 41.696], [-112.91, 41.66], [-112.994, 41.654], [-113.101, 41.624]]]]}}