{"type": "Feature", "properties": {"name": "West Virginia", "iso2": "US-WV", "admin_level": 4, "osm_id": 162068, "countrylevel_id": "iso2:US-WV", "osm_data": {"localname": "West Virginia", "official_name": "", "alltags": {"name:af": "Wes-Virginië", "name:an": "Birchinia Ozidental", "name:ar": "فيرجينيا الغربية", "name:az": "Qərbi Virciniya", "name:bg": "Западна Вирджиния", "name:bn": "ওয়েস্ট ভার্জিনিয়া", "name:br": "Virginia ar C'hornaoueg", "name:bs": "Zapadna Virginia", "name:ca": "Virgínia de l'Oest", "name:cs": "Západní Virginie", "name:cv": "Анăç Вирджини", "name:cy": "Gorllewin Virginia", "name:el": "Δυτική Βιρτζίνια", "name:en": "West Virginia", "name:eo": "Okcidenta Virginio", "name:es": "Virginia Occidental", "name:et": "Lääne-Virginia", "name:eu": "Mendebaldeko Virginia", "name:fa": "ویرجینیای غربی", "name:fi": "Länsi-Virginia", "name:fr": "Virginie-Occidentale", "name:fy": "West Firginia", "name:ga": "Virginia Thiar", "name:gd": "Virginia an Iar", "name:gl": "Virxinia Occidental", "name:gn": "Kuarahyresẽ Virginia", "name:gv": "Yn Virjeeney Heear", "name:he": "וירג'יניה המערבית", "name:hr": "Zapadna Virginia", "name:ht": "Vijini de Lwès", "name:hu": "Nyugat-Virginia", "name:hy": "Արևմտյան Վիրջինիա", "name:id": "Virginia Barat", "name:ik": "Kanaknaq Virginia", "name:is": "Vestur-Virginía", "name:it": "Virginia Occidentale", "name:ja": "ウェストバージニア州", "name:ka": "დასავლეთი ვირჯინია", "name:ko": "웨스트버지니아", "name:kw": "Vyrjynia West", "name:la": "Virginia Occidentalis", "name:lt": "Vakarų Virdžinija", "name:lv": "Rietumvirdžīnija", "name:mk": "Западна Вирџинија", "name:ml": "പടിഞ്ഞാറന്‍ വിര്‍ജീന്യ", "name:mn": "Баруун Виржини", "name:mr": "वेस्ट व्हर्जिनिया", "name:ms": "Virginia Barat", "name:no": "Vest-Virginia", "name:nv": "Eʼeʼaahjí Bijiniyah Hahoodzo", "name:oc": "Virgínia Occidentala", "name:os": "Ныгуылæн Вирджини", "name:pl": "Wirginia Zachodnia", "name:pt": "Virgínia Ocidental", "name:ru": "Западная Виргиния", "name:sh": "Zapadna Virginia", "name:sk": "Západná Virgínia", "name:sl": "Zahodna Virginija", "name:sr": "Западна Вирџинија", "name:ta": "மேற்கு வர்ஜீனியா", "name:th": "รัฐเวสต์เวอร์จิเนีย", "name:tl": "Kanlurang Virginia", "name:tr": "Batı Virjinya", "name:uk": "Західна Вірджинія", "name:ur": "مغربی ورجینیا", "name:uz": "G`arbiy Virjiniya", "name:vi": "Tây Virginia", "name:yi": "וועסט ווירדזשיניע", "name:zh": "西維吉尼亞州", "name:ang": "Ƿest Virginia", "name:ast": "Virxinia Occidental", "name:frp": "Virginia du Ponant", "name:hak": "Sî Vì-kit-nì-â", "name:haw": "Wilikinia Komohana", "name:lad": "Virginia Occidental", "name:pdc": "Wescht Wirschini", "name:scn": "Virginia Uccidintali", "name:szl": "Zachodńo Wirgińijo", "ref:fips": "54", "alt_name:ca": "Virgínia Occidental", "is_in:country_code": "US"}}, "center_lat": 38.64, "center_lon": -80.62, "timezone": "America/New_York", "population": 1792147, "wikidata_id": "Q1371", "wikipedia_id": "en:West Virginia"}, "geometry": {"type": "MultiPolygon", "coordinates": [[[[-81.968, 37.538], [-81.94, 37.513], [-81.997, 37.477], [-81.987, 37.455], [-81.935, 37.436], [-81.937, 37.381], [-81.917, 37.349], [-81.879, 37.332], [-81.854, 37.288], [-81.762, 37.276], [-81.739, 37.238], [-81.678, 37.201], [-81.561, 37.207], [-81.448, 37.271], [-81.417, 37.273], [-81.399, 37.311], [-81.362, 37.338], [-81.32, 37.299], [-81.225, 37.235], [-81.113, 37.278], [-80.98, 37.302], [-80.974, 37.291], [-80.901, 37.315], [-80.849, 37.347], [-80.883, 37.384], [-80.86, 37.43], [-80.784, 37.395], [-80.77, 37.372], [-80.705, 37.395], [-80.552, 37.474], [-80.511, 37.482], [-80.476, 37.423], [-80.3, 37.508], [-80.282, 37.534], [-80.33, 37.536], [-80.329, 37.564], [-80.259, 37.595], [-80.221, 37.628], [-80.264, 37.649], [-80.307, 37.69], [-80.252, 37.729], [-80.248, 37.768], [-80.162, 37.875], [-80.117, 37.899], [-80.009, 37.991], [-79.954, 38.081], [-79.926, 38.107], [-79.945, 38.132], [-79.897, 38.193], [-79.787, 38.275], [-79.81, 38.305], [-79.742, 38.353], [-79.69, 38.431], [-79.698, 38.487], [-79.649, 38.592], [-79.554, 38.56], [-79.522, 38.534], [-79.477, 38.457], [-79.312, 38.412], [-79.267, 38.438], [-79.211, 38.493], [-79.206, 38.525], [-79.159, 38.592], [-79.13, 38.655], [-79.093, 38.66], [-79.093, 38.702], [-79.055, 38.786], [-79.027, 38.792], [-78.994, 38.85], [-78.869, 38.763], [-78.788, 38.885], [-78.717, 38.936], [-78.716, 38.905], [-78.62, 38.983], [-78.602, 38.965], [-78.55, 39.018], [-78.572, 39.032], [-78.404, 39.167], [-78.439, 39.198], [-78.4, 39.244], [-78.419, 39.257], [-78.339, 39.35], [-78.367, 39.359], [-78.343, 39.389], [-78.359, 39.413], [-78.347, 39.466], [-78.158, 39.343], [-77.828, 39.132], [-77.747, 39.295], [-77.719, 39.321], [-77.758, 39.335], [-77.754, 39.424], [-77.785, 39.446], [-77.797, 39.489], [-77.845, 39.498], [-77.888, 39.554], [-77.841, 39.565], [-77.838, 39.606], [-77.889, 39.597], [-77.955, 39.608], [-78.011, 39.604], [-78.036, 39.636], [-78.105, 39.681], [-78.182, 39.695], [-78.267, 39.619], [-78.356, 39.641], [-78.384, 39.609], [-78.434, 39.619], [-78.397, 39.59], [-78.455, 39.574], [-78.417, 39.548], [-78.472, 39.516], [-78.565, 39.519], [-78.623, 39.54], [-78.656, 39.535], [-78.757, 39.581], [-78.778, 39.602], [-78.733, 39.615], [-78.801, 39.626], [-78.84, 39.567], [-78.917, 39.486], [-78.959, 39.461], [-78.955, 39.441], [-79.055, 39.472], [-79.1, 39.477], [-79.113, 39.431], [-79.16, 39.417], [-79.214, 39.364], [-79.255, 39.357], [-79.29, 39.299], [-79.346, 39.294], [-79.424, 39.227], [-79.487, 39.206], [-79.482, 39.532], [-79.477, 39.721], [-79.915, 39.721], [-80.519, 39.721], [-80.519, 40.639], [-80.582, 40.615], [-80.627, 40.62], [-80.667, 40.574], [-80.627, 40.535], [-80.597, 40.476], [-80.614, 40.407], [-80.601, 40.318], [-80.623, 40.262], [-80.662, 40.231], [-80.704, 40.154], [-80.709, 40.1], [-80.739, 40.075], [-80.731, 40.047], [-80.74, 39.971], [-80.764, 39.948], [-80.756, 39.913], [-80.801, 39.919], [-80.793, 39.864], [-80.827, 39.842], [-80.827, 39.798], [-80.87, 39.763], [-80.832, 39.719], [-80.862, 39.694], [-80.876, 39.627], [-80.933, 39.615], [-81.092, 39.496], [-81.134, 39.445], [-81.184, 39.432], [-81.224, 39.386], [-81.273, 39.385], [-81.34, 39.349], [-81.392, 39.351], [-81.407, 39.388], [-81.457, 39.409], [-81.56, 39.336], [-81.57, 39.268], [-81.647, 39.277], [-81.697, 39.256], [-81.691, 39.228], [-81.756, 39.181], [-81.747, 39.096], [-81.808, 39.084], [-81.809, 39.055], [-81.764, 39.015], [-81.782, 38.968], [-81.771, 38.923], [-81.818, 38.947], [-81.857, 38.891], [-81.893, 38.874], [-81.927, 38.901], [-81.899, 38.926], [-81.933, 38.987], [-81.976, 38.992], [-82.006, 39.029], [-82.09, 38.975], [-82.143, 38.898], [-82.147, 38.837], [-82.222, 38.786], [-82.182, 38.707], [-82.191, 38.683], [-82.173, 38.631], [-82.196, 38.593], [-82.274, 38.594], [-82.293, 38.576], [-82.315, 38.464], [-82.331, 38.444], [-82.403, 38.439], [-82.536, 38.404], [-82.593, 38.422], [-82.598, 38.345], [-82.572, 38.316], [-82.575, 38.264], [-82.613, 38.235], [-82.598, 38.217], [-82.611, 38.172], [-82.639, 38.171], [-82.637, 38.139], [-82.551, 38.071], [-82.518, 38.002], [-82.49, 37.999], [-82.472, 37.959], [-82.502, 37.933], [-82.421, 37.886], [-82.412, 37.845], [-82.339, 37.777], [-82.313, 37.765], [-82.333, 37.741], [-82.294, 37.678], [-82.239, 37.661], [-82.21, 37.625], [-82.164, 37.62], [-82.132, 37.594], [-82.133, 37.553], [-82.073, 37.555], [-82.008, 37.533], [-81.968, 37.538]]]]}}