{"type": "Feature", "properties": {"name": "Drôme", "iso2": "FR-26", "admin_level": 6, "osm_id": 7434, "countrylevel_id": "iso2:FR-26", "osm_data": {"localname": "Drôme", "official_name": "", "alltags": {"name:an": "Droma", "name:ar": "دروم", "name:be": "Дром", "name:bg": "Дром", "name:br": "Droma", "name:ca": "Droma", "name:cv": "Дром", "name:fa": "دروم", "name:fr": "Drôme", "name:hy": "Դրոմ", "name:ja": "ドローム県", "name:ka": "დრომი", "name:kk": "Дром", "name:ko": "드롬", "name:la": "Drona", "name:lt": "Dromas", "name:lv": "Droma", "name:mr": "द्रोम", "name:oc": "Droma", "name:ru": "Дром", "name:sr": "Дром", "name:tg": "Дром", "name:th": "โดรม", "name:uk": "Дром", "name:zh": "德龙省", "name:frp": "Drôma", "name:pnb": "دروم", "ref:NUTS": "FR713", "ref:INSEE": "26", "alt_name:th": "โดรมา;ดรูมอ", "border_type": "departement"}}, "center_lat": 44.62, "center_lon": 5.19, "timezone": "Europe/Paris", "population": 511553, "wikidata_id": "Q3364", "wikipedia_id": "fr:Drôme (département)"}, "geometry": {"type": "MultiPolygon", "coordinates": [[[[4.651, 44.329], [5.499, 44.116], [5.675, 44.191], [5.491, 44.338], [5.801, 44.707], [4.801, 45.297], [4.886, 44.935], [4.651, 44.329]], [[4.87, 44.345], [4.87, 44.345], [4.87, 44.345], [4.87, 44.345]]]]}}