{"type": "Feature", "properties": {"name": "Gironde", "iso2": "FR-33", "admin_level": 6, "osm_id": 7405, "countrylevel_id": "iso2:FR-33", "osm_data": {"localname": "Gironde", "official_name": "", "alltags": {"name:ar": "جيروند", "name:az": "Jironda", "name:be": "Жыронда", "name:br": "Gironda", "name:ca": "Gironda", "name:cv": "Жиронда", "name:es": "Gironda", "name:eu": "Gironda", "name:fa": "ژیروند", "name:fr": "Gironde", "name:gl": "Xironda", "name:he": "ז'ירונד", "name:hy": "Ժիրոնդ", "name:it": "Gironda", "name:ja": "ジロンド県", "name:ka": "ჟირონდა", "name:kk": "Жиронда", "name:ko": "지롱드", "name:la": "Girundia", "name:lt": "Žironda", "name:lv": "Žironda", "name:mr": "जिरोंद", "name:oc": "Gironda", "name:pl": "Żyronda", "name:pt": "Gironda", "name:ru": "Жиронда", "name:sr": "Жиронда", "name:tg": "Жиронда", "name:th": "ฌีรงด์", "name:tl": "Gironda", "name:uk": "Жиронда", "name:zh": "吉倫特省", "name:frp": "G·ironde", "name:pms": "Gironda", "name:pnb": "یروند", "name:vec": "Zironda", "ref:NUTS": "FR612", "ref:INSEE": "33", "border_type": "departement"}}, "center_lat": 44.83, "center_lon": -0.56, "timezone": "Europe/Paris", "population": 1583384, "wikidata_id": "Q12526", "wikipedia_id": "fr:Gironde (département)"}, "geometry": {"type": "MultiPolygon", "coordinates": [[[[-1.188, 44.699], [-1.188, 44.699], [-1.188, 44.699], [-1.188, 44.699]]], [[[-1.256, 44.569], [-1.256, 44.569], [-1.256, 44.569], [-1.256, 44.569]]], [[[-1.255, 44.594], [-1.255, 44.594], [-1.255, 44.594], [-1.255, 44.594]]], [[[-0.652, 45.053], [-0.652, 45.053], [-0.652, 45.053], [-0.652, 45.053]]], [[[-0.68, 45.096], [-0.68, 45.096], [-0.68, 45.096], [-0.68, 45.096]]], [[[-0.68, 45.12], [-0.68, 45.12], [-0.68, 45.12], [-0.68, 45.12]]], [[[-1.188, 45.594], [-1.188, 45.594], [-1.188, 45.594], [-1.188, 45.594]]], [[[-0.708, 45.327], [-0.04, 45.103], [0.297, 44.762], [-0.141, 44.226], [-0.676, 44.457], [-1.254, 44.467], [-1.152, 45.484], [-0.708, 45.327]]], [[[-0.695, 45.172], [-0.695, 45.172], [-0.695, 45.172], [-0.695, 45.172]]], [[[-0.694, 45.179], [-0.694, 45.179], [-0.694, 45.179], [-0.694, 45.179]]], [[[-0.702, 45.202], [-0.702, 45.202], [-0.702, 45.202], [-0.702, 45.202]]], [[[-0.712, 45.177], [-0.712, 45.177], [-0.712, 45.177], [-0.712, 45.177]]], [[[-0.7, 45.183], [-0.7, 45.183], [-0.7, 45.183], [-0.7, 45.183]]], [[[-0.717, 45.205], [-0.717, 45.205], [-0.717, 45.205], [-0.717, 45.205]]]]}}