{"type": "Feature", "properties": {"name": "Maine-et-Loire", "iso2": "FR-49", "admin_level": 6, "osm_id": 7409, "countrylevel_id": "iso2:FR-49", "osm_data": {"localname": "Maine-et-Loire", "official_name": "", "alltags": {"name:an": "Maine-y-Loira", "name:ar": "ماين-ولوار", "name:be": "Мен-і-Луара", "name:bg": "Мен-е-Лоар", "name:br": "Maine-ha-Liger", "name:ca": "Maine i Loira", "name:co": "Maine-é-Loira", "name:cv": "Мэн-тата-Луара", "name:el": "Μαιν-ε-Λουάρ", "name:es": "Maine-y-Loira", "name:fa": "من-ا-لوآر", "name:fr": "Maine-et-Loire", "name:gl": "Maine-e-Loira", "name:he": "מן-ולואר", "name:ht": "Maine-ak-Lwar", "name:hy": "Մեն-և-Լուար", "name:ja": "メーヌ＝エ＝ロワール県", "name:ka": "მენი-და-ლუარა", "name:kk": "Мен-және-Луара", "name:ko": "멘에루아르", "name:la": "Meduana-et-Liger", "name:lt": "Menas-ir-Luara", "name:lv": "Mēna-un-Luāra", "name:mr": "मेन-एत-लावार", "name:oc": "Maine-e-Léger", "name:pl": "Maine-i-Loara", "name:ru": "Мен-и-Луара", "name:sr": "Мен-и-Лоара", "name:tg": "Мэн-ва-Луара", "name:th": "แมเนลัวร์", "name:uk": "Мен-і-Луара", "name:zh": "曼恩-卢瓦尔省", "website": "http://www.cg49.fr/", "name:frp": "Mêne-et-Lêre", "name:pms": "Maine-e-Lòira", "name:pnb": "مین-ے-لوار", "ref:NUTS": "FR512", "ref:INSEE": "49", "border_type": "departement"}}, "center_lat": 47.39, "center_lon": -0.56, "timezone": "Europe/Paris", "population": 813493, "wikidata_id": "Q12584", "wikipedia_id": "fr:Maine-et-Loire"}, "geometry": {"type": "MultiPolygon", "coordinates": [[[[-1.149, 47.03], [-0.892, 46.976], [-0.102, 47.065], [0.054, 47.163], [0.23, 47.608], [-0.383, 47.76], [-1.239, 47.81], [-1.246, 47.777], [-1.241, 47.745], [-1.242, 47.743], [-0.947, 47.387], [-1.302, 47.336], [-1.149, 47.03]]], [[[-0.743, 47.742], [-0.743, 47.742], [-0.743, 47.742], [-0.743, 47.742]]]]}}