{"type": "Feature", "properties": {"name": "Pyrénées-Orientales", "iso2": "FR-66", "admin_level": 6, "osm_id": 7466, "countrylevel_id": "iso2:FR-66", "osm_data": {"localname": "Pyrénées-Orientales", "official_name": "", "alltags": {"name:br": "Pireneoù-ar-Reter", "name:ca": "Pirineus Orientals", "name:es": "Pirineos Orientales", "name:fr": "Pyrénées-Orientales", "name:it": "Pirenei Orientali", "name:lt": "Rytų Pirėnai", "name:oc": "Pirenèus Orientals", "name:ru": "Восточные Пиренеи", "ref:NUTS": "FR815", "ref:INSEE": "66", "border_type": "departement"}}, "center_lat": 42.59, "center_lon": 2.52, "timezone": "Europe/Paris", "population": 474452, "wikidata_id": "Q12709", "wikipedia_id": "fr:Pyrénées-Orientales"}, "geometry": {"type": "MultiPolygon", "coordinates": [[[[3.175, 42.435], [2.012, 42.353], [1.73, 42.492], [1.726, 42.503], [1.739, 42.555], [1.787, 42.574], [2.166, 42.664], [2.328, 42.837], [3.044, 42.838], [3.175, 42.435]], [[1.957, 42.458], [1.957, 42.458], [1.957, 42.458], [1.957, 42.458]]]]}}