{"type": "Feature", "properties": {"name": "Upper Savoy", "iso2": "FR-74", "admin_level": 6, "osm_id": 7407, "countrylevel_id": "iso2:FR-74", "osm_data": {"localname": "Haute-Savoie", "official_name": "", "alltags": {"name:br": "Savoia-Uhel", "name:ca": "Alta Savoia", "name:el": "Άνω Σαβοΐα", "name:en": "Upper Savoy", "name:es": "Alta Saboya", "name:fr": "Haute-Savoie", "name:it": "Alta Savoia", "name:ru": "Верхняя Савойя", "ref:NUTS": "FR716", "ref:INSEE": "74", "border_type": "departement"}}, "center_lat": 46.03, "center_lon": 6.47, "timezone": "Europe/Paris", "population": 807360, "wikidata_id": "Q12751", "wikipedia_id": "fr:Haute-Savoie"}, "geometry": {"type": "MultiPolygon", "coordinates": [[[[6.805, 46.394], [7.044, 45.923], [6.871, 45.839], [6.862, 45.833], [6.854, 45.837], [6.838, 45.84], [6.803, 45.778], [6.329, 45.693], [5.828, 45.939], [5.956, 46.132], [6.242, 46.304], [6.805, 46.394]]], [[[6.593, 46.402], [6.593, 46.402], [6.593, 46.402], [6.593, 46.402]]], [[[6.506, 46.403], [6.506, 46.403], [6.506, 46.403], [6.506, 46.403]]]]}}