{"type": "Feature", "properties": {"name": "Bourgogne-Franche-Comté", "iso2": "FR-BFC", "admin_level": 4, "osm_id": 3792878, "countrylevel_id": "iso2:FR-BFC", "osm_data": {"localname": "Bourgogne-Franche-Comté", "official_name": "", "alltags": {"name:ar": "بورغون فرانش كومتيه", "name:br": "Bourgogn-Frank-Kontelezh", "name:ca": "Borgonya – Franc Comtat", "name:el": "Βουργουνδία-Φρανς-Κοντέ", "name:eo": "Burgonjo-Franĉkonteo", "name:es": "Borgoña-Franco Condado", "name:eu": "Borgoina-Franche-Comté", "name:fa": "بورغونئے-فغانش-کومتے", "name:it": "Borgogna-Franca Contea", "name:ja": "ブルゴーニュ＝フランシュ＝コンテ地域圏", "name:ko": "부르고뉴프랑슈콩테", "name:nl": "Bourgondië-Franche-Comté", "name:pl": "Burgundia-Franche-Comté", "name:pt": "Borgonha-Franco-Condado", "name:ru": "Бургундия — Франш-Конте", "name:th": "แคว้นบูร์กอญ-ฟร็องช์-กงเต", "name:zh": "勃艮第-弗朗什-孔泰", "ref:NUTS": "FR26", "ref:INSEE": "27", "start_date": "2016-01-01"}}, "center_lat": 47.23, "center_lon": 4.83, "timezone": "Europe/Paris", "population": 2811423, "wikidata_id": "Q18578267", "wikipedia_id": "fr:Bourgogne-Franche-Comté"}, "geometry": {"type": "MultiPolygon", "coordinates": [[[[2.874, 47.519], [3.032, 46.795], [3.629, 46.75], [3.998, 46.465], [3.9, 46.276], [4.387, 46.22], [4.78, 46.177], [4.932, 46.512], [5.311, 46.447], [5.537, 46.268], [6.064, 46.416], [6.138, 46.558], [6.46, 46.851], [6.859, 47.166], [6.94, 47.433], [7.13, 47.503], [6.846, 47.823], [6.823, 47.814], [6.131, 48.024], [5.885, 47.926], [5.374, 47.606], [4.954, 47.707], [4.704, 48.02], [4.293, 47.926], [3.905, 47.925], [3.415, 48.39], [2.937, 48.163], [3.124, 48.006], [2.976, 47.569], [2.874, 47.519]]]]}}