{"type": "Feature", "properties": {"name": "Grand Est", "iso2": "FR-GES", "admin_level": 4, "osm_id": 3792876, "countrylevel_id": "iso2:FR-GES", "osm_data": {"localname": "Grand Est", "official_name": "", "alltags": {"name:ar": "الشرق العظيم", "name:br": "Reter-Meur", "name:ca": "Gran Est", "name:en": "Grand Est", "name:eo": "Grand Est", "name:es": "Gran Este", "name:fa": "گرانت است", "name:fr": "Grand Est", "name:it": "Grande Est", "name:ja": "グラン・テスト", "name:la": "Magnus Oriens", "name:pt": "Grande Leste", "name:ru": "Большой восточный", "name:ur": "گرایت است", "alt_name": "Grand-Est", "old_name": "Alsace-Champagne-Ardenne-Lorraine", "ref:NUTS": "FR21", "ref:INSEE": "44", "start_date": "2016-01-01", "alt_name:ar": "غراند إيست", "alt_name:fr": "Grand-Est", "old_name:ar": "ألزاس-شامبانيا-أردين-لورين", "old_name:de": "Elsass-Champagne-Ardennen-Lothringen", "old_name:en": "Alsace-Champagne-Ardenne-Lorraine", "old_name:eo": "Alzaco-Ĉampanjo-Ardenoj-Loreno", "old_name:fr": "Alsace-Champagne-Ardenne-Lorraine", "old_name:ru": "Эльзас-Шампань-Арденны-Лотарингия"}}, "center_lat": 48.69, "center_lon": 5.59, "timezone": "Europe/Paris", "population": 5549586, "wikidata_id": "Q18677983", "wikipedia_id": "fr:Grand Est"}, "geometry": {"type": "MultiPolygon", "coordinates": [[[[3.415, 48.39], [3.905, 47.925], [4.293, 47.926], [4.704, 48.02], [4.954, 47.707], [5.374, 47.606], [5.885, 47.926], [6.131, 48.024], [6.823, 47.814], [6.846, 47.823], [7.13, 47.503], [7.327, 47.44], [7.381, 47.432], [7.421, 47.446], [7.446, 47.462], [7.51, 47.503], [7.555, 47.564], [7.589, 47.59], [7.577, 48.12], [7.842, 48.644], [8.233, 48.966], [7.635, 49.054], [7.369, 49.162], [6.739, 49.164], [6.368, 49.469], [6.241, 49.515], [5.894, 49.497], [5.819, 49.546], [5.471, 49.497], [5.394, 49.617], [4.969, 49.802], [4.895, 50.14], [4.433, 49.942], [4.233, 49.958], [4.048, 49.406], [3.648, 49.316], [3.485, 48.852], [3.556, 48.62], [3.415, 48.39]]]]}}