{"type": "Feature", "properties": {"name": "New Caledonia", "iso2": "FR-NC", "admin_level": 3, "osm_id": 3407643, "countrylevel_id": "iso2:FR-NC", "osm_data": {"localname": "Nouvelle-Calédonie", "official_name": "", "alltags": {"flag": "http://upload.wikimedia.org/wikipedia/commons/2/23/Flag_of_New_Caledonia.svg", "name:af": "Nieu-Caledonia", "name:ak": "Kaledonia Foforo", "name:am": "ኒው ካሌዶኒያ", "name:ar": "كاليدونيا الجديدة", "name:az": "Yeni Kaledoniya", "name:be": "Новая Каледонія", "name:bg": "Нова Каледония", "name:bm": "Kaledoni Koura", "name:bn": "নিউ ক্যালেডোনিয়া", "name:br": "Kaledonia Nevez", "name:bs": "Nova Kaledonija", "name:ca": "Nova Caledònia", "name:cs": "Nová Kaledonie", "name:cy": "Caledonia Newydd", "name:da": "Ny Kaledonien", "name:dz": "ནིའུ་ཀ་ལི་དོ་ནི་ཡ", "name:ee": "New Kaledonia nutome", "name:el": "Νέα Καληδονία", "name:en": "New Caledonia", "name:eo": "Nov-Kaledonio", "name:es": "Nueva Caledonia", "name:et": "Uus-Kaledoonia", "name:eu": "Kaledonia Berria", "name:fa": "کالدونیای جدید", "name:ff": "Nuwel Kaledonii", "name:fi": "Uusi-Kaledonia", "name:fo": "Ný-Kaledonia", "name:fr": "Nouvelle-Calédonie", "name:ga": "An Nua-Chaladóin", "name:gd": "Cailleann Nuadh", "name:gl": "Nova Caledonia", "name:gu": "ન્યુ સેલેડોનિયા", "name:ha": "Kaledoniya Sabuwa", "name:he": "קלדוניה החדשה", "name:hi": "न्यू कैलेडोनिया", "name:hr": "Nova Kaledonija", "name:hu": "Új-Kaledónia", "name:ia": "Nove Caledonia", "name:id": "Kaledonia Baru", "name:is": "Nýja-Kaledónía", "name:it": "Nuova Caledonia", "name:ja": "ニューカレドニア", "name:ka": "ახალი კალედონია", "name:ki": "Nyukaledonia", "name:kl": "Nutaaq Caledonia", "name:km": "ញូកាឡេដូនៀ", "name:kn": "ನ್ಯೂ ಕ್ಯಾಲಿಡೋನಿಯಾ", "name:ko": "뉴 칼레도니아", "name:ks": "نِو کیلِڑونِیا", "name:ku": "Kaledonyaya Nû", "name:la": "Nova Caledonia", "name:lg": "Kaledonya mupya", "name:ln": "Kaledoni ya sika", "name:lo": "ນິວຄາລິໂດເນຍ", "name:lt": "Naujoji Kaledonija", "name:lv": "Jaunkaledonija", "name:mi": "Niu Karetōnia", "name:mk": "Нова Каледонија", "name:ml": "പുതിയ കാലിഡോണിയ", "name:mn": "Шинэ Каледони", "name:mr": "न्यू कॅलेडोनिया", "name:ms": "New Caledonia", "name:mt": "New Caledonia", "name:my": "နယူး ကယ်လီဒိုနီးယား", "name:ne": "नयाँ कालेडोनिया", "name:nl": "Nieuw-Caledonië", "name:nn": "Ny-Caledonia", "name:no": "Ny-Caledonia", "name:or": "ନୂତନ କାଲେଡୋନିଆ", "name:pl": "Nowa Kaledonia", "name:pt": "Nova Caledônia", "name:rm": "Nova Caledonia", "name:rn": "Niyukaledoniya", "name:ro": "Noua Caledonie", "name:ru": "Новая Каледония", "name:se": "Ođđa-Kaledonia", "name:sg": "Finî Kaledonïi", "name:si": "නව කැලිඩෝනියාව", "name:sk": "Nová Kaledónia", "name:sl": "Nova Kaledonija", "name:sn": "New Caledonia", "name:so": "New Caledonia", "name:sr": "Нова Каледонија", "name:sv": "Nya Kaledonien", "name:sw": "Nyukaledonia", "name:ta": "நியூ கேலிடோனியா", "name:te": "క్రొత్త కాలెడోనియా", "name:th": "นิวแคลิโดเนีย", "name:ti": "ኒው ካሌዶኒያ", "name:to": "Niu Kaletōnia", "name:tr": "Yeni Kaledonya", "name:uk": "Нова Каледонія", "name:ur": "نیو کلیڈونیا", "name:vi": "Tân Thế giới", "name:yo": "Orílẹ́ède Kaledonia Titun", "name:zh": "新喀里多尼亚", "name:zu": "i-New Caledonia", "currency": "XPF", "int_name": "New Caledonia", "name:ast": "Nueva Caledonia", "name:chr": "ᎢᏤ ᎧᎵᏙᏂᎠᏂ", "name:fur": "Gnove Caledonie", "name:kab": "Kalidunya Tamaynut", "name:ksh": "Neuschottland", "ref:INSEE": "988", "population": "245580", "alt_name:vi": "Nouvelle-Calédonie", "border_type": "territorial", "description": "France, territoires régis par les articles 76 et 77 de la Constitution", "is_in:ocean": "Pacific", "is_in:country": "France", "is_in:continent": "Oceania", "is_in:country_code": "FR"}, "iso1": "NC"}, "center_lat": -21.29, "center_lon": 165.61, "timezone": "Pacific/Noumea", "population": 278500, "wikidata_id": "Q33788", "wikipedia_id": "fr:Nouvelle-Calédonie"}, "geometry": {"type": "MultiPolygon", "coordinates": [[[[166.933, -22.882], [166.933, -22.882], [166.933, -22.882], [166.933, -22.882]]], [[[166.877, -22.866], [166.877, -22.866], [166.877, -22.866], [166.877, -22.866]]], [[[166.945, -22.859], [166.945, -22.859], [166.945, -22.859], [166.945, -22.859]]], [[[166.879, -22.847], [166.879, -22.847], [166.879, -22.847], [166.879, -22.847]]], [[[166.917, -22.804], [166.917, -22.804], [166.917, -22.804], [166.917, -22.804]]], [[[166.848, -22.79], [166.848, -22.79], [166.848, -22.79], [166.848, -22.79]]], [[[166.802, -22.778], [166.802, -22.778], [166.802, -22.778], [166.802, -22.778]]], [[[167.571, -22.762], [167.571, -22.762], [167.571, -22.762], [167.571, -22.762]]], [[[167.584, -22.736], [167.584, -22.736], [167.584, -22.736], [167.584, -22.736]]], [[[167.591, -22.734], [167.591, -22.734], [167.591, -22.734], [167.591, -22.734]]], [[[167.554, -22.727], [167.554, -22.727], [167.554, -22.727], [167.554, -22.727]]], [[[166.852, -22.724], [166.852, -22.724], [166.852, -22.724], [166.852, -22.724]]], [[[166.974, -22.721], [166.974, -22.721], [166.974, -22.721], [166.974, -22.721]]], [[[166.796, -22.711], [166.796, -22.711], [166.796, -22.711], [166.796, -22.711]]], [[[166.917, -22.724], [166.917, -22.724], [166.917, -22.724], [166.917, -22.724]]], [[[167.369, -22.702], [167.369, -22.702], [167.369, -22.702], [167.369, -22.702]]], [[[166.851, -22.695], [166.851, -22.695], [166.851, -22.695], [166.851, -22.695]]], [[[166.967, -22.685], [166.967, -22.685], [166.967, -22.685], [166.967, -22.685]]], [[[166.812, -22.68], [166.812, -22.68], [166.812, -22.68], [166.812, -22.68]]], [[[167.511, -22.693], [167.511, -22.693], [167.511, -22.693], [167.511, -22.693]]], [[[167.522, -22.685], [167.522, -22.685], [167.522, -22.685], [167.522, -22.685]]], [[[167.46, -22.712], [167.46, -22.712], [167.46, -22.712], [167.46, -22.712]]], [[[166.812, -22.709], [166.812, -22.709], [166.812, -22.709], [166.812, -22.709]]], [[[167.414, -22.608], [167.414, -22.608], [167.414, -22.608], [167.414, -22.608]]], [[[166.827, -22.605], [166.827, -22.605], [166.827, -22.605], [166.827, -22.605]]], [[[166.851, -22.58], [166.851, -22.58], [166.851, -22.58], [166.851, -22.58]]], [[[167.539, -22.634], [167.539, -22.634], [167.539, -22.634], [167.539, -22.634]]], [[[167.418, -22.629], [167.418, -22.629], [167.418, -22.629], [167.418, -22.629]]], [[[167.28, -22.625], [167.28, -22.625], [167.28, -22.625], [167.28, -22.625]]], [[[167.314, -22.627], [167.314, -22.627], [167.314, -22.627], [167.314, -22.627]]], [[[167.415, -22.618], [167.415, -22.618], [167.415, -22.618], [167.415, -22.618]]], [[[167.417, -22.619], [167.417, -22.619], [167.417, -22.619], [167.417, -22.619]]], [[[167.418, -22.616], [167.418, -22.616], [167.418, -22.616], [167.418, -22.616]]], [[[166.748, -22.578], [166.748, -22.578], [166.748, -22.578], [166.748, -22.578]]], [[[166.791, -22.552], [166.791, -22.552], [166.791, -22.552], [166.791, -22.552]]], [[[166.822, -22.54], [166.822, -22.54], [166.822, -22.54], [166.822, -22.54]]], [[[167.514, -22.561], [167.514, -22.561], [167.514, -22.561], [167.514, -22.561]]], [[[167.515, -22.571], [167.515, -22.571], [167.515, -22.571], [167.515, -22.571]]], [[[167.519, -22.568], [167.519, -22.568], [167.519, -22.568], [167.519, -22.568]]], [[[167.407, -22.541], [167.407, -22.541], [167.407, -22.541], [167.407, -22.541]]], [[[167.437, -22.538], [167.437, -22.538], [167.437, -22.538], [167.437, -22.538]]], [[[167.442, -22.537], [167.442, -22.537], [167.442, -22.537], [167.442, -22.537]]], [[[167.425, -22.536], [167.425, -22.536], [167.425, -22.536], [167.425, -22.536]]], [[[167.44, -22.542], [167.44, -22.542], [167.44, -22.542], [167.44, -22.542]]], [[[167.442, -22.539], [167.442, -22.539], [167.442, -22.539], [167.442, -22.539]]], [[[167.439, -22.539], [167.439, -22.539], [167.439, -22.539], [167.439, -22.539]]], [[[167.457, -22.671], [167.457, -22.671], [167.457, -22.671], [167.457, -22.671]]], [[[167.553, -22.656], [167.553, -22.656], [167.553, -22.656], [167.553, -22.656]]], [[[167.396, -22.65], [167.396, -22.65], [167.396, -22.65], [167.396, -22.65]]], [[[167.415, -22.644], [167.415, -22.644], [167.415, -22.644], [167.415, -22.644]]], [[[167.546, -22.652], [167.546, -22.652], [167.546, -22.652], [167.546, -22.652]]], [[[167.545, -22.652], [167.545, -22.652], [167.545, -22.652], [167.545, -22.652]]], [[[167.46, -22.674], [167.46, -22.674], [167.46, -22.674], [167.46, -22.674]]], [[[167.425, -22.673], [167.425, -22.673], [167.425, -22.673], [167.425, -22.673]]], [[[167.556, -22.663], [167.556, -22.663], [167.556, -22.663], [167.556, -22.663]]], [[[167.411, -22.64], [167.411, -22.64], [167.411, -22.64], [167.411, -22.64]]], [[[167.539, -22.641], [167.539, -22.641], [167.539, -22.641], [167.539, -22.641]]], [[[167.53, -22.637], [167.53, -22.637], [167.53, -22.637], [167.53, -22.637]]], [[[167.418, -22.526], [167.418, -22.526], [167.418, -22.526], [167.418, -22.526]]], [[[166.558, -22.521], [166.558, -22.521], [166.558, -22.521], [166.558, -22.521]]], [[[166.836, -22.521], [166.836, -22.521], [166.836, -22.521], [166.836, -22.521]]], [[[166.562, -22.531], [166.562, -22.531], [166.562, -22.531], [166.562, -22.531]]], [[[166.83, -22.533], [166.83, -22.533], [166.83, -22.533], [166.83, -22.533]]], [[[167.413, -22.532], [167.413, -22.532], [167.413, -22.532], [167.413, -22.532]]], [[[167.42, -22.53], [167.42, -22.53], [167.42, -22.53], [167.42, -22.53]]], [[[167.428, -22.532], [167.428, -22.532], [167.428, -22.532], [167.428, -22.532]]], [[[167.43, -22.531], [167.43, -22.531], [167.43, -22.531], [167.43, -22.531]]], [[[167.415, -22.528], [167.415, -22.528], [167.415, -22.528], [167.415, -22.528]]], [[[167.421, -22.529], [167.421, -22.529], [167.421, -22.529], [167.421, -22.529]]], [[[166.562, -22.481], [166.562, -22.481], [166.562, -22.481], [166.562, -22.481]]], [[[166.468, -22.479], [166.468, -22.479], [166.468, -22.479], [166.468, -22.479]]], [[[167.094, -22.445], [167.094, -22.445], [167.094, -22.445], [167.094, -22.445]]], [[[167.199, -22.52], [167.199, -22.52], [167.199, -22.52], [167.199, -22.52]]], [[[166.769, -22.517], [166.769, -22.517], [166.769, -22.517], [166.769, -22.517]]], [[[167.413, -22.518], [167.413, -22.518], [167.413, -22.518], [167.413, -22.518]]], [[[166.782, -22.516], [166.782, -22.516], [166.782, -22.516], [166.782, -22.516]]], [[[166.612, -22.517], [166.612, -22.517], [166.612, -22.517], [166.612, -22.517]]], [[[166.433, -22.427], [166.433, -22.427], [166.433, -22.427], [166.433, -22.427]]], [[[166.49, -22.442], [166.49, -22.442], [166.49, -22.442], [166.49, -22.442]]], [[[167.013, -22.423], [167.013, -22.423], [167.013, -22.423], [167.013, -22.423]]], [[[166.762, -22.414], [166.762, -22.414], [166.762, -22.414], [166.762, -22.414]]], [[[166.765, -22.414], [166.765, -22.414], [166.765, -22.414], [166.765, -22.414]]], [[[166.929, -22.443], [166.929, -22.443], [166.929, -22.443], [166.929, -22.443]]], [[[167.431, -22.536], [167.431, -22.536], [167.431, -22.536], [167.431, -22.536]]], [[[167.426, -22.536], [167.426, -22.536], [167.426, -22.536], [167.426, -22.536]]], [[[167.411, -22.541], [167.411, -22.541], [167.411, -22.541], [167.411, -22.541]]], [[[167.485, -22.554], [167.485, -22.554], [167.485, -22.554], [167.485, -22.554]]], [[[167.429, -22.536], [167.429, -22.536], [167.429, -22.536], [167.429, -22.536]]], [[[167.438, -22.535], [167.438, -22.535], [167.438, -22.535], [167.438, -22.535]]], [[[167.42, -22.536], [167.42, -22.536], [167.42, -22.536], [167.42, -22.536]]], [[[167.595, -21.267], [167.595, -21.267], [167.595, -21.267], [167.595, -21.267]]], [[[165.69, -21.248], [165.69, -21.248], [165.69, -21.248], [165.69, -21.248]]], [[[167.571, -21.32], [167.571, -21.32], [167.571, -21.32], [167.571, -21.32]]], [[[165.667, -21.268], [165.667, -21.268], [165.667, -21.268], [165.667, -21.268]]], [[[165.185, -21.486], [165.185, -21.486], [165.185, -21.486], [165.185, -21.486]]], [[[165.172, -21.482], [165.172, -21.482], [165.172, -21.482], [165.172, -21.482]]], [[[165.055, -21.467], [165.055, -21.467], [165.055, -21.467], [165.055, -21.467]]], [[[165, -21.371], [165, -21.371], [165, -21.371], [165, -21.371]]], [[[165.027, -21.363], [165.027, -21.363], [165.027, -21.363], [165.027, -21.363]]], [[[165.019, -21.377], [165.019, -21.377], [165.019, -21.377], [165.019, -21.377]]], [[[167.567, -21.149], [167.567, -21.149], [167.567, -21.149], [167.567, -21.149]]], [[[164.826, -21.152], [164.826, -21.152], [164.826, -21.152], [164.826, -21.152]]], [[[167.807, -21.085], [167.807, -21.085], [167.807, -21.085], [167.807, -21.085]]], [[[164.623, -20.933], [164.623, -20.933], [164.623, -20.933], [164.623, -20.933]]], [[[164.648, -20.976], [164.648, -20.976], [164.648, -20.976], [164.648, -20.976]]], [[[164.658, -20.942], [164.658, -20.942], [164.658, -20.942], [164.658, -20.942]]], [[[165.568, -21.113], [165.568, -21.113], [165.568, -21.113], [165.568, -21.113]]], [[[165.521, -21.083], [165.521, -21.083], [165.521, -21.083], [165.521, -21.083]]], [[[165.416, -21.032], [165.416, -21.032], [165.416, -21.032], [165.416, -21.032]]], [[[164.575, -20.92], [164.575, -20.92], [164.575, -20.92], [164.575, -20.92]]], [[[167.204, -20.68], [167.458, -21.067], [167.055, -20.988], [167.204, -20.68]]], [[[164.65, -20.93], [164.65, -20.93], [164.65, -20.93], [164.65, -20.93]]], [[[167.27, -20.915], [167.27, -20.915], [167.27, -20.915], [167.27, -20.915]]], [[[165.37, -20.92], [165.37, -20.92], [165.37, -20.92], [165.37, -20.92]]], [[[165.491, -20.912], [165.491, -20.912], [165.491, -20.912], [165.491, -20.912]]], [[[165.481, -20.902], [165.481, -20.902], [165.481, -20.902], [165.481, -20.902]]], [[[165.457, -20.881], [165.457, -20.881], [165.457, -20.881], [165.457, -20.881]]], [[[165.732, -21.725], [165.732, -21.725], [165.732, -21.725], [165.732, -21.725]]], [[[165.62, -21.725], [165.62, -21.725], [165.62, -21.725], [165.62, -21.725]]], [[[166.499, -21.722], [166.499, -21.722], [166.499, -21.722], [166.499, -21.722]]], [[[165.574, -21.719], [165.574, -21.719], [165.574, -21.719], [165.574, -21.719]]], [[[166.411, -21.697], [166.411, -21.697], [166.411, -21.697], [166.411, -21.697]]], [[[166.38, -21.679], [166.38, -21.679], [166.38, -21.679], [166.38, -21.679]]], [[[166.366, -21.674], [166.366, -21.674], [166.366, -21.674], [166.366, -21.674]]], [[[165.435, -21.626], [165.435, -21.626], [165.435, -21.626], [165.435, -21.626]]], [[[166.136, -21.519], [166.136, -21.519], [166.136, -21.519], [166.136, -21.519]]], [[[168.113, -21.436], [167.978, -21.66], [167.8, -21.381], [168.113, -21.436]]], [[[166.227, -21.606], [166.227, -21.606], [166.227, -21.606], [166.227, -21.606]]], [[[166.342, -21.598], [166.342, -21.598], [166.342, -21.598], [166.342, -21.598]]], [[[166.324, -21.546], [166.324, -21.546], [166.324, -21.546], [166.324, -21.546]]], [[[165.457, -21.659], [165.457, -21.659], [165.457, -21.659], [165.457, -21.659]]], [[[165.211, -21.502], [165.211, -21.502], [165.211, -21.502], [165.211, -21.502]]], [[[165.962, -21.504], [165.962, -21.504], [165.962, -21.504], [165.962, -21.504]]], [[[165.981, -21.501], [165.981, -21.501], [165.981, -21.501], [165.981, -21.501]]], [[[165.981, -21.501], [165.981, -21.501], [165.981, -21.501], [165.981, -21.501]]], [[[165.975, -21.501], [165.975, -21.501], [165.975, -21.501], [165.975, -21.501]]], [[[166.07, -21.491], [166.07, -21.491], [166.07, -21.491], [166.07, -21.491]]], [[[165.978, -21.497], [165.978, -21.497], [165.978, -21.497], [165.978, -21.497]]], [[[165.975, -21.497], [165.975, -21.497], [165.975, -21.497], [165.975, -21.497]]], [[[167.823, -21.373], [167.823, -21.373], [167.823, -21.373], [167.823, -21.373]]], [[[167.738, -21.379], [167.738, -21.379], [167.738, -21.379], [167.738, -21.379]]], [[[165.82, -21.351], [165.82, -21.351], [165.82, -21.351], [165.82, -21.351]]], [[[163.954, -20.385], [163.954, -20.385], [163.954, -20.385], [163.954, -20.385]]], [[[163.983, -20.202], [163.983, -20.202], [163.983, -20.202], [163.983, -20.202]]], [[[163.91, -20.139], [163.91, -20.139], [163.91, -20.139], [163.91, -20.139]]], [[[163.978, -20.097], [163.978, -20.097], [163.978, -20.097], [163.978, -20.097]]], [[[163.994, -20.094], [163.994, -20.094], [163.994, -20.094], [163.994, -20.094]]], [[[163.987, -20.123], [163.987, -20.123], [163.987, -20.123], [163.987, -20.123]]], [[[163.985, -20.118], [163.985, -20.118], [163.985, -20.118], [163.985, -20.118]]], [[[164.166, -20.048], [164.166, -20.048], [164.166, -20.048], [164.166, -20.048]]], [[[164.031, -20.075], [164.031, -20.075], [164.031, -20.075], [164.031, -20.075]]], [[[163.923, -20.002], [163.923, -20.002], [163.923, -20.002], [163.923, -20.002]]], [[[163.961, -20], [163.961, -20], [163.961, -20], [163.961, -20]]], [[[163.92, -19.981], [163.92, -19.981], [163.92, -19.981], [163.92, -19.981]]], [[[163.926, -20.016], [163.926, -20.016], [163.926, -20.016], [163.926, -20.016]]], [[[163.934, -20.02], [163.934, -20.02], [163.934, -20.02], [163.934, -20.02]]], [[[163.929, -19.979], [163.929, -19.979], [163.929, -19.979], [163.929, -19.979]]], [[[158.478, -19.97], [158.478, -19.97], [158.478, -19.97], [158.478, -19.97]]], [[[158.458, -19.962], [158.458, -19.962], [158.458, -19.962], [158.458, -19.962]]], [[[158.442, -19.948], [158.442, -19.948], [158.442, -19.948], [158.442, -19.948]]], [[[158.432, -19.94], [158.432, -19.94], [158.432, -19.94], [158.432, -19.94]]], [[[158.425, -19.935], [158.425, -19.935], [158.425, -19.935], [158.425, -19.935]]], [[[158.421, -19.932], [158.421, -19.932], [158.421, -19.932], [158.421, -19.932]]], [[[158.412, -19.929], [158.412, -19.929], [158.412, -19.929], [158.412, -19.929]]], [[[158.41, -19.926], [158.41, -19.926], [158.41, -19.926], [158.41, -19.926]]], [[[158.404, -19.923], [158.404, -19.923], [158.404, -19.923], [158.404, -19.923]]], [[[158.398, -19.921], [158.398, -19.921], [158.398, -19.921], [158.398, -19.921]]], [[[158.392, -19.917], [158.392, -19.917], [158.392, -19.917], [158.392, -19.917]]], [[[158.389, -19.914], [158.389, -19.914], [158.389, -19.914], [158.389, -19.914]]], [[[158.48, -19.911], [158.48, -19.911], [158.48, -19.911], [158.48, -19.911]]], [[[158.479, -19.908], [158.479, -19.908], [158.479, -19.908], [158.479, -19.908]]], [[[158.36, -19.903], [158.36, -19.903], [158.36, -19.903], [158.36, -19.903]]], [[[163.708, -19.892], [163.708, -19.892], [163.708, -19.892], [163.708, -19.892]]], [[[163.707, -19.901], [163.707, -19.901], [163.707, -19.901], [163.707, -19.901]]], [[[158.336, -19.892], [158.336, -19.892], [158.336, -19.892], [158.336, -19.892]]], [[[158.416, -19.93], [158.416, -19.93], [158.416, -19.93], [158.416, -19.93]]], [[[163.802, -20.059], [163.802, -20.059], [163.802, -20.059], [163.802, -20.059]]], [[[163.79, -20.052], [163.79, -20.052], [163.79, -20.052], [163.79, -20.052]]], [[[163.954, -20.046], [163.954, -20.046], [163.954, -20.046], [163.954, -20.046]]], [[[163.941, -20.037], [163.941, -20.037], [163.941, -20.037], [163.941, -20.037]]], [[[163.933, -20.03], [163.933, -20.03], [163.933, -20.03], [163.933, -20.03]]], [[[163.696, -19.834], [163.696, -19.834], [163.696, -19.834], [163.696, -19.834]]], [[[163.673, -19.828], [163.673, -19.828], [163.673, -19.828], [163.673, -19.828]]], [[[164.022, -19.813], [164.022, -19.813], [164.022, -19.813], [164.022, -19.813]]], [[[163.698, -19.848], [163.698, -19.848], [163.698, -19.848], [163.698, -19.848]]], [[[163.698, -19.847], [163.698, -19.847], [163.698, -19.847], [163.698, -19.847]]], [[[163.698, -19.843], [163.698, -19.843], [163.698, -19.843], [163.698, -19.843]]], [[[158.267, -19.792], [158.267, -19.792], [158.267, -19.792], [158.267, -19.792]]], [[[165.582, -19.708], [165.582, -19.708], [165.582, -19.708], [165.582, -19.708]]], [[[163.367, -19.637], [163.367, -19.637], [163.367, -19.637], [163.367, -19.637]]], [[[163.672, -19.775], [163.672, -19.775], [163.672, -19.775], [163.672, -19.775]]], [[[165.516, -19.88], [165.516, -19.88], [165.516, -19.88], [165.516, -19.88]]], [[[163.623, -19.63], [163.623, -19.63], [163.623, -19.63], [163.623, -19.63]]], [[[158.236, -19.532], [158.236, -19.532], [158.236, -19.532], [158.236, -19.532]]], [[[163.574, -19.527], [163.574, -19.527], [163.574, -19.527], [163.574, -19.527]]], [[[163.573, -19.526], [163.573, -19.526], [163.573, -19.526], [163.573, -19.526]]], [[[158.251, -19.512], [158.251, -19.512], [158.251, -19.512], [158.251, -19.512]]], [[[158.883, -19.44], [158.883, -19.44], [158.883, -19.44], [158.883, -19.44]]], [[[163.768, -19.34], [163.768, -19.34], [163.768, -19.34], [163.768, -19.34]]], [[[158.969, -19.304], [158.969, -19.304], [158.969, -19.304], [158.969, -19.304]]], [[[158.97, -19.301], [158.97, -19.301], [158.97, -19.301], [158.97, -19.301]]], [[[158.971, -19.299], [158.971, -19.299], [158.971, -19.299], [158.971, -19.299]]], [[[158.97, -19.297], [158.97, -19.297], [158.97, -19.297], [158.97, -19.297]]], [[[158.971, -19.294], [158.971, -19.294], [158.971, -19.294], [158.971, -19.294]]], [[[158.941, -19.217], [158.941, -19.217], [158.941, -19.217], [158.941, -19.217]]], [[[159.029, -19.124], [159.029, -19.124], [159.029, -19.124], [159.029, -19.124]]], [[[158.56, -19.123], [158.56, -19.123], [158.56, -19.123], [158.56, -19.123]]], [[[158.605, -19.123], [158.605, -19.123], [158.605, -19.123], [158.605, -19.123]]], [[[163.613, -19.599], [163.613, -19.599], [163.613, -19.599], [163.613, -19.599]]], [[[163.594, -19.565], [163.594, -19.565], [163.594, -19.565], [163.594, -19.565]]], [[[159.027, -19.118], [159.027, -19.118], [159.027, -19.118], [159.027, -19.118]]], [[[159.026, -19.114], [159.026, -19.114], [159.026, -19.114], [159.026, -19.114]]], [[[159.012, -19.096], [159.012, -19.096], [159.012, -19.096], [159.012, -19.096]]], [[[158.828, -19.072], [158.828, -19.072], [158.828, -19.072], [158.828, -19.072]]], [[[158.985, -19.058], [158.985, -19.058], [158.985, -19.058], [158.985, -19.058]]], [[[158.982, -19.057], [158.982, -19.057], [158.982, -19.057], [158.982, -19.057]]], [[[164.349, -18.542], [164.349, -18.542], [164.349, -18.542], [164.349, -18.542]]], [[[162.888, -18.525], [162.888, -18.525], [162.888, -18.525], [162.888, -18.525]]], [[[163.088, -18.484], [163.088, -18.484], [163.088, -18.484], [163.088, -18.484]]], [[[162.971, -18.325], [162.971, -18.325], [162.971, -18.325], [162.971, -18.325]]], [[[162.978, -18.313], [162.978, -18.313], [162.978, -18.313], [162.978, -18.313]]], [[[163.009, -18.297], [163.009, -18.297], [163.009, -18.297], [163.009, -18.297]]], [[[163.044, -18.287], [163.044, -18.287], [163.044, -18.287], [163.044, -18.287]]], [[[164.373, -18.576], [164.373, -18.576], [164.373, -18.576], [164.373, -18.576]]], [[[164.39, -18.501], [164.39, -18.501], [164.39, -18.501], [164.39, -18.501]]], [[[162.89, -18.231], [162.89, -18.231], [162.89, -18.231], [162.89, -18.231]]], [[[162.956, -18.05], [162.956, -18.05], [162.956, -18.05], [162.956, -18.05]]], [[[159.029, -19.123], [159.029, -19.123], [159.029, -19.123], [159.029, -19.123]]], [[[158.327, -19.885], [158.327, -19.885], [158.327, -19.885], [158.327, -19.885]]], [[[158.465, -19.872], [158.465, -19.872], [158.465, -19.872], [158.465, -19.872]]], [[[158.479, -19.903], [158.479, -19.903], [158.479, -19.903], [158.479, -19.903]]], [[[163.702, -19.881], [163.702, -19.881], [163.702, -19.881], [163.702, -19.881]]], [[[158.462, -19.864], [158.462, -19.864], [158.462, -19.864], [158.462, -19.864]]], [[[165.254, -20.865], [165.254, -20.865], [165.254, -20.865], [165.254, -20.865]]], [[[165.256, -20.866], [165.256, -20.866], [165.256, -20.866], [165.256, -20.866]]], [[[165.257, -20.865], [165.257, -20.865], [165.257, -20.865], [165.257, -20.865]]], [[[164.325, -20.768], [164.325, -20.768], [164.325, -20.768], [164.325, -20.768]]], [[[165.271, -20.746], [165.271, -20.746], [165.271, -20.746], [165.271, -20.746]]], [[[164.317, -20.725], [164.317, -20.725], [164.317, -20.725], [164.317, -20.725]]], [[[165.147, -20.717], [165.147, -20.717], [165.147, -20.717], [165.147, -20.717]]], [[[164.383, -20.712], [164.383, -20.712], [164.383, -20.712], [164.383, -20.712]]], [[[164.119, -20.511], [164.119, -20.511], [164.119, -20.511], [164.119, -20.511]]], [[[166.226, -20.505], [166.226, -20.505], [166.226, -20.505], [166.226, -20.505]]], [[[166.326, -20.488], [166.326, -20.488], [166.326, -20.488], [166.326, -20.488]]], [[[166.654, -20.484], [166.654, -20.484], [166.654, -20.484], [166.654, -20.484]]], [[[166.339, -20.482], [166.339, -20.482], [166.339, -20.482], [166.339, -20.482]]], [[[164.177, -20.483], [164.177, -20.483], [164.177, -20.483], [164.177, -20.483]]], [[[166.278, -20.594], [166.278, -20.594], [166.278, -20.594], [166.278, -20.594]]], [[[166.273, -20.584], [166.273, -20.584], [166.273, -20.584], [166.273, -20.584]]], [[[164.187, -20.561], [164.187, -20.561], [164.187, -20.561], [164.187, -20.561]]], [[[164.207, -20.554], [164.207, -20.554], [164.207, -20.554], [164.207, -20.554]]], [[[164.223, -20.554], [164.223, -20.554], [164.223, -20.554], [164.223, -20.554]]], [[[164.079, -20.458], [164.079, -20.458], [164.079, -20.458], [164.079, -20.458]]], [[[164.128, -20.472], [164.128, -20.472], [164.128, -20.472], [164.128, -20.472]]], [[[166.387, -20.468], [166.387, -20.468], [166.387, -20.468], [166.387, -20.468]]], [[[164.127, -20.471], [164.127, -20.471], [164.127, -20.471], [164.127, -20.471]]], [[[166.385, -20.469], [166.385, -20.469], [166.385, -20.469], [166.385, -20.469]]], [[[166.496, -20.701], [166.496, -20.701], [166.496, -20.701], [166.496, -20.701]]], [[[166.462, -20.71], [166.462, -20.71], [166.462, -20.71], [166.462, -20.71]]], [[[164.372, -20.708], [164.372, -20.708], [164.372, -20.708], [164.372, -20.708]]], [[[164.37, -20.707], [164.37, -20.707], [164.37, -20.707], [164.37, -20.707]]], [[[166.467, -20.713], [166.467, -20.713], [166.467, -20.713], [166.467, -20.713]]], [[[164.381, -20.707], [164.381, -20.707], [164.381, -20.707], [164.381, -20.707]]], [[[164.959, -20.679], [164.959, -20.679], [164.959, -20.679], [164.959, -20.679]]], [[[164.946, -20.675], [164.946, -20.675], [164.946, -20.675], [164.946, -20.675]]], [[[166.371, -20.67], [166.371, -20.67], [166.371, -20.67], [166.371, -20.67]]], [[[164.957, -20.681], [164.957, -20.681], [164.957, -20.681], [164.957, -20.681]]], [[[164.959, -20.679], [164.959, -20.679], [164.959, -20.679], [164.959, -20.679]]], [[[164.955, -20.679], [164.955, -20.679], [164.955, -20.679], [164.955, -20.679]]], [[[164.257, -20.668], [164.257, -20.668], [164.257, -20.668], [164.257, -20.668]]], [[[165.053, -20.665], [165.053, -20.665], [165.053, -20.665], [165.053, -20.665]]], [[[166.356, -20.659], [166.356, -20.659], [166.356, -20.659], [166.356, -20.659]]], [[[164.988, -20.648], [164.988, -20.648], [164.988, -20.648], [164.988, -20.648]]], [[[166.337, -20.637], [166.337, -20.637], [166.337, -20.637], [166.337, -20.637]]], [[[166.291, -20.629], [166.291, -20.629], [166.291, -20.629], [166.291, -20.629]]], [[[166.296, -20.628], [166.296, -20.628], [166.296, -20.628], [166.296, -20.628]]], [[[166.306, -20.628], [166.306, -20.628], [166.306, -20.628], [166.306, -20.628]]], [[[165.089, -20.69], [165.089, -20.69], [165.089, -20.69], [165.089, -20.69]]], [[[166.379, -20.69], [166.379, -20.69], [166.379, -20.69], [166.379, -20.69]]], [[[164.365, -20.685], [164.365, -20.685], [164.365, -20.685], [164.365, -20.685]]], [[[164.917, -20.626], [164.917, -20.626], [164.917, -20.626], [164.917, -20.626]]], [[[164.935, -20.627], [164.935, -20.627], [164.935, -20.627], [164.935, -20.627]]], [[[166.28, -20.625], [166.28, -20.625], [166.28, -20.625], [166.28, -20.625]]], [[[164.035, -20.404], [164.035, -20.404], [164.035, -20.404], [164.035, -20.404]]], [[[166.204, -20.372], [166.204, -20.372], [166.204, -20.372], [166.204, -20.372]]], [[[164.08, -20.371], [164.08, -20.371], [164.08, -20.371], [164.08, -20.371]]], [[[164.12, -20.366], [164.12, -20.366], [164.12, -20.366], [164.12, -20.366]]], [[[164.083, -20.37], [164.083, -20.37], [164.083, -20.37], [164.083, -20.37]]], [[[164.12, -20.365], [164.12, -20.365], [164.12, -20.365], [164.12, -20.365]]], [[[164.119, -20.366], [164.119, -20.366], [164.119, -20.366], [164.119, -20.366]]], [[[164.104, -20.363], [164.104, -20.363], [164.104, -20.363], [164.104, -20.363]]], [[[164.025, -20.347], [164.025, -20.347], [164.025, -20.347], [164.025, -20.347]]], [[[166.223, -20.337], [166.223, -20.337], [166.223, -20.337], [166.223, -20.337]]], [[[164.107, -20.346], [164.107, -20.346], [164.107, -20.346], [164.107, -20.346]]], [[[164.055, -20.315], [164.055, -20.315], [164.055, -20.315], [164.055, -20.315]]], [[[164.162, -20.337], [164.162, -20.337], [164.162, -20.337], [164.162, -20.337]]], [[[166.172, -20.291], [166.172, -20.291], [166.172, -20.291], [166.172, -20.291]]], [[[164.107, -20.293], [164.107, -20.293], [164.107, -20.293], [164.107, -20.293]]], [[[166.145, -20.296], [166.145, -20.296], [166.145, -20.296], [166.145, -20.296]]], [[[164.079, -20.318], [164.079, -20.318], [164.079, -20.318], [164.079, -20.318]]], [[[164.098, -20.328], [164.098, -20.328], [164.098, -20.328], [164.098, -20.328]]], [[[164.065, -20.314], [164.065, -20.314], [164.065, -20.314], [164.065, -20.314]]], [[[166.214, -20.307], [166.214, -20.307], [166.214, -20.307], [166.214, -20.307]]], [[[164.088, -20.309], [164.088, -20.309], [164.088, -20.309], [164.088, -20.309]]], [[[164.491, -20.287], [164.491, -20.287], [164.491, -20.287], [164.491, -20.287]]], [[[164.083, -20.282], [164.083, -20.282], [164.083, -20.282], [164.083, -20.282]]], [[[164.085, -20.283], [164.085, -20.283], [164.085, -20.283], [164.085, -20.283]]], [[[164.307, -20.274], [164.307, -20.274], [164.307, -20.274], [164.307, -20.274]]], [[[164.3, -20.272], [164.3, -20.272], [164.3, -20.272], [164.3, -20.272]]], [[[164.291, -20.278], [164.291, -20.278], [164.291, -20.278], [164.291, -20.278]]], [[[164.305, -20.276], [164.305, -20.276], [164.305, -20.276], [164.305, -20.276]]], [[[164.045, -20.218], [164.045, -20.218], [164.045, -20.218], [164.045, -20.218]]], [[[164.017, -20.223], [164.017, -20.223], [164.017, -20.223], [164.017, -20.223]]], [[[164.022, -20.207], [164.022, -20.207], [164.022, -20.207], [164.022, -20.207]]], [[[164.04, -20.18], [164.04, -20.18], [164.04, -20.18], [164.04, -20.18]]], [[[164.046, -20.176], [164.046, -20.176], [164.046, -20.176], [164.046, -20.176]]], [[[164.296, -20.243], [164.296, -20.243], [164.296, -20.243], [164.296, -20.243]]], [[[164.296, -20.266], [164.296, -20.266], [164.296, -20.266], [164.296, -20.266]]], [[[166.398, -20.456], [166.398, -20.456], [166.398, -20.456], [166.398, -20.456]]], [[[166.438, -20.456], [166.438, -20.456], [166.438, -20.456], [166.438, -20.456]]], [[[166.594, -20.389], [166.594, -20.389], [166.594, -20.389], [166.594, -20.389]]], [[[166.423, -20.453], [166.423, -20.453], [166.423, -20.453], [166.423, -20.453]]], [[[166.454, -20.452], [166.454, -20.452], [166.454, -20.452], [166.454, -20.452]]], [[[166.402, -20.452], [166.402, -20.452], [166.402, -20.452], [166.402, -20.452]]], [[[166.413, -20.45], [166.413, -20.45], [166.413, -20.45], [166.413, -20.45]]], [[[166.49, -20.448], [166.49, -20.448], [166.49, -20.448], [166.49, -20.448]]], [[[166.467, -20.448], [166.467, -20.448], [166.467, -20.448], [166.467, -20.448]]], [[[166.473, -20.441], [166.473, -20.441], [166.473, -20.441], [166.473, -20.441]]], [[[166.485, -20.431], [166.485, -20.431], [166.485, -20.431], [166.485, -20.431]]], [[[164.125, -20.429], [164.125, -20.429], [164.125, -20.429], [164.125, -20.429]]], [[[166.492, -20.425], [166.492, -20.425], [166.492, -20.425], [166.492, -20.425]]], [[[166.481, -20.431], [166.481, -20.431], [166.481, -20.431], [166.481, -20.431]]], [[[166.479, -20.438], [166.479, -20.438], [166.479, -20.438], [166.479, -20.438]]], [[[166.487, -20.434], [166.487, -20.434], [166.487, -20.434], [166.487, -20.434]]], [[[166.486, -20.434], [166.486, -20.434], [166.486, -20.434], [166.486, -20.434]]], [[[166.497, -20.414], [166.497, -20.414], [166.497, -20.414], [166.497, -20.414]]], [[[166.133, -20.412], [166.133, -20.412], [166.133, -20.412], [166.133, -20.412]]], [[[166.152, -20.407], [166.152, -20.407], [166.152, -20.407], [166.152, -20.407]]], [[[166.518, -20.405], [166.518, -20.405], [166.518, -20.405], [166.518, -20.405]]], [[[166.148, -20.4], [166.148, -20.4], [166.148, -20.4], [166.148, -20.4]]], [[[166.515, -20.405], [166.515, -20.405], [166.515, -20.405], [166.515, -20.405]]], [[[164.116, -20.396], [164.116, -20.396], [164.116, -20.396], [164.116, -20.396]]], [[[166.549, -20.417], [166.549, -20.417], [166.549, -20.417], [166.549, -20.417]]], [[[166.503, -20.419], [166.503, -20.419], [166.503, -20.419], [166.503, -20.419]]], [[[166.545, -20.417], [166.545, -20.417], [166.545, -20.417], [166.545, -20.417]]], [[[164.108, -20.11], [164.108, -20.11], [164.108, -20.11], [164.108, -20.11]]], [[[164.201, -20.089], [164.201, -20.089], [164.201, -20.089], [164.201, -20.089]]], [[[164.199, -20.089], [164.199, -20.089], [164.199, -20.089], [164.199, -20.089]]], [[[163.999, -20.153], [163.999, -20.153], [163.999, -20.153], [163.999, -20.153]]], [[[164.003, -20.142], [164.003, -20.142], [164.003, -20.142], [164.003, -20.142]]], [[[164.021, -20.116], [164.021, -20.116], [164.021, -20.116], [164.021, -20.116]]], [[[164.04, -20.135], [164.04, -20.135], [164.04, -20.135], [164.04, -20.135]]], [[[164.011, -20.135], [164.011, -20.135], [164.011, -20.135], [164.011, -20.135]]], [[[164.109, -20.115], [164.109, -20.115], [164.109, -20.115], [164.109, -20.115]]], [[[164.163, -20.087], [164.163, -20.087], [164.163, -20.087], [164.163, -20.087]]], [[[164.148, -20.076], [164.148, -20.076], [164.148, -20.076], [164.148, -20.076]]], [[[163.968, -20.023], [163.968, -20.023], [163.968, -20.023], [163.968, -20.023]]], [[[164.022, -20.17], [164.022, -20.17], [164.022, -20.17], [164.022, -20.17]]], [[[164.248, -20.167], [164.248, -20.167], [164.248, -20.167], [164.248, -20.167]]], [[[166.855, -22.384], [166.855, -22.384], [166.855, -22.384], [166.855, -22.384]]], [[[166.854, -22.382], [166.854, -22.382], [166.854, -22.382], [166.854, -22.382]]], [[[167.063, -22.379], [167.063, -22.379], [167.063, -22.379], [167.063, -22.379]]], [[[166.38, -22.376], [166.38, -22.376], [166.38, -22.376], [166.38, -22.376]]], [[[166.84, -22.353], [166.84, -22.353], [166.84, -22.353], [166.84, -22.353]]], [[[166.409, -22.337], [166.409, -22.337], [166.409, -22.337], [166.409, -22.337]]], [[[166.868, -22.332], [166.868, -22.332], [166.868, -22.332], [166.868, -22.332]]], [[[166.32, -22.327], [166.32, -22.327], [166.32, -22.327], [166.32, -22.327]]], [[[166.57, -22.326], [166.57, -22.326], [166.57, -22.326], [166.57, -22.326]]], [[[166.568, -22.317], [166.568, -22.317], [166.568, -22.317], [166.568, -22.317]]], [[[166.471, -22.313], [166.471, -22.313], [166.471, -22.313], [166.471, -22.313]]], [[[166.436, -22.313], [166.436, -22.313], [166.436, -22.313], [166.436, -22.313]]], [[[166.294, -22.299], [166.294, -22.299], [166.294, -22.299], [166.294, -22.299]]], [[[167.036, -22.289], [167.036, -22.289], [167.036, -22.289], [167.036, -22.289]]], [[[166.43, -22.294], [166.43, -22.294], [166.43, -22.294], [166.43, -22.294]]], [[[166.472, -22.285], [166.472, -22.285], [166.472, -22.285], [166.472, -22.285]]], [[[166.482, -22.285], [166.482, -22.285], [166.482, -22.285], [166.482, -22.285]]], [[[166.472, -22.288], [166.472, -22.288], [166.472, -22.288], [166.472, -22.288]]], [[[166.474, -22.316], [166.474, -22.316], [166.474, -22.316], [166.474, -22.316]]], [[[166.576, -22.306], [166.576, -22.306], [166.576, -22.306], [166.576, -22.306]]], [[[166.581, -22.306], [166.581, -22.306], [166.581, -22.306], [166.581, -22.306]]], [[[166.596, -22.303], [166.596, -22.303], [166.596, -22.303], [166.596, -22.303]]], [[[166.569, -22.312], [166.569, -22.312], [166.569, -22.312], [166.569, -22.312]]], [[[166.481, -22.311], [166.481, -22.311], [166.481, -22.311], [166.481, -22.311]]], [[[166.807, -22.464], [166.807, -22.464], [166.807, -22.464], [166.807, -22.464]]], [[[166.495, -22.265], [166.495, -22.265], [166.495, -22.265], [166.495, -22.265]]], [[[166.222, -22.265], [166.222, -22.265], [166.222, -22.265], [166.222, -22.265]]], [[[166.505, -22.268], [166.505, -22.268], [166.505, -22.268], [166.505, -22.268]]], [[[167.027, -22.27], [167.027, -22.27], [167.027, -22.27], [167.027, -22.27]]], [[[167.025, -22.268], [167.025, -22.268], [167.025, -22.268], [167.025, -22.268]]], [[[166.506, -22.276], [166.506, -22.276], [166.506, -22.276], [166.506, -22.276]]], [[[166.503, -22.277], [166.503, -22.277], [166.503, -22.277], [166.503, -22.277]]], [[[166.227, -22.245], [166.227, -22.245], [166.227, -22.245], [166.227, -22.245]]], [[[166.345, -22.227], [166.345, -22.227], [166.345, -22.227], [166.345, -22.227]]], [[[166.422, -22.226], [166.422, -22.226], [166.422, -22.226], [166.422, -22.226]]], [[[166.389, -22.227], [166.389, -22.227], [166.389, -22.227], [166.389, -22.227]]], [[[166.511, -22.243], [166.511, -22.243], [166.511, -22.243], [166.511, -22.243]]], [[[166.457, -22.223], [166.457, -22.223], [166.457, -22.223], [166.457, -22.223]]], [[[166.426, -22.222], [166.426, -22.222], [166.426, -22.222], [166.426, -22.222]]], [[[166.206, -22.22], [166.206, -22.22], [166.206, -22.22], [166.206, -22.22]]], [[[166.994, -22.208], [166.994, -22.208], [166.994, -22.208], [166.994, -22.208]]], [[[166.259, -22.203], [166.259, -22.203], [166.259, -22.203], [166.259, -22.203]]], [[[166.328, -22.216], [166.328, -22.216], [166.328, -22.216], [166.328, -22.216]]], [[[166.403, -22.218], [166.403, -22.218], [166.403, -22.218], [166.403, -22.218]]], [[[167.029, -22.261], [167.029, -22.261], [167.029, -22.261], [167.029, -22.261]]], [[[167.023, -22.26], [167.023, -22.26], [167.023, -22.26], [167.023, -22.26]]], [[[166.502, -22.261], [166.502, -22.261], [166.502, -22.261], [166.502, -22.261]]], [[[167.035, -22.25], [167.035, -22.25], [167.035, -22.25], [167.035, -22.25]]], [[[166.505, -22.258], [166.505, -22.258], [166.505, -22.258], [166.505, -22.258]]], [[[166.507, -22.257], [166.507, -22.257], [166.507, -22.257], [166.507, -22.257]]], [[[166.418, -22.184], [166.418, -22.184], [166.418, -22.184], [166.418, -22.184]]], [[[166.95, -22.148], [166.95, -22.148], [166.95, -22.148], [166.95, -22.148]]], [[[166.948, -22.149], [166.948, -22.149], [166.948, -22.149], [166.948, -22.149]]], [[[166.399, -22.18], [166.399, -22.18], [166.399, -22.18], [166.399, -22.18]]], [[[166.285, -22.171], [166.285, -22.171], [166.285, -22.171], [166.285, -22.171]]], [[[166.26, -22.178], [166.26, -22.178], [166.26, -22.178], [166.26, -22.178]]], [[[166.152, -22.142], [166.152, -22.142], [166.152, -22.142], [166.152, -22.142]]], [[[166.335, -22.145], [166.335, -22.145], [166.335, -22.145], [166.335, -22.145]]], [[[166.336, -22.143], [166.336, -22.143], [166.336, -22.143], [166.336, -22.143]]], [[[166.95, -22.119], [166.95, -22.119], [166.95, -22.119], [166.95, -22.119]]], [[[166.163, -22.119], [166.163, -22.119], [166.163, -22.119], [166.163, -22.119]]], [[[166.155, -22.118], [166.155, -22.118], [166.155, -22.118], [166.155, -22.118]]], [[[166.138, -22.112], [166.138, -22.112], [166.138, -22.112], [166.138, -22.112]]], [[[166.336, -22.146], [166.336, -22.146], [166.336, -22.146], [166.336, -22.146]]], [[[166.333, -22.146], [166.333, -22.146], [166.333, -22.146], [166.333, -22.146]]], [[[166.117, -22.102], [166.117, -22.102], [166.117, -22.102], [166.117, -22.102]]], [[[166.934, -22.082], [166.934, -22.082], [166.934, -22.082], [166.934, -22.082]]], [[[166.106, -22.082], [166.106, -22.082], [166.106, -22.082], [166.106, -22.082]]], [[[166.903, -22.061], [166.903, -22.061], [166.903, -22.061], [166.903, -22.061]]], [[[166.421, -22.2], [166.421, -22.2], [166.421, -22.2], [166.421, -22.2]]], [[[166.241, -22.199], [166.241, -22.199], [166.241, -22.199], [166.241, -22.199]]], [[[166.068, -22.059], [166.068, -22.059], [166.068, -22.059], [166.068, -22.059]]], [[[166.891, -22.053], [166.891, -22.053], [166.891, -22.053], [166.891, -22.053]]], [[[166.112, -22.028], [166.112, -22.028], [166.112, -22.028], [166.112, -22.028]]], [[[166.888, -22.047], [166.888, -22.047], [166.888, -22.047], [166.888, -22.047]]], [[[166.098, -22.055], [166.098, -22.055], [166.098, -22.055], [166.098, -22.055]]], [[[166.086, -22.059], [166.086, -22.059], [166.086, -22.059], [166.086, -22.059]]], [[[166.145, -22.016], [166.145, -22.016], [166.145, -22.016], [166.145, -22.016]]], [[[165.936, -22.007], [165.936, -22.007], [165.936, -22.007], [165.936, -22.007]]], [[[166.139, -22.027], [166.139, -22.027], [166.139, -22.027], [166.139, -22.027]]], [[[166.106, -22.025], [166.106, -22.025], [166.106, -22.025], [166.106, -22.025]]], [[[166.109, -22.023], [166.109, -22.023], [166.109, -22.023], [166.109, -22.023]]], [[[166.106, -22.02], [166.106, -22.02], [166.106, -22.02], [166.106, -22.02]]], [[[166.143, -22.027], [166.143, -22.027], [166.143, -22.027], [166.143, -22.027]]], [[[165.965, -21.966], [165.965, -21.966], [165.965, -21.966], [165.965, -21.966]]], [[[166.713, -21.965], [166.713, -21.965], [166.713, -21.965], [166.713, -21.965]]], [[[166.008, -21.968], [166.008, -21.968], [166.008, -21.968], [166.008, -21.968]]], [[[165.987, -21.954], [165.987, -21.954], [165.987, -21.954], [165.987, -21.954]]], [[[166.025, -22], [166.025, -22], [166.025, -22], [166.025, -22]]], [[[166.087, -21.996], [166.087, -21.996], [166.087, -21.996], [166.087, -21.996]]], [[[166.102, -22], [166.102, -22], [166.102, -22], [166.102, -22]]], [[[166.142, -22], [166.142, -22], [166.142, -22], [166.142, -22]]], [[[166.14, -22], [166.14, -22], [166.14, -22], [166.14, -22]]], [[[166.089, -21.993], [166.089, -21.993], [166.089, -21.993], [166.089, -21.993]]], [[[166.091, -21.991], [166.091, -21.991], [166.091, -21.991], [166.091, -21.991]]], [[[165.999, -21.989], [165.999, -21.989], [165.999, -21.989], [165.999, -21.989]]], [[[166.089, -21.985], [166.089, -21.985], [166.089, -21.985], [166.089, -21.985]]], [[[166.098, -21.987], [166.098, -21.987], [166.098, -21.987], [166.098, -21.987]]], [[[166.109, -21.986], [166.109, -21.986], [166.109, -21.986], [166.109, -21.986]]], [[[166.079, -21.988], [166.079, -21.988], [166.079, -21.988], [166.079, -21.988]]], [[[165.926, -21.951], [165.926, -21.951], [165.926, -21.951], [165.926, -21.951]]], [[[166.067, -21.948], [166.067, -21.948], [166.067, -21.948], [166.067, -21.948]]], [[[165.917, -21.938], [165.917, -21.938], [165.917, -21.938], [165.917, -21.938]]], [[[165.958, -21.939], [165.958, -21.939], [165.958, -21.939], [165.958, -21.939]]], [[[165.915, -21.936], [165.915, -21.936], [165.915, -21.936], [165.915, -21.936]]], [[[165.908, -21.935], [165.908, -21.935], [165.908, -21.935], [165.908, -21.935]]], [[[166.07, -21.928], [166.07, -21.928], [166.07, -21.928], [166.07, -21.928]]], [[[165.929, -21.925], [165.929, -21.925], [165.929, -21.925], [165.929, -21.925]]], [[[165.856, -21.899], [165.856, -21.899], [165.856, -21.899], [165.856, -21.899]]], [[[165.781, -21.869], [165.781, -21.869], [165.781, -21.869], [165.781, -21.869]]], [[[165.734, -21.863], [165.734, -21.863], [165.734, -21.863], [165.734, -21.863]]], [[[165.812, -21.831], [165.812, -21.831], [165.812, -21.831], [165.812, -21.831]]], [[[165.756, -21.796], [165.756, -21.796], [165.756, -21.796], [165.756, -21.796]]], [[[165.701, -21.788], [165.701, -21.788], [165.701, -21.788], [165.701, -21.788]]], [[[165.722, -21.784], [165.722, -21.784], [165.722, -21.784], [165.722, -21.784]]], [[[166.482, -21.786], [166.482, -21.786], [166.482, -21.786], [166.482, -21.786]]], [[[165.703, -21.787], [165.703, -21.787], [165.703, -21.787], [165.703, -21.787]]], [[[165.689, -21.779], [165.689, -21.779], [165.689, -21.779], [165.689, -21.779]]], [[[165.743, -21.757], [165.743, -21.757], [165.743, -21.757], [165.743, -21.757]]], [[[166.477, -21.773], [166.477, -21.773], [166.477, -21.773], [166.477, -21.773]]], [[[166.49, -21.756], [166.49, -21.756], [166.49, -21.756], [166.49, -21.756]]], [[[166.515, -21.747], [166.515, -21.747], [166.515, -21.747], [166.515, -21.747]]], [[[165.622, -21.737], [165.622, -21.737], [165.622, -21.737], [165.622, -21.737]]], [[[165.651, -21.727], [165.651, -21.727], [165.651, -21.727], [165.651, -21.727]]], [[[166.471, -21.777], [166.471, -21.777], [166.471, -21.777], [166.471, -21.777]]], [[[166.477, -21.774], [166.477, -21.774], [166.477, -21.774], [166.477, -21.774]]], [[[166.476, -21.775], [166.476, -21.775], [166.476, -21.775], [166.476, -21.775]]], [[[165.766, -21.816], [165.766, -21.816], [165.766, -21.816], [165.766, -21.816]]], [[[165.752, -21.811], [165.752, -21.811], [165.752, -21.811], [165.752, -21.811]]], [[[165.791, -21.81], [165.791, -21.81], [165.791, -21.81], [165.791, -21.81]]], [[[166.027, -21.955], [166.027, -21.955], [166.027, -21.955], [166.027, -21.955]]], [[[166.063, -22.067], [166.063, -22.067], [166.063, -22.067], [166.063, -22.067]]], [[[166.028, -22.063], [166.028, -22.063], [166.028, -22.063], [166.028, -22.063]]], [[[166.069, -22.061], [166.069, -22.061], [166.069, -22.061], [166.069, -22.061]]], [[[166.051, -22.067], [166.051, -22.067], [166.051, -22.067], [166.051, -22.067]]], [[[167.037, -22.279], [167.037, -22.279], [167.037, -22.279], [167.037, -22.279]]], [[[166.463, -22.283], [166.463, -22.283], [166.463, -22.283], [166.463, -22.283]]], [[[166.422, -22.28], [166.422, -22.28], [166.422, -22.28], [166.422, -22.28]]], [[[167.029, -22.269], [167.029, -22.269], [167.029, -22.269], [167.029, -22.269]]], [[[166.426, -22.268], [166.426, -22.268], [166.426, -22.268], [166.426, -22.268]]], [[[166.149, -21.542], [166.939, -22.085], [166.925, -22.395], [166.162, -22.084], [165.663, -21.706], [165.287, -21.573], [164.369, -20.756], [164.04, -20.301], [164.5, -20.298], [165.219, -20.765], [165.618, -21.255], [166.149, -21.542]]]]}}