{"type": "Feature", "properties": {"name": "Hsinchu County", "iso2": "TW-HSQ", "admin_level": 6, "osm_id": 2912613, "countrylevel_id": "iso2:TW-HSQ", "osm_data": {"localname": "新竹縣", "official_name": "", "alltags": {"name:ar": "أقليم سين شو", "name:en": "Hsinchu County", "name:es": "Condado de Hsinchu", "name:fr": "Comté de Hsinchu", "name:id": "Kabupaten Hsinchu", "name:it": "Contea di Hsinchu", "name:ja": "新竹県", "name:ko": "신주 현", "name:ru": "Уезд Синьчжу", "name:th": "ซินจู๋", "name:vi": "Huyện Tân Trúc", "name:zh": "新竹縣", "nat_ref": "10004", "name:hak": "Sîn-chuk-yen", "name:nan": "Sin-tek-koān", "name:yue": "新竹縣"}}, "center_lat": 24.68, "center_lon": 121.16, "timezone": "Asia/Taipei", "population": 557010, "wikidata_id": "Q74054", "wikipedia_id": "zh:新竹縣"}, "geometry": {"type": "MultiPolygon", "coordinates": [[[[120.986, 24.94], [121.039, 24.946], [121.058, 24.906], [121.136, 24.878], [121.174, 24.828], [121.244, 24.809], [121.26, 24.782], [121.308, 24.755], [121.3, 24.697], [121.353, 24.668], [121.363, 24.603], [121.403, 24.592], [121.402, 24.529], [121.343, 24.482], [121.318, 24.441], [121.259, 24.438], [121.263, 24.455], [121.216, 24.516], [121.169, 24.503], [121.123, 24.51], [121.072, 24.498], [121.08, 24.541], [121.058, 24.558], [121.083, 24.59], [120.964, 24.684], [120.977, 24.706], [120.935, 24.713], [120.944, 24.744], [120.993, 24.781], [121.032, 24.762], [121, 24.822], [120.93, 24.853], [120.986, 24.94]]]]}}