{"type": "Feature", "properties": {"name": "Yilan County", "iso2": "TW-ILA", "admin_level": 6, "osm_id": 2912630, "countrylevel_id": "iso2:TW-ILA", "osm_data": {"localname": "宜蘭縣", "official_name": "", "alltags": {"name:en": "Yilan County", "name:ja": "宜蘭県", "name:ko": "이란 현", "name:ru": "Уезд Илань", "name:th": "อี๋หลาน", "name:vi": "Huyện Nghi Lan", "name:zh": "宜蘭縣", "nat_ref": "10002", "name:nan": "Gî-lân-koān"}}, "center_lat": 24.57, "center_lon": 121.64, "timezone": "Asia/Taipei", "population": 455221, "wikidata_id": "Q237258", "wikipedia_id": "zh:宜蘭縣"}, "geometry": {"type": "MultiPolygon", "coordinates": [[[[121.774, 24.315], [121.676, 24.337], [121.622, 24.366], [121.633, 24.335], [121.596, 24.332], [121.607, 24.313], [121.548, 24.336], [121.498, 24.339], [121.451, 24.365], [121.437, 24.383], [121.373, 24.369], [121.327, 24.399], [121.318, 24.441], [121.343, 24.482], [121.402, 24.529], [121.403, 24.592], [121.428, 24.606], [121.46, 24.673], [121.48, 24.674], [121.537, 24.688], [121.543, 24.706], [121.594, 24.729], [121.592, 24.788], [121.626, 24.809], [121.689, 24.817], [121.73, 24.855], [121.761, 24.857], [121.782, 24.889], [121.854, 24.925], [121.847, 24.96], [121.96, 24.988], [121.966, 24.983], [121.926, 24.97], [121.846, 24.882], [121.83, 24.852], [121.819, 24.761], [121.837, 24.71], [121.85, 24.633], [121.885, 24.604], [121.874, 24.535], [121.843, 24.521], [121.85, 24.48], [121.799, 24.431], [121.774, 24.315]]], [[[121.935, 24.846], [121.935, 24.846], [121.935, 24.846], [121.935, 24.846]]]]}}