{"type": "Feature", "properties": {"name": "Szeged", "iso2": "HU-SD", "admin_level": 8, "osm_id": 1025105, "countrylevel_id": "iso2:HU-SD", "osm_data": {"localname": "Szeged", "official_name": "", "alltags": {"name:ar": "زيجيد", "name:it": "Seghedino", "name:la": "Partiscum", "name:lt": "Segedas", "name:pl": "Segedyn", "name:ro": "Seghedin", "name:ru": "Сегед", "name:sr": "Сегедин", "name:uk": "Сегед", "name:sr-Latn": "Segedin"}}, "center_lat": 46.25, "center_lon": 20.14, "timezone": "Europe/Budapest", "population": 160766, "wikidata_id": "Q81581", "wikipedia_id": "hu:Szeged"}, "geometry": {"type": "MultiPolygon", "coordinates": [[[[20.023, 46.173], [20.037, 46.145], [20.096, 46.177], [20.159, 46.213], [20.191, 46.194], [20.23, 46.129], [20.262, 46.125], [20.278, 46.19], [20.217, 46.19], [20.216, 46.242], [20.309, 46.241], [20.302, 46.279], [20.252, 46.269], [20.247, 46.304], [20.205, 46.281], [20.164, 46.338], [20.078, 46.35], [20.07, 46.3], [20.03, 46.328], [19.972, 46.29], [20.074, 46.252], [20.046, 46.216], [20.069, 46.183], [20.023, 46.173]]], [[[20.16, 46.396], [20.16, 46.396], [20.16, 46.396], [20.16, 46.396]]]]}}