{"type": "Feature", "properties": {"name": "Central Denmark Region", "iso2": "DK-82", "admin_level": 4, "osm_id": 1319935, "countrylevel_id": "iso2:DK-82", "osm_data": {"localname": "Region Midtjylland", "official_name": "", "alltags": {"name:bg": "Централна Ютландия", "name:br": "Kreizjutland", "name:ca": "Jutlàndia Central", "name:ce": "Юккъера Ютланди", "name:da": "Region Midtjylland", "name:en": "Central Denmark Region", "name:eo": "Regiono Meza Jutlando", "name:es": "Jutlandia Central", "name:et": "Kesk-Jüütimaa", "name:eu": "Erdialdeko Jutlandia", "name:fa": "استان میدیولند", "name:fi": "Keski-Jyllannin alue", "name:fo": "Región Miðjútland", "name:fr": "Jutland central", "name:fy": "Midden-Jutlân", "name:hr": "Središnji Jylland", "name:hu": "Midtjylland régió", "name:hy": "Կենտրոնական Յուտլանդիա տարածաշրջան", "name:it": "Jutland centrale", "name:ja": "中央ユラン地域", "name:ka": "ცენტრალური იუტლანდიის რეგიონი", "name:kk": "Орталық Ютландия", "name:ko": "중앙윌란 지역", "name:la": "Iutia Media", "name:lt": "Vidurio Jutlandijos regionas", "name:lv": "Vidusjitlandes reģions", "name:mk": "Средна Данска", "name:ms": "Wilayah Midtjylland", "name:nl": "Midden-Jutland", "name:oc": "Jutlàndia Centrala", "name:os": "Централон Ютланди", "name:pl": "Jutlandia Środkowa", "name:pt": "Jutlândia Central", "name:ro": "Regiunea Midtjylland", "name:ru": "Центральная Ютландия", "name:se": "Gaska-Jyllándda regiuvdna", "name:sh": "Središnji Jylland", "name:sk": "Stredné Jutsko", "name:sr": "Средишња Данска", "name:sv": "Region Mittjylland", "name:uk": "Центральна Ютландія", "name:vi": "Trung Jutland", "name:zh": "中日德兰大区", "name:frr": "Regiuun Midtjylland", "name:nds": "Region Middjüütland", "name:sco": "Central Denmark Region"}}, "center_lat": 56.26, "center_lon": 9.41, "timezone": "Europe/Copenhagen", "population": 1326913, "wikidata_id": "Q26586", "wikipedia_id": "da:Region Midtjylland"}, "geometry": {"type": "MultiPolygon", "coordinates": [[[[10.425, 56.22], [10.425, 56.22], [10.425, 56.22], [10.425, 56.22]]], [[[10.51, 56.167], [10.51, 56.167], [10.51, 56.167], [10.51, 56.167]]], [[[8.239, 56.323], [8.239, 56.323], [8.239, 56.323], [8.239, 56.323]]], [[[8.238, 56.326], [8.238, 56.326], [8.238, 56.326], [8.238, 56.326]]], [[[8.24, 56.325], [8.24, 56.325], [8.24, 56.325], [8.24, 56.325]]], [[[8.245, 56.328], [8.245, 56.328], [8.245, 56.328], [8.245, 56.328]]], [[[8.142, 56.332], [8.142, 56.332], [8.142, 56.332], [8.142, 56.332]]], [[[8.254, 56.34], [8.254, 56.34], [8.254, 56.34], [8.254, 56.34]]], [[[8.171, 56.337], [8.171, 56.337], [8.171, 56.337], [8.171, 56.337]]], [[[10.925, 56.405], [10.925, 56.405], [10.925, 56.405], [10.925, 56.405]]], [[[8.252, 56.344], [8.252, 56.344], [8.252, 56.344], [8.252, 56.344]]], [[[11.509, 56.717], [11.509, 56.717], [11.509, 56.717], [11.509, 56.717]]], [[[10.113, 56.462], [10.113, 56.462], [10.113, 56.462], [10.113, 56.462]]], [[[10.113, 56.462], [10.113, 56.462], [10.113, 56.462], [10.113, 56.462]]], [[[10.111, 56.462], [10.111, 56.462], [10.111, 56.462], [10.111, 56.462]]], [[[10.106, 56.464], [10.106, 56.464], [10.106, 56.464], [10.106, 56.464]]], [[[10.092, 56.465], [10.092, 56.465], [10.092, 56.465], [10.092, 56.465]]], [[[10.214, 56.474], [10.214, 56.474], [10.214, 56.474], [10.214, 56.474]]], [[[10.722, 56.532], [10.722, 56.532], [10.722, 56.532], [10.722, 56.532]]], [[[10.229, 56.534], [10.229, 56.534], [10.229, 56.534], [10.229, 56.534]]], [[[8.21, 56.614], [8.21, 56.614], [8.21, 56.614], [8.21, 56.614]]], [[[8.845, 56.696], [8.845, 56.696], [8.845, 56.696], [8.845, 56.696]]], [[[8.595, 56.637], [8.595, 56.637], [8.595, 56.637], [8.595, 56.637]]], [[[8.587, 56.653], [8.587, 56.653], [8.587, 56.653], [8.587, 56.653]]], [[[8.233, 56.65], [8.233, 56.65], [8.233, 56.65], [8.233, 56.65]]], [[[8.594, 56.679], [8.594, 56.679], [8.594, 56.679], [8.594, 56.679]]], [[[10.223, 56.711], [10.223, 56.711], [10.223, 56.711], [10.223, 56.711]]], [[[10.226, 56.707], [10.226, 56.707], [10.226, 56.707], [10.226, 56.707]]], [[[10.225, 56.709], [10.225, 56.709], [10.225, 56.709], [10.225, 56.709]]], [[[9.185, 56.719], [9.185, 56.719], [9.185, 56.719], [9.185, 56.719]]], [[[8.951, 56.833], [8.951, 56.833], [8.951, 56.833], [8.951, 56.833]]], [[[8.612, 56.553], [8.612, 56.553], [8.612, 56.553], [8.612, 56.553]]], [[[10.277, 56.593], [10.277, 56.593], [10.277, 56.593], [10.277, 56.593]]], [[[10.28, 56.596], [10.28, 56.596], [10.28, 56.596], [10.28, 56.596]]], [[[10.321, 56.609], [10.321, 56.609], [10.321, 56.609], [10.321, 56.609]]], [[[8.208, 56.613], [8.208, 56.613], [8.208, 56.613], [8.208, 56.613]]], [[[10.321, 56.614], [10.321, 56.614], [10.321, 56.614], [10.321, 56.614]]], [[[8.404, 56.67], [8.405, 56.676], [8.404, 56.67], [8.404, 56.67]]], [[[10.235, 55.753], [10.235, 55.753], [10.235, 55.753], [10.235, 55.753]]], [[[10.214, 55.771], [10.214, 55.771], [10.214, 55.771], [10.214, 55.771]]], [[[10.69, 55.926], [10.69, 55.926], [10.69, 55.926], [10.69, 55.926]]], [[[10.786, 55.934], [10.786, 55.934], [10.786, 55.934], [10.786, 55.934]]], [[[10.776, 55.936], [10.776, 55.936], [10.776, 55.936], [10.776, 55.936]]], [[[10.747, 55.948], [10.747, 55.948], [10.747, 55.948], [10.747, 55.948]]], [[[8.289, 56.006], [8.289, 56.006], [8.289, 56.006], [8.289, 56.006]]], [[[10.791, 56.131], [10.791, 56.131], [10.791, 56.131], [10.791, 56.131]]], [[[10.215, 56.138], [10.215, 56.138], [10.215, 56.138], [10.215, 56.138]]], [[[10.688, 56.15], [10.688, 56.15], [10.688, 56.15], [10.688, 56.15]]], [[[10.218, 56.158], [10.218, 56.158], [10.218, 56.158], [10.218, 56.158]]], [[[8.19, 55.817], [8.171, 55.816], [8.19, 55.817], [8.19, 55.817]]], [[[10.707, 55.931], [10.707, 55.931], [10.707, 55.931], [10.707, 55.931]]], [[[8.278, 55.981], [8.278, 55.981], [8.278, 55.981], [8.278, 55.981]]], [[[8.125, 56.002], [8.125, 56.002], [8.125, 56.002], [8.125, 56.002]]], [[[8.279, 55.985], [8.279, 55.985], [8.279, 55.985], [8.279, 55.985]]], [[[9.988, 55.863], [9.988, 55.863], [9.988, 55.863], [9.988, 55.863]]], [[[9.994, 55.865], [9.994, 55.865], [9.994, 55.865], [9.994, 55.865]]], [[[10.02, 55.872], [10.02, 55.872], [10.02, 55.872], [10.02, 55.872]]], [[[10.234, 55.882], [10.234, 55.882], [10.234, 55.882], [10.234, 55.882]]], [[[10.52, 55.972], [10.52, 55.972], [10.52, 55.972], [10.52, 55.972]]], [[[10.664, 55.885], [10.664, 55.885], [10.664, 55.885], [10.664, 55.885]]], [[[10.116, 55.855], [10.116, 55.855], [10.116, 55.855], [10.116, 55.855]]], [[[10.352, 55.828], [10.352, 55.828], [10.352, 55.828], [10.352, 55.828]]], [[[10.08, 55.848], [10.08, 55.848], [10.08, 55.848], [10.08, 55.848]]], [[[10.12, 55.851], [10.12, 55.851], [10.12, 55.851], [10.12, 55.851]]], [[[10.113, 55.85], [10.113, 55.85], [10.113, 55.85], [10.113, 55.85]]], [[[10.058, 55.83], [10.058, 55.83], [10.058, 55.83], [10.058, 55.83]]], [[[10.346, 55.834], [10.346, 55.834], [10.346, 55.834], [10.346, 55.834]]], [[[10.036, 55.844], [10.036, 55.844], [10.036, 55.844], [10.036, 55.844]]], [[[10.276, 55.903], [10.276, 55.903], [10.276, 55.903], [10.276, 55.903]]], [[[10.666, 55.907], [10.666, 55.907], [10.666, 55.907], [10.666, 55.907]]], [[[10.615, 55.906], [10.615, 55.906], [10.615, 55.906], [10.615, 55.906]]], [[[10.631, 55.907], [10.631, 55.907], [10.631, 55.907], [10.631, 55.907]]], [[[10.649, 55.885], [10.649, 55.885], [10.649, 55.885], [10.649, 55.885]]], [[[10.651, 55.893], [10.651, 55.893], [10.651, 55.893], [10.651, 55.893]]], [[[10.617, 55.902], [10.617, 55.902], [10.617, 55.902], [10.617, 55.902]]], [[[10.629, 55.897], [10.629, 55.897], [10.629, 55.897], [10.629, 55.897]]], [[[10.642, 55.897], [10.642, 55.897], [10.642, 55.897], [10.642, 55.897]]], [[[10.649, 55.902], [10.649, 55.902], [10.649, 55.902], [10.649, 55.902]]], [[[10.667, 55.931], [10.667, 55.931], [10.667, 55.931], [10.667, 55.931]]], [[[10.403, 55.959], [10.403, 55.959], [10.403, 55.959], [10.403, 55.959]]], [[[10.217, 56.158], [10.217, 56.158], [10.217, 56.158], [10.217, 56.158]]], [[[9.323, 56.665], [9.322, 56.666], [9.32, 56.672], [10.194, 56.684], [10.95, 56.456], [10.689, 56.141], [10.429, 56.296], [10.029, 55.697], [9.674, 55.712], [9.386, 55.926], [8.18, 55.831], [8.158, 56.641], [8.732, 56.478], [8.962, 56.802], [9.323, 56.665]]]]}}