{"type": "Feature", "properties": {"name": "Special Region of Yogyakarta", "iso2": "ID-YO", "admin_level": 4, "osm_id": 5616105, "countrylevel_id": "iso2:ID-YO", "osm_data": {"localname": "Daerah Istimewa Yogyakarta", "official_name": "", "alltags": {"name:en": "Special Region of Yogyakarta", "name:ja": "ジョグジャカルタ特別州", "name:nl": "Speciale Regio Yogyakarta", "name:vi": "Đặc khu Yogyakarta", "name:zh": "日惹特区", "website": "https://jogjaprov.go.id/", "alt_name": "DI Yogyakarta", "short_name": "DIY"}}, "center_lat": -7.87, "center_lon": 110.48, "timezone": "Asia/Jakarta", "population": 3542078, "wikidata_id": "Q3741", "wikipedia_id": "id:Daerah Istimewa Yogyakarta"}, "geometry": {"type": "MultiPolygon", "coordinates": [[[[110.605, -8.147], [110.605, -8.147], [110.605, -8.147], [110.605, -8.147]]], [[[110.82, -8.203], [110.82, -8.203], [110.82, -8.203], [110.82, -8.203]]], [[[110.719, -8.2], [110.719, -8.2], [110.719, -8.2], [110.719, -8.2]]], [[[110.003, -7.888], [110.446, -7.541], [110.786, -7.817], [110.835, -8.203], [110.003, -7.888]]]]}}