{"type": "Feature", "properties": {"name": "Ocnița District", "iso2": "MD-OC", "admin_level": 4, "osm_id": 59005, "countrylevel_id": "iso2:MD-OC", "osm_data": {"localname": "Raionul Ocnița", "official_name": "", "alltags": {"name:bg": "Окницки район", "name:ca": "Districte d'Ocnița", "name:en": "Ocnița District", "name:es": "Distrito de Ocnița", "name:fr": "Raion d'Ocnița", "name:ka": "ოკნიცის რაიონი", "name:ko": "오크니차 구", "name:lt": "Oknicos rajonas", "name:pl": "Rejon Ocnița", "name:pt": "Ocniţa (condado)", "name:ru": "Окницкий район", "name:uk": "Окницький район", "name:ur": "اوکنیتسا ضلع", "name:zh": "奧克尼察區"}}, "center_lat": 48.37, "center_lon": 27.52, "timezone": "Europe/Chisinau", "population": 47425, "wikidata_id": "Q266444", "wikipedia_id": "ro:Raionul Ocnița"}, "geometry": {"type": "MultiPolygon", "coordinates": [[[[27.27, 48.322], [27.323, 48.349], [27.376, 48.332], [27.351, 48.309], [27.364, 48.249], [27.426, 48.221], [27.49, 48.215], [27.534, 48.353], [27.632, 48.337], [27.686, 48.375], [27.769, 48.341], [27.84, 48.386], [27.878, 48.385], [27.747, 48.458], [27.644, 48.442], [27.591, 48.461], [27.581, 48.491], [27.534, 48.47], [27.465, 48.447], [27.447, 48.409], [27.379, 48.414], [27.374, 48.442], [27.32, 48.444], [27.287, 48.372], [27.236, 48.373], [27.217, 48.348], [27.27, 48.322]]], [[[27.748, 48.337], [27.748, 48.337], [27.748, 48.337], [27.748, 48.337]]]]}}