{"type": "Feature", "properties": {"name": "Zlatibor Administrative District", "iso2": "RS-16", "admin_level": 6, "osm_id": 2114084, "countrylevel_id": "iso2:RS-16", "osm_data": {"localname": "Златиборски управни округ", "official_name": "", "alltags": {"name:el": "Περιφέρεια Ζλάτιμπορ", "name:en": "Zlatibor Administrative District", "name:hr": "Zlatiborski upravni okrug", "name:ru": "Златиборский административный округ", "name:sr": "Златиборски управни округ", "website": "zlatiborski.okrug.gov.rs/index.php/sr/", "name:sr-Latn": "Zlatiborski upravni okrug"}}, "center_lat": 43.63, "center_lon": 19.77, "timezone": "Europe/Belgrade", "population": 286549, "wikidata_id": "Q478278", "wikipedia_id": "en:Zlatibor District"}, "geometry": {"type": "MultiPolygon", "coordinates": [[[[19.55, 43.245], [20.06, 43.008], [20.296, 43.312], [19.917, 43.554], [20.192, 43.737], [20.074, 44.112], [19.644, 44.168], [19.497, 44.099], [19.235, 44.008], [19.532, 43.668], [19.226, 43.528], [19.55, 43.245]], [[19.395, 43.554], [19.395, 43.554], [19.395, 43.554], [19.395, 43.554]]]]}}