{"type": "Feature", "properties": {"name": "Vojvodina", "iso2": "RS-VO", "admin_level": 4, "osm_id": 1279074, "countrylevel_id": "iso2:RS-VO", "osm_data": {"localname": "Војводина", "official_name": "Аутономна Покрајина Војводина", "alltags": {"name:ar": "فويفودينا", "name:ca": "Voivodina", "name:en": "Vojvodina", "name:es": "Voivodina", "name:fr": "Voïvodine", "name:hr": "Vojvodina", "name:hu": "Vajdaság", "name:lt": "Voivodina", "name:nl": "Vojvodina", "name:ro": "Voivodina", "name:ru": "Воеводина", "name:sk": "Vojvodina", "name:sr": "Војводина", "name:hsb": "Wojwodina", "name:rue": "Войводина", "name:sr-Latn": "Vojvodina", "is_in:country": "Serbia", "official_name": "Аутономна Покрајина Војводина", "is_in:continent": "Europe", "official_name:de": "Autonome Provinz Wojwodina", "official_name:en": "Autonomous Province of Vojvodina", "official_name:es": "Provincia Autónoma de Voivodina", "official_name:fr": "Province autonome de Voïvodine", "official_name:hr": "Autonomna Pokrajina Vojvodina", "official_name:hu": "Vajdaság Autonóm Tartomány", "official_name:lt": "Autonominė Voivodinos provincija", "official_name:ro": "Provincia Autonomă Voivodina", "official_name:ru": "Автономный край Воеводина", "official_name:sk": "Autonómna Pokrajina Vojvodina", "official_name:sr": "Аутономна Покрајина Војводина", "official_name:rue": "Автономна Покраїна Войводина", "is_in:country_code": "RS", "official_name:sr-Latn": "Autonomna Pokrajina Vojvodina"}}, "center_lat": 45.41, "center_lon": 20.06, "timezone": "Europe/Belgrade", "wikidata_id": "Q44749", "wikipedia_id": "en:Vojvodina"}, "geometry": {"type": "MultiPolygon", "coordinates": [[[[18.814, 45.909], [18.855, 45.829], [18.848, 45.814], [18.848, 45.807], [18.874, 45.785], [18.895, 45.752], [18.93, 45.543], [19.032, 45.487], [19.004, 45.435], [19.006, 45.357], [19.056, 45.344], [19.197, 45.265], [19.26, 45.243], [19.424, 45.167], [19.087, 45.145], [19.019, 44.855], [19.352, 44.89], [19.705, 44.926], [19.986, 44.642], [20.333, 45.073], [20.414, 45.084], [20.819, 44.658], [21.037, 44.719], [21.358, 44.823], [21.484, 45.19], [21.017, 45.325], [20.663, 45.794], [20.264, 46.126], [20.262, 46.125], [20.23, 46.129], [20.096, 46.177], [20.023, 46.173], [19.865, 46.15], [19.698, 46.188], [19.303, 45.992], [18.89, 45.922], [18.822, 45.915], [18.814, 45.909]]]]}}