{"type": "Feature", "properties": {"name": "Shushi Region", "iso2": "AZ-SUS", "admin_level": 4, "osm_id": 3807624, "countrylevel_id": "iso2:AZ-SUS", "osm_data": {"localname": "Շուշիի շրջան", "official_name": "", "alltags": {"name:az": "Şuşa İnzibati Ərazisi", "name:en": "Shushi Region", "name:es": "Şuşi", "name:fr": "Chouchi", "name:hy": "Շուշիի շրջան", "name:ja": "シュシー地区", "name:ru": "Шушинский район", "is_in:country": "Azerbaijan", "is_in:continent": "Asia", "is_in:country_code": "AZ"}}, "center_lat": 39.7, "center_lon": 46.67, "timezone": "Asia/Baku", "population": 29700, "wikidata_id": "Q388960", "wikipedia_id": "ru:Шушинский район (НКР)"}, "geometry": {"type": "MultiPolygon", "coordinates": [[[[46.557, 39.805], [46.572, 39.774], [46.575, 39.754], [46.585, 39.731], [46.565, 39.7], [46.564, 39.689], [46.572, 39.654], [46.601, 39.648], [46.598, 39.628], [46.603, 39.61], [46.62, 39.595], [46.667, 39.587], [46.676, 39.605], [46.741, 39.592], [46.76, 39.603], [46.762, 39.674], [46.77, 39.704], [46.782, 39.713], [46.783, 39.727], [46.751, 39.737], [46.762, 39.748], [46.763, 39.786], [46.752, 39.789], [46.737, 39.777], [46.7, 39.794], [46.653, 39.787], [46.637, 39.793], [46.612, 39.796], [46.606, 39.804], [46.588, 39.811], [46.557, 39.805]]]]}}