{"type": "Feature", "properties": {"name": "Kyiv Oblast", "iso2": "UA-32", "admin_level": 4, "osm_id": 71248, "countrylevel_id": "iso2:UA-32", "osm_data": {"localname": "Київська область", "official_name": "", "alltags": {"flag": "http://upload.wikimedia.org/wikipedia/commons/b/be/Flag_of_Kiev_Oblast.svg", "koatuu": "3200000000", "ref:en": "KYI", "ref:ru": "КИЕ", "name:af": "Kyiv-oblast", "name:ar": "كييف أوبلاست", "name:az": "Kıyiv vilayəti", "name:be": "Кіеўская вобласць", "name:bg": "Киевска област", "name:bs": "Kijevska oblast", "name:ca": "Província de Kíiv", "name:cs": "Kyjevská oblast", "name:cv": "Кейӳ облаçĕ", "name:en": "Kyiv Oblast", "name:eo": "Kijivo provinco", "name:es": "Óblast de Kyiv", "name:et": "Kiievi oblast", "name:eu": "Kieveko oblasta", "name:fa": "استان کیف", "name:fi": "Kiovan alue", "name:fr": "Oblast de Kyiv", "name:hr": "Kijevska oblast", "name:hy": "Կիևի մարզ", "name:id": "Oblast Kiev", "name:it": "Oblast' di Kyiv", "name:ja": "キエフ州", "name:ka": "კიევის ოლქი", "name:ko": "키예프 주", "name:lt": "Kijevo sritis", "name:lv": "Kijevas apgabals", "name:mk": "Киевска област", "name:mr": "क्यीव ओब्लास्त", "name:ms": "Oblast Kiev", "name:nl": "Oblast Kiev", "name:nn": "Kiev oblast", "name:no": "Kiev oblast", "name:os": "Киевы облæст", "name:pl": "Obwód kijowski", "name:pt": "Oblast de Kyiv", "name:ro": "Regiunea Kiev", "name:ru": "Киевская область", "name:sh": "Kyivska oblast", "name:sk": "Kyjevská oblasť", "name:sr": "Кијевска област", "name:sv": "Kiev oblast", "name:tr": "Kıyiv Oblastı", "name:uk": "Київська область", "name:vi": "Tỉnh Kyiv", "name:zh": "基辅州", "name:crh": "Kiyev vilâyeti", "name:haw": "Kyiv", "name:nan": "Kyyiv séng", "name:pnb": "کیف اوبلاست", "name:rue": "Київска область", "name:sco": "Kiev Oblast", "name:war": "Kiev Oblast", "name:xmf": "კიევიშ ოლქი", "alt_name:ca": "Província de Kíev", "alt_name:de": "Oblast Kiew", "alt_name:eo": "Kieva provinco", "alt_name:es": "Óblast de Kiev", "alt_name:et": "Kõjivi oblast", "alt_name:fr": "Oblast de Kiev", "alt_name:it": "Oblast' di Kiev", "alt_name:pt": "Oblast de Kiev", "alt_name:sh": "Kijevska oblast", "alt_name:tr": "Kıyiv Oblastı", "alt_name:vi": "Tỉnh Kiev", "alt_name:haw": "Kiev", "is_in:country": "Ukraine", "name:be-tarask": "Кіеўская вобласьць", "is_in:continent": "Europe", "is_in:country_code": "UA"}}, "center_lat": 50.3, "center_lon": 30.46, "timezone": "Europe/Kiev", "population": 1754284, "wikidata_id": "Q170036", "wikipedia_id": "uk:Київська область"}, "geometry": {"type": "MultiPolygon", "coordinates": [[[[29.505, 49.649], [29.536, 49.637], [29.497, 49.6], [29.54, 49.521], [29.583, 49.495], [29.545, 49.484], [29.594, 49.443], [29.541, 49.402], [29.506, 49.395], [29.537, 49.323], [29.618, 49.305], [29.613, 49.265], [29.689, 49.237], [29.71, 49.263], [29.736, 49.229], [29.76, 49.18], [29.883, 49.186], [29.934, 49.248], [29.954, 49.25], [29.944, 49.302], [30.028, 49.333], [30.078, 49.322], [30.112, 49.27], [30.136, 49.331], [30.201, 49.327], [30.189, 49.275], [30.368, 49.255], [30.376, 49.236], [30.414, 49.33], [30.473, 49.365], [30.516, 49.328], [30.548, 49.327], [30.607, 49.37], [30.729, 49.332], [30.801, 49.354], [30.909, 49.359], [30.935, 49.406], [30.991, 49.422], [31.029, 49.472], [31.095, 49.498], [31.11, 49.557], [31.153, 49.555], [31.128, 49.583], [31.202, 49.675], [31.222, 49.733], [31.216, 49.777], [31.19, 49.79], [31.221, 49.832], [31.208, 49.852], [31.261, 49.858], [31.31, 49.892], [31.38, 49.907], [31.312, 49.963], [31.311, 49.993], [31.422, 49.992], [31.445, 49.976], [31.422, 49.91], [31.44, 49.877], [31.514, 49.847], [31.581, 49.907], [31.613, 49.906], [31.615, 49.857], [31.717, 49.853], [31.813, 49.966], [31.918, 49.961], [31.9, 50.019], [31.987, 50.052], [31.908, 50.061], [31.911, 50.101], [31.975, 50.125], [31.965, 50.152], [32.017, 50.206], [32.056, 50.188], [32.118, 50.228], [32.087, 50.284], [32.14, 50.305], [32.143, 50.349], [32.161, 50.369], [32.096, 50.372], [32.057, 50.397], [32.021, 50.459], [31.972, 50.467], [32.064, 50.512], [32.063, 50.541], [31.955, 50.544], [31.919, 50.596], [31.857, 50.632], [31.783, 50.607], [31.782, 50.56], [31.687, 50.564], [31.646, 50.553], [31.629, 50.522], [31.57, 50.528], [31.418, 50.503], [31.358, 50.53], [31.329, 50.501], [31.319, 50.527], [31.254, 50.544], [31.246, 50.568], [31.188, 50.575], [31.166, 50.607], [31.223, 50.607], [31.202, 50.655], [31.224, 50.667], [31.191, 50.725], [31.122, 50.75], [31.127, 50.774], [31.07, 50.765], [30.74, 50.771], [30.743, 50.806], [30.777, 50.833], [30.772, 50.874], [30.684, 50.902], [30.645, 50.964], [30.642, 51.003], [30.601, 51.027], [30.499, 51.019], [30.517, 51.111], [30.498, 51.175], [30.541, 51.178], [30.506, 51.225], [30.561, 51.239], [30.539, 51.263], [30.505, 51.28], [30.453, 51.274], [30.463, 51.307], [30.424, 51.306], [30.324, 51.361], [30.36, 51.377], [30.347, 51.423], [30.288, 51.464], [30.18, 51.513], [30.164, 51.489], [30.014, 51.505], [29.971, 51.475], [29.894, 51.485], [29.881, 51.446], [29.847, 51.458], [29.797, 51.442], [29.744, 51.457], [29.74, 51.531], [29.673, 51.503], [29.634, 51.506], [29.579, 51.462], [29.542, 51.483], [29.523, 51.424], [29.496, 51.397], [29.422, 51.415], [29.359, 51.385], [29.395, 51.38], [29.399, 51.321], [29.356, 51.275], [29.269, 51.266], [29.304, 51.161], [29.33, 51.126], [29.349, 51.16], [29.425, 51.126], [29.512, 51.061], [29.467, 51.019], [29.476, 50.979], [29.414, 50.984], [29.411, 50.949], [29.467, 50.925], [29.521, 50.869], [29.497, 50.837], [29.547, 50.814], [29.488, 50.812], [29.572, 50.769], [29.598, 50.729], [29.523, 50.662], [29.445, 50.621], [29.496, 50.593], [29.503, 50.552], [29.46, 50.54], [29.503, 50.502], [29.51, 50.471], [29.447, 50.453], [29.497, 50.45], [29.48, 50.413], [29.56, 50.423], [29.589, 50.375], [29.642, 50.358], [29.612, 50.341], [29.682, 50.312], [29.666, 50.265], [29.692, 50.238], [29.643, 50.18], [29.688, 50.144], [29.648, 50.106], [29.697, 50.068], [29.672, 50.033], [29.735, 49.944], [29.642, 49.898], [29.639, 49.869], [29.596, 49.843], [29.507, 49.835], [29.483, 49.802], [29.44, 49.804], [29.463, 49.761], [29.436, 49.729], [29.497, 49.713], [29.505, 49.649]], [[30.236, 50.431], [30.267, 50.518], [30.307, 50.571], [30.371, 50.586], [30.463, 50.584], [30.496, 50.552], [30.568, 50.521], [30.557, 50.54], [30.654, 50.534], [30.723, 50.591], [30.816, 50.564], [30.823, 50.537], [30.755, 50.519], [30.743, 50.458], [30.827, 50.402], [30.773, 50.374], [30.717, 50.382], [30.697, 50.347], [30.646, 50.363], [30.613, 50.337], [30.647, 50.296], [30.611, 50.281], [30.644, 50.226], [30.593, 50.213], [30.575, 50.26], [30.553, 50.259], [30.534, 50.317], [30.475, 50.333], [30.468, 50.36], [30.371, 50.42], [30.358, 50.445], [30.281, 50.447], [30.236, 50.431]]], [[[30.317, 50.492], [30.317, 50.492], [30.317, 50.492], [30.317, 50.492]]], [[[30.652, 51.524], [30.782, 51.512], [30.785, 51.539], [30.704, 51.554], [30.705, 51.53], [30.652, 51.524]]]]}}