{"type": "Feature", "properties": {"name": "Rivne Oblast", "iso2": "UA-56", "admin_level": 4, "osm_id": 71236, "countrylevel_id": "iso2:UA-56", "osm_data": {"localname": "Рівненська область", "official_name": "", "alltags": {"flag": "http://upload.wikimedia.org/wikipedia/commons/3/3c/Flag_of_Rivne_Oblast.svg", "koatuu": "5600000000", "ref:en": "RIV", "ref:ru": "РОВ", "name:ar": "ريفنا أوبلاست", "name:be": "Ровенская вобласць", "name:bg": "Ровенска област", "name:ca": "Província de Rivne", "name:cs": "Rovenská oblast", "name:en": "Rivne Oblast", "name:eo": "Rivna provinco", "name:es": "Óblast de Rivne", "name:et": "Rivne oblast", "name:eu": "Rivneko oblasta", "name:fa": "استان ریونه", "name:fi": "Rivnen alue", "name:fr": "Oblast de Rivne", "name:hr": "Rivnenska oblast", "name:hy": "Ռովնոյի մարզ", "name:id": "Oblast Rivne", "name:it": "Oblast' di Rivne", "name:ja": "リウネ州", "name:ka": "როვნოს ოლქი", "name:ko": "리우네 주", "name:lt": "Rivnės sritis", "name:lv": "Rivnes apgabals", "name:mk": "Ровенска област", "name:mr": "रिव्ह्ने ओब्लास्त", "name:ms": "Oblast Rivne", "name:nl": "Oblast Rivne", "name:nn": "Rivne oblast", "name:no": "Rivne oblast", "name:pl": "Obwód rówieński", "name:pt": "Oblast de Rivne", "name:ro": "Regiunea Rivne", "name:ru": "Ровенская область", "name:sh": "Rivnenska oblast", "name:sk": "Rivnenská oblasť", "name:sr": "Ривањска област", "name:sv": "Rivne oblast", "name:tr": "Rivne Oblastı", "name:uk": "Рівненська область", "name:vi": "Rivne (tỉnh)", "name:zh": "羅夫諾州", "name:crh": "Rivne vilâyeti", "name:nan": "Rivne séng", "name:pnb": "ریون اوبلاست", "name:rue": "Рівненьска область", "name:sco": "Rivne Oblast", "name:war": "Rivne Oblast", "addr:country": "UA", "is_in:country": "Ukraine", "name:be-tarask": "Ровенская вобласьць", "is_in:continent": "Europe", "is_in:country_code": "UA"}}, "center_lat": 51.04, "center_lon": 26.39, "timezone": "Europe/Kiev", "population": 1160647, "wikidata_id": "Q174187", "wikipedia_id": "uk:Рівненська область"}, "geometry": {"type": "MultiPolygon", "coordinates": [[[[25.113, 50.287], [25.205, 50.279], [25.17, 50.202], [25.215, 50.18], [25.197, 50.131], [25.319, 50.016], [25.347, 50.004], [25.364, 50.046], [25.432, 50.053], [25.454, 50.094], [25.489, 50.102], [25.448, 50.124], [25.476, 50.166], [25.554, 50.15], [25.576, 50.176], [25.625, 50.152], [25.685, 50.177], [25.822, 50.181], [25.858, 50.191], [25.935, 50.257], [26.02, 50.23], [26.065, 50.257], [26.166, 50.231], [26.216, 50.264], [26.179, 50.197], [26.22, 50.18], [26.287, 50.184], [26.324, 50.23], [26.397, 50.265], [26.471, 50.26], [26.52, 50.305], [26.561, 50.317], [26.602, 50.368], [26.648, 50.365], [26.713, 50.417], [26.735, 50.477], [26.854, 50.51], [26.899, 50.546], [26.983, 50.523], [27.018, 50.559], [27.057, 50.552], [27.08, 50.584], [27.131, 50.589], [27.131, 50.56], [27.196, 50.562], [27.232, 50.567], [27.225, 50.606], [27.191, 50.621], [27.206, 50.667], [27.244, 50.673], [27.273, 50.712], [27.27, 50.763], [27.242, 50.771], [27.232, 50.839], [27.257, 50.896], [27.214, 50.926], [27.237, 50.935], [27.201, 51.001], [27.22, 51.03], [27.326, 51.043], [27.324, 51.082], [27.356, 51.087], [27.364, 51.143], [27.417, 51.202], [27.473, 51.238], [27.441, 51.31], [27.49, 51.315], [27.525, 51.366], [27.495, 51.376], [27.504, 51.451], [27.585, 51.401], [27.579, 51.478], [27.623, 51.482], [27.669, 51.518], [27.724, 51.562], [27.728, 51.605], [27.653, 51.618], [27.619, 51.605], [27.517, 51.638], [27.511, 51.588], [27.458, 51.62], [27.427, 51.606], [27.24, 51.602], [27.273, 51.647], [27.213, 51.667], [27.207, 51.774], [26.994, 51.769], [26.95, 51.736], [26.851, 51.767], [26.796, 51.759], [26.755, 51.803], [26.694, 51.823], [26.612, 51.824], [26.547, 51.796], [26.467, 51.8], [26.427, 51.833], [26.396, 51.831], [26.395, 51.878], [26.371, 51.863], [26.276, 51.871], [26.156, 51.865], [26.095, 51.911], [25.995, 51.933], [25.92, 51.916], [25.819, 51.929], [25.765, 51.95], [25.781, 51.922], [25.593, 51.924], [25.628, 51.904], [25.709, 51.895], [25.64, 51.85], [25.632, 51.804], [25.683, 51.756], [25.609, 51.641], [25.555, 51.624], [25.599, 51.581], [25.571, 51.55], [25.642, 51.479], [25.647, 51.417], [25.702, 51.383], [25.845, 51.376], [25.824, 51.35], [25.847, 51.32], [25.915, 51.289], [25.946, 51.232], [25.996, 51.228], [26.068, 51.177], [26.067, 51.148], [25.938, 51.113], [25.941, 51.085], [26.017, 51.083], [26.091, 51.051], [26.107, 51.005], [26.085, 50.973], [25.967, 50.957], [26.001, 50.935], [25.992, 50.866], [26.037, 50.851], [26.022, 50.821], [25.901, 50.83], [25.872, 50.738], [25.869, 50.687], [25.824, 50.647], [25.722, 50.684], [25.694, 50.725], [25.597, 50.717], [25.579, 50.7], [25.46, 50.662], [25.4, 50.672], [25.352, 50.641], [25.399, 50.607], [25.327, 50.613], [25.292, 50.631], [25.319, 50.584], [25.311, 50.546], [25.27, 50.533], [25.137, 50.548], [25.122, 50.53], [25.161, 50.502], [25.137, 50.437], [25.209, 50.376], [25.141, 50.369], [25.166, 50.331], [25.109, 50.312], [25.113, 50.287]]]]}}