{"type": "Feature", "properties": {"name": "Odesa Oblast", "iso2": "UA-51", "admin_level": 4, "osm_id": 72634, "countrylevel_id": "iso2:UA-51", "osm_data": {"localname": "Одеська область", "official_name": "", "alltags": {"koatuu": "5100000000", "ref:en": "ODE", "name:ar": "أوديسا أوبلاست", "name:az": "Odessa vilayəti", "name:be": "Адэская вобласць", "name:bg": "Одеска област", "name:ca": "Província d'Odessa", "name:cs": "Oděská oblast", "name:el": "Περιφέρεια Οδησσού", "name:en": "Odesa Oblast", "name:eo": "Odesa provinco", "name:es": "Óblast de Odesa", "name:et": "Odessa oblast", "name:eu": "Odesako oblasta", "name:fa": "استان اودسا", "name:fi": "Odessan alue", "name:fr": "Oblast d'Odessa", "name:hr": "Odeška oblast", "name:hu": "Odesszai terület", "name:hy": "Օդեսայի մարզ", "name:id": "Oblast Odessa", "name:it": "Oblast' di Odessa", "name:ja": "オデッサ州", "name:ka": "ოდესის ოლქი", "name:ko": "오데사 주", "name:lt": "Odesos sritis", "name:lv": "Odesas apgabals", "name:mk": "Одеска област", "name:mr": "ओदेसा ओब्लास्त", "name:nl": "Oblast Odessa", "name:nn": "Odessa oblast", "name:no": "Odessa oblast", "name:os": "Одессæйы облæст", "name:pl": "Obwód odeski", "name:pt": "Oblast de Odesa", "name:ro": "Regiunea Odesa", "name:ru": "Одесская область", "name:sh": "Odeška oblast", "name:sk": "Odeská oblasť", "name:sr": "Одешка област", "name:sv": "Odessa oblast", "name:tr": "Odessa Oblastı", "name:uk": "Одеська область", "name:ur": "اودیسا اوبلاست", "name:vi": "Odessa (tỉnh)", "name:zh": "敖德萨州", "name:crh": "Ades vilâyeti", "name:nan": "Odesa séng", "name:pnb": "اودیسا اوبلاست", "name:rue": "Одеска область", "name:sco": "Odessa Oblast", "name:war": "Odessa Oblast", "name:xmf": "ოდესაშ ოლქი", "name:be-tarask": "Адэская вобласьць", "is_in:country_code": "UA"}}, "center_lat": 46.73, "center_lon": 29.86, "timezone": "Europe/Kiev", "population": 2383075, "wikidata_id": "Q171852", "wikipedia_id": "uk:Одеська область"}, "geometry": {"type": "MultiPolygon", "coordinates": [[[[29.626, 45.479], [29.626, 45.479], [29.626, 45.479], [29.626, 45.479]]], [[[29.77, 45.483], [29.77, 45.483], [29.77, 45.483], [29.77, 45.483]]], [[[30.658, 46.333], [30.658, 46.333], [30.658, 46.333], [30.658, 46.333]]], [[[29.686, 45.458], [29.686, 45.458], [29.686, 45.458], [29.686, 45.458]]], [[[29.654, 45.464], [29.654, 45.464], [29.654, 45.464], [29.654, 45.464]]], [[[29.655, 45.463], [29.655, 45.463], [29.655, 45.463], [29.655, 45.463]]], [[[29.769, 45.185], [29.767, 45.185], [29.769, 45.185], [29.769, 45.185]]], [[[29.697, 45.211], [29.697, 45.211], [29.697, 45.211], [29.697, 45.211]]], [[[29.705, 45.213], [29.705, 45.213], [29.705, 45.213], [29.705, 45.213]]], [[[29.711, 45.213], [29.711, 45.213], [29.711, 45.213], [29.711, 45.213]]], [[[30.205, 45.257], [30.205, 45.257], [30.205, 45.257], [30.205, 45.257]]], [[[29.762, 45.308], [29.762, 45.308], [29.762, 45.308], [29.762, 45.308]]], [[[29.762, 45.308], [29.762, 45.308], [29.762, 45.308], [29.762, 45.308]]], [[[29.768, 45.315], [29.768, 45.315], [29.768, 45.315], [29.768, 45.315]]], [[[29.769, 45.316], [29.769, 45.316], [29.769, 45.316], [29.769, 45.316]]], [[[29.772, 45.327], [29.772, 45.327], [29.772, 45.327], [29.772, 45.327]]], [[[29.69, 45.2], [29.66, 45.251], [29.679, 45.268], [29.651, 45.34], [29.589, 45.39], [29.43, 45.443], [29.364, 45.436], [29.324, 45.448], [29.294, 45.428], [29.238, 45.433], [29.179, 45.4], [29.044, 45.361], [28.95, 45.313], [28.935, 45.28], [28.816, 45.336], [28.781, 45.323], [28.793, 45.293], [28.752, 45.281], [28.788, 45.24], [28.714, 45.224], [28.636, 45.244], [28.569, 45.248], [28.349, 45.32], [28.285, 45.4], [28.287, 45.433], [28.214, 45.467], [28.257, 45.517], [28.305, 45.547], [28.421, 45.513], [28.42, 45.485], [28.515, 45.5], [28.491, 45.571], [28.539, 45.596], [28.516, 45.665], [28.486, 45.66], [28.513, 45.719], [28.555, 45.736], [28.595, 45.741], [28.581, 45.769], [28.709, 45.78], [28.697, 45.818], [28.786, 45.833], [28.769, 45.885], [28.757, 45.957], [28.803, 45.975], [28.901, 45.99], [28.979, 46.003], [29.006, 46.049], [28.951, 46.094], [29.067, 46.196], [29.002, 46.232], [28.952, 46.259], [28.999, 46.316], [28.931, 46.458], [29.025, 46.462], [28.981, 46.489], [29.033, 46.491], [29.063, 46.513], [29.164, 46.515], [29.162, 46.545], [29.236, 46.558], [29.255, 46.486], [29.219, 46.464], [29.247, 46.416], [29.207, 46.386], [29.241, 46.376], [29.264, 46.406], [29.324, 46.415], [29.308, 46.465], [29.351, 46.504], [29.387, 46.447], [29.442, 46.493], [29.502, 46.462], [29.507, 46.423], [29.566, 46.416], [29.58, 46.361], [29.678, 46.361], [29.66, 46.436], [29.734, 46.435], [29.727, 46.467], [29.776, 46.455], [29.805, 46.385], [29.891, 46.352], [29.887, 46.371], [29.939, 46.4], [29.988, 46.384], [30.107, 46.391], [30.164, 46.414], [30.158, 46.429], [30.059, 46.426], [30.023, 46.442], [29.984, 46.51], [29.954, 46.499], [29.905, 46.516], [29.876, 46.547], [29.943, 46.555], [29.968, 46.602], [29.947, 46.651], [29.971, 46.685], [29.976, 46.755], [29.935, 46.806], [29.979, 46.816], [29.952, 46.843], [29.906, 46.82], [29.884, 46.886], [29.75, 46.861], [29.718, 46.932], [29.648, 46.919], [29.64, 46.955], [29.572, 46.94], [29.596, 46.964], [29.602, 47.042], [29.629, 47.045], [29.612, 47.1], [29.548, 47.094], [29.53, 47.075], [29.505, 47.128], [29.58, 47.136], [29.552, 47.251], [29.599, 47.257], [29.574, 47.37], [29.488, 47.356], [29.486, 47.306], [29.398, 47.3], [29.391, 47.38], [29.337, 47.37], [29.336, 47.377], [29.317, 47.449], [29.244, 47.415], [29.242, 47.462], [29.191, 47.425], [29.185, 47.519], [29.152, 47.507], [29.117, 47.554], [29.167, 47.571], [29.218, 47.612], [29.22, 47.682], [29.204, 47.719], [29.249, 47.751], [29.276, 47.802], [29.219, 47.798], [29.207, 47.837], [29.28, 47.889], [29.201, 47.884], [29.175, 47.994], [29.125, 47.994], [29.078, 47.97], [29.087, 47.947], [29.033, 47.943], [28.962, 47.979], [28.926, 47.96], [28.839, 48.035], [28.848, 48.079], [28.927, 48.094], [28.945, 48.157], [29.01, 48.148], [29.032, 48.126], [29.046, 48.174], [29.078, 48.194], [29.142, 48.141], [29.261, 48.13], [29.204, 48.117], [29.312, 48.086], [29.388, 48.095], [29.395, 48.114], [29.472, 48.122], [29.532, 48.098], [29.588, 48.102], [29.602, 48.133], [29.664, 48.108], [29.682, 48.188], [29.781, 48.209], [29.84, 48.212], [29.892, 48.186], [29.93, 48.234], [30.01, 48.209], [30.002, 48.185], [30.045, 48.154], [30.107, 48.14], [30.189, 48.155], [30.307, 48.142], [30.357, 48.101], [30.25, 48.09], [30.232, 48.07], [30.257, 48.022], [30.225, 48.012], [30.246, 47.967], [30.3, 47.921], [30.335, 47.81], [30.423, 47.821], [30.439, 47.79], [30.391, 47.744], [30.42, 47.635], [30.464, 47.641], [30.472, 47.618], [30.612, 47.636], [30.664, 47.635], [30.66, 47.601], [30.72, 47.609], [30.709, 47.639], [30.789, 47.649], [30.779, 47.584], [30.745, 47.58], [30.773, 47.546], [30.876, 47.545], [30.883, 47.507], [30.852, 47.503], [30.908, 47.277], [30.997, 47.29], [31.018, 47.239], [31.17, 47.266], [31.178, 47.223], [31.146, 47.218], [31.157, 47.182], [31.109, 47.188], [31.11, 47.156], [31.197, 47.155], [31.201, 47.172], [31.27, 47.172], [31.305, 47.048], [31.291, 47.025], [31.229, 47.022], [31.242, 46.991], [31.018, 46.964], [31.042, 46.898], [31.093, 46.881], [31.111, 46.845], [31.155, 46.837], [31.153, 46.792], [31.178, 46.769], [31.153, 46.744], [31.193, 46.657], [31.177, 46.627], [31.02, 46.6], [30.82, 46.549], [30.774, 46.554], [30.741, 46.536], [30.734, 46.494], [30.773, 46.441], [30.752, 46.375], [30.715, 46.359], [30.561, 46.159], [30.478, 46.079], [30.359, 45.989], [30.211, 45.859], [30.085, 45.793], [29.841, 45.646], [29.706, 45.574], [29.607, 45.487], [29.651, 45.452], [29.661, 45.477], [29.708, 45.46], [29.73, 45.484], [29.782, 45.467], [29.755, 45.373], [29.766, 45.322], [29.743, 45.281], [29.757, 45.223], [29.729, 45.23], [29.69, 45.2]]]]}}