{"type": "Feature", "properties": {"name": "Arizona", "iso2": "US-AZ", "admin_level": 4, "osm_id": 162018, "countrylevel_id": "iso2:US-AZ", "osm_data": {"localname": "Arizona", "official_name": "", "alltags": {"name:ar": "أريزونا", "name:be": "Арызона", "name:bg": "Аризона", "name:br": "Arizona", "name:el": "Αριζόνα", "name:en": "Arizona", "name:eo": "Arizono", "name:fa": "آریزونا", "name:he": "אריזונה", "name:hi": "एरीजोना", "name:hy": "Արիզոնա", "name:ja": "アリゾナ州", "name:ka": "არიზონა", "name:kn": "ಆರಿಜೋನ", "name:ko": "애리조나", "name:lt": "Arizona", "name:nv": "Hoozdoh Hahoodzo", "name:pl": "Arizona", "name:qu": "Arizona suyu", "name:ru": "Аризона", "name:ta": "அரிசோனா", "name:uk": "Аризона", "name:yi": "אריזאנע", "name:zh": "亞利桑那州", "int_name": "Arizona", "name:haw": "‘Alikona", "name:szl": "Arizůna", "ref:fips": "03", "is_in:continent": "America", "is_in:country_code": "US"}}, "center_lat": 34.29, "center_lon": -111.67, "timezone": "America/Phoenix", "population": 7278717, "wikidata_id": "Q816", "wikipedia_id": "en:Arizona"}, "geometry": {"type": "MultiPolygon", "coordinates": [[[[-114.814, 32.494], [-111.075, 31.332], [-109.05, 31.332], [-109.045, 36.999], [-112.002, 37.001], [-114.05, 37], [-114.047, 36.194], [-114.736, 36.104], [-114.633, 35.002], [-114.132, 34.259], [-114.535, 33.925], [-114.724, 33.4], [-114.527, 32.757], [-114.72, 32.719], [-114.814, 32.494]]]]}}