{"type": "Feature", "properties": {"name": "Delaware", "iso2": "US-DE", "admin_level": 4, "osm_id": 162110, "countrylevel_id": "iso2:US-DE", "osm_data": {"localname": "Delaware", "official_name": "", "alltags": {"name:ar": "ديلاوير", "name:bg": "Делауеър", "name:bn": "ডেলাওয়্যার", "name:br": "Delaware", "name:en": "Delaware", "name:fa": "دلاویر", "name:he": "דלאוור", "name:hi": "डेलावर", "name:ht": "Delawè", "name:hy": "Դելավեր", "name:ik": "Delauaare", "name:ja": "デラウェア州", "name:ka": "დელავერი", "name:ko": "델라웨어", "name:lt": "Delaveras", "name:ml": "ഡെലവെയര്‍", "name:mn": "Делавар", "name:mr": "डेलावेर", "name:nv": "Déláwee Hahoodzo", "name:pl": "Delaware", "name:ru": "Делавэр", "name:sr": "Делавер", "name:ta": "டெலவெயர்", "name:th": "รัฐเดลาแวร์", "name:uk": "Делавер", "name:ur": "ڈیلاویئر", "name:yi": "דעלעווער", "name:zh": "特拉华州", "name:arc": "ܕܝܠܐܘܝܪ", "name:hak": "Thi̍t-lâ-ngá", "name:haw": "Kelawea", "ref:fips": "10"}}, "center_lat": 38.95, "center_lon": -75.49, "timezone": "America/New_York", "population": 973764, "wikidata_id": "Q1393", "wikipedia_id": "en:Delaware"}, "geometry": {"type": "MultiPolygon", "coordinates": [[[[-75.437, 39.241], [-75.437, 39.241], [-75.437, 39.241], [-75.437, 39.241]]], [[[-75.426, 39.244], [-75.426, 39.244], [-75.426, 39.244], [-75.426, 39.244]]], [[[-75.486, 39.321], [-75.486, 39.321], [-75.486, 39.321], [-75.486, 39.321]]], [[[-75.491, 39.342], [-75.491, 39.342], [-75.491, 39.342], [-75.491, 39.342]]], [[[-75.486, 39.324], [-75.486, 39.324], [-75.486, 39.324], [-75.486, 39.324]]], [[[-75.483, 39.327], [-75.483, 39.327], [-75.483, 39.327], [-75.483, 39.327]]], [[[-75.476, 39.326], [-75.476, 39.326], [-75.476, 39.326], [-75.476, 39.326]]], [[[-75.489, 39.328], [-75.489, 39.328], [-75.489, 39.328], [-75.489, 39.328]]], [[[-75.789, 39.722], [-75.423, 39.807], [-75.614, 39.604], [-75.403, 39.068], [-75.088, 38.795], [-75.049, 38.451], [-75.694, 38.46], [-75.732, 38.939], [-75.733, 38.953], [-75.789, 39.722]]], [[[-75.538, 39.497], [-75.543, 39.497], [-75.538, 39.497], [-75.538, 39.497]]], [[[-75.569, 39.501], [-75.569, 39.501], [-75.569, 39.501], [-75.569, 39.501]]], [[[-75.567, 39.509], [-75.567, 39.509], [-75.567, 39.509], [-75.567, 39.509]]], [[[-75.569, 39.585], [-75.569, 39.585], [-75.569, 39.585], [-75.569, 39.585]]], [[[-75.544, 39.596], [-75.543, 39.595], [-75.544, 39.596], [-75.544, 39.596]]], [[[-75.558, 39.632], [-75.556, 39.606], [-75.558, 39.632], [-75.558, 39.632]]], [[[-75.526, 39.657], [-75.527, 39.656], [-75.526, 39.657], [-75.526, 39.657]]], [[[-75.514, 39.67], [-75.514, 39.67], [-75.514, 39.67], [-75.514, 39.67]]], [[[-75.505, 39.698], [-75.505, 39.698], [-75.505, 39.698], [-75.505, 39.698]]]]}}