{"type": "Feature", "properties": {"name": "Georgia", "iso2": "US-GA", "admin_level": 4, "osm_id": 161957, "countrylevel_id": "iso2:US-GA", "osm_data": {"localname": "Georgia", "official_name": "", "alltags": {"name:an": "Cheorchia", "name:ar": "جورجيا", "name:az": "Corciya", "name:bg": "Джорджия", "name:bn": "জর্জিয়া", "name:br": "Georgia", "name:ca": "Geòrgia", "name:cs": "Georgie", "name:cv": "Джорджи", "name:el": "Τζόρτζια", "name:en": "Georgia", "name:eo": "Georgio", "name:fa": "جورجیا", "name:fr": "Géorgie", "name:gd": "Seòirsia", "name:gl": "Xeorxia", "name:gv": "Yn Çhorshey", "name:he": "ג'ורג'יה", "name:hi": "जार्जिया", "name:ht": "Djòdji", "name:hy": "Ջորջիա", "name:is": "Georgía", "name:ja": "ジョージア州", "name:ka": "ჯორჯია", "name:kn": "ಜಾರ್ಜಿಯ", "name:ko": "조지아", "name:lt": "Džordžija", "name:lv": "Džordžija", "name:mk": "Џорџија", "name:ml": "ജോര്‍ജിയ", "name:mn": "Жоржиа", "name:mr": "जॉर्जिया", "name:nv": "Jóojah Hahoodzo", "name:os": "Джорджи", "name:pl": "Georgia", "name:pt": "Geórgia", "name:qu": "Georgia suyu", "name:ru": "Джорджия", "name:sr": "Џорџија", "name:ta": "ஜோர்ஜியா", "name:te": "జార్జియా", "name:th": "รัฐจอร์เจีย", "name:uk": "Джорджія", "name:uz": "Jorjiya", "name:yi": "דזשארזשיע", "name:zh": "喬治亞州", "name:frp": "Jôrg·ie", "name:hak": "Khièu-tshṳ-â", "name:haw": "Keokia", "ref:fips": "13", "border_type": "state", "is_in:country_code": "US"}}, "center_lat": 32.66, "center_lon": -83.45, "timezone": "America/New_York", "population": 10617423, "wikidata_id": "Q1428", "wikipedia_id": "en:Georgia (U.S. state)"}, "geometry": {"type": "MultiPolygon", "coordinates": [[[[-81.125, 31.697], [-81.125, 31.697], [-81.125, 31.697], [-81.125, 31.697]]], [[[-81.474, 31.133], [-81.474, 31.133], [-81.474, 31.133], [-81.474, 31.133]]], [[[-81.474, 31.134], [-81.474, 31.134], [-81.474, 31.134], [-81.474, 31.134]]], [[[-81.473, 31.154], [-81.473, 31.154], [-81.473, 31.154], [-81.473, 31.154]]], [[[-81.271, 31.308], [-81.271, 31.308], [-81.271, 31.308], [-81.271, 31.308]]], [[[-81.479, 31.126], [-81.479, 31.126], [-81.479, 31.126], [-81.479, 31.126]]], [[[-81.55, 31.127], [-81.55, 31.127], [-81.55, 31.127], [-81.55, 31.127]]], [[[-81.476, 31.13], [-81.476, 31.13], [-81.476, 31.13], [-81.476, 31.13]]], [[[-81.434, 31.062], [-81.434, 31.062], [-81.434, 31.062], [-81.434, 31.062]]], [[[-81.434, 31.078], [-81.434, 31.078], [-81.434, 31.078], [-81.434, 31.078]]], [[[-81.452, 31.015], [-81.452, 31.015], [-81.452, 31.015], [-81.452, 31.015]]], [[[-81.462, 31.017], [-81.462, 31.017], [-81.462, 31.017], [-81.462, 31.017]]], [[[-81.431, 31.057], [-81.431, 31.057], [-81.431, 31.057], [-81.431, 31.057]]], [[[-81.439, 31.06], [-81.439, 31.06], [-81.439, 31.06], [-81.439, 31.06]]], [[[-81.485, 31.115], [-81.485, 31.115], [-81.485, 31.115], [-81.485, 31.115]]], [[[-81.433, 31.032], [-81.433, 31.032], [-81.433, 31.032], [-81.433, 31.032]]], [[[-81.48, 31.088], [-81.48, 31.088], [-81.48, 31.088], [-81.48, 31.088]]], [[[-81.436, 31.08], [-81.436, 31.08], [-81.436, 31.08], [-81.436, 31.08]]], [[[-81.436, 31.081], [-81.436, 31.081], [-81.436, 31.081], [-81.436, 31.081]]], [[[-81.436, 31.083], [-81.436, 31.083], [-81.436, 31.083], [-81.436, 31.083]]], [[[-81.438, 31.088], [-81.438, 31.088], [-81.438, 31.088], [-81.438, 31.088]]], [[[-81.485, 31.118], [-81.485, 31.118], [-81.485, 31.118], [-81.485, 31.118]]], [[[-81.581, 30.734], [-81.581, 30.734], [-81.581, 30.734], [-81.581, 30.734]]], [[[-81.554, 30.875], [-81.554, 30.875], [-81.554, 30.875], [-81.554, 30.875]]], [[[-81.481, 30.733], [-81.481, 30.733], [-81.481, 30.733], [-81.481, 30.733]]], [[[-81.477, 30.737], [-81.477, 30.737], [-81.477, 30.737], [-81.477, 30.737]]], [[[-81.475, 30.738], [-81.475, 30.738], [-81.475, 30.738], [-81.475, 30.738]]], [[[-81.481, 30.772], [-81.481, 30.772], [-81.481, 30.772], [-81.481, 30.772]]], [[[-81.518, 30.817], [-81.518, 30.817], [-81.518, 30.817], [-81.518, 30.817]]], [[[-81.482, 30.738], [-81.482, 30.738], [-81.482, 30.738], [-81.482, 30.738]]], [[[-81.482, 30.739], [-81.482, 30.739], [-81.482, 30.739], [-81.482, 30.739]]], [[[-81.486, 30.802], [-81.486, 30.802], [-81.486, 30.802], [-81.486, 30.802]]], [[[-81.414, 30.952], [-81.414, 30.952], [-81.414, 30.952], [-81.414, 30.952]]], [[[-81.427, 30.953], [-81.427, 30.953], [-81.427, 30.953], [-81.427, 30.953]]], [[[-81.427, 30.955], [-81.427, 30.955], [-81.427, 30.955], [-81.427, 30.955]]], [[[-81.422, 30.956], [-81.422, 30.956], [-81.422, 30.956], [-81.422, 30.956]]], [[[-81.489, 30.969], [-81.489, 30.969], [-81.489, 30.969], [-81.489, 30.969]]], [[[-81.43, 30.941], [-81.43, 30.941], [-81.43, 30.941], [-81.43, 30.941]]], [[[-81.429, 30.942], [-81.429, 30.942], [-81.429, 30.942], [-81.429, 30.942]]], [[[-81.466, 30.857], [-81.466, 30.857], [-81.466, 30.857], [-81.466, 30.857]]], [[[-81.477, 30.966], [-81.477, 30.966], [-81.477, 30.966], [-81.477, 30.966]]], [[[-81.426, 30.949], [-81.426, 30.949], [-81.426, 30.949], [-81.426, 30.949]]], [[[-81.406, 30.951], [-81.406, 30.951], [-81.406, 30.951], [-81.406, 30.951]]], [[[-81.429, 30.942], [-81.429, 30.942], [-81.429, 30.942], [-81.429, 30.942]]], [[[-81.408, 30.944], [-81.408, 30.944], [-81.408, 30.944], [-81.408, 30.944]]], [[[-81.427, 30.947], [-81.427, 30.947], [-81.427, 30.947], [-81.427, 30.947]]], [[[-81.428, 30.944], [-81.428, 30.944], [-81.428, 30.944], [-81.428, 30.944]]], [[[-81.414, 30.935], [-81.414, 30.935], [-81.414, 30.935], [-81.414, 30.935]]], [[[-81.574, 30.722], [-82.023, 30.787], [-82.042, 30.366], [-82.215, 30.568], [-83.309, 30.634], [-83.309, 30.634], [-84.865, 30.711], [-85.002, 31.001], [-85.141, 31.857], [-84.888, 32.261], [-85.168, 32.812], [-85.605, 34.985], [-84.322, 34.988], [-83.109, 35.001], [-83.119, 34.97], [-83.12, 34.969], [-83.354, 34.698], [-82.864, 34.46], [-82.557, 33.945], [-81.493, 33.006], [-81.117, 32.118], [-80.85, 32.034], [-81.138, 31.721], [-81.574, 30.722]]]]}}