{"type": "Feature", "properties": {"name": "Guam", "iso2": "US-GU", "admin_level": 4, "osm_id": 306001, "countrylevel_id": "iso2:US-GU", "osm_data": {"localname": "Guam", "official_name": "", "alltags": {"flag": "http://upload.wikimedia.org/wikipedia/commons/0/07/Flag_of_Guam.svg", "name:ar": "غوام", "name:cs": "Guam", "name:en": "Guam", "name:eo": "Gvamo", "name:fr": "Guam", "name:hr": "Guam", "name:ja": "グアム", "name:lt": "Guamas", "name:mk": "Гуам", "name:oc": "Guam", "name:ru": "Гуам", "name:sk": "Guam", "name:sr": "Гвам", "name:uk": "Гуам", "name:vi": "Guam", "name:zh": "关岛 / 關島", "name:nan": "Guam", "name:sr-Latn": "Gvam", "name:zh-Hans": "关岛", "name:zh-Hant": "關島", "is_in:country": "United States", "is_in:continent": "Oceania", "official_name:cs": "Teritorium Guam"}, "iso1": "GU"}, "center_lat": 13.35, "center_lon": 144.69, "timezone": "Pacific/Guam", "population": 167772, "wikidata_id": "Q16635", "wikipedia_id": "en:Guam"}, "geometry": {"type": "MultiPolygon", "coordinates": [[[[144.646, 13.236], [144.646, 13.236], [144.646, 13.236], [144.646, 13.236]]], [[[144.674, 13.24], [144.674, 13.24], [144.674, 13.24], [144.674, 13.24]]], [[[144.708, 13.245], [144.708, 13.245], [144.708, 13.245], [144.708, 13.245]]], [[[144.706, 13.245], [144.706, 13.245], [144.706, 13.245], [144.706, 13.245]]], [[[144.676, 13.459], [144.676, 13.459], [144.676, 13.459], [144.676, 13.459]]], [[[144.681, 13.461], [144.681, 13.461], [144.681, 13.461], [144.681, 13.461]]], [[[144.679, 13.461], [144.679, 13.461], [144.679, 13.461], [144.679, 13.461]]], [[[144.684, 13.462], [144.684, 13.462], [144.684, 13.462], [144.684, 13.462]]], [[[144.771, 13.492], [144.771, 13.492], [144.771, 13.492], [144.771, 13.492]]], [[[144.795, 13.508], [144.795, 13.508], [144.795, 13.508], [144.795, 13.508]]], [[[144.647, 13.381], [144.647, 13.381], [144.647, 13.381], [144.647, 13.381]]], [[[144.655, 13.387], [144.655, 13.387], [144.655, 13.387], [144.655, 13.387]]], [[[144.648, 13.414], [144.648, 13.414], [144.648, 13.414], [144.648, 13.414]]], [[[144.717, 13.247], [144.717, 13.247], [144.717, 13.247], [144.717, 13.247]]], [[[144.732, 13.251], [144.732, 13.251], [144.732, 13.251], [144.732, 13.251]]], [[[144.731, 13.251], [144.731, 13.251], [144.731, 13.251], [144.731, 13.251]]], [[[144.745, 13.269], [144.745, 13.269], [144.745, 13.269], [144.745, 13.269]]], [[[144.633, 13.341], [144.633, 13.341], [144.633, 13.341], [144.633, 13.341]]], [[[144.637, 13.357], [144.637, 13.357], [144.637, 13.357], [144.637, 13.357]]], [[[144.651, 13.378], [144.651, 13.378], [144.651, 13.378], [144.651, 13.378]]], [[[144.772, 13.348], [144.772, 13.348], [144.772, 13.348], [144.772, 13.348]]]]}}