{"type": "Feature", "properties": {"name": "Hawaii", "iso2": "US-HI", "admin_level": 4, "osm_id": 166563, "countrylevel_id": "iso2:US-HI", "osm_data": {"localname": "Hawaii", "official_name": "", "alltags": {"name:ar": "هاواي", "name:az": "Havay", "name:bg": "Хаваи", "name:bn": "হাওয়াই", "name:cs": "Havaj", "name:el": "Χαβάη", "name:en": "Hawaii", "name:eo": "Havajo", "name:es": "Hawái", "name:fa": "هاوائی", "name:fi": "Havaiji", "name:fr": "Hawaï", "name:fy": "Hawaï", "name:ga": "Haváí", "name:gl": "Hawai", "name:gn": "Havái", "name:he": "הוואי", "name:hi": "हवाई", "name:hr": "Havaji", "name:ht": "Awayi", "name:hy": "Հավայան կղզիներ", "name:ja": "ハワイ州", "name:ka": "ჰავაი", "name:ko": "하와이", "name:lt": "Havajai", "name:lv": "Havajas", "name:mi": "Hawai'i", "name:mk": "Хаваи", "name:ml": "ഹവായി", "name:mn": "Хавай", "name:mr": "हवाई", "name:nl": "Hawaï", "name:nv": "Hawáai Hahoodzo", "name:pl": "Hawaje", "name:pt": "Havaí", "name:qu": "Hawaii suyu", "name:ru": "Гавайи", "name:se": "Hawaiisullot", "name:sh": "Havaji", "name:sk": "Havaj", "name:sl": "Havaji", "name:sr": "Хаваји", "name:ta": "ஹவாய்", "name:te": "హవాయి", "name:th": "รัฐฮาวาย", "name:tl": "Haway", "name:to": "Hauai'i", "name:uk": "Гаваї", "name:ur": "ہوائی", "name:uz": "Gavayi", "name:yi": "האוואי", "name:zh": "夏威夷州", "name:frp": "Havayi", "name:hak": "Ha-vî-yî", "name:haw": "Hawaiʻi", "name:sah": "Һауайи", "name:tzl": "Havaiï", "ref:fips": "15", "alt_name:vi": "Hạ Uy Di", "is_in:country": "United States", "is_in:country_code": "US"}}, "center_lat": 20.0, "center_lon": -156.04, "timezone": "Pacific/Honolulu", "population": 1415872, "wikidata_id": "Q782", "wikipedia_id": "en:Hawaii"}, "geometry": {"type": "MultiPolygon", "coordinates": [[[[-155.254, 19.267], [-155.254, 19.267], [-155.254, 19.267], [-155.254, 19.267]]], [[[-155.069, 19.729], [-155.069, 19.729], [-155.069, 19.729], [-155.069, 19.729]]], [[[-155.921, 19.857], [-155.921, 19.857], [-155.921, 19.857], [-155.921, 19.857]]], [[[-156.61, 20.51], [-156.61, 20.51], [-156.61, 20.51], [-156.61, 20.51]]], [[[-155.828, 20.001], [-155.837, 20.267], [-155.28, 20.019], [-154.807, 19.52], [-155.688, 18.939], [-155.881, 19.037], [-156.061, 19.73], [-155.828, 20.001]]], [[[-155.703, 20.191], [-155.703, 20.191], [-155.703, 20.191], [-155.703, 20.191]]], [[[-155.701, 20.192], [-155.701, 20.192], [-155.701, 20.192], [-155.701, 20.192]]], [[[-156.08, 20.824], [-156.08, 20.824], [-156.08, 20.824], [-156.08, 20.824]]], [[[-155.979, 20.756], [-155.979, 20.756], [-155.979, 20.756], [-155.979, 20.756]]], [[[-155.98, 20.758], [-155.98, 20.758], [-155.98, 20.758], [-155.98, 20.758]]], [[[-156.495, 20.631], [-156.495, 20.631], [-156.495, 20.631], [-156.495, 20.631]]], [[[-155.976, 20.729], [-155.976, 20.729], [-155.976, 20.729], [-155.976, 20.729]]], [[[-156.614, 20.517], [-156.614, 20.517], [-156.614, 20.517], [-156.614, 20.517]]], [[[-156.705, 21.131], [-156.705, 21.131], [-156.705, 21.131], [-156.705, 21.131]]], [[[-156.704, 21.132], [-156.704, 21.132], [-156.704, 21.132], [-156.704, 21.132]]], [[[-156.921, 21.171], [-156.921, 21.171], [-156.921, 21.171], [-156.921, 21.171]]], [[[-157, 21.179], [-157, 21.179], [-157, 21.179], [-157, 21.179]]], [[[-156.928, 21.174], [-156.928, 21.174], [-156.928, 21.174], [-156.928, 21.174]]], [[[-156.924, 21.182], [-156.924, 21.182], [-156.924, 21.182], [-156.924, 21.182]]], [[[-156.891, 20.735], [-156.891, 20.735], [-156.891, 20.735], [-156.891, 20.735]]], [[[-156.922, 20.735], [-156.922, 20.735], [-156.922, 20.735], [-156.922, 20.735]]], [[[-156.667, 21], [-156.001, 20.792], [-156.376, 20.575], [-156.667, 21]]], [[[-156.999, 20.928], [-156.999, 20.928], [-156.999, 20.928], [-156.999, 20.928]]], [[[-156.131, 20.859], [-156.131, 20.859], [-156.131, 20.859], [-156.131, 20.859]]], [[[-156.517, 20.958], [-156.517, 20.958], [-156.517, 20.958], [-156.517, 20.958]]], [[[-156.525, 20.981], [-156.525, 20.981], [-156.525, 20.981], [-156.525, 20.981]]], [[[-156.526, 20.986], [-156.526, 20.986], [-156.526, 20.986], [-156.526, 20.986]]], [[[-156.173, 20.875], [-156.173, 20.875], [-156.173, 20.875], [-156.173, 20.875]]], [[[-157.719, 21.473], [-157.719, 21.473], [-157.719, 21.473], [-157.719, 21.473]]], [[[-157.801, 21.477], [-157.801, 21.477], [-157.801, 21.477], [-157.801, 21.477]]], [[[-157.8, 21.477], [-157.8, 21.477], [-157.8, 21.477], [-157.8, 21.477]]], [[[-157.722, 21.47], [-157.722, 21.47], [-157.722, 21.47], [-157.722, 21.47]]], [[[-160.54, 21.653], [-160.54, 21.653], [-160.54, 21.653], [-160.54, 21.653]]], [[[-157.829, 21.509], [-157.829, 21.509], [-157.829, 21.509], [-157.829, 21.509]]], [[[-158.28, 21.576], [-158.28, 21.576], [-158.28, 21.576], [-158.28, 21.576]]], [[[-158.072, 21.633], [-158.072, 21.633], [-158.072, 21.633], [-158.072, 21.633]]], [[[-157.908, 21.646], [-157.908, 21.646], [-157.908, 21.646], [-157.908, 21.646]]], [[[-157.91, 21.649], [-157.91, 21.649], [-157.91, 21.649], [-157.91, 21.649]]], [[[-157.914, 21.65], [-157.914, 21.65], [-157.914, 21.65], [-157.914, 21.65]]], [[[-157.916, 21.66], [-157.916, 21.66], [-157.916, 21.66], [-157.916, 21.66]]], [[[-160.229, 21.892], [-160.229, 21.892], [-160.229, 21.892], [-160.229, 21.892]]], [[[-160.088, 22.021], [-160.088, 22.021], [-160.088, 22.021], [-160.088, 22.021]]], [[[-160.094, 22.008], [-160.094, 22.008], [-160.094, 22.008], [-160.094, 22.008]]], [[[-160.072, 22], [-160.072, 22], [-160.072, 22], [-160.072, 22]]], [[[-159.771, 22.001], [-159.398, 22.23], [-159.443, 21.869], [-159.771, 22.001]]], [[[-159.404, 22.235], [-159.404, 22.235], [-159.404, 22.235], [-159.404, 22.235]]], [[[-161.928, 23.059], [-161.928, 23.059], [-161.928, 23.059], [-161.928, 23.059]]], [[[-164.697, 23.575], [-164.697, 23.575], [-164.697, 23.575], [-164.697, 23.575]]], [[[-166.171, 23.644], [-166.171, 23.644], [-166.171, 23.644], [-166.171, 23.644]]], [[[-166.164, 23.727], [-166.164, 23.727], [-166.164, 23.727], [-166.164, 23.727]]], [[[-166.166, 23.734], [-166.166, 23.734], [-166.166, 23.734], [-166.166, 23.734]]], [[[-166.172, 23.749], [-166.172, 23.749], [-166.172, 23.749], [-166.172, 23.749]]], [[[-166.262, 23.769], [-166.262, 23.769], [-166.262, 23.769], [-166.262, 23.769]]], [[[-166.201, 23.793], [-166.201, 23.793], [-166.201, 23.793], [-166.201, 23.793]]], [[[-166.23, 23.806], [-166.23, 23.806], [-166.23, 23.806], [-166.23, 23.806]]], [[[-166.225, 23.825], [-166.225, 23.825], [-166.225, 23.825], [-166.225, 23.825]]], [[[-166.229, 23.827], [-166.229, 23.827], [-166.229, 23.827], [-166.229, 23.827]]], [[[-166.25, 23.84], [-166.25, 23.84], [-166.25, 23.84], [-166.25, 23.84]]], [[[-166.325, 23.853], [-166.325, 23.853], [-166.325, 23.853], [-166.325, 23.853]]], [[[-166.289, 23.869], [-166.289, 23.869], [-166.289, 23.869], [-166.289, 23.869]]], [[[-167.998, 25.001], [-167.998, 25.001], [-167.998, 25.001], [-167.998, 25.001]]], [[[-167.999, 25.002], [-167.999, 25.002], [-167.999, 25.002], [-167.999, 25.002]]], [[[-170.626, 25.504], [-170.626, 25.504], [-170.626, 25.504], [-170.626, 25.504]]], [[[-171.727, 25.782], [-171.727, 25.782], [-171.727, 25.782], [-171.727, 25.782]]], [[[-173.97, 26.063], [-173.97, 26.063], [-173.97, 26.063], [-173.97, 26.063]]], [[[-175.94, 27.761], [-175.94, 27.761], [-175.94, 27.761], [-175.94, 27.761]]], [[[-175.946, 27.767], [-175.946, 27.767], [-175.946, 27.767], [-175.946, 27.767]]], [[[-175.908, 27.775], [-175.908, 27.775], [-175.908, 27.775], [-175.908, 27.775]]], [[[-175.819, 27.789], [-175.819, 27.789], [-175.819, 27.789], [-175.819, 27.789]]], [[[-175.846, 27.792], [-175.846, 27.792], [-175.846, 27.792], [-175.846, 27.792]]], [[[-175.842, 27.793], [-175.842, 27.793], [-175.842, 27.793], [-175.842, 27.793]]], [[[-175.867, 27.795], [-175.867, 27.795], [-175.867, 27.795], [-175.867, 27.795]]], [[[-175.738, 27.926], [-175.738, 27.926], [-175.738, 27.926], [-175.738, 27.926]]], [[[-178.34, 28.392], [-178.34, 28.392], [-178.34, 28.392], [-178.34, 28.392]]], [[[-178.336, 28.392], [-178.336, 28.392], [-178.336, 28.392], [-178.336, 28.392]]], [[[-178.319, 28.389], [-178.319, 28.389], [-178.319, 28.389], [-178.319, 28.389]]], [[[-178.321, 28.389], [-178.321, 28.389], [-178.321, 28.389], [-178.321, 28.389]]], [[[-178.293, 28.398], [-178.293, 28.398], [-178.293, 28.398], [-178.293, 28.398]]], [[[-157.921, 21.664], [-157.921, 21.664], [-157.921, 21.664], [-157.921, 21.664]]], [[[-157.898, 21.317], [-157.898, 21.317], [-157.898, 21.317], [-157.898, 21.317]]], [[[-157.655, 21.321], [-157.655, 21.321], [-157.655, 21.321], [-157.655, 21.321]]], [[[-157.656, 21.332], [-157.656, 21.332], [-157.656, 21.332], [-157.656, 21.332]]], [[[-158.015, 21.365], [-158.015, 21.365], [-158.015, 21.365], [-158.015, 21.365]]], [[[-157.95, 21.368], [-157.95, 21.368], [-157.95, 21.368], [-157.95, 21.368]]], [[[-157.948, 21.368], [-157.948, 21.368], [-157.948, 21.368], [-157.948, 21.368]]], [[[-157.698, 21.387], [-157.698, 21.387], [-157.698, 21.387], [-157.698, 21.387]]], [[[-157.967, 21.364], [-157.967, 21.364], [-157.967, 21.364], [-157.967, 21.364]]], [[[-158.015, 21.366], [-158.015, 21.366], [-158.015, 21.366], [-158.015, 21.366]]], [[[-158.015, 21.366], [-158.015, 21.366], [-158.015, 21.366], [-158.015, 21.366]]], [[[-158.016, 21.367], [-158.016, 21.367], [-158.016, 21.367], [-158.016, 21.367]]], [[[-157.699, 21.391], [-157.699, 21.391], [-157.699, 21.391], [-157.699, 21.391]]], [[[-157.721, 21.4], [-157.721, 21.4], [-157.721, 21.4], [-157.721, 21.4]]], [[[-157.765, 21.42], [-157.765, 21.42], [-157.765, 21.42], [-157.765, 21.42]]], [[[-157.719, 21.432], [-157.719, 21.432], [-157.719, 21.432], [-157.719, 21.432]]], [[[-157.788, 21.436], [-157.788, 21.436], [-157.788, 21.436], [-157.788, 21.436]]], [[[-157.788, 21.436], [-157.788, 21.436], [-157.788, 21.436], [-157.788, 21.436]]], [[[-157.776, 21.462], [-157.776, 21.462], [-157.776, 21.462], [-157.776, 21.462]]], [[[-157.808, 21.463], [-157.808, 21.463], [-157.808, 21.463], [-157.808, 21.463]]], [[[-157.871, 21.299], [-157.871, 21.299], [-157.871, 21.299], [-157.871, 21.299]]], [[[-157.904, 21.309], [-157.904, 21.309], [-157.904, 21.309], [-157.904, 21.309]]], [[[-157.893, 21.308], [-157.893, 21.308], [-157.893, 21.308], [-157.893, 21.308]]], [[[-157.895, 21.31], [-157.895, 21.31], [-157.895, 21.31], [-157.895, 21.31]]], [[[-157.897, 21.32], [-157.897, 21.32], [-157.897, 21.32], [-157.897, 21.32]]], [[[-157.81, 21.463], [-157.81, 21.463], [-157.81, 21.463], [-157.81, 21.463]]], [[[-158, 21.362], [-158.28, 21.573], [-157.967, 21.71], [-157.651, 21.299], [-158, 21.362]]]]}}