{"type": "Feature", "properties": {"name": "Indiana", "iso2": "US-IN", "admin_level": 4, "osm_id": 161816, "countrylevel_id": "iso2:US-IN", "osm_data": {"localname": "Indiana", "official_name": "", "alltags": {"name:ar": "إنديانا", "name:be": "Індыяна", "name:bg": "Индиана", "name:br": "Indiana", "name:cv": "Индиана", "name:el": "Ιντιάνα", "name:en": "Indiana", "name:fa": "ایندیانا", "name:he": "אינדיאנה", "name:hi": "इंडियाना", "name:hy": "Ինդիանա", "name:ja": "インディアナ州", "name:ka": "ინდიანა", "name:kn": "ಇಂಡಿಯಾನ", "name:ko": "인디애나 주", "name:lt": "Indiana", "name:mk": "Индијана", "name:ml": "ഇന്ത്യാന", "name:mn": "Индиана", "name:mr": "इंडियाना", "name:os": "Индианæ", "name:pl": "Indiana", "name:ru": "Индиана", "name:sr": "Индијана", "name:ta": "இந்தியானா", "name:te": "ఇండియానా", "name:th": "รัฐอินดีแอนา", "name:ug": "Indiyanna", "name:uk": "Індіана", "name:ur": "انڈیانا", "name:yi": "אינדיאנא", "name:zh": "印第安纳州", "name:diq": "İndiana", "name:hak": "Yin-thi-ôn-na̍p", "name:haw": "‘Inikiana", "name:lij": "Indiann-a", "name:lit": "Ėndiana", "name:pms": "Indian-a", "ref:fips": "18", "is_in:country_code": "US"}}, "center_lat": 39.92, "center_lon": -86.28, "timezone": "America/Indiana/Indianapolis", "population": 6732219, "wikidata_id": "Q1415", "wikipedia_id": "en:Indiana"}, "geometry": {"type": "MultiPolygon", "coordinates": [[[[-86.826, 41.76], [-84.806, 41.76], [-84.806, 41.696], [-84.82, 39.258], [-84.82, 39.257], [-84.82, 39.256], [-84.82, 39.119], [-84.82, 39.113], [-84.82, 39.105], [-84.816, 38.784], [-85.45, 38.712], [-85.415, 38.545], [-85.906, 38.167], [-86.272, 38.138], [-87.129, 37.786], [-87.38, 37.936], [-88.025, 37.8], [-87.983, 38.218], [-87.497, 38.743], [-87.531, 39.348], [-87.524, 41.708], [-86.826, 41.76]]]]}}