{"type": "Feature", "properties": {"name": "Kentucky", "iso2": "US-KY", "admin_level": 4, "osm_id": 161655, "countrylevel_id": "iso2:US-KY", "osm_data": {"localname": "Kentucky", "official_name": "Commonwealth of Kentucky", "alltags": {"name:ar": "كنتاكي", "name:az": "Kentukki", "name:bg": "Кентъки", "name:bn": "কেন্টাকি", "name:br": "Kentucky", "name:el": "Κεντάκι", "name:en": "Kentucky", "name:eo": "Kentukio", "name:fa": "کنتاکی", "name:he": "קנטקי", "name:ht": "Kèntòki", "name:hy": "Կենտուկի", "name:ja": "ケンタッキー州", "name:ka": "კენტუკი", "name:kn": "ಕೆನ್‌ಟಾಕೀ", "name:ko": "Kenekuke", "name:lt": "Kentukis", "name:lv": "Kentuki", "name:ml": "കെന്റക്കി", "name:mn": "Кентакки", "name:mr": "केंटकी", "name:nv": "Kentákii Hahoodzo", "name:pl": "Kentucky", "name:qu": "Kentucky suyu", "name:ru": "Кентукки", "name:sr": "Кентаки", "name:ta": "கென்டக்கி", "name:th": "รัฐเคนทักกี", "name:tl": "Kentaki", "name:uk": "Кентуккі", "name:ur": "کینٹکی", "name:uz": "Kentukki", "name:yi": "קענטאקי", "name:zh": "肯塔基州", "name:hak": "Khén-thap-kî", "name:haw": "Kenekuke", "ref:fips": "21", "border_type": "state", "official_name": "Commonwealth of Kentucky", "is_in:country_code": "US"}}, "center_lat": 37.52, "center_lon": -85.31, "timezone": "America/New_York", "population": 4467673, "wikidata_id": "Q1603", "wikipedia_id": "en:Kentucky"}, "geometry": {"type": "MultiPolygon", "coordinates": [[[[-89.539, 36.498], [-89.485, 36.497], [-89.539, 36.498], [-89.539, 36.498]]], [[[-89.417, 36.499], [-88.057, 36.497], [-87.854, 36.635], [-84.543, 36.596], [-83.675, 36.601], [-83.136, 36.743], [-82.722, 37.12], [-81.968, 37.538], [-82.294, 37.678], [-82.637, 38.139], [-82.593, 38.422], [-82.895, 38.756], [-83.287, 38.599], [-84.213, 38.806], [-84.472, 39.121], [-84.82, 39.105], [-84.816, 38.784], [-85.45, 38.712], [-85.415, 38.545], [-85.906, 38.167], [-86.272, 38.138], [-87.129, 37.786], [-87.38, 37.936], [-88.025, 37.8], [-88.093, 37.471], [-88.477, 37.387], [-88.566, 37.077], [-89.03, 37.211], [-89.133, 36.982], [-89.417, 36.499]]]]}}