{"type": "Feature", "properties": {"name": "South Carolina", "iso2": "US-SC", "admin_level": 4, "osm_id": 224040, "countrylevel_id": "iso2:US-SC", "osm_data": {"localname": "South Carolina", "official_name": "", "alltags": {"name:af": "Suid-Carolina", "name:an": "Carolina d'o Sur", "name:ar": "كارولاينا الجنوبية", "name:az": "Cənubi Karolina", "name:bg": "Южна Каролина", "name:bn": "সাউথ ক্যারোলাইনা", "name:br": "Su Karolina", "name:bs": "Južna Carolina", "name:ca": "Carolina del Sud", "name:cs": "Jižní Karolína", "name:cv": "Кăнтăр Каролина", "name:cy": "De Carolina", "name:el": "Νότια Καρολίνα", "name:en": "South Carolina", "name:eo": "Suda Karolino", "name:es": "Carolina del Sur", "name:et": "Lõuna-Carolina", "name:eu": "Hego Carolina", "name:fa": "کارولینای جنوبی", "name:fi": "Etelä-Carolina", "name:fr": "Caroline du Sud", "name:fy": "Súd Karolina", "name:ga": "Carolina Theas", "name:gl": "Carolina do Sur", "name:gv": "Carolina Yiass", "name:he": "קרוליינה הדרומית", "name:hr": "Južna Karolina", "name:ht": "Karolin disid", "name:hu": "Dél-Karolina", "name:hy": "Հարավային Կարոլինա", "name:id": "Carolina Selatan", "name:is": "Suður-Karólína", "name:it": "Carolina del Sud", "name:ja": "サウスカロライナ州", "name:ka": "სამხრეთი კაროლინა", "name:ko": "사우스캐롤라이나", "name:kw": "Karolina Dheghow", "name:la": "Carolina Meridionalis", "name:lt": "Pietų Karolina", "name:lv": "Dienvidkarolīna", "name:mg": "Karôlina Antsimo", "name:mk": "Јужна Каролина", "name:ml": "തെക്കന്‍ കരൊലൈന", "name:mr": "साउथ कॅरोलिना", "name:ms": "Carolina Selatan", "name:no": "Sør-Carolina", "name:nv": "Shádiʼááhjí Kééláanah Hahoodzo", "name:oc": "Carolina del Sud", "name:os": "Хуссар Каролинæ", "name:pl": "Karolina Południowa", "name:pt": "Carolina do Sul", "name:ru": "Южная Каролина", "name:sk": "Južná Karolína", "name:sl": "Južna Karolina", "name:sr": "Јужна Каролина", "name:ta": "தென் கரொலைனா", "name:tr": "Güney Karolina", "name:tt": "Көньяк Каролина", "name:uk": "Південна Кароліна", "name:uz": "Janubiy Karolina", "name:vi": "Nam Carolina", "name:yi": "דרום קאראליינע", "name:zh": "南卡罗来纳州", "name:ang": "Sūþ Carolīna", "name:ast": "Carolina del Sur", "name:hak": "Nàm Khà-lò-lòi-na̍p", "name:haw": "Kalolaina Hema", "name:lad": "Carolina del Sur", "name:nah": "Carolina Huitztlāmpa", "name:scn": "Carolina dû Sud", "name:szl": "Połedńowo Karolina", "ref:fips": "45"}}, "center_lat": 33.9, "center_lon": -80.88, "timezone": "America/New_York", "population": 5148714, "wikidata_id": "Q1456", "wikipedia_id": "en:South Carolina"}, "geometry": {"type": "MultiPolygon", "coordinates": [[[[-79.292, 33.174], [-79.292, 33.174], [-79.292, 33.174], [-79.292, 33.174]]], [[[-79.25, 33.151], [-79.25, 33.151], [-79.25, 33.151], [-79.25, 33.151]]], [[[-79.249, 33.151], [-79.249, 33.151], [-79.249, 33.151], [-79.249, 33.151]]], [[[-79.283, 33.177], [-79.283, 33.177], [-79.283, 33.177], [-79.283, 33.177]]], [[[-79.272, 33.129], [-79.272, 33.129], [-79.272, 33.129], [-79.272, 33.129]]], [[[-79.274, 33.136], [-79.274, 33.136], [-79.274, 33.136], [-79.274, 33.136]]], [[[-79.27, 33.128], [-79.27, 33.128], [-79.27, 33.128], [-79.27, 33.128]]], [[[-80.181, 32.55], [-80.181, 32.55], [-80.181, 32.55], [-80.181, 32.55]]], [[[-79.874, 32.752], [-79.874, 32.752], [-79.874, 32.752], [-79.874, 32.752]]], [[[-79.911, 32.774], [-79.911, 32.774], [-79.911, 32.774], [-79.911, 32.774]]], [[[-79.884, 32.779], [-79.884, 32.779], [-79.884, 32.779], [-79.884, 32.779]]], [[[-79.552, 32.998], [-79.552, 32.998], [-79.552, 32.998], [-79.552, 32.998]]], [[[-79.5, 33.02], [-79.5, 33.02], [-79.5, 33.02], [-79.5, 33.02]]], [[[-79.501, 33.016], [-79.501, 33.016], [-79.501, 33.016], [-79.501, 33.016]]], [[[-79.552, 32.989], [-79.552, 32.989], [-79.552, 32.989], [-79.552, 32.989]]], [[[-79.55, 32.99], [-79.55, 32.99], [-79.55, 32.99], [-79.55, 32.99]]], [[[-79.551, 32.991], [-79.551, 32.991], [-79.551, 32.991], [-79.551, 32.991]]], [[[-79.885, 32.779], [-79.885, 32.779], [-79.885, 32.779], [-79.885, 32.779]]], [[[-79.515, 33.018], [-79.515, 33.018], [-79.515, 33.018], [-79.515, 33.018]]], [[[-80.85, 32.034], [-81.117, 32.118], [-81.493, 33.006], [-82.557, 33.945], [-82.864, 34.46], [-83.354, 34.698], [-83.12, 34.969], [-83.119, 34.97], [-83.109, 35.001], [-82.419, 35.199], [-81.034, 35.149], [-80.797, 34.82], [-79.676, 34.805], [-78.542, 33.852], [-79.141, 33.394], [-79.191, 33.173], [-80, 32.604], [-80.479, 32.497], [-80.85, 32.034]]]]}}