{"type": "Feature", "properties": {"name": "Ardennes", "iso2": "FR-08", "admin_level": 6, "osm_id": 7395, "countrylevel_id": "iso2:FR-08", "osm_data": {"localname": "Ardennes", "official_name": "", "alltags": {"name:an": "Ardenas", "name:ar": "الأردين", "name:be": "Ардэны", "name:bg": "Арден", "name:ca": "Ardenes", "name:cs": "Ardensko", "name:cv": "Арденн", "name:es": "Ardenas", "name:eu": "Ardenak", "name:fa": "آردن", "name:fr": "Ardennes", "name:gl": "Ardenas", "name:he": "ארדן", "name:hy": "Արդեններ", "name:ja": "アルデンヌ", "name:ka": "ლუარე", "name:kk": "Арденне", "name:ko": "아르덴", "name:la": "Arduenna", "name:lt": "Ardėnai", "name:lv": "Ardēni", "name:mr": "अ‍ॅर्देन", "name:oc": "Ardenas", "name:pl": "Ardeny", "name:pt": "Ardenas", "name:ru": "Арденны", "name:sr": "Ардени", "name:tg": "Арденн", "name:th": "อาร์แดน", "name:uk": "Арденни", "name:wa": "Årdenes", "name:zh": "阿登省", "name:frp": "Ardenes", "name:pms": "Ardënne", "name:pnb": "ارڈین", "ref:NUTS": "FR211", "ref:INSEE": "08", "border_type": "departement"}}, "center_lat": 49.62, "center_lon": 4.64, "timezone": "Europe/Paris", "population": 273579, "wikidata_id": "Q3164", "wikipedia_id": "fr:Ardennes (département)"}, "geometry": {"type": "MultiPolygon", "coordinates": [[[[4.048, 49.406], [4.192, 49.401], [4.243, 49.38], [4.308, 49.327], [4.374, 49.321], [4.396, 49.292], [4.447, 49.273], [4.601, 49.29], [4.633, 49.232], [4.687, 49.257], [4.754, 49.241], [4.815, 49.25], [4.863, 49.23], [4.924, 49.267], [4.951, 49.237], [5.051, 49.274], [5.026, 49.337], [5.077, 49.403], [5.116, 49.422], [5.112, 49.458], [5.059, 49.501], [5.109, 49.555], [5.113, 49.592], [5.163, 49.562], [5.208, 49.575], [5.259, 49.544], [5.394, 49.617], [5.348, 49.631], [5.314, 49.611], [5.332, 49.653], [5.269, 49.697], [5.164, 49.693], [5.126, 49.712], [5.095, 49.762], [5.063, 49.762], [4.969, 49.802], [4.909, 49.786], [4.859, 49.797], [4.86, 49.865], [4.89, 49.909], [4.849, 49.948], [4.791, 49.958], [4.841, 50.038], [4.852, 50.101], [4.895, 50.14], [4.807, 50.153], [4.752, 50.112], [4.704, 50.096], [4.685, 50.008], [4.541, 49.968], [4.511, 49.947], [4.433, 49.942], [4.308, 49.969], [4.233, 49.958], [4.218, 49.913], [4.256, 49.904], [4.208, 49.781], [4.25, 49.757], [4.185, 49.699], [4.127, 49.678], [4.119, 49.639], [4.027, 49.618], [4.077, 49.571], [4.049, 49.545], [4.072, 49.516], [4.041, 49.508], [4.06, 49.447], [4.048, 49.406]]]]}}