{"type": "Feature", "properties": {"name": "Cher", "iso2": "FR-18", "admin_level": 6, "osm_id": 7456, "countrylevel_id": "iso2:FR-18", "osm_data": {"localname": "Cher", "official_name": "", "alltags": {"name:ar": "شار", "name:be": "Шэр", "name:bg": "Шер", "name:cv": "Шер", "name:fa": "شر", "name:fr": "Cher", "name:hy": "Շեր", "name:ja": "シェール県", "name:ka": "შერი", "name:kk": "Шер", "name:ko": "셰르", "name:la": "Carus", "name:lt": "Šeras", "name:lv": "Šēra", "name:mr": "शेर", "name:oc": "Char", "name:ru": "Шер", "name:sr": "Шер", "name:tg": "Шер", "name:th": "แชร์", "name:uk": "Шер", "name:zh": "谢尔省", "website": "https://www.cg18.fr/", "name:frp": "Ch·èr", "name:pnb": "شر", "ref:NUTS": "FR241", "ref:INSEE": "18", "border_type": "departement"}}, "center_lat": 47.07, "center_lon": 2.49, "timezone": "Europe/Paris", "population": 304256, "wikidata_id": "Q3286", "wikipedia_id": "fr:Cher (département)"}, "geometry": {"type": "MultiPolygon", "coordinates": [[[[2.168, 46.424], [2.281, 46.42], [2.283, 46.449], [2.321, 46.469], [2.368, 46.519], [2.497, 46.533], [2.537, 46.52], [2.615, 46.553], [2.578, 46.608], [2.597, 46.638], [2.571, 46.659], [2.645, 46.687], [2.729, 46.749], [2.759, 46.717], [2.844, 46.742], [2.925, 46.795], [3.032, 46.795], [3.07, 46.851], [3.05, 46.91], [3.078, 46.952], [3.062, 46.979], [3.078, 47.03], [3.019, 47.071], [3.029, 47.128], [2.977, 47.236], [2.973, 47.268], [2.877, 47.322], [2.872, 47.347], [2.919, 47.406], [2.931, 47.442], [2.874, 47.519], [2.825, 47.497], [2.732, 47.538], [2.727, 47.499], [2.657, 47.487], [2.654, 47.512], [2.547, 47.575], [2.491, 47.568], [2.437, 47.61], [2.373, 47.586], [2.289, 47.629], [2.239, 47.621], [2.119, 47.583], [2.129, 47.551], [2.196, 47.549], [2.215, 47.522], [2.199, 47.487], [2.248, 47.492], [2.245, 47.415], [2.205, 47.405], [2.189, 47.438], [2.138, 47.406], [2.115, 47.421], [2.097, 47.367], [2.158, 47.298], [2.129, 47.279], [2.078, 47.286], [1.998, 47.264], [1.943, 47.291], [1.892, 47.249], [1.916, 47.236], [1.872, 47.205], [1.839, 47.22], [1.842, 47.178], [1.774, 47.13], [1.883, 47.102], [1.995, 47.127], [2.003, 47.094], [2.048, 47.107], [2.051, 47.042], [2.109, 46.997], [2.07, 46.934], [2.155, 46.912], [2.083, 46.869], [2.049, 46.83], [2.116, 46.78], [2.067, 46.752], [2.155, 46.692], [2.139, 46.664], [2.189, 46.642], [2.159, 46.557], [2.204, 46.485], [2.157, 46.461], [2.168, 46.424]]]]}}