{"type": "Feature", "properties": {"name": "Eure-et-Loir", "iso2": "FR-28", "admin_level": 6, "osm_id": 7374, "countrylevel_id": "iso2:FR-28", "osm_data": {"localname": "Eure-et-Loir", "official_name": "", "alltags": {"name:an": "Eure-y-Loir", "name:ar": "أور-ولوار", "name:be": "Эр-і-Луар", "name:bg": "Йор-е-Лоар", "name:ca": "Eure-i-Loir", "name:cv": "Эр-тата-Луар", "name:es": "Eure-y-Loir", "name:fa": "اور-ا-لوآر", "name:fr": "Eure-et-Loir", "name:gl": "Eure-e-Loir", "name:he": "אר-ולואר", "name:hy": "Էր-և-Լուար", "name:ja": "ウール＝エ＝ロワール県", "name:ka": "ერი-და-ლუარი", "name:kk": "Эр-және-Луар", "name:ko": "외르에루아르", "name:la": "Ebura-et-Lidericus", "name:lt": "Eras-ir-Luara", "name:lv": "Ēra-un-Luāra", "name:mr": "युर-ए-लुआर", "name:oc": "Eure-e-Loir", "name:ru": "Эр-и-Луар", "name:sr": "Ер-и-Лоар", "name:tg": "Эр-ва-Луар", "name:th": "เออเรลัวร์", "name:uk": "Ер-і-Луар", "name:zh": "厄尔-卢瓦尔省", "name:frp": "Ere-et-Lêr", "name:pnb": "ضلع یورے-ات-لویر", "ref:NUTS": "FR242", "ref:INSEE": "28", "border_type": "departement"}}, "center_lat": 48.39, "center_lon": 1.37, "timezone": "Europe/Paris", "population": 433233, "wikidata_id": "Q3377", "wikipedia_id": "fr:Eure-et-Loir"}, "geometry": {"type": "MultiPolygon", "coordinates": [[[[0.798, 48.195], [0.837, 48.167], [0.886, 48.162], [0.914, 48.135], [0.85, 48.133], [0.841, 48.103], [0.944, 48.112], [0.955, 48.099], [1.011, 48.133], [1.046, 48.118], [0.991, 48.097], [1.009, 48.083], [1.112, 48.081], [1.123, 48.036], [1.166, 48.028], [1.215, 47.973], [1.37, 47.954], [1.386, 47.981], [1.437, 47.977], [1.439, 48.012], [1.52, 47.982], [1.512, 48.028], [1.545, 48.044], [1.594, 48.031], [1.624, 48.07], [1.689, 48.078], [1.745, 48.064], [1.802, 48.089], [1.838, 48.081], [1.884, 48.098], [1.925, 48.174], [1.979, 48.204], [1.966, 48.256], [1.994, 48.287], [1.959, 48.309], [1.989, 48.364], [1.973, 48.401], [1.932, 48.403], [1.922, 48.458], [1.904, 48.439], [1.801, 48.466], [1.775, 48.527], [1.787, 48.554], [1.702, 48.585], [1.715, 48.615], [1.666, 48.614], [1.643, 48.651], [1.601, 48.668], [1.577, 48.703], [1.627, 48.748], [1.582, 48.762], [1.584, 48.86], [1.501, 48.941], [1.448, 48.924], [1.461, 48.873], [1.361, 48.834], [1.375, 48.782], [1.328, 48.76], [1.223, 48.758], [1.121, 48.789], [1.107, 48.748], [1.064, 48.759], [1.017, 48.728], [0.921, 48.709], [0.89, 48.72], [0.864, 48.688], [0.816, 48.671], [0.82, 48.609], [0.939, 48.551], [0.968, 48.524], [0.95, 48.399], [0.881, 48.356], [0.785, 48.34], [0.756, 48.3], [0.831, 48.211], [0.798, 48.195]]]]}}