{"type": "Feature", "properties": {"name": "Doubs", "iso2": "FR-25", "admin_level": 6, "osm_id": 7462, "countrylevel_id": "iso2:FR-25", "osm_data": {"localname": "Doubs", "official_name": "", "alltags": {"name:ar": "دوبس", "name:be": "Ду", "name:bg": "Ду", "name:cv": "Ду", "name:fa": "دو", "name:fr": "Doubs", "name:he": "דו", "name:hy": "Դու", "name:ja": "ドゥー県", "name:ka": "დუ", "name:kk": "Ду", "name:ko": "두", "name:la": "Dubis", "name:lt": "Du", "name:lv": "Dū", "name:mr": "दूब", "name:oc": "Dobs", "name:ru": "Ду", "name:sr": "Ду", "name:tg": "Ду", "name:th": "ดู", "name:uk": "Ду", "name:zh": "杜省", "name:frp": "Dubs", "name:pnb": "دوبس", "ref:NUTS": "FR431", "ref:INSEE": "25", "border_type": "departement"}}, "center_lat": 47.17, "center_lon": 6.36, "timezone": "Europe/Paris", "population": 539067, "wikidata_id": "Q3361", "wikipedia_id": "fr:Doubs (département)"}, "geometry": {"type": "MultiPolygon", "coordinates": [[[[6.138, 46.558], [6.111, 46.576], [6.178, 46.616], [6.269, 46.682], [6.384, 46.731], [6.458, 46.789], [6.435, 46.801], [6.46, 46.851], [6.465, 46.89], [6.433, 46.929], [6.505, 46.966], [6.634, 46.998], [6.659, 47.027], [6.72, 47.052], [6.692, 47.067], [6.741, 47.11], [6.807, 47.131], [6.859, 47.166], [6.88, 47.201], [6.956, 47.244], [6.941, 47.286], [7.01, 47.303], [7.046, 47.326], [7.05, 47.361], [6.903, 47.359], [6.884, 47.373], [6.938, 47.406], [6.94, 47.433], [6.908, 47.495], [6.95, 47.509], [6.902, 47.55], [6.817, 47.548], [6.807, 47.563], [6.783, 47.538], [6.728, 47.561], [6.652, 47.572], [6.649, 47.536], [6.568, 47.533], [6.556, 47.491], [6.411, 47.522], [6.335, 47.506], [6.244, 47.412], [6.203, 47.43], [6.152, 47.386], [6.118, 47.397], [6.068, 47.349], [5.977, 47.326], [5.926, 47.345], [5.844, 47.3], [5.699, 47.265], [5.739, 47.201], [5.781, 47.193], [5.823, 47.142], [5.769, 47.09], [5.784, 47.055], [5.75, 47.017], [5.788, 47.021], [5.911, 46.999], [5.968, 46.98], [5.956, 46.949], [5.997, 46.934], [5.983, 46.908], [6.031, 46.875], [6.152, 46.82], [6.207, 46.765], [6.181, 46.742], [6.07, 46.69], [6.106, 46.651], [6.048, 46.608], [6.138, 46.558]]]]}}