{"type": "Feature", "properties": {"name": "Gard", "iso2": "FR-30", "admin_level": 6, "osm_id": 7461, "countrylevel_id": "iso2:FR-30", "osm_data": {"localname": "Gard", "official_name": "", "alltags": {"name:an": "Gardon", "name:ar": "غارد", "name:be": "Гар", "name:bg": "Гар", "name:cv": "Гар", "name:el": "Γκαρ", "name:fa": "گار", "name:fr": "Gard", "name:hy": "Գար", "name:ja": "ガール県", "name:ka": "ოდის", "name:kk": "Гар", "name:ko": "가르 주", "name:la": "Vardo", "name:lt": "Gāra", "name:mn": "Гар", "name:mr": "गार्द", "name:ru": "Гар", "name:sr": "Гар", "name:tg": "Гар", "name:th": "การ์", "name:uk": "Гар", "name:zh": "加尔省", "name:hak": "Gard-sén", "name:nan": "Gard", "name:pnb": "گارد", "ref:NUTS": "FR812", "ref:INSEE": "30", "border_type": "departement", "name:be-tarask": "Гар"}}, "center_lat": 43.99, "center_lon": 4.18, "timezone": "Europe/Paris", "population": 744178, "wikidata_id": "Q12515", "wikipedia_id": "fr:Gard"}, "geometry": {"type": "MultiPolygon", "coordinates": [[[[4.135, 43.51], [4.135, 43.51], [4.135, 43.51], [4.135, 43.51]]], [[[4.101, 43.554], [4.098, 43.585], [4.15, 43.585], [4.194, 43.642], [4.14, 43.739], [4.001, 43.813], [3.961, 43.816], [3.979, 43.843], [3.897, 43.878], [3.831, 43.867], [3.8, 43.891], [3.829, 43.925], [3.788, 43.967], [3.732, 43.972], [3.69, 43.952], [3.671, 43.91], [3.624, 43.917], [3.575, 43.866], [3.578, 43.844], [3.519, 43.865], [3.513, 43.896], [3.432, 43.863], [3.423, 43.913], [3.358, 43.914], [3.377, 43.968], [3.406, 43.97], [3.448, 44.02], [3.39, 44.057], [3.353, 44.05], [3.329, 44.079], [3.295, 44.068], [3.262, 44.094], [3.324, 44.109], [3.335, 44.159], [3.374, 44.171], [3.451, 44.127], [3.633, 44.121], [3.645, 44.18], [3.76, 44.152], [3.797, 44.127], [3.874, 44.13], [3.928, 44.161], [3.969, 44.267], [3.934, 44.276], [3.923, 44.305], [3.952, 44.332], [3.885, 44.387], [3.945, 44.4], [3.998, 44.46], [4.07, 44.404], [4.052, 44.379], [4.052, 44.317], [4.132, 44.336], [4.143, 44.313], [4.246, 44.267], [4.278, 44.275], [4.325, 44.338], [4.391, 44.347], [4.395, 44.291], [4.445, 44.287], [4.457, 44.342], [4.507, 44.338], [4.562, 44.301], [4.637, 44.285], [4.649, 44.27], [4.678, 44.212], [4.722, 44.188], [4.706, 44.106], [4.723, 44.079], [4.754, 44.088], [4.842, 44.012], [4.812, 43.962], [4.74, 43.925], [4.692, 43.884], [4.642, 43.867], [4.651, 43.782], [4.612, 43.726], [4.628, 43.685], [4.537, 43.708], [4.496, 43.702], [4.426, 43.622], [4.469, 43.614], [4.46, 43.589], [4.35, 43.547], [4.295, 43.514], [4.239, 43.499], [4.23, 43.46], [4.131, 43.485], [4.111, 43.509], [4.138, 43.532], [4.101, 43.554]]]]}}