{"type": "Feature", "properties": {"name": "Lot", "iso2": "FR-46", "admin_level": 6, "osm_id": 7454, "countrylevel_id": "iso2:FR-46", "osm_data": {"localname": "Lot", "official_name": "", "alltags": {"name:ar": "لوت", "name:be": "Лот", "name:bg": "Лот", "name:br": "Lot", "name:ca": "Òlt", "name:fa": "لو", "name:fr": "Lot", "name:he": "לוט", "name:hy": "Լո", "name:ja": "ロット県", "name:ka": "ლო", "name:ko": "로트", "name:mr": "लॉत", "name:oc": "Òlt", "name:ru": "Лот", "name:sr": "Лот", "name:th": "ล็อต", "name:uk": "Лот", "name:zh": "洛特省", "ref:NUTS": "FR625", "ref:INSEE": "46", "border_type": "departement"}}, "center_lat": 44.63, "center_lon": 1.6, "timezone": "Europe/Paris", "population": 173828, "wikidata_id": "Q12576", "wikipedia_id": "fr:Lot (département)"}, "geometry": {"type": "MultiPolygon", "coordinates": [[[[1.064, 44.379], [1.136, 44.394], [1.133, 44.371], [1.081, 44.354], [1.214, 44.268], [1.251, 44.268], [1.303, 44.294], [1.281, 44.236], [1.38, 44.224], [1.453, 44.254], [1.472, 44.287], [1.527, 44.26], [1.541, 44.227], [1.587, 44.249], [1.571, 44.302], [1.617, 44.297], [1.642, 44.27], [1.702, 44.315], [1.792, 44.333], [1.827, 44.324], [1.882, 44.34], [1.908, 44.364], [1.867, 44.398], [1.84, 44.476], [1.887, 44.505], [1.962, 44.521], [1.987, 44.551], [2.059, 44.584], [2.154, 44.572], [2.194, 44.585], [2.207, 44.616], [2.169, 44.638], [2.179, 44.675], [2.132, 44.709], [2.168, 44.811], [2.135, 44.827], [2.084, 44.886], [2.108, 44.911], [2.063, 44.977], [1.986, 44.975], [1.951, 44.953], [1.908, 44.978], [1.824, 44.928], [1.775, 44.924], [1.751, 44.956], [1.648, 45.027], [1.539, 45.047], [1.448, 45.019], [1.409, 45.007], [1.442, 44.917], [1.411, 44.909], [1.442, 44.882], [1.402, 44.849], [1.366, 44.846], [1.364, 44.812], [1.301, 44.798], [1.323, 44.765], [1.288, 44.715], [1.27, 44.722], [1.217, 44.683], [1.146, 44.671], [1.153, 44.638], [1.075, 44.577], [1.013, 44.536], [0.981, 44.544], [1.016, 44.507], [1.028, 44.434], [1.054, 44.432], [1.064, 44.379]]]]}}