{"type": "Feature", "properties": {"name": "Loire-Atlantique", "iso2": "FR-44", "admin_level": 6, "osm_id": 7432, "countrylevel_id": "iso2:FR-44", "osm_data": {"localname": "Loire-Atlantique", "official_name": "", "alltags": {"name:an": "Loira-Atlantica", "name:ar": "لوار-الأطلسية", "name:az": "Luar-Atlantik", "name:be": "Луара-Атлантычная", "name:bg": "Лоар-Атлантик", "name:br": "Liger-Atlantel", "name:ca": "Loira-Atlàntic", "name:cv": "Атлантика-енчи-Луара", "name:el": "Λουάρ-Ατλαντίκ", "name:es": "Loira-Atlántico", "name:fa": "لوآر-آتلانتیک", "name:fr": "Loire-Atlantique", "name:gd": "Liger-Atlantel", "name:gl": "Loira-Atlántico", "name:gv": "Liger-Atlantel", "name:he": "הלואר-האטלנטי", "name:hy": "Ատլանտյան-Լուար", "name:it": "Loira-Atlantica", "name:ja": "ロワール＝アトランティック県", "name:ka": "ატლანტიკის-ლუარა", "name:kk": "Атлантикалық-Луара", "name:ko": "루아르아틀랑티크", "name:kw": "Liger-Atlantel", "name:la": "Liger-Atlanticus", "name:lt": "Atlanto-Luara", "name:lv": "Atlantijas-Luāra", "name:mr": "लावार-अतलांतिक", "name:oc": "Léger-Atlantic", "name:pl": "Loara-Atlantycka", "name:ru": "Атлантическая-Луара", "name:sr": "Атлантска-Лоара", "name:tg": "Луараи-Атлантикӣ", "name:th": "ลัวรัตล็องติก", "name:uk": "Атлантична-Луара", "name:zh": "大西洋卢瓦尔省", "website": "https://www.loire-atlantique.fr/", "name:frp": "Lêre-Atlantica", "name:pms": "Lòira-Atlàntica", "name:pnb": "ضلع-لوار-اٹلانٹک", "ref:NUTS": "FR511", "ref:INSEE": "44", "population": "1328620", "border_type": "departement", "old_name:1790-1957": "Loire-Inférieure"}}, "center_lat": 47.36, "center_lon": -1.68, "timezone": "Europe/Paris", "population": 1394909, "wikidata_id": "Q3068", "wikipedia_id": "fr:Loire-Atlantique"}, "geometry": {"type": "MultiPolygon", "coordinates": [[[[-2.625, 47.411], [-2.625, 47.411], [-2.625, 47.411], [-2.625, 47.411]]], [[[-2.345, 47.224], [-2.345, 47.224], [-2.345, 47.224], [-2.345, 47.224]]], [[[-2.351, 47.233], [-2.351, 47.233], [-2.351, 47.233], [-2.351, 47.233]]], [[[-2.388, 47.245], [-2.388, 47.245], [-2.388, 47.245], [-2.388, 47.245]]], [[[-2.457, 47.448], [-2.43, 47.476], [-2.4, 47.456], [-2.312, 47.465], [-2.299, 47.516], [-2.244, 47.494], [-2.099, 47.534], [-2.097, 47.631], [-2.013, 47.666], [-1.863, 47.707], [-1.704, 47.7], [-1.638, 47.722], [-1.623, 47.764], [-1.471, 47.803], [-1.483, 47.831], [-1.389, 47.828], [-1.365, 47.799], [-1.246, 47.777], [-1.241, 47.745], [-1.242, 47.743], [-1.195, 47.722], [-1.138, 47.619], [-1.103, 47.621], [-1.007, 47.589], [-1.056, 47.565], [-1.044, 47.506], [-0.965, 47.492], [-0.947, 47.387], [-1.044, 47.365], [-1.172, 47.366], [-1.189, 47.352], [-1.302, 47.336], [-1.354, 47.304], [-1.3, 47.303], [-1.229, 47.239], [-1.181, 47.241], [-1.162, 47.178], [-1.249, 47.098], [-1.169, 47.093], [-1.115, 47.062], [-1.149, 47.03], [-1.27, 47.085], [-1.301, 47.034], [-1.366, 47.042], [-1.364, 46.958], [-1.458, 46.926], [-1.476, 46.981], [-1.46, 46.993], [-1.484, 47.04], [-1.555, 47.015], [-1.534, 46.945], [-1.544, 46.923], [-1.502, 46.881], [-1.548, 46.86], [-1.687, 46.891], [-1.723, 46.884], [-1.75, 46.93], [-1.832, 46.932], [-1.828, 46.953], [-1.889, 46.957], [-1.984, 47.03], [-2.039, 47.077], [-2.039, 47.077], [-2.111, 47.11], [-2.248, 47.134], [-2.179, 47.156], [-2.159, 47.198], [-2.182, 47.233], [-2.182, 47.284], [-2.298, 47.233], [-2.394, 47.281], [-2.417, 47.258], [-2.524, 47.287], [-2.473, 47.285], [-2.509, 47.344], [-2.556, 47.378], [-2.488, 47.411], [-2.431, 47.417], [-2.457, 47.448]]]]}}