{"type": "Feature", "properties": {"name": "Nièvre", "iso2": "FR-58", "admin_level": 6, "osm_id": 7448, "countrylevel_id": "iso2:FR-58", "osm_data": {"localname": "Nièvre", "official_name": "", "alltags": {"name:ar": "نيافر", "name:be": "Ньеўр", "name:bg": "Ниевър", "name:cv": "Ньевр", "name:el": "Νιέβρ", "name:fa": "نی‌یور", "name:fr": "Nièvre", "name:hy": "Նյևր", "name:ja": "ニエーヴル県", "name:ka": "ნიევრი", "name:kk": "Ньевр", "name:ko": "니에브르", "name:la": "Niver", "name:lt": "Njevras", "name:lv": "Njevra", "name:mr": "न्येव्र", "name:ru": "Ньевр", "name:sr": "Нијевр", "name:tg": "Невр", "name:th": "เนียฟวร์", "name:uk": "Ньєвр", "name:zh": "涅夫勒省", "name:frp": "Niévre", "name:pnb": "نیور", "ref:NUTS": "FR262", "ref:INSEE": "58", "border_type": "departement"}}, "center_lat": 47.12, "center_lon": 3.51, "timezone": "Europe/Paris", "population": 207182, "wikidata_id": "Q12657", "wikipedia_id": "fr:Nièvre (département)"}, "geometry": {"type": "MultiPolygon", "coordinates": [[[[2.874, 47.519], [2.931, 47.442], [2.919, 47.406], [2.872, 47.347], [2.877, 47.322], [2.973, 47.268], [2.977, 47.236], [3.029, 47.128], [3.019, 47.071], [3.078, 47.03], [3.062, 46.979], [3.078, 46.952], [3.05, 46.91], [3.07, 46.851], [3.032, 46.795], [3.047, 46.759], [3.128, 46.728], [3.204, 46.679], [3.269, 46.717], [3.314, 46.689], [3.366, 46.69], [3.379, 46.713], [3.434, 46.712], [3.455, 46.653], [3.486, 46.653], [3.53, 46.689], [3.561, 46.689], [3.548, 46.723], [3.598, 46.728], [3.576, 46.75], [3.629, 46.75], [3.677, 46.739], [3.738, 46.753], [3.784, 46.736], [3.795, 46.702], [3.933, 46.742], [3.994, 46.779], [4.063, 46.79], [4.043, 46.834], [4.101, 46.859], [4.037, 46.928], [4.056, 46.957], [4.039, 46.985], [4.002, 46.986], [4.062, 47.022], [4.074, 47.056], [4.043, 47.077], [4.06, 47.121], [4.116, 47.123], [4.115, 47.146], [4.182, 47.15], [4.21, 47.155], [4.232, 47.198], [4.179, 47.254], [4.135, 47.237], [4.114, 47.308], [4.143, 47.354], [4.106, 47.339], [4.044, 47.34], [4.022, 47.311], [3.974, 47.331], [3.974, 47.373], [3.909, 47.382], [3.872, 47.366], [3.893, 47.41], [3.867, 47.435], [3.813, 47.38], [3.784, 47.405], [3.726, 47.398], [3.679, 47.445], [3.579, 47.466], [3.581, 47.498], [3.513, 47.527], [3.492, 47.56], [3.492, 47.499], [3.39, 47.509], [3.355, 47.479], [3.236, 47.488], [3.204, 47.524], [3.165, 47.518], [3.122, 47.541], [3.101, 47.588], [3.023, 47.556], [2.976, 47.569], [2.86, 47.554], [2.874, 47.519]]]]}}