{"type": "Feature", "properties": {"name": "Marne", "iso2": "FR-51", "admin_level": 6, "osm_id": 7379, "countrylevel_id": "iso2:FR-51", "osm_data": {"localname": "Marne", "official_name": "", "alltags": {"name:ar": "المارن", "name:be": "Марна", "name:bg": "Марн", "name:br": "Marn", "name:cv": "Марна", "name:fa": "مرن", "name:fr": "Marne", "name:hy": "Մարն", "name:it": "Marna", "name:ja": "マルヌ県", "name:ka": "მარნა", "name:kk": "Марна", "name:la": "Matrona", "name:lt": "Marna", "name:lv": "Marna", "name:mr": "मार्न", "name:oc": "Marna", "name:pl": "Marna", "name:ru": "Марна", "name:sr": "Марна", "name:tg": "Марна", "name:th": "มาร์น", "name:uk": "Марна", "name:zh": "马恩省", "name:pnb": "ماغنے", "ref:NUTS": "FR213", "ref:INSEE": "51", "border_type": "departement"}}, "center_lat": 48.95, "center_lon": 4.24, "timezone": "Europe/Paris", "population": 568895, "wikidata_id": "Q12594", "wikipedia_id": "fr:Marne (département)"}, "geometry": {"type": "MultiPolygon", "coordinates": [[[[3.556, 48.62], [3.582, 48.585], [3.621, 48.58], [3.635, 48.541], [3.738, 48.539], [3.825, 48.515], [3.852, 48.524], [3.864, 48.572], [3.908, 48.602], [3.949, 48.603], [4.002, 48.664], [4.058, 48.666], [4.078, 48.702], [4.128, 48.688], [4.165, 48.708], [4.233, 48.702], [4.3, 48.714], [4.329, 48.696], [4.315, 48.616], [4.406, 48.56], [4.545, 48.525], [4.568, 48.548], [4.63, 48.555], [4.67, 48.532], [4.726, 48.54], [4.799, 48.53], [4.77, 48.589], [4.851, 48.614], [4.841, 48.65], [4.772, 48.652], [4.82, 48.68], [4.855, 48.667], [4.911, 48.689], [4.988, 48.684], [5.009, 48.741], [4.981, 48.745], [4.889, 48.817], [4.936, 48.841], [4.912, 48.898], [4.954, 48.931], [5.014, 48.938], [5.04, 48.974], [5.037, 49.024], [4.965, 49.022], [5.003, 49.055], [4.997, 49.105], [4.94, 49.185], [4.993, 49.21], [4.951, 49.237], [4.924, 49.267], [4.863, 49.23], [4.815, 49.25], [4.754, 49.241], [4.687, 49.257], [4.633, 49.232], [4.601, 49.29], [4.447, 49.273], [4.396, 49.292], [4.374, 49.321], [4.308, 49.327], [4.243, 49.38], [4.192, 49.401], [4.048, 49.406], [4.036, 49.36], [3.961, 49.377], [3.926, 49.407], [3.823, 49.402], [3.861, 49.386], [3.853, 49.345], [3.802, 49.359], [3.648, 49.316], [3.678, 49.235], [3.653, 49.215], [3.698, 49.206], [3.705, 49.181], [3.751, 49.178], [3.706, 49.146], [3.623, 49.151], [3.6, 49.121], [3.639, 49.081], [3.589, 49.06], [3.588, 49.034], [3.65, 49.043], [3.679, 49.018], [3.64, 49.004], [3.603, 48.944], [3.529, 48.913], [3.485, 48.852], [3.481, 48.812], [3.441, 48.811], [3.396, 48.759], [3.47, 48.738], [3.471, 48.686], [3.44, 48.664], [3.451, 48.635], [3.489, 48.647], [3.556, 48.62]]]]}}