{"type": "Feature", "properties": {"name": "Pyrénées-Atlantiques", "iso2": "FR-64", "admin_level": 6, "osm_id": 7450, "countrylevel_id": "iso2:FR-64", "osm_data": {"localname": "Pyrénées-Atlantiques", "official_name": "", "alltags": {"name:an": "Pireneus-Atlanticos", "name:ar": "البرانيس-الأطلسية", "name:be": "Пірэнеі-Атлантычныя", "name:bg": "Пирене-Атлантик", "name:br": "Pireneoù-Atlantel", "name:ca": "Pirineus Atlàntics", "name:cv": "Атлантика-енчи-Пиреней", "name:el": "Ατλαντικές Πυρηναίες", "name:es": "Pirineos-Atlánticos", "name:eu": "Pirinio-Atlantikoak", "name:fa": "پیرنه-آتلانتیک", "name:fr": "Pyrénées-Atlantiques", "name:gl": "Pireneos-Atlánticos", "name:he": "הפירנאים-האטלנטיים", "name:hr": "Atlantski-Pireneji", "name:hy": "Ատլանտյան-Պիրենեյներ", "name:it": "Pirenei-Atlantici", "name:ja": "ピレネー＝アトランティック県", "name:ka": "ატლანტური-პირენეები", "name:kk": "Атлантикалық-Пиреней", "name:ko": "피레네자틀랑티크", "name:la": "Pyrenaeus-Atlanticus", "name:lt": "Atlanto-Pirėnai", "name:lv": "Atlantijas-Pireneji", "name:mr": "पिरेने-अतलांतिक", "name:oc": "Pirenèus Atlantics", "name:pl": "Pireneje-Atlantyckie", "name:pt": "Pirenéus-Atlânticos", "name:ru": "Атлантические Пиренеи", "name:sr": "Атлантски-Пиринеји", "name:tg": "Пиренеи-Атлантикӣ", "name:th": "จังหวัดปีเรเน-อัตล็องติก", "name:uk": "Атлантичні-Піренеї", "name:zh": "比利牛斯-大西洋省", "name:frp": "Pirènês-Atlanticos", "name:mzn": "پیرنه-آتلانتیک", "name:pms": "Pirené-Atlàntich", "name:pnb": "ضلع-پیرینیز-اٹلانٹک", "ref:NUTS": "FR615", "ref:INSEE": "64", "border_type": "departement"}}, "center_lat": 43.26, "center_lon": -0.76, "timezone": "Europe/Paris", "population": 677309, "wikidata_id": "Q12703", "wikipedia_id": "fr:Pyrénées-Atlantiques"}, "geometry": {"type": "MultiPolygon", "coordinates": [[[[-1.767, 43.343], [-1.767, 43.343], [-1.767, 43.343], [-1.767, 43.343]]], [[[-1.745, 43.383], [-1.745, 43.383], [-1.745, 43.383], [-1.745, 43.383]]], [[[-1.756, 43.384], [-1.756, 43.384], [-1.756, 43.384], [-1.756, 43.384]]], [[[-1.755, 43.384], [-1.755, 43.384], [-1.755, 43.384], [-1.755, 43.384]]], [[[-1.524, 43.53], [-1.478, 43.54], [-1.464, 43.519], [-1.466, 43.517], [-1.418, 43.497], [-1.289, 43.499], [-1.169, 43.545], [-1.132, 43.51], [-0.993, 43.505], [-0.99, 43.542], [-0.926, 43.532], [-0.893, 43.551], [-0.856, 43.541], [-0.768, 43.58], [-0.728, 43.545], [-0.658, 43.561], [-0.558, 43.543], [-0.449, 43.596], [-0.452, 43.55], [-0.394, 43.569], [-0.336, 43.551], [-0.283, 43.586], [-0.243, 43.585], [-0.179, 43.596], [-0.161, 43.581], [-0.097, 43.582], [-0.093, 43.543], [-0.066, 43.548], [-0.05, 43.492], [-0.019, 43.465], [-0.065, 43.463], [-0.071, 43.435], [-0.043, 43.411], [-0.001, 43.445], [-0.006, 43.373], [0.03, 43.346], [-0.026, 43.33], [-0.044, 43.286], [-0.018, 43.275], [-0.049, 43.219], [-0.074, 43.223], [-0.068, 43.177], [-0.118, 43.18], [-0.146, 43.128], [-0.194, 43.115], [-0.188, 43.052], [-0.261, 43.038], [-0.293, 42.993], [-0.279, 42.939], [-0.327, 42.917], [-0.313, 42.849], [-0.394, 42.799], [-0.444, 42.796], [-0.501, 42.828], [-0.523, 42.797], [-0.568, 42.781], [-0.602, 42.832], [-0.679, 42.885], [-0.724, 42.89], [-0.723, 42.918], [-0.752, 42.967], [-0.811, 42.951], [-0.914, 42.964], [-0.946, 42.954], [-1.017, 42.995], [-1.072, 42.998], [-1.229, 43.055], [-1.248, 43.043], [-1.31, 43.07], [-1.27, 43.118], [-1.321, 43.113], [-1.346, 43.091], [-1.354, 43.028], [-1.441, 43.046], [-1.471, 43.079], [-1.415, 43.128], [-1.383, 43.19], [-1.379, 43.25], [-1.506, 43.293], [-1.565, 43.288], [-1.575, 43.25], [-1.609, 43.252], [-1.623, 43.301], [-1.669, 43.315], [-1.73, 43.296], [-1.737, 43.33], [-1.785, 43.35], [-1.786, 43.375], [-1.646, 43.405], [-1.601, 43.431], [-1.524, 43.53]], [[-0.141, 43.272], [-0.122, 43.241], [-0.08, 43.264], [-0.112, 43.311], [-0.141, 43.272]], [[-0.116, 43.328], [-0.071, 43.31], [-0.065, 43.355], [-0.094, 43.374], [-0.088, 43.334], [-0.116, 43.328]]], [[[-1.571, 43.484], [-1.571, 43.484], [-1.571, 43.484], [-1.571, 43.484]]], [[[-1.565, 43.484], [-1.565, 43.484], [-1.565, 43.484], [-1.565, 43.484]]], [[[-1.573, 43.484], [-1.573, 43.484], [-1.573, 43.484], [-1.573, 43.484]]], [[[-1.568, 43.485], [-1.568, 43.485], [-1.568, 43.485], [-1.568, 43.485]]], [[[-1.558, 43.49], [-1.558, 43.49], [-1.558, 43.49], [-1.558, 43.49]]], [[[-1.557, 43.493], [-1.557, 43.493], [-1.557, 43.493], [-1.557, 43.493]]]]}}