{"type": "Feature", "properties": {"name": "Hautespyrenees", "iso2": "FR-65", "admin_level": 6, "osm_id": 7467, "countrylevel_id": "iso2:FR-65", "osm_data": {"localname": "Hautes-Pyrénées", "official_name": "", "alltags": {"name:an": "Altos-Pireneus", "name:ar": "البرانيس-العليا", "name:be": "Верхнія-Пірэнеі", "name:bg": "От-Пирене", "name:br": "Pireneoù-Uhel", "name:ca": "Alts Pirineus", "name:cv": "Тури-Пиреней", "name:en": "Hautespyrenees", "name:eo": "Altaj-Pireneoj", "name:es": "Altos-Pirineos", "name:eu": "Pirinio-Garaiak", "name:fa": "اوت-پیرنه", "name:fr": "Hautes-Pyrénées", "name:gl": "Altos-Pireneos", "name:hy": "Վերին-Պիրենեյներ", "name:it": "Alti-Pirenei", "name:ja": "オート＝ピレネー県", "name:ka": "ზემო-პირენეები", "name:kk": "Жоғарғы-Пиреней", "name:ko": "오트피레네", "name:la": "Pyrenaeus-Superior", "name:lt": "Aukštutiniai-Pirėnai", "name:lv": "Augšpireneji", "name:mr": "ऑत-पिरेने", "name:oc": "Hauts Pirenèus", "name:pl": "Pireneje-Wysokie", "name:pt": "Altos-Pirineus", "name:ru": "Верхние Пиренеи", "name:sr": "Високи-Пиринеји", "name:tg": "Пиренеи-Верхние", "name:th": "จังหวัดโอต-ปีเรเน", "name:uk": "Верхні-Піренеї", "name:zh": "上比利牛斯省", "alt_name": "Canal de l'Alaric", "name:frp": "Hôts-Pirènês", "name:hak": "Sông-Pyrénées-sén", "name:pms": "Àut-Pirené", "name:pnb": "ضلع-اوٹ-پیرینیز", "ref:NUTS": "FR626", "ref:INSEE": "65", "border_type": "departement", "alt_name:fro": "Пиренеи-Боло"}}, "center_lat": 43.05, "center_lon": 0.16, "timezone": "Europe/Paris", "population": 228530, "wikidata_id": "Q12700", "wikipedia_id": "fr:Hautes-Pyrénées"}, "geometry": {"type": "MultiPolygon", "coordinates": [[[[-0.313, 42.849], [-0.216, 42.797], [-0.161, 42.798], [-0.109, 42.735], [-0.062, 42.695], [0.002, 42.686], [0.09, 42.717], [0.106, 42.71], [0.176, 42.737], [0.26, 42.716], [0.296, 42.674], [0.36, 42.724], [0.436, 42.69], [0.474, 42.7], [0.456, 42.817], [0.477, 42.878], [0.554, 42.86], [0.575, 42.871], [0.605, 42.934], [0.645, 42.962], [0.611, 42.988], [0.608, 43.034], [0.542, 43.001], [0.539, 43.041], [0.566, 43.035], [0.565, 43.074], [0.501, 43.096], [0.442, 43.131], [0.56, 43.211], [0.566, 43.252], [0.636, 43.301], [0.607, 43.311], [0.552, 43.33], [0.498, 43.326], [0.445, 43.341], [0.396, 43.333], [0.388, 43.356], [0.332, 43.343], [0.299, 43.389], [0.232, 43.368], [0.182, 43.371], [0.174, 43.403], [0.132, 43.424], [0.166, 43.442], [0.135, 43.466], [0.112, 43.518], [0.052, 43.518], [-0.003, 43.566], [-0.015, 43.606], [-0.074, 43.607], [-0.097, 43.582], [-0.093, 43.543], [-0.066, 43.548], [-0.05, 43.492], [-0.019, 43.465], [-0.065, 43.463], [-0.071, 43.435], [-0.043, 43.411], [-0.001, 43.445], [-0.006, 43.373], [0.03, 43.346], [-0.026, 43.33], [-0.044, 43.286], [-0.018, 43.275], [-0.049, 43.219], [-0.074, 43.223], [-0.068, 43.177], [-0.118, 43.18], [-0.146, 43.128], [-0.194, 43.115], [-0.188, 43.052], [-0.261, 43.038], [-0.293, 42.993], [-0.279, 42.939], [-0.327, 42.917], [-0.313, 42.849]]], [[[-0.141, 43.272], [-0.122, 43.241], [-0.08, 43.264], [-0.112, 43.311], [-0.141, 43.272]]], [[[-0.116, 43.328], [-0.071, 43.31], [-0.065, 43.355], [-0.094, 43.374], [-0.088, 43.334], [-0.116, 43.328]]]]}}