{"type": "Feature", "properties": {"name": "Paris", "iso2": "FR-75", "admin_level": 6, "osm_id": 71525, "countrylevel_id": "iso2:FR-75", "osm_data": {"localname": "Paris", "official_name": "", "alltags": {"name:af": "Parys", "name:am": "ፓሪስ", "name:an": "París", "name:ar": "باريس", "name:ba": "Париж", "name:be": "Парыж", "name:bg": "Париж", "name:bn": "প্যারিস", "name:bo": "ཕ་རི།", "name:br": "Pariz", "name:bs": "Pariz", "name:ca": "París", "name:co": "Parighji", "name:cs": "Paříž", "name:cu": "Парижь", "name:cv": "Парис", "name:el": "Παρίσι", "name:eo": "Parizo", "name:es": "París", "name:et": "Pariis", "name:eu": "Paris", "name:fa": "پاریس", "name:fi": "Pariisi", "name:fr": "Paris", "name:fy": "Parys", "name:ga": "Páras", "name:gl": "París", "name:gn": "Parĩ", "name:gu": "પૅરિસ", "name:gv": "Paarys", "name:ha": "Pariis", "name:he": "פריז", "name:hi": "पैरिस", "name:hr": "Pariz", "name:ht": "Pari", "name:hu": "Párizs", "name:hy": "Փարիզ", "name:is": "París", "name:it": "Parigi", "name:ja": "パリ", "name:ka": "პარიზი", "name:kk": "Париж", "name:km": "ប៉ារីស", "name:kn": "ಪ್ಯಾರಿಸ್", "name:ko": "파리", "name:ku": "Parîs", "name:kv": "Париж", "name:ky": "Париж", "name:la": "Lutetia", "name:lb": "Paräis", "name:li": "Paries", "name:ln": "Pari", "name:lt": "Paryžius", "name:lv": "Parīze", "name:mi": "Parī", "name:mk": "Париз", "name:ml": "പാരിസ്", "name:mn": "Парис", "name:mr": "पॅरिस", "name:my": "ပါရီမြို့", "name:ne": "पेरिस", "name:nl": "Parijs", "name:no": "Paris", "name:oc": "París", "name:or": "ପ୍ୟାରିସ", "name:os": "Париж", "name:pa": "ਪੈਰਿਸ", "name:pl": "Paryż", "name:ps": "پاريس", "name:ru": "Париж", "name:sc": "Parigi", "name:sh": "Pariz", "name:sk": "Paríž", "name:sl": "Pariz", "name:so": "Baariis", "name:sq": "Parisi", "name:sr": "Париз", "name:sv": "Paris", "name:ta": "பாரிஸ்", "name:te": "పారిస్", "name:tg": "Париж", "name:th": "ปารีส", "name:tk": "Pariž", "name:tl": "Paris", "name:tt": "Париж", "name:ug": "پارىژ", "name:uk": "Париж", "name:ur": "پیرس", "name:uz": "Parij", "name:vi": "Paris", "name:wo": "Pari", "name:yi": "פאריז", "name:yo": "Parisi", "name:za": "Bahliz", "name:zh": "巴黎", "name:zu": "IParisi", "name:arc": "ܦܐܪܝܣ", "name:arz": "باريس", "name:ast": "París", "name:cdo": "Bă-là̤", "name:ckb": "پاریس", "name:csb": "Pariz", "name:eml": "Parì", "name:ext": "París", "name:fur": "Parîs", "name:gan": "巴黎", "name:hak": "Pâ-lì-sṳ", "name:haw": "Palika", "name:jbo": "Paris", "name:koi": "Париж", "name:krc": "Париж", "name:lez": "Париж", "name:lij": "Pariggi", "name:lzh": "巴黎", "name:mhr": "Париж", "name:mrj": "Париж", "name:myv": "Париж ош", "name:mzn": "پاریس", "name:nan": "Pa-lí", "name:nap": "Parigge", "name:nds": "Paris", "name:pnb": "پیرس", "name:rue": "Паріж", "name:sah": "Париж", "name:scn": "Pariggi", "name:szl": "Paryż", "name:tet": "París", "name:tzl": "Parighi", "name:udm": "Париж", "name:vec": "Parixe", "name:vep": "Pariž", "name:vls": "Parys", "name:xmf": "პარიზი", "name:yue": "巴黎", "ref:NUTS": "FR101", "ref:INSEE": "75", "alt_name:fr": "Lutèce", "alt_name:vi": "Ba Lê", "loc_name:fr": "Panam", "name:nds-nl": "Paries", "old_name:vi": "Ba Lê", "name:bat-smg": "Parīžios", "name:fiu-vro": "Pariis", "name:roa-rup": "Parij", "name:roa-tara": "Parigge", "name:be-tarask": "Парыж", "name:zh_pinyin": "Bālí"}}, "center_lat": 48.86, "center_lon": 2.34, "timezone": "Europe/Paris", "wikipedia_id": "fr:Paris"}, "geometry": {"type": "MultiPolygon", "coordinates": [[[[2.332, 48.817], [2.402, 48.83], [2.463, 48.819], [2.47, 48.836], [2.416, 48.849], [2.384, 48.902], [2.32, 48.9], [2.232, 48.87], [2.255, 48.835], [2.332, 48.817]]]]}}