{"type": "Feature", "properties": {"name": "Mayotte", "iso2": "FR-MAY", "admin_level": 4, "osm_id": 1363069, "countrylevel_id": "iso2:FR-MAY", "osm_data": {"localname": "Mayotte", "official_name": "", "alltags": {"flag": "http://upload.wikimedia.org/wikipedia/commons/4/4a/Flag_of_Mayotte_(local).svg", "name:ak": "Mayɔte", "name:am": "ሜይኦቴ", "name:ar": "مايوت", "name:az": "Mayot", "name:be": "Маёта", "name:bg": "Мейот", "name:bm": "Mayoti", "name:bn": "মায়োত্তে", "name:bs": "Majote", "name:dz": "མེ་ཡོཊ", "name:ee": "Mayotte nutome", "name:el": "Μαγιότ", "name:en": "Mayotte", "name:eo": "Majoto", "name:fa": "مایوت", "name:ff": "Mayoot", "name:fr": "Mayotte", "name:gu": "મેયોટ", "name:ha": "Mayoti", "name:he": "מאיוט", "name:hi": "मैयट", "name:hr": "Majote", "name:ja": "マヨット", "name:km": "ម៉ាយុត", "name:kn": "ಮಯೊಟ್ಟೆ", "name:ko": "마요트", "name:ks": "مَییٹ", "name:ln": "Mayotɛ", "name:lo": "ມາຢອດ", "name:lt": "Majotas", "name:lv": "Majota", "name:mg": "Mayôty", "name:mk": "Мајоте", "name:ml": "മയോട്ട്", "name:mr": "मायोट्टे", "name:mt": "Majotte", "name:ne": "मायोट्ट", "name:or": "ମାୟୋଟେ", "name:pl": "Majotta", "name:rn": "Mayote", "name:ru": "Майотта", "name:sg": "Mäyôte", "name:si": "මයෝටි", "name:sr": "Мајоте", "name:ta": "மயோத்", "name:te": "మాయొట్టి", "name:th": "มายอต", "name:ti": "ሜይኦቴ", "name:to": "Meioti", "name:uk": "Майотта", "name:ur": "مایوٹ", "name:yo": "Orílẹ́ède Mayote", "name:zh": "马约特", "name:zu": "i-Mayotte", "website": "https://cg976.fr/", "name:kab": "Mayuṭ", "name:ksh": "Majott", "ref:INSEE": "06", "population": "217091", "description": "France, départements et régions d'outre-mer, territoire régi par l’article 73 de la Constitution", "is_in:ocean": "Indian", "is_in:country": "France", "is_in:country_code": "FR"}}, "center_lat": -12.82, "center_lon": 45.15, "timezone": "Indian/Mayotte", "population": 256518, "wikidata_id": "Q17063", "wikipedia_id": "fr:Mayotte"}, "geometry": {"type": "MultiPolygon", "coordinates": [[[[45.227, -13.021], [45.227, -13.021], [45.227, -13.021], [45.227, -13.021]]], [[[45.137, -13.004], [45.137, -13.004], [45.137, -13.004], [45.137, -13.004]]], [[[45.284, -12.828], [45.284, -12.828], [45.284, -12.828], [45.284, -12.828]]], [[[45.252, -12.827], [45.252, -12.827], [45.252, -12.827], [45.252, -12.827]]], [[[45.089, -12.847], [45.089, -12.847], [45.089, -12.847], [45.089, -12.847]]], [[[45.248, -12.839], [45.248, -12.839], [45.248, -12.839], [45.248, -12.839]]], [[[45.243, -12.839], [45.243, -12.839], [45.243, -12.839], [45.243, -12.839]]], [[[45.233, -12.837], [45.233, -12.837], [45.233, -12.837], [45.233, -12.837]]], [[[45.215, -12.986], [45.215, -12.986], [45.215, -12.986], [45.215, -12.986]]], [[[45.161, -12.975], [45.161, -12.975], [45.161, -12.975], [45.161, -12.975]]], [[[45.198, -12.932], [45.198, -12.932], [45.198, -12.932], [45.198, -12.932]]], [[[45.139, -12.921], [45.139, -12.921], [45.139, -12.921], [45.139, -12.921]]], [[[45.23, -12.899], [45.23, -12.899], [45.23, -12.899], [45.23, -12.899]]], [[[45.205, -12.92], [45.205, -12.92], [45.205, -12.92], [45.205, -12.92]]], [[[45.027, -12.657], [45.027, -12.657], [45.027, -12.657], [45.027, -12.657]]], [[[45.231, -12.814], [45.231, -12.814], [45.231, -12.814], [45.231, -12.814]]], [[[45.04, -12.722], [45.09, -12.672], [45.127, -12.701], [45.131, -12.731], [45.202, -12.729], [45.24, -12.761], [45.189, -12.839], [45.222, -12.874], [45.169, -12.95], [45.197, -12.976], [45.148, -13], [45.111, -12.96], [45.083, -12.961], [45.107, -12.924], [45.145, -12.936], [45.138, -12.891], [45.093, -12.853], [45.102, -12.766], [45.043, -12.744], [45.04, -12.722]]], [[[45.264, -12.785], [45.264, -12.785], [45.264, -12.785], [45.264, -12.785]]], [[[45.266, -12.781], [45.266, -12.781], [45.266, -12.781], [45.266, -12.781]]], [[[45.27, -12.778], [45.27, -12.778], [45.27, -12.778], [45.27, -12.778]]], [[[45.25, -12.772], [45.25, -12.772], [45.25, -12.772], [45.25, -12.772]]], [[[45.066, -12.76], [45.066, -12.76], [45.066, -12.76], [45.066, -12.76]]], [[[45.25, -12.759], [45.25, -12.759], [45.25, -12.759], [45.25, -12.759]]], [[[45.269, -12.75], [45.269, -12.75], [45.269, -12.75], [45.269, -12.75]]], [[[45.146, -12.726], [45.146, -12.726], [45.146, -12.726], [45.146, -12.726]]], [[[45.173, -12.719], [45.173, -12.719], [45.173, -12.719], [45.173, -12.719]]], [[[45.128, -12.689], [45.128, -12.689], [45.128, -12.689], [45.128, -12.689]]], [[[45.046, -12.672], [45.046, -12.672], [45.046, -12.672], [45.046, -12.672]]], [[[45.055, -12.677], [45.055, -12.677], [45.055, -12.677], [45.055, -12.677]]], [[[45.111, -12.676], [45.111, -12.676], [45.111, -12.676], [45.111, -12.676]]], [[[45.018, -12.644], [45.018, -12.644], [45.018, -12.644], [45.018, -12.644]]], [[[45.254, -12.783], [45.285, -12.759], [45.3, -12.784], [45.285, -12.804], [45.254, -12.783]]], [[[45.26, -12.774], [45.26, -12.774], [45.26, -12.774], [45.26, -12.774]]], [[[45.258, -12.771], [45.258, -12.771], [45.258, -12.771], [45.258, -12.771]]]]}}