{"type": "Feature", "properties": {"name": "Attapeu", "iso2": "LA-AT", "admin_level": 4, "osm_id": 5831653, "countrylevel_id": "iso2:LA-AT", "osm_data": {"localname": "ອັດຕະປື", "official_name": "", "alltags": {"name:ar": "محافظة أتابيو", "name:be": "Атапы", "name:en": "Attapeu", "name:eo": "Provinco Attapeu", "name:es": "Provincia de Attapeu", "name:eu": "Attapu probintzia", "name:fa": "استان آتاپیو", "name:fi": "Attapu", "name:fr": "Province d'Attapeu", "name:hi": "अत्ताप्यु प्रान्त", "name:hr": "Attapeu", "name:hu": "Attapö tartomány", "name:id": "Provinsi Attapu", "name:it": "Provincia di Attapeu", "name:ja": "アッタプー", "name:km": "ខ្វែងអាចម៍ក្រពើ", "name:ko": "앗타푸 주", "name:lo": "ອັດຕະປື", "name:lt": "Atapu provincija", "name:ms": "Wilayah Attapeu", "name:nl": "Attapeu", "name:no": "Attapeu", "name:pl": "Prowincja Attapu", "name:pt": "Attapeu", "name:ru": "Аттапы", "name:sv": "Attapeu", "name:tg": "Вилояти Аттапу", "name:th": "แขวงอัตตะปือ", "name:tr": "Attapeu", "name:uk": "Аттапи", "name:ur": "اتوپو صوبہ", "name:vi": "Át-ta-pừ", "name:zh": "阿速坡省", "alt_name": "Attapu", "name:lo_rm": "Attapu"}}, "center_lat": 14.8, "center_lon": 106.95, "timezone": "Asia/Vientiane", "population": 139628, "wikidata_id": "Q503004", "wikipedia_id": "en:Attapeu Province"}, "geometry": {"type": "MultiPolygon", "coordinates": [[[[106.337, 14.443], [106.405, 14.45], [106.44, 14.494], [106.438, 14.523], [106.473, 14.51], [106.458, 14.546], [106.523, 14.592], [106.546, 14.59], [106.57, 14.521], [106.565, 14.5], [106.601, 14.508], [106.632, 14.444], [106.718, 14.422], [106.743, 14.427], [106.756, 14.387], [106.77, 14.381], [106.815, 14.312], [106.838, 14.294], [106.895, 14.334], [106.967, 14.314], [106.977, 14.36], [106.996, 14.355], [107.015, 14.397], [107.046, 14.416], [107.041, 14.449], [107.077, 14.426], [107.083, 14.395], [107.11, 14.394], [107.19, 14.437], [107.209, 14.489], [107.258, 14.492], [107.254, 14.523], [107.3, 14.588], [107.329, 14.591], [107.372, 14.543], [107.437, 14.524], [107.468, 14.597], [107.519, 14.648], [107.538, 14.69], [107.557, 14.686], [107.556, 14.721], [107.523, 14.722], [107.542, 14.751], [107.505, 14.786], [107.522, 14.814], [107.589, 14.864], [107.585, 14.892], [107.539, 14.908], [107.479, 14.958], [107.475, 15.021], [107.52, 15.039], [107.534, 15.085], [107.514, 15.126], [107.49, 15.126], [107.455, 15.224], [107.413, 15.199], [107.376, 15.16], [107.316, 15.177], [107.276, 15.223], [107.256, 15.261], [107.199, 15.287], [107.11, 15.284], [107.083, 15.261], [106.925, 15.228], [106.829, 15.269], [106.785, 15.259], [106.782, 15.223], [106.753, 15.244], [106.742, 15.189], [106.717, 15.152], [106.669, 15.13], [106.724, 15.12], [106.76, 15.136], [106.79, 15.115], [106.824, 15.055], [106.824, 14.956], [106.785, 14.904], [106.765, 14.905], [106.7, 14.836], [106.711, 14.801], [106.688, 14.781], [106.65, 14.785], [106.601, 14.761], [106.59, 14.789], [106.52, 14.791], [106.482, 14.843], [106.483, 14.887], [106.499, 14.901], [106.514, 14.992], [106.467, 14.982], [106.44, 14.943], [106.385, 15.002], [106.319, 15.012], [106.293, 14.951], [106.245, 14.932], [106.181, 14.827], [106.19, 14.788], [106.17, 14.77], [106.207, 14.704], [106.256, 14.688], [106.274, 14.652], [106.275, 14.596], [106.325, 14.556], [106.349, 14.503], [106.329, 14.48], [106.353, 14.467], [106.337, 14.443]]]]}}