{"type": "Feature", "properties": {"name": "Salavan Province", "iso2": "LA-SL", "admin_level": 4, "osm_id": 5831664, "countrylevel_id": "iso2:LA-SL", "osm_data": {"localname": "ສາລະວັນ", "official_name": "", "alltags": {"name:ar": "سالافان", "name:cs": "Salavan", "name:en": "Salavan Province", "name:eo": "Provinco Salavan", "name:es": "Provincia de Salavan", "name:fa": "استان سالاوان", "name:fi": "Salavan", "name:fr": "Province de Saravane", "name:hi": "सलावान प्रान्त", "name:hr": "Salavan", "name:hu": "Szalavan tartomány", "name:id": "Provinsi Salavan", "name:it": "Provincia di Salavan", "name:ja": "サーラワン", "name:km": "ខេត្តសាឡៈវ៉ាន់", "name:ko": "살라완 주", "name:lo": "ສາລະວັນ", "name:lt": "Salavano provincija", "name:ms": "Wilayah Salavan", "name:nl": "Salavan", "name:no": "Saravane", "name:pl": "Prowincja Saravane", "name:pt": "Saravane", "name:ru": "Сараван", "name:sv": "Saravane", "name:tg": "Вилояти Салаван", "name:th": "แขวงสาละวัน", "name:uk": "Сараван", "name:ur": "سالاوان صوبہ", "name:vi": "Saravane", "name:zh": "沙拉湾省", "alt_name": "Salavan;Saravan", "name:lo_rm": "Salavan"}}, "center_lat": 15.85, "center_lon": 106.27, "timezone": "Asia/Vientiane", "population": 396942, "wikidata_id": "Q302656", "wikipedia_id": "en:Salavan Province"}, "geometry": {"type": "MultiPolygon", "coordinates": [[[[105.591, 15.425], [105.671, 15.459], [105.708, 15.437], [105.749, 15.454], [105.792, 15.426], [105.813, 15.444], [105.938, 15.451], [105.979, 15.442], [106, 15.461], [106.037, 15.454], [106.074, 15.467], [106.119, 15.42], [106.081, 15.391], [106.078, 15.356], [106.124, 15.325], [106.141, 15.285], [106.164, 15.278], [106.217, 15.332], [106.317, 15.39], [106.372, 15.406], [106.301, 15.442], [106.301, 15.468], [106.331, 15.511], [106.356, 15.52], [106.429, 15.5], [106.454, 15.506], [106.468, 15.542], [106.515, 15.532], [106.598, 15.546], [106.655, 15.57], [106.684, 15.552], [106.68, 15.596], [106.709, 15.647], [106.679, 15.688], [106.715, 15.726], [106.65, 15.771], [106.683, 15.8], [106.706, 15.868], [106.753, 15.933], [106.788, 15.965], [106.818, 16.03], [106.85, 16.056], [106.907, 16.036], [106.994, 16.053], [107.083, 16.098], [107.085, 16.125], [107.15, 16.19], [107.157, 16.257], [107.087, 16.312], [107.028, 16.312], [106.972, 16.303], [106.964, 16.355], [106.898, 16.391], [106.898, 16.426], [106.878, 16.483], [106.887, 16.522], [106.831, 16.549], [106.802, 16.464], [106.77, 16.466], [106.772, 16.434], [106.794, 16.419], [106.798, 16.359], [106.727, 16.316], [106.665, 16.35], [106.639, 16.296], [106.64, 16.216], [106.62, 16.181], [106.57, 16.173], [106.541, 16.19], [106.497, 16.185], [106.468, 16.153], [106.423, 16.141], [106.394, 16.154], [106.374, 16.129], [106.326, 16.138], [106.312, 16.109], [106.277, 16.123], [106.266, 16.169], [106.207, 16.181], [106.184, 16.16], [106.167, 16.176], [106.123, 16.147], [106.131, 16.078], [106.121, 16.04], [106.149, 15.999], [106.095, 15.974], [106.092, 15.948], [105.994, 15.964], [105.946, 15.924], [105.903, 15.902], [105.894, 15.877], [105.857, 15.901], [105.778, 15.897], [105.73, 15.918], [105.718, 15.908], [105.624, 15.944], [105.613, 15.968], [105.579, 15.959], [105.537, 15.982], [105.502, 15.98], [105.488, 16.005], [105.446, 15.984], [105.425, 15.991], [105.375, 15.982], [105.342, 15.922], [105.39, 15.809], [105.42, 15.789], [105.433, 15.755], [105.462, 15.746], [105.497, 15.767], [105.596, 15.725], [105.635, 15.663], [105.625, 15.563], [105.594, 15.513], [105.603, 15.48], [105.591, 15.425]]]]}}