{"type": "Feature", "properties": {"name": "Capital Territory Islamabad", "iso2": "PK-IS", "admin_level": 3, "osm_id": 358002, "countrylevel_id": "iso2:PK-IS", "osm_data": {"localname": "وفاقی دارالحکومت اسلام آباد", "official_name": "", "alltags": {"name_1": "Islamabad - اسلام آباد", "name:en": "Capital Territory Islamabad", "name:es": "Islamabad", "name:fr": "Territoire fédéral d'Islamabad", "name:ja": "イスラーマーバード首都圏", "name:pl": "Terytorium Stołeczne Islamabadu", "name:ru": "Федеральная столичная территория", "name:ur": "وفاقی دارالحکومت اسلام آباد", "name:zh": "伊斯兰堡联邦首都区", "website": "http://www.islamabad.gov.pk/", "name:ang": "Capital Territory Islamabad", "border_type": "province"}}, "center_lat": 33.66, "center_lon": 73.09, "timezone": "Asia/Karachi", "wikipedia_id": "en:Capital Territory Islamabad"}, "geometry": {"type": "MultiPolygon", "coordinates": [[[[73.145, 33.803], [73.056, 33.781], [72.961, 33.736], [72.88, 33.754], [72.798, 33.66], [72.828, 33.61], [72.791, 33.581], [72.777, 33.543], [72.827, 33.52], [72.852, 33.491], [72.896, 33.528], [72.894, 33.56], [73.085, 33.665], [73.152, 33.575], [73.126, 33.537], [73.184, 33.503], [73.191, 33.468], [73.279, 33.53], [73.302, 33.529], [73.294, 33.588], [73.306, 33.66], [73.375, 33.755], [73.334, 33.788], [73.288, 33.803], [73.245, 33.79], [73.172, 33.789], [73.145, 33.803]]]]}}