{"type": "Feature", "properties": {"name": "Jihočeský kraj", "iso2": "CZ-31", "admin_level": 6, "osm_id": 442321, "countrylevel_id": "iso2:CZ-31", "osm_data": {"localname": "Jihočeský kraj", "official_name": "", "alltags": {"name:cs": "Jihočeský kraj", "name:eo": "Sudbohemia regiono", "name:hr": "Južna Češka", "name:hu": "Dél-csehországi kerület", "name:nl": "Zuid-Bohemen", "name:ru": "Южночешский край", "ref:NUTS": "CZ031", "population": "629424"}}, "center_lat": 49.1, "center_lon": 14.45, "timezone": "Europe/Prague", "population": 642133, "wikidata_id": "Q188373", "wikipedia_id": "cs:Jihočeský kraj"}, "geometry": {"type": "MultiPolygon", "coordinates": [[[[13.551, 48.968], [13.84, 48.772], [13.915, 48.744], [14.691, 48.584], [14.723, 48.676], [14.901, 48.77], [15.022, 49.02], [15.542, 48.908], [15.587, 48.947], [15.603, 49.087], [15.256, 49.218], [14.924, 49.31], [14.932, 49.549], [14.589, 49.544], [14.467, 49.532], [13.932, 49.501], [13.766, 49.514], [13.759, 49.404], [13.69, 49.16], [13.551, 48.968]]]]}}