{"type": "Feature", "properties": {"name": "Olomouc Region", "iso2": "CZ-71", "admin_level": 6, "osm_id": 442459, "countrylevel_id": "iso2:CZ-71", "osm_data": {"localname": "Olomoucký kraj", "official_name": "", "alltags": {"name:cs": "Olomoucký kraj", "name:en": "Olomouc Region", "name:eo": "Regiono Olomouc", "name:hr": "Olomoučki kraj", "name:hu": "Olomouci kerület", "name:pl": "kraj ołomuniecki", "name:ru": "Оломоуцкий край", "ref:NUTS": "CZ071", "population": "639073"}}, "center_lat": 49.75, "center_lon": 17.2, "timezone": "Europe/Prague", "population": 632492, "wikidata_id": "Q193307", "wikipedia_id": "cs:Olomoucký kraj"}, "geometry": {"type": "MultiPolygon", "coordinates": [[[[16.74, 49.859], [16.84, 49.706], [16.829, 49.668], [16.804, 49.599], [16.86, 49.381], [17.16, 49.275], [17.255, 49.303], [17.778, 49.444], [17.917, 49.538], [17.683, 49.709], [17.698, 49.725], [17.525, 49.79], [17.147, 49.878], [17.22, 50.102], [17.43, 50.254], [16.908, 50.449], [17.015, 50.219], [16.863, 50.198], [16.74, 49.859]]]]}}