{"type": "Feature", "properties": {"name": "Hovsgel", "iso2": "MN-041", "admin_level": 4, "osm_id": 270072, "countrylevel_id": "iso2:MN-041", "osm_data": {"localname": "Хөвсгөл", "official_name": "", "alltags": {"name:ar": "محافظة خوفسغول", "name:en": "Hovsgel", "name:es": "Hövsgöl", "name:fr": "Khövsgöl", "name:ja": "フブスグル", "name:lt": "Chubsugulo aimakas", "name:mn": "Хөвсгөл", "name:ru": "Хувсгел", "is_in:country": "Mongolia", "is_in:continent": "Asia", "is_in:country_code": "MN"}}, "center_lat": 50.22, "center_lon": 99.9, "timezone": "Asia/Ulaanbaatar", "population": 128159, "wikidata_id": "Q244788"}, "geometry": {"type": "MultiPolygon", "coordinates": [[[[99.074, 48.296], [100.183, 48.393], [100.703, 49.205], [101.666, 48.963], [101.677, 49.193], [102.785, 49.692], [102.138, 49.905], [102.643, 50.41], [102.21, 50.817], [102.124, 51.362], [101.37, 51.456], [100.529, 51.75], [99.921, 51.739], [99.798, 51.916], [98.969, 52.143], [98.764, 51.87], [98.05, 51.45], [97.858, 50.96], [98.307, 50.322], [98.07, 50.036], [97.131, 49.791], [96.878, 49.369], [97.176, 49.167], [98.553, 48.935], [99.114, 49.114], [99.074, 48.296]]]]}}