{"type": "Feature", "properties": {"name": "Dornod", "iso2": "MN-061", "admin_level": 4, "osm_id": 269886, "countrylevel_id": "iso2:MN-061", "osm_data": {"localname": "Дорнод", "official_name": "", "alltags": {"name:ar": "دورنود", "name:en": "Dornod", "name:es": "Dornod", "name:fr": "Dornod", "name:ja": "ドルノド", "name:mn": "Дорнод", "name:ru": "Дорнод", "is_in:country": "Mongolia", "name:zh_pinyin": "Xīnbā'ěrhǔ Yòu Qí", "is_in:continent": "Asia", "official_name:ar": "محافظة دورنود", "is_in:country_code": "MN"}}, "center_lat": 48.14, "center_lon": 115.46, "timezone": "Asia/Choibalsan", "population": 76476, "wikidata_id": "Q207795"}, "geometry": {"type": "MultiPolygon", "coordinates": [[[[111.996, 49.392], [112.512, 48.484], [112.694, 47.794], [112.949, 47.614], [113.676, 47.513], [114.478, 47.131], [114.459, 46.807], [114.901, 46.502], [116.316, 46.547], [116.543, 46.237], [117.368, 46.361], [118.301, 46.738], [119.68, 46.59], [119.928, 46.722], [119.708, 47.193], [118.755, 47.772], [118.555, 47.993], [117.805, 48.014], [117.375, 47.64], [116.871, 47.891], [116.253, 47.878], [115.935, 47.681], [115.571, 47.919], [115.787, 48.52], [116.714, 49.846], [116.233, 50.036], [115.745, 49.888], [114.831, 50.224], [114.178, 50.243], [113.218, 49.837], [113.044, 49.608], [111.996, 49.392]]]]}}