{"type": "Feature", "properties": {"name": "Selenge", "iso2": "MN-049", "admin_level": 4, "osm_id": 270089, "countrylevel_id": "iso2:MN-049", "osm_data": {"localname": "Сэлэнгэ", "official_name": "", "alltags": {"name:ar": "محافظة سيلنج", "name:en": "Selenge", "name:es": "Selenge", "name:fr": "Selenge", "name:ja": "セレンゲ", "name:mn": "Сэлэнгэ", "name:ru": "Сэлэнгэ", "is_in:country": "Mongolia", "is_in:continent": "Asia", "is_in:country_code": "MN"}}, "center_lat": 49.46, "center_lon": 106.2, "timezone": "Asia/Ulaanbaatar", "population": 106292, "wikidata_id": "Q234680"}, "geometry": {"type": "MultiPolygon", "coordinates": [[[[104.363, 50.263], [104.734, 49.686], [104.52, 49.106], [104.378, 48.899], [104.528, 48.626], [105.014, 48.505], [105.834, 48.865], [106.572, 48.531], [107.638, 48.634], [107.532, 48.976], [108.521, 49.124], [108.571, 49.331], [107.968, 49.655], [107.754, 49.971], [107.257, 49.988], [106.816, 50.298], [106.261, 50.298], [105.355, 50.479], [104.363, 50.263]], [[105.808, 49.131], [105.84, 49.685], [106.8, 49.471], [106.799, 49.132], [105.808, 49.131]]]]}}