{"type": "Feature", "properties": {"name": "Töv", "iso2": "MN-047", "admin_level": 4, "osm_id": 3382267, "countrylevel_id": "iso2:MN-047", "osm_data": {"localname": "Төв", "official_name": "", "alltags": {"name:ar": "محافظة توف", "name:en": "Töv", "name:es": "Töv", "name:fr": "Töv", "name:ja": "トゥブ", "name:mn": "Төв", "name:ru": "Туве", "alt_name:de": "Zentral", "alt_name:en": "Central", "is_in:country": "Mongolia", "is_in:continent": "Asia", "is_in:country_code": "MN"}}, "center_lat": 47.65, "center_lon": 106.55, "timezone": "Asia/Ulaanbaatar", "population": 90421, "wikidata_id": "Q276195"}, "geometry": {"type": "MultiPolygon", "coordinates": [[[[104.147, 47.298], [104.234, 46.853], [104.653, 46.38], [104.967, 46.59], [105.397, 46.439], [105.765, 46.732], [107.102, 46.404], [107.518, 46.455], [107.957, 46.774], [108.48, 46.78], [108.82, 46.98], [108.404, 47.572], [108.469, 47.925], [109.036, 48.347], [108.521, 49.124], [107.532, 48.976], [107.638, 48.634], [106.572, 48.531], [105.834, 48.865], [105.014, 48.505], [104.528, 48.626], [104.288, 48.144], [104.704, 47.945], [104.76, 47.662], [104.069, 47.468], [104.147, 47.298]], [[106.356, 48.257], [107.099, 48.219], [107.572, 47.914], [107.511, 47.652], [106.522, 47.746], [106.356, 48.257]], [[107.364, 47.384], [107.364, 47.384], [107.364, 47.384], [107.364, 47.384]]]]}}