{"type": "Feature", "properties": {"name": "Arkhangai", "iso2": "MN-073", "admin_level": 4, "osm_id": 270075, "countrylevel_id": "iso2:MN-073", "osm_data": {"localname": "Архангай", "official_name": "", "alltags": {"name:ar": "محافظة أرخانغاي", "name:en": "Arkhangai", "name:es": "Arhangay", "name:fr": "Arhangay", "name:hu": "Arhangaj", "name:it": "Arhangaj", "name:ja": "アルハンガイ", "name:mn": "Архангай", "name:pt": "Arkhangay", "name:ru": "Архангай", "is_in:country": "Mongolia", "name:zh_pinyin": "Xīnbā'ěrhǔ Yòu Qí", "is_in:continent": "Asia", "is_in:country_code": "MN"}}, "center_lat": 47.89, "center_lon": 101.02, "timezone": "Asia/Ulaanbaatar", "population": 92059, "wikidata_id": "Q207809"}, "geometry": {"type": "MultiPolygon", "coordinates": [[[[98.417, 47.615], [98.793, 47.722], [98.973, 47.471], [99.759, 47.619], [99.942, 47.058], [100.448, 47.183], [100.695, 46.837], [101.288, 46.826], [102.321, 47.017], [102.714, 47.413], [103.179, 47.212], [103.678, 47.251], [102.238, 48.481], [102.131, 48.811], [101.666, 48.963], [100.703, 49.205], [100.183, 48.393], [99.074, 48.296], [98.238, 48.067], [98.417, 47.615]]]]}}