{"type": "Feature", "properties": {"name": "Amur Oblast", "iso2": "RU-AMU", "admin_level": 4, "osm_id": 147166, "countrylevel_id": "iso2:RU-AMU", "osm_data": {"localname": "Амурская область", "official_name": "", "alltags": {"int_ref": "RU-AMU", "name:ca": "Província de l'Amur", "name:en": "Amur Oblast", "name:es": "Óblast de Amur", "name:fr": "Oblast d'Amour", "name:hu": "Amuri terület", "name:it": "Oblast' dell'Amur", "name:ja": "アムール州", "name:lt": "Amūro sritis", "name:nl": "Oblast Amoer", "name:pl": "Obwód amurski", "name:pt": "Oblast de Amur", "name:ru": "Амурская область", "name:sk": "Amurská oblasť", "name:sv": "Amur oblast", "name:uk": "Амурська область", "name:vi": "Amur (tỉnh)", "name:zh": "阿穆尔州", "int_name": "Amur Oblast", "population": "811274", "addr:country": "RU", "gis-lab:status": "subj", "gost_7.67-2003": "РОФ-АМУ", "official_status": "ru:область", "population:date": "2014-01-01"}}, "center_lat": 53.41, "center_lon": 127.75, "timezone": "Asia/Yakutsk", "population": 798424, "wikidata_id": "Q6886", "wikipedia_id": "ru:Амурская область"}, "geometry": {"type": "MultiPolygon", "coordinates": [[[[122.112, 53.431], [123.304, 53.56], [123.879, 53.481], [124.712, 53.151], [125.158, 53.204], [125.734, 52.991], [125.973, 52.609], [126.557, 52.12], [126.465, 51.936], [126.973, 51.298], [126.918, 51.057], [127.602, 50.237], [127.525, 49.819], [127.885, 49.57], [128.802, 49.55], [129.073, 49.354], [129.537, 49.398], [130.224, 48.865], [130.63, 48.881], [131.42, 49.255], [131.458, 50.177], [131.026, 50.577], [130.645, 50.662], [131.043, 51.239], [131.495, 51.392], [131.44, 51.669], [132.451, 51.886], [132.818, 52.183], [133.431, 52.258], [133.26, 52.681], [133.87, 52.514], [134.599, 52.501], [134.595, 52.901], [134.915, 53.402], [134.531, 53.621], [133.946, 53.439], [133.599, 53.551], [133.139, 53.308], [131.442, 53.221], [131.444, 53.739], [130.442, 53.888], [130.736, 54.299], [131.118, 54.334], [131.169, 54.635], [132.416, 55.082], [132.965, 55.42], [132.441, 55.743], [131.827, 55.648], [130.953, 55.712], [129.903, 55.778], [129.051, 55.695], [128.957, 55.494], [127.789, 55.723], [126.077, 55.595], [125.253, 55.908], [124.418, 55.92], [123.921, 56.388], [122.572, 56.485], [120.905, 57.061], [119.856, 56.896], [119.678, 56.739], [120.539, 56.266], [120.04, 56.157], [120.121, 55.866], [121.194, 56.041], [121.336, 55.53], [121.899, 55.62], [121.93, 54.569], [121.656, 54.358], [122.112, 53.431]]]]}}