{"type": "Feature", "properties": {"name": "Altai Republic", "iso2": "RU-AL", "admin_level": 4, "osm_id": 145194, "countrylevel_id": "iso2:RU-AL", "osm_data": {"localname": "Республика Алтай", "official_name": "", "alltags": {"int_ref": "RU-AL", "name:az": "Altay Respublikası", "name:ba": "Алтай Республикаһы", "name:ca": "República de l'Altai", "name:ce": "Республика Алтай", "name:cs": "Altajská republika", "name:el": "Δημοκρατία των Αλτάι", "name:en": "Altai Republic", "name:es": "República de Altái", "name:et": "Altai Vabariik", "name:fr": "République de l'Altaï", "name:hu": "Altaj Köztársaság", "name:hy": "Ալթայի Հանրապետություն", "name:it": "Repubblica dell'Altaj", "name:ja": "アルタイ共和国", "name:ka": "ალთაის რესპუბლიკა", "name:kk": "Алтай Республикасы", "name:kv": "Алтай республика", "name:ky": "Алтай Республикасы", "name:lt": "Altajaus Respublika", "name:lv": "Altaja Republika", "name:pl": "Republika Ałtaju", "name:pt": "República de Altai", "name:ru": "Республика Алтай", "name:sk": "Altajská republika", "name:tr": "Altay Cumhuriyeti", "name:tt": "Алтай Республикасы", "name:uk": "Республіка Алтай", "name:atv": "Алтай Республика", "name:bxr": "Алтай Республика", "name:sah": "Алтай Өрөспүүбүлүкэтэ", "name:udm": "Алтай Республика", "oktmo:user": "84000000", "alt_name:cs": "Republika Altaj", "addr:country": "RU", "is_in:country": "Russia", "short_name:cs": "Altaj", "gost_7.67-2003": "РОФ-АЛР", "is_in:continent": "Asia", "is_in:country_code": "RU"}}, "center_lat": 50.74, "center_lon": 87.02, "timezone": "Asia/Barnaul", "population": 218063, "wikidata_id": "Q5971", "wikipedia_id": "ru:Республика Алтай"}, "geometry": {"type": "MultiPolygon", "coordinates": [[[[84.08, 50.64], [84.252, 50.29], [85.049, 50.01], [85.211, 49.627], [86.272, 49.583], [86.783, 49.789], [87.286, 49.116], [87.815, 49.17], [88.222, 49.48], [88.847, 49.444], [89.719, 49.728], [89.594, 49.912], [89.308, 50.208], [89.865, 50.47], [89.056, 51.046], [88.792, 51.554], [88.445, 51.285], [87.9, 51.552], [87.885, 51.781], [88.377, 52.178], [88.448, 52.426], [87.653, 52.422], [87.127, 52.615], [86.628, 52.527], [86.649, 52.106], [85.854, 51.891], [85.444, 51.563], [84.196, 51.25], [84.474, 50.687], [84.08, 50.64]]]]}}