{"type": "Feature", "properties": {"name": "Buryatia", "iso2": "RU-BU", "admin_level": 4, "osm_id": 145729, "countrylevel_id": "iso2:RU-BU", "osm_data": {"localname": "Республика Бурятия", "official_name": "Республика Бурятия", "alltags": {"int_ref": "RU-BU", "name:az": "Buryatiya", "name:ba": "Бүрәт Республикаһы", "name:be": "Бурація", "name:br": "Bouryatia", "name:ca": "Buriàtia", "name:ce": "Бурятийн Республика", "name:cs": "Burjatsko", "name:cv": "Буряти", "name:el": "Δημοκρατία της Μπουργιατίας", "name:en": "Buryatia", "name:es": "Buriatia", "name:fr": "Bouriatie", "name:hy": "Բուրյաթիա", "name:it": "Buriazia", "name:ja": "ブリヤート共和国", "name:ka": "ბურიატეთი", "name:kk": "Бурятия", "name:lt": "Buriatija", "name:nl": "Boerjatië", "name:os": "Буряти", "name:pl": "Buriacja", "name:pt": "Buriácia", "name:ru": "Республика Бурятия", "name:sk": "Buriatska republika", "name:sv": "Burjatien", "name:tt": "Бурятия", "name:uk": "Бурятія", "name:vi": "Buryatia", "name:zh": "布里亞特共和國", "int_name": "Buryatia", "name:bxr": "Буряад Орон", "name:mhr": "Бурятий", "name:sah": "Бүрээт Өрөспүүбүлүкэтэ", "name:xal": "Бурядин таңһч", "oktmo:user": "81000000", "population": "973982", "short_name": "Бурятия", "alt_name:cs": "Burjatská republika", "addr:country": "RU", "is_in:country": "Russia", "official_name": "Республика Бурятия", "gost_7.67-2003": "РОФ-БУР", "name:be-tarask": "Буратыя", "is_in:continent": "Asia", "official_name:cs": "Republika Burjatsko", "official_name:de": "Republik Burjatien", "official_name:en": "Republic of Buryatia", "official_name:tt": "Бурят Республикасы", "official_name:bxr": "Буряад Республика", "is_in:country_code": "RU"}}, "center_lat": 53.55, "center_lon": 109.51, "timezone": "Asia/Irkutsk", "population": 984511, "wikidata_id": "Q6809", "wikipedia_id": "ru:Бурятия"}, "geometry": {"type": "MultiPolygon", "coordinates": [[[[98.969, 52.143], [99.798, 51.916], [99.921, 51.739], [100.529, 51.75], [101.37, 51.456], [102.124, 51.362], [102.21, 50.817], [102.643, 50.41], [103.256, 50.193], [104.139, 50.139], [104.363, 50.263], [105.355, 50.479], [106.261, 50.298], [106.816, 50.298], [107.257, 49.988], [107.754, 49.971], [107.734, 50.153], [108.679, 50.537], [108.182, 50.65], [108.682, 51.503], [109.235, 51.362], [110.048, 51.624], [110.71, 51.517], [111.016, 51.792], [111.715, 51.975], [112.168, 52.305], [112.383, 52.202], [114.082, 52.68], [114.307, 53.031], [113.775, 53.589], [114.867, 53.954], [115.606, 54.415], [116.532, 54.468], [116.92, 54.797], [116.352, 55.384], [115.878, 55.495], [115.8, 56.44], [115.412, 56.606], [115.73, 56.962], [116.253, 57.123], [115.845, 57.248], [115.068, 57.112], [114.799, 56.705], [113.793, 56.611], [112.866, 56.687], [112.574, 56.957], [110.628, 56.837], [109.972, 56.968], [108.549, 56.332], [109.034, 55.997], [108.681, 55.605], [108.703, 54.656], [109.068, 54.426], [108.451, 53.848], [108.013, 53.234], [106.173, 52.362], [105.782, 51.962], [104.596, 51.629], [104.67, 51.337], [103.81, 51.13], [103.801, 51.435], [103.357, 51.436], [103.225, 51.806], [102.395, 52.264], [101.931, 52.219], [101.41, 52.634], [100.916, 52.783], [100.232, 53.375], [99.23, 52.963], [98.632, 52.422], [98.969, 52.143]]]]}}