{"type": "Feature", "properties": {"name": "Bashkortostan", "iso2": "RU-BA", "admin_level": 4, "osm_id": 77677, "countrylevel_id": "iso2:RU-BA", "osm_data": {"localname": "Башкортостан", "official_name": "Республика Башкортостан", "alltags": {"int_ref": "RU-BA", "name:ar": "باشقورستان", "name:ba": "Башҡортостан", "name:ca": "Baixkíria", "name:ce": "Башкирийчоь", "name:cs": "Baškortostán", "name:cv": "Пушкăрт Республики", "name:en": "Bashkortostan", "name:es": "Bashkortostán", "name:fr": "Bachkirie", "name:hu": "Baskíria", "name:it": "Baschiria", "name:ja": "バシコルトスタン共和国", "name:lt": "Baškirija", "name:nl": "Basjkirostan", "name:os": "Башкортостан", "name:pl": "Baszkortostan", "name:ru": "Башкортостан", "name:sk": "Baškirská republika", "name:tt": "Башкортстан", "alt_name": "Башкирия", "oktmo:user": "80000000", "addr:region": "Башкортостан", "alt_name:ar": "باشكورستان;جمهورية باشكورستان", "border_type": "region", "addr:country": "RU", "addr:district": "Белорецкий район", "official_name": "Республика Башкортостан", "gost_7.67-2003": "РОФ-БАШ", "official_name:ar": "جمهورية باشقورستان"}}, "center_lat": 54.28, "center_lon": 56.51, "timezone": "Asia/Yekaterinburg", "population": 4063293, "wikidata_id": "Q5710", "wikipedia_id": "ru:Башкортостан"}, "geometry": {"type": "MultiPolygon", "coordinates": [[[[53.501, 54.056], [54.075, 53.442], [54.841, 53.252], [55.226, 52.741], [55.77, 52.347], [56.115, 52.65], [56.423, 52.605], [56.238, 52.219], [56.705, 52.06], [56.611, 51.827], [57.161, 51.576], [57.655, 51.869], [58.575, 51.772], [58.855, 52.426], [58.886, 53.749], [59.326, 54.188], [59.708, 54.142], [59.646, 54.484], [60.002, 54.864], [59.66, 54.908], [59.265, 54.613], [58.012, 54.396], [57.143, 54.852], [57.53, 55.337], [58.806, 55.029], [59.336, 55.632], [59.042, 56.172], [57.466, 56.127], [57.408, 56.34], [56.924, 56.105], [56.406, 56.405], [54.372, 56.374], [53.704, 55.928], [54.265, 55.703], [53.319, 55.162], [53.618, 54.697], [53.382, 54.374], [53.501, 54.056]]]]}}