{"type": "Feature", "properties": {"name": "Republic of Dagestan", "iso2": "RU-DA", "admin_level": 4, "osm_id": 109876, "countrylevel_id": "iso2:RU-DA", "osm_data": {"localname": "Республика Дагестан", "official_name": "", "alltags": {"int_ref": "RU-DA", "name:av": "Дагъистан", "name:az": "Dağıstan", "name:bg": "Дагестан", "name:br": "Dagestan", "name:ca": "Daguestan", "name:el": "Νταγκεστάν", "name:en": "Republic of Dagestan", "name:es": "Daguestán", "name:fa": "داغستان", "name:fr": "Daghestan", "name:he": "דאגסטן", "name:hu": "Dagesztán", "name:hy": "Դաղստան", "name:id": "Dagestan", "name:it": "Daghestan", "name:ka": "დაღესტნის რესპუბლიკა", "name:ku": "Daxistan", "name:lb": "Dagestan", "name:lt": "Dagestanas", "name:nl": "Dagestan", "name:pl": "Republika Dagestanu", "name:pt": "Daguestão", "name:ru": "Республика Дагестан", "name:sk": "Dagestan", "name:sv": "Dagestan", "name:tg": "Доғистон", "name:tk": "Dagystan", "name:tr": "Dağıstan", "name:zh": "达吉斯坦共和国", "alt_name": "Дагестан", "name:diq": "Dağıstan", "name:gag": "Dagestan", "name:got": "𐌳𐌰𐌲𐌰𐌹𐍃𐍄𐌰𐌽", "name:kbd": "Дагъыстэн", "name:lbe": "Дагъусттан", "name:lez": "Дагъустан", "name:myv": "Дагестан Республикась", "name:xal": "Дагъсин таңһч", "oktmo:user": "82000000", "border_type": "region", "name:az-cyr": "Дағыстан", "addr:country": "RU", "gost_7.67-2003": "РОФ-ДАГ", "official_name:av": "Дагъистаналъул Республика", "official_name:az": "Dağıstan Respublikası", "official_name:ca": "República del Daguestan", "official_name:ce": "ДегIeстан Республика", "official_name:de": "Republik Dagestan", "official_name:en": "Republic of Dagestan", "official_name:es": "República de Daguestán", "official_name:fr": "République du Daguestan", "official_name:it": "Repubblica del Daghestan", "official_name:sk": "Dagestanská republika", "official_name:lez": "Республика Дагъустан"}}, "center_lat": 43.04, "center_lon": 46.87, "timezone": "Europe/Moscow", "population": 3111353, "wikidata_id": "Q5118", "wikipedia_id": "ru:Дагестан"}, "geometry": {"type": "MultiPolygon", "coordinates": [[[[47.684, 43.909], [47.684, 43.909], [47.684, 43.909], [47.684, 43.909]]], [[[47.718, 43.919], [47.718, 43.919], [47.718, 43.919], [47.718, 43.919]]], [[[47.679, 44], [47.679, 44], [47.679, 44], [47.679, 44]]], [[[47.525, 44.435], [47.525, 44.435], [47.525, 44.435], [47.525, 44.435]]], [[[47.53, 44.436], [47.53, 44.436], [47.53, 44.436], [47.53, 44.436]]], [[[47.523, 44.436], [47.523, 44.436], [47.523, 44.436], [47.523, 44.436]]], [[[48.592, 41.842], [48.512, 41.741], [47.845, 41.216], [47.726, 41.194], [47.408, 41.262], [47.203, 41.464], [47.02, 41.556], [46.758, 41.863], [46.422, 41.908], [45.608, 42.212], [45.776, 42.488], [46.534, 42.924], [46.328, 43.45], [46.558, 43.76], [45.489, 44.01], [45.115, 44.193], [45.705, 44.977], [46.895, 44.812], [46.68, 44.468], [47.239, 44.202], [47.453, 43.83], [47.698, 43.891], [47.469, 43.005], [47.711, 42.832], [48.361, 41.957], [48.592, 41.842]]], [[[47.518, 44.438], [47.518, 44.438], [47.518, 44.438], [47.518, 44.438]]], [[[47.522, 44.437], [47.522, 44.437], [47.522, 44.437], [47.522, 44.437]]], [[[47.522, 44.438], [47.522, 44.438], [47.522, 44.438], [47.522, 44.438]]], [[[47.522, 44.439], [47.522, 44.439], [47.522, 44.439], [47.522, 44.439]]], [[[47.001, 44.468], [47.001, 44.468], [47.001, 44.468], [47.001, 44.468]]], [[[47.535, 44.491], [47.535, 44.491], [47.535, 44.491], [47.535, 44.491]]], [[[47.54, 44.492], [47.54, 44.492], [47.54, 44.492], [47.54, 44.492]]], [[[47.516, 44.44], [47.516, 44.44], [47.516, 44.44], [47.516, 44.44]]], [[[47.52, 44.441], [47.52, 44.441], [47.52, 44.441], [47.52, 44.441]]], [[[47.52, 44.441], [47.52, 44.441], [47.52, 44.441], [47.52, 44.441]]], [[[47.519, 44.442], [47.519, 44.442], [47.519, 44.442], [47.519, 44.442]]], [[[47.518, 44.437], [47.518, 44.437], [47.518, 44.437], [47.518, 44.437]]], [[[47.515, 44.496], [47.515, 44.496], [47.515, 44.496], [47.515, 44.496]]]]}}