{"type": "Feature", "properties": {"name": "Ivanovo Oblast", "iso2": "RU-IVA", "admin_level": 4, "osm_id": 85617, "countrylevel_id": "iso2:RU-IVA", "osm_data": {"localname": "Ивановская область", "official_name": "", "alltags": {"int_ref": "RU-IVA", "name:az": "İvanovo vilayəti", "name:be": "Іванаўская вобласць", "name:bg": "Ивановска област", "name:ca": "Província d'Ivànovo", "name:cs": "Ivanovská oblast", "name:cv": "Иваново облаçĕ", "name:en": "Ivanovo Oblast", "name:es": "Óblast de Ivánovo", "name:et": "Ivanovo oblast", "name:eu": "Ivanovo oblasta", "name:fi": "Ivanovon alue", "name:fr": "Oblast d'Ivanovo", "name:hu": "Ivanovói terület", "name:hy": "Իվանովոյի մարզ", "name:it": "Oblast' di Ivanovo", "name:ka": "ივანოვოს ოლქი", "name:kv": "Иваново обласьт", "name:lt": "Ivanovo sritis", "name:lv": "Ivanovas apgabals", "name:mn": "Иваново муж", "name:nl": "Oblast Ivanovo", "name:os": "Ивановойы облæст", "name:pl": "Obwód iwanowski", "name:pt": "Oblast de Ivanovo", "name:ro": "Regiunea Ivanovo", "name:ru": "Ивановская область", "name:sk": "Ivanovská oblasť", "name:sr": "Ивановска област", "name:sv": "Ivanovo oblast", "name:sw": "Ivanovo Oblast", "name:tr": "İvanovo Oblastı", "name:tt": "Иваново өлкәсе", "name:uk": "Івановська область", "name:zh": "伊万诺沃州", "name:sah": "Иваново уобалаhа", "name:xal": "Иванова төгәлң", "population": "1048961", "border_type": "region", "gost_7.67-2003": "РОФ-ИВА", "name:be-tarask": "Іванаўская вобласьць"}}, "center_lat": 56.99, "center_lon": 41.6, "timezone": "Europe/Moscow", "population": 1014646, "wikidata_id": "Q2654", "wikipedia_id": "ru:Ивановская область"}, "geometry": {"type": "MultiPolygon", "coordinates": [[[[39.402, 56.771], [39.901, 56.77], [39.949, 56.467], [40.918, 56.503], [42.614, 56.407], [43.152, 56.879], [43.303, 57.429], [42.884, 57.655], [42.122, 57.562], [41.599, 57.74], [41.567, 57.453], [40.43, 57.286], [39.853, 57.174], [39.402, 56.771]]]]}}