{"type": "Feature", "properties": {"name": "Irkutsk Oblast", "iso2": "RU-IRK", "admin_level": 4, "osm_id": 145454, "countrylevel_id": "iso2:RU-IRK", "osm_data": {"localname": "Иркутская область", "official_name": "", "alltags": {"int_ref": "RU-IRK", "name:ar": "إركوتسك أوبلاست", "name:az": "İrkutsk vilayəti", "name:ca": "Província d'Irkutsk", "name:cs": "Irkutská oblast", "name:en": "Irkutsk Oblast", "name:es": "Óblast de Irkutsk", "name:fr": "Oblast d'Irkoutsk", "name:hu": "Irkutszki terület", "name:hy": "Իրկուտսկի մարզ", "name:it": "Oblast' di Irkutsk", "name:ja": "イルクーツク州", "name:ka": "ირკუტსკის ოლქი", "name:lt": "Irkutsko sritis", "name:nl": "Oblast Irkoetsk", "name:os": "Иркутсчы облæст", "name:pl": "Obwód irkucki", "name:pt": "Oblast de Irkutsk", "name:ru": "Иркутская область", "name:sk": "Irkutská oblasť", "name:sv": "Irkutsk oblast", "name:tt": "Иркутск өлкәсе", "name:uk": "Іркутська область", "name:vi": "Irkutsk (tỉnh)", "name:zh": "伊尔库茨克州", "int_name": "Irkutsk Oblast", "name:bxr": "Эрхүүгэй можо", "population": "2417801", "addr:country": "RU", "is_in:country": "Russia", "gost_7.67-2003": "РОФ-ИРК", "is_in:continent": "Asia", "is_in:country_code": "RU"}}, "center_lat": 57.1, "center_lon": 106.33, "timezone": "Asia/Irkutsk", "population": 2404195, "wikidata_id": "Q6585", "wikipedia_id": "ru:Иркутская область"}, "geometry": {"type": "MultiPolygon", "coordinates": [[[[96.688, 53.646], [96.896, 53.725], [98.312, 53.095], [99.057, 53.109], [99.23, 52.963], [100.232, 53.375], [100.916, 52.783], [101.41, 52.634], [101.931, 52.219], [102.395, 52.264], [103.225, 51.806], [103.357, 51.436], [103.801, 51.435], [103.81, 51.13], [104.67, 51.337], [104.596, 51.629], [105.782, 51.962], [106.173, 52.362], [108.013, 53.234], [108.451, 53.848], [109.068, 54.426], [108.703, 54.656], [108.681, 55.605], [109.034, 55.997], [108.549, 56.332], [109.972, 56.968], [110.628, 56.837], [112.574, 56.957], [112.866, 56.687], [113.793, 56.611], [114.799, 56.705], [115.068, 57.112], [115.845, 57.248], [116.253, 57.123], [115.73, 56.962], [116.743, 56.739], [117.57, 56.87], [117.12, 57.861], [117.471, 58.325], [118.254, 58.398], [119.117, 58.238], [118.777, 58.611], [118.761, 59.428], [118.07, 59.625], [117.826, 59.445], [117.112, 59.61], [117.347, 60.024], [115.697, 60.549], [113.431, 59.402], [113.278, 59.158], [112.442, 58.918], [112.651, 59.314], [112.251, 59.528], [111.65, 59.224], [110.721, 59.281], [110.475, 59.046], [109.822, 58.989], [109.252, 59.467], [109.543, 59.667], [109.74, 60.249], [110.542, 61.088], [109.762, 61.332], [109.575, 61.915], [109.911, 62.437], [109.298, 62.522], [109.508, 62.795], [109.388, 63.377], [109.081, 63.577], [108.144, 63.604], [108.798, 63.891], [108.583, 64.255], [108.086, 64.246], [108.385, 64.046], [107.566, 63.897], [106.661, 64.026], [106.193, 62.921], [106.773, 62.639], [105.98, 61.691], [104.91, 61.395], [104.504, 60.616], [104.865, 60.314], [105.465, 60.252], [105.51, 59.844], [104.762, 59.685], [105.368, 59.118], [104.468, 58.609], [103.393, 59.03], [103.019, 59.318], [102.426, 59.145], [102.521, 58.708], [101.107, 58.101], [100.763, 57.4], [99.682, 58.083], [98.979, 57.718], [97.953, 57.829], [97.343, 57.032], [97.786, 56.798], [97.88, 56.375], [97.132, 56.113], [96.744, 55.657], [96.928, 55.302], [96.486, 54.516], [96.065, 54.575], [95.647, 54.294], [96.688, 53.646]]]]}}