{"type": "Feature", "properties": {"name": "Komi Republic", "iso2": "RU-KO", "admin_level": 4, "osm_id": 115136, "countrylevel_id": "iso2:RU-KO", "osm_data": {"localname": "Республика Коми", "official_name": "Республика Коми", "alltags": {"int_ref": "RU-KO", "name:ar": "جمهورية كومي", "name:ca": "República de Komi", "name:cs": "Komijská republika", "name:en": "Komi Republic", "name:es": "Komi", "name:fi": "Komin tasavalta", "name:fr": "République des Komis", "name:hu": "Komiföld", "name:ja": "コミ共和国", "name:lt": "Komijos Respublika", "name:pl": "Republika Komi", "name:ru": "Республика Коми", "name:sk": "Komijská republika", "alt_name": "Коми", "oktmo:user": "87000000", "population": "856831", "alt_name:sk": "Komijsko", "addr:country": "RU", "official_name": "Республика Коми", "gost_7.67-2003": "РОФ-КОМ", "official_status": "ru:республика", "population:date": "2016", "is_in:country_code": "RU"}}, "center_lat": 64.12, "center_lon": 54.79, "timezone": "Europe/Moscow", "population": 840873, "wikidata_id": "Q2073", "wikipedia_id": "ru:Республика Коми"}, "geometry": {"type": "MultiPolygon", "coordinates": [[[[48.42, 60.837], [48.523, 59.707], [49.817, 59.211], [49.991, 59.779], [51.467, 59.916], [52.065, 60.308], [52.317, 60.227], [51.772, 60.58], [51.892, 60.882], [52.361, 60.829], [52.871, 61.09], [54.977, 60.86], [55.276, 61.149], [56.275, 61.192], [56.378, 61.443], [58.844, 61.495], [59.349, 61.663], [59.489, 61.947], [59.612, 62.372], [59.204, 63.028], [59.561, 63.909], [59.828, 64.134], [59.526, 64.522], [59.809, 64.91], [60.948, 65.015], [62, 65.718], [62.841, 65.878], [63.418, 66.467], [65.139, 66.908], [65.701, 67.328], [65.708, 67.329], [66.134, 67.915], [65.432, 67.91], [65.474, 68.418], [64.804, 68.409], [63.878, 68.036], [63.621, 67.732], [63.62, 67.732], [62.866, 67.37], [61.321, 67.001], [58.836, 67], [53.875, 67.001], [52.152, 67.101], [51.545, 66.775], [49, 66.114], [49.052, 65.225], [49.635, 65.288], [50.361, 64.51], [49.552, 64.576], [48.524, 64.356], [45.852, 64.278], [45.399, 64.175], [46.81, 63.757], [47.051, 63.254], [47.567, 63.145], [47.061, 62.826], [47.232, 62.337], [48.323, 62.307], [48.352, 62.734], [49.64, 62.771], [49.04, 61.649], [49.502, 61.605], [49.321, 61.153], [48.475, 61.022], [48.42, 60.837]], [[48.598, 60.024], [48.598, 60.024], [48.598, 60.024], [48.598, 60.024]], [[59.495, 66.84], [59.495, 66.84], [59.495, 66.84], [59.495, 66.84]]]]}}