{"type": "Feature", "properties": {"name": "Krasnodar Krai", "iso2": "RU-KDA", "admin_level": 4, "osm_id": 108082, "countrylevel_id": "iso2:RU-KDA", "osm_data": {"localname": "Краснодарский край", "official_name": "", "alltags": {"int_ref": "RU-KDA", "name:ar": "منطقة كراسنودار", "name:az": "Krasnodar diyarı", "name:ba": "Краснодар крайы", "name:be": "Краснадарскі край", "name:bg": "Краснодарски край", "name:ca": "Territori de Krasnodar", "name:ce": "Краснодаран мехкайист", "name:cs": "Krasnodarský kraj", "name:cv": "Краснодар Ен", "name:el": "Κράι Κρασνοντάρ", "name:en": "Krasnodar Krai", "name:eo": "Krasnodara regiono", "name:es": "Krai de Krasnodar", "name:et": "Krasnodari krai", "name:eu": "Krasnodar kraia", "name:fr": "Kraï de Krasnodar", "name:he": "מחוז קרסנודאר", "name:hu": "Krasznodari határterület", "name:hy": "Կրասնոդարի երկրամաս", "name:it": "Territorio di Krasnodar", "name:ja": "クラスノダール地方", "name:ka": "კრასნოდარის მხარე", "name:lt": "Krasnodaro kraštas", "name:lv": "Krasnodaras novads", "name:mn": "Краснодарын хязгаар", "name:nl": "Kraj Krasnodar", "name:pl": "Kraj Krasnodarski", "name:pt": "Krai de Krasnodar", "name:ro": "Ținutul Krasnodar", "name:ru": "Краснодарский край", "name:sh": "Krasnodarski kraj", "name:sk": "Krasnodarský kraj", "name:sl": "Krasnodarski kraj", "name:sr": "Краснодарска Покрајина", "name:sv": "Krasnodar kraj", "name:tr": "Krasnodar Krayı", "name:tt": "Краснодар крае", "name:uk": "Краснодарський край", "name:vi": "Krasnodar (vùng)", "name:zh": "克拉斯诺达尔边疆区", "int_name": "Krasnodar Krai", "name:ar1": "كراسنودار كراي", "name:crh": "Krasnodar ülkesi", "name:kbd": "Краснодар щIыгу", "name:mhr": "Краснодар мланде", "name:myv": "Краснодаронь край", "name:sah": "Краснодаар кыраайа", "name:udm": "Краснодар шаер", "name:xal": "Краснодарин зах улс", "population": "5402609", "border_type": "state", "gost_7_67-2003": "РОФ-КРА", "name:be-tarask": "Краснадарскі край", "official_status": "ru:край"}}, "center_lat": 45.27, "center_lon": 39.43, "timezone": "Europe/Moscow", "population": 5603420, "wikidata_id": "Q3680", "wikipedia_id": "ru:Краснодарский край"}, "geometry": {"type": "MultiPolygon", "coordinates": [[[[37.38, 44.757], [37.38, 44.757], [37.38, 44.757], [37.38, 44.757]]], [[[37.812, 44.67], [37.812, 44.67], [37.812, 44.67], [37.812, 44.67]]], [[[38.686, 46.871], [38.902, 46.635], [39.263, 46.794], [40.063, 46.772], [40.324, 46.283], [40.926, 46.23], [41.161, 45.952], [40.848, 45.694], [41.036, 45.225], [41.654, 44.986], [41.427, 44.708], [41.736, 44.474], [41.48, 44.001], [40.891, 44.143], [40.713, 43.532], [40.091, 43.556], [40.008, 43.386], [38.791, 44.282], [38.203, 44.418], [37.792, 44.735], [36.598, 45.195], [36.857, 45.451], [37.572, 45.41], [37.616, 45.665], [38.254, 46.171], [37.735, 46.682], [38.046, 46.642], [38.686, 46.871]], [[38.684, 44.951], [39.556, 44.807], [39.885, 45.023], [39.909, 43.974], [40.366, 43.773], [40.483, 44.315], [40.281, 45.104], [39.629, 45.217], [39.223, 44.99], [38.684, 44.951]]]]}}