{"type": "Feature", "properties": {"name": "Kaliningrad", "iso2": "RU-KGD", "admin_level": 4, "osm_id": 103906, "countrylevel_id": "iso2:RU-KGD", "osm_data": {"localname": "Калининградская область", "official_name": "", "alltags": {"int_ref": "RU-KGD", "name:az": "Kalininqrad Vilayəti", "name:be": "Калінінградская вобласць", "name:ca": "Província de Kaliningrad", "name:ce": "Калининградан область", "name:cs": "Kaliningradská oblast", "name:cv": "Калининград облаçĕ", "name:el": "Περιφέρεια Καλίνινγκραντ", "name:en": "Kaliningrad", "name:eo": "Kaliningrada provinco", "name:es": "Óblast de Kaliningrado", "name:et": "Kaliningradi oblast", "name:fr": "Oblast de Kaliningrad", "name:ga": "Cúige Kaliningrad", "name:he": "מחוז קלינינגרד", "name:hu": "Kalinyingrádi terület", "name:hy": "Կալինինգրադի մարզ", "name:it": "Oblast' di Kaliningrad", "name:ja": "カリーニングラード州", "name:ka": "კალინინგრადის ოლქი", "name:ko": "칼리닌그라드 주", "name:ku": "Oblasta Kaliningradê", "name:kv": "Калининград обласьт", "name:lt": "Kaliningrado sritis", "name:lv": "Kaļiņingradas apgabals", "name:mn": "Калининград муж", "name:ms": "Wilayah Kaliningrad", "name:nl": "Oblast Kaliningrad", "name:os": "Калининграды облæст", "name:pl": "Obwód kaliningradzki", "name:pt": "Oblast de Kaliningrado", "name:ro": "Regiunea Kaliningrad", "name:ru": "Калининградская область", "name:sh": "Kalinjingradska oblast", "name:sk": "Kaliningradská oblasť", "name:sl": "Kaliningrajska oblast", "name:sr": "Калињинградска област", "name:tt": "Калининград өлкәсе", "name:uk": "Калінінградська область", "name:uz": "Kaliningrad viloyati", "name:yi": "קאלינינגראד אבלאסט", "name:zh": "加里宁格勒州", "name:dsb": "Kaliningradski wobcerk", "name:hsb": "Kaliningradska oblasć", "name:kbd": "Калининград област", "name:mhr": "Калининград вел", "name:myv": "Калининградонь ёнкс", "name:sah": "Калининград уобалаһа", "name:szl": "Uobwůd kalińingradzki", "name:xal": "Калинингара төгәлң", "population": "954773", "alt_name:de": "Kaliningrader Gebiet", "border_type": "region", "addr:country": "RU", "is_in:country": "Russia", "gost_7.67-2003": "РОФ-КАГ", "name:be-tarask": "Калінінградзкая вобласьць", "is_in:continent": "Europe", "population:date": "2013-01-01", "is_in:country_code": "RU"}}, "center_lat": 54.71, "center_lon": 21.43, "timezone": "Europe/Kaliningrad", "population": 994599, "wikidata_id": "Q1749", "wikipedia_id": "ru:Калининградская область"}, "geometry": {"type": "MultiPolygon", "coordinates": [[[[20.844, 54.914], [20.844, 54.914], [20.844, 54.914], [20.844, 54.914]]], [[[20.524, 54.955], [20.524, 54.955], [20.524, 54.955], [20.524, 54.955]]], [[[21.219, 55.024], [21.219, 55.024], [21.219, 55.024], [21.219, 55.024]]], [[[21.185, 55.155], [21.185, 55.155], [21.185, 55.155], [21.185, 55.155]]], [[[21.182, 55.201], [21.182, 55.201], [21.182, 55.201], [21.182, 55.201]]], [[[21.272, 55.24], [21.272, 55.24], [21.272, 55.24], [21.272, 55.24]]], [[[21.271, 55.241], [21.271, 55.241], [21.271, 55.241], [21.271, 55.241]]], [[[21.267, 55.241], [21.267, 55.241], [21.267, 55.241], [21.267, 55.241]]], [[[21.264, 55.246], [21.27, 55.246], [21.264, 55.246], [21.264, 55.246]]], [[[19.649, 54.453], [19.639, 54.458], [19.649, 54.453], [19.649, 54.453]]], [[[19.933, 54.599], [19.933, 54.599], [19.933, 54.599], [19.933, 54.599]]], [[[19.923, 54.632], [19.923, 54.632], [19.923, 54.632], [19.923, 54.632]]], [[[20.1, 54.646], [20.1, 54.646], [20.1, 54.646], [20.1, 54.646]]], [[[20.113, 54.652], [20.113, 54.652], [20.113, 54.652], [20.113, 54.652]]], [[[20.153, 54.678], [20.153, 54.678], [20.153, 54.678], [20.153, 54.678]]], [[[20.164, 54.68], [20.164, 54.68], [20.164, 54.68], [20.164, 54.68]]], [[[20.244, 54.684], [20.244, 54.684], [20.244, 54.684], [20.244, 54.684]]], [[[20.214, 54.683], [20.214, 54.683], [20.214, 54.683], [20.214, 54.683]]], [[[20, 54.638], [20, 54.638], [20, 54.638], [20, 54.638]]], [[[20.001, 54.64], [20.001, 54.64], [20.001, 54.64], [20.001, 54.64]]], [[[19.898, 54.638], [19.898, 54.638], [19.898, 54.638], [19.898, 54.638]]], [[[20.181, 54.686], [20.181, 54.686], [20.181, 54.686], [20.181, 54.686]]], [[[21.271, 55.245], [21.65, 55.181], [22.275, 55.064], [22.589, 55.07], [22.85, 54.772], [22.787, 54.37], [22.789, 54.369], [22.792, 54.363], [21.496, 54.324], [19.804, 54.442], [19.977, 54.96], [20.37, 54.938], [20.954, 55.281], [20.984, 55.278], [20.553, 54.94], [21.205, 54.918], [21.271, 55.245]]]]}}