{"type": "Feature", "properties": {"name": "Republic of Kalmykia", "iso2": "RU-KL", "admin_level": 4, "osm_id": 108083, "countrylevel_id": "iso2:RU-KL", "osm_data": {"localname": "Республика Калмыкия", "official_name": "Республика Калмыкия", "alltags": {"int_ref": "RU-KL", "name:av": "Гъалмугъ", "name:az": "Kalmıkiya Respublikası", "name:be": "Калмыкія", "name:br": "Kalmykia", "name:ca": "Calmúquia", "name:ce": "ГӀалмакхойчоь", "name:cs": "Kalmycko", "name:cv": "Калмăк Республики", "name:el": "Δημοκρατία της Καλμίκια", "name:en": "Republic of Kalmykia", "name:eo": "Kalmukio", "name:es": "República de Kalmukia", "name:fr": "République de Kalmoukie", "name:he": "קלמיקיה", "name:hu": "Kalmükföld", "name:hy": "Կալմիկիա հանրապետություն", "name:it": "Repubblica dei Calmucchi", "name:ka": "ყალმუხეთის რესპუბლიკა", "name:kk": "Қалмақстан Республикасы", "name:kv": "Калмыкия", "name:nl": "Kalmukkië", "name:pl": "Republika Kałmucji", "name:pt": "Calmúquia", "name:ro": "Calmîchia", "name:ru": "Калмыкия", "name:sk": "Kalmycká republika", "name:sl": "Kalmikija", "name:tt": "Калмыкия", "name:uk": "Калмикія", "name:uz": "Qalmogʻiston", "name:bxr": "Бүгэдэ Найрамдаха Хальмаг Улас", "name:kbd": "Къалмыкъ республикэ", "name:xal": "Хальмг Таңһч", "oktmo:user": "85000000", "border_type": "region", "addr:country": "RU", "official_name": "Республика Калмыкия", "gost_7.67-2003": "РОФ-КАИ", "name:be-tarask": "Калмыкія", "official_name:av": "Гъалмугъ Жумгьурият", "official_name:de": "Republik Kalmückien", "official_name:en": "Republic of Kalmykia", "official_name:ru": "Республика Калмыкия", "official_name:tt": "Калмыкия Республикасы"}}, "center_lat": 46.46, "center_lon": 45.27, "timezone": "Europe/Moscow", "population": 275413, "wikidata_id": "Q3953", "wikipedia_id": "ru:Калмыкия"}, "geometry": {"type": "MultiPolygon", "coordinates": [[[[47.744, 45.28], [47.744, 45.28], [47.744, 45.28], [47.744, 45.28]]], [[[47.006, 46.074], [47.006, 46.074], [47.006, 46.074], [47.006, 46.074]]], [[[46.938, 45.769], [46.938, 45.769], [46.938, 45.769], [46.938, 45.769]]], [[[46.895, 44.812], [45.705, 44.977], [45.59, 45.126], [44.181, 45.635], [43.919, 45.944], [42.914, 46.236], [42.557, 46.008], [41.714, 45.982], [41.641, 46.154], [42.17, 46.298], [42.045, 46.534], [42.932, 46.447], [43.339, 46.167], [43.972, 46.358], [43.813, 46.572], [44.266, 46.909], [44.312, 47.478], [43.793, 47.268], [43.711, 47.474], [43.715, 47.718], [44.359, 47.852], [44.326, 48.239], [44.81, 48.051], [44.961, 48.271], [45.55, 47.994], [46.008, 47.565], [46.536, 47.403], [46.962, 46.974], [46.965, 46.445], [46.449, 46.178], [46.478, 45.7], [46.814, 45.565], [47.52, 45.661], [47.538, 45.618], [47.527, 45.517], [47.105, 44.874], [46.895, 44.812]], [[46.444, 45.453], [46.444, 45.453], [46.444, 45.453], [46.444, 45.453]]], [[[47.74, 45.279], [47.74, 45.279], [47.74, 45.279], [47.74, 45.279]]], [[[47.743, 45.28], [47.743, 45.28], [47.743, 45.28], [47.743, 45.28]]], [[[47.743, 45.28], [47.743, 45.28], [47.743, 45.28], [47.743, 45.28]]], [[[47.742, 45.28], [47.742, 45.28], [47.742, 45.28], [47.742, 45.28]]], [[[47.743, 45.24], [47.743, 45.24], [47.743, 45.24], [47.743, 45.24]]], [[[47.737, 45.239], [47.737, 45.239], [47.737, 45.239], [47.737, 45.239]]], [[[47.761, 45.274], [47.761, 45.274], [47.761, 45.274], [47.761, 45.274]]], [[[47.752, 45.261], [47.752, 45.261], [47.752, 45.261], [47.752, 45.261]]], [[[47.738, 45.258], [47.738, 45.258], [47.738, 45.258], [47.738, 45.258]]], [[[47.734, 45.249], [47.734, 45.249], [47.734, 45.249], [47.734, 45.249]]], [[[47.75, 45.254], [47.75, 45.254], [47.75, 45.254], [47.75, 45.254]]], [[[47.735, 45.253], [47.735, 45.253], [47.735, 45.253], [47.735, 45.253]]], [[[47.73, 45.237], [47.73, 45.237], [47.73, 45.237], [47.73, 45.237]]], [[[47.74, 45.243], [47.74, 45.243], [47.74, 45.243], [47.74, 45.243]]], [[[47.731, 45.242], [47.731, 45.242], [47.731, 45.242], [47.731, 45.242]]], [[[47.74, 45.243], [47.74, 45.243], [47.74, 45.243], [47.74, 45.243]]], [[[47.752, 45.276], [47.752, 45.276], [47.752, 45.276], [47.752, 45.276]]], [[[47.741, 45.271], [47.741, 45.271], [47.741, 45.271], [47.741, 45.271]]]]}}