{"type": "Feature", "properties": {"name": "Republic of Khakassia", "iso2": "RU-KK", "admin_level": 4, "osm_id": 190911, "countrylevel_id": "iso2:RU-KK", "osm_data": {"localname": "Республика Хакасия", "official_name": "", "alltags": {"int_ref": "RU-KK", "name:ca": "Khakàssia", "name:cs": "Chakaská republika", "name:en": "Republic of Khakassia", "name:es": "República de Jakasia", "name:fr": "République de Khakassie", "name:hu": "Hakaszföld", "name:it": "Repubblica della Chakassia", "name:ja": "ハカス共和国", "name:la": "Res Publica Chakassia", "name:nl": "Chakassië", "name:pl": "Republika Chakasji", "name:pt": "República da Cacássia", "name:ru": "Республика Хакасия", "name:sk": "Chakaská republika", "oktmo:user": "95000000", "addr:country": "RU", "is_in:country": "Russia", "short_name:sk": "Chakasko", "gost_7.67-2003": "РОФ-ХАК", "is_in:continent": "Asia", "is_in:country_code": "RU"}}, "center_lat": 53.35, "center_lon": 89.9, "timezone": "Asia/Krasnoyarsk", "population": 537513, "wikidata_id": "Q6543", "wikipedia_id": "ru:Хакасия"}, "geometry": {"type": "MultiPolygon", "coordinates": [[[[88.792, 51.554], [89.659, 51.539], [90.08, 51.731], [90.146, 52.151], [90.487, 52.196], [90.895, 52.601], [91.228, 52.616], [91.903, 53.426], [91.427, 53.862], [91.574, 54.091], [90.217, 55.154], [89.278, 55.042], [88.601, 55.427], [88.732, 54.893], [88.581, 54.323], [89.217, 54.25], [88.759, 53.356], [89.24, 52.801], [88.708, 52.256], [88.377, 52.178], [87.885, 51.781], [87.9, 51.552], [88.445, 51.285], [88.792, 51.554]], [[88.578, 55.39], [88.578, 55.39], [88.578, 55.39], [88.578, 55.39]], [[88.654, 55.294], [88.654, 55.294], [88.654, 55.294], [88.654, 55.294]]]]}}