{"type": "Feature", "properties": {"name": "Kurgan Oblast", "iso2": "RU-KGN", "admin_level": 4, "osm_id": 140290, "countrylevel_id": "iso2:RU-KGN", "osm_data": {"localname": "Курганская область", "official_name": "", "alltags": {"int_ref": "RU-KGN", "name:ar": "أوبلاست كورغان", "name:az": "Kurqan vilayəti", "name:ba": "Ҡурған өлкәһе", "name:be": "Курганская вобласць", "name:ca": "Província de Kurgan", "name:cs": "Kurganská oblast", "name:en": "Kurgan Oblast", "name:es": "Kurgán", "name:fi": "Kurganin alue", "name:fr": "Oblast de Kourgan", "name:he": "מחוז קורגן", "name:hu": "Kurgani terület", "name:hy": "Կուրգանի մարզ", "name:it": "Oblast' di Kurgan", "name:ja": "クルガン州", "name:ka": "კურგანის ოლქი", "name:kk": "Қорған облысы", "name:ko": "쿠르간 주", "name:lt": "Kurgano sritis", "name:os": "Курганы облæст", "name:pl": "Obwód kurgański", "name:ro": "Regiunea Kurgan", "name:ru": "Курганская область", "name:sk": "Kurganská oblasť", "name:tr": "Kurgan Oblastı", "name:tt": "Курган өлкәсе", "name:uk": "Курганська область", "name:uz": "Koʻrgan viloyati", "name:sah": "Курган уобалаһа", "name:xal": "Хүрһна төгәлң", "population": "861896", "addr:country": "RU", "gost_7.67-2003": "РОФ-КУР", "name:be-tarask": "Курганская вобласьць", "population:date": "2016-01-01"}}, "center_lat": 55.44, "center_lon": 64.81, "timezone": "Asia/Yekaterinburg", "population": 845537, "wikidata_id": "Q5741", "wikipedia_id": "ru:Курганская область"}, "geometry": {"type": "MultiPolygon", "coordinates": [[[[63.351, 54.194], [65.222, 54.334], [65.214, 54.541], [66.075, 54.64], [68.235, 54.969], [68.177, 55.199], [68.709, 55.348], [68.139, 55.729], [67.404, 55.728], [67.303, 55.963], [66.452, 55.96], [65.234, 56.277], [64.927, 56.772], [64.328, 56.757], [64.179, 56.461], [63.4, 56.61], [62.428, 56.527], [62.061, 56.131], [62.62, 55.491], [62.043, 55.261], [62.078, 54.676], [63.2, 54.699], [63.351, 54.194]]]]}}