{"type": "Feature", "properties": {"name": "Lipetsk Oblast", "iso2": "RU-LIP", "admin_level": 4, "osm_id": 72169, "countrylevel_id": "iso2:RU-LIP", "osm_data": {"localname": "Липецкая область", "official_name": "", "alltags": {"int_ref": "RU-LIP", "name:ca": "Província de Lípetsk", "name:cs": "Lipecká oblast", "name:en": "Lipetsk Oblast", "name:es": "Óblast de Lípetsk", "name:fr": "Oblast de Lipetsk", "name:hu": "Lipecki terület", "name:it": "Oblast' di Lipeck", "name:ja": "リペツク州", "name:lt": "Lipecko sritis", "name:nl": "Oblast Lipetsk", "name:pl": "Obwód lipiecki", "name:pt": "Oblast de Lipetsk", "name:ru": "Липецкая область", "name:sk": "Lipecká oblasť", "name:sv": "Lipetsk oblast", "name:uk": "Липецька область", "name:vi": "Lipetsk (tỉnh)", "name:zh": "利佩茨克州", "int_name": "Lipetsk Oblast", "oktmo:user": "42000000", "population": "1159796", "border_type": "region", "addr:country": "RU", "is_in:country": "Russia", "gost_7.67-2003": "РОФ-ЛИП", "is_in:continent": "Europe", "official_status": "ru:область", "is_in:country_code": "RU"}}, "center_lat": 52.65, "center_lon": 39.17, "timezone": "Europe/Moscow", "population": 1150201, "wikidata_id": "Q3510", "wikipedia_id": "ru:Липецкая область"}, "geometry": {"type": "MultiPolygon", "coordinates": [[[[37.738, 52.019], [38.293, 51.966], [38.707, 52.098], [39.841, 51.921], [40.534, 51.946], [40.733, 52.251], [39.95, 52.634], [40.171, 53.313], [39.758, 53.587], [39.193, 53.391], [38.938, 53.574], [38.548, 53.328], [38.634, 53.041], [37.866, 53.012], [37.79, 52.497], [38.052, 52.271], [37.738, 52.019]]]]}}