{"type": "Feature", "properties": {"name": "Novosibirsk Oblast", "iso2": "RU-NVS", "admin_level": 4, "osm_id": 140294, "countrylevel_id": "iso2:RU-NVS", "osm_data": {"localname": "Новосибирская область", "official_name": "", "alltags": {"int_ref": "RU-NVS", "name:af": "Nowosibirsk-oblast", "name:ar": "نوفوسيبيرسك أوبلاست", "name:az": "Novosibirsk vilayəti", "name:be": "Новасібірская вобласць", "name:bg": "Новосибирска област", "name:bs": "Novosibirska oblast", "name:ca": "Província de Novosibirsk", "name:cs": "Novosibirská oblast", "name:cu": "Новосибирьска область", "name:cv": "Çĕн Çĕпĕр облаçĕ", "name:el": "Περιφέρεια Νοβοσιμπίρσκ", "name:en": "Novosibirsk Oblast", "name:eo": "Novosibirska provinco", "name:es": "Óblast de Novosibirsk", "name:et": "Novosibirski oblast", "name:fa": "استان نووسیبیرسک", "name:fi": "Novosibirskin alue", "name:fr": "Oblast de Novossibirsk", "name:ga": "Cúige Novosibirsk", "name:he": "מחוז נובוסיבירסק", "name:hr": "Novosibirska oblast", "name:hu": "Novoszibirszki terület", "name:id": "Oblast Novosibirsk", "name:it": "Oblast' di Novosibirsk", "name:ja": "ノヴォシビルスク州", "name:ka": "ნოვოსიბირსკის ოლქი", "name:kk": "Новосібір облысы", "name:ko": "노보시비르스크 주", "name:ku": "Oblasta Novosîbîrskê", "name:kv": "Новосибирск обласьт", "name:lt": "Novosibirsko sritis", "name:lv": "Novosibirskas apgabals", "name:mk": "Новосибирска област", "name:mr": "नोवोसिबिर्स्क ओब्लास्त", "name:ms": "Wilayah Novosibirsk", "name:nl": "Oblast Novosibirsk", "name:nn": "Novosibirsk oblast", "name:no": "Novosibirsk oblast", "name:os": "Новосибирсчы облæст", "name:pl": "Obwód nowosybirski", "name:pt": "Oblast de Novosibirsk", "name:ro": "Regiunea Novosibirsk", "name:ru": "Новосибирская область", "name:se": "Novosibirsk oblast", "name:sk": "Novosibirská oblasť", "name:sl": "Novosibirska oblast", "name:sr": "Новосибирска област", "name:sv": "Novosibirsk oblast", "name:sw": "Novosibirsk Oblast", "name:tg": "Вилояти Новосибирск", "name:tl": "Novosibirsk Oblast", "name:tr": "Novosibirsk Oblastı", "name:tt": "Новосибирск өлкәсе", "name:uk": "Новосибірська область", "name:vi": "Novosibirsk", "name:zh": "新西伯利亚州", "population": "2731176", "addr:country": "RU", "is_in:country": "Russia", "gost_7.67-2003": "РОФ-НОС", "is_in:continent": "Asia", "population:date": "2014-01-01", "is_in:country_code": "RU"}}, "center_lat": 55.28, "center_lon": 79.78, "timezone": "Asia/Novosibirsk", "population": 2788849, "wikidata_id": "Q5851", "wikipedia_id": "ru:Новосибирская область"}, "geometry": {"type": "MultiPolygon", "coordinates": [[[[75.689, 54.123], [76.73, 54.418], [76.538, 54], [77.907, 53.291], [77.91, 53.572], [79.64, 53.744], [80.952, 54.375], [81.132, 54.112], [82.486, 53.494], [83.198, 54.066], [84.548, 54.163], [85.116, 54.438], [84.895, 54.729], [84.859, 55.375], [84.448, 56.042], [83.95, 56.015], [83.585, 55.671], [83.065, 56.23], [83.288, 56.443], [81.573, 56.242], [81.22, 56.538], [80.264, 56.422], [79.589, 56.923], [78.448, 57.165], [76.095, 57.235], [76.303, 56.156], [75.732, 56.113], [75.104, 55.756], [75.322, 55.498], [75.331, 54.914], [75.801, 54.697], [75.689, 54.123]]]]}}