{"type": "Feature", "properties": {"name": "Novgorod Oblast", "iso2": "RU-NGR", "admin_level": 4, "osm_id": 89331, "countrylevel_id": "iso2:RU-NGR", "osm_data": {"localname": "Новгородская область", "official_name": "", "alltags": {"int_ref": "RU-NGR", "name:ca": "Província de Nóvgorod", "name:cs": "Novgorodská oblast", "name:en": "Novgorod Oblast", "name:es": "Óblast de Nóvgorod", "name:fi": "Novgorodin alue", "name:fr": "Oblast de Novgorod", "name:hu": "Novgorodi terület", "name:it": "Oblast' di Novgorod", "name:ja": "ノヴゴロド州", "name:nl": "Oblast Novgorod", "name:pl": "Obwód nowogrodzki", "name:pt": "Oblast de Novgorod", "name:ru": "Новгородская область", "name:sk": "Novgorodská oblasť", "name:sv": "Novgorod oblast", "name:uk": "Новгородська область", "name:zh": "諾夫哥羅德州", "website": "http://region.adm.nov.ru/", "population": "625855", "addr:country": "RU", "is_in:country": "Russia", "gost_7.67-2003": "РОФ-НОВ", "is_in:continent": "Europe", "population:date": "2013-01-01", "is_in:country_code": "RU"}}, "center_lat": 58.31, "center_lon": 32.47, "timezone": "Europe/Moscow", "population": 606476, "wikidata_id": "Q2240", "wikipedia_id": "ru:Новгородская область"}, "geometry": {"type": "MultiPolygon", "coordinates": [[[[30.979, 56.97], [31.396, 56.909], [32.789, 57.467], [33.264, 57.422], [33.593, 57.728], [33.577, 58.108], [34.133, 58.215], [34.721, 58.09], [35.304, 58.41], [36.182, 58.512], [36.111, 58.722], [35.128, 58.815], [34.722, 59.085], [32.966, 59.42], [32.452, 59.108], [31.964, 59.433], [31.481, 59.102], [31.081, 59.091], [30.714, 58.736], [30.193, 58.76], [29.896, 58.45], [29.629, 58.1], [30.521, 57.884], [30.423, 57.424], [30.979, 56.97]]]]}}