{"type": "Feature", "properties": {"name": "Tuva Republic", "iso2": "RU-TY", "admin_level": 4, "osm_id": 145195, "countrylevel_id": "iso2:RU-TY", "osm_data": {"localname": "Республика Тыва", "official_name": "", "alltags": {"int_ref": "RU-TY", "name:af": "Tiwa", "name:ar": "توفا", "name:az": "Tıva", "name:ba": "Тыва Республикаһы", "name:be": "Тува", "name:bg": "Тува", "name:bs": "Tuva", "name:ca": "Tuvà", "name:cs": "Tuva", "name:da": "Republikken Tyva", "name:el": "Δημοκρατία της Τιβά", "name:en": "Tuva Republic", "name:eo": "Tuvio", "name:es": "República de Tuvá", "name:et": "Tõva", "name:eu": "Tuva", "name:fa": "تووا", "name:fi": "Tuva", "name:fr": "République de Touva", "name:ga": "Túva", "name:he": "טובה (רפובליקה)", "name:hi": "तूवा", "name:hr": "Tuva", "name:hu": "Tuva", "name:id": "Tuva", "name:it": "Repubblica di Tuva", "name:ja": "トゥヴァ共和国", "name:ka": "ტუვა", "name:kk": "Тыуа", "name:ko": "투바 공화국", "name:ky": "Тыва Республикасы", "name:la": "Tuva", "name:lt": "Tuva", "name:lv": "Tiva", "name:mk": "Тува", "name:mn": "Бүгд Найрамдах Тува Улс", "name:mr": "तुवा प्रजासत्ताक", "name:ms": "Tuva", "name:nl": "Republiek Toeva", "name:nn": "Tyva", "name:no": "Tuva (republikk)", "name:pl": "Tuwa", "name:pt": "Tuva", "name:ro": "Tuva", "name:ru": "Республика Тыва", "name:se": "Tuva", "name:sk": "Tuvianska republika", "name:sl": "Tuva", "name:sq": "Tëvaja", "name:sr": "Тива", "name:su": "Tuva", "name:sv": "Tuva", "name:tg": "Ҷумҳурии Тува", "name:tl": "Tuva", "name:tr": "Tuva Cumhuriyeti", "name:ug": "تۇۋا", "name:uk": "Тива", "name:vi": "Tuva", "name:zh": "图瓦共和国", "alt_name": "Тува", "name:tyv": "Тыва Республика", "oktmo:user": "93000000", "short_name": "Тыва", "alt_name:ru": "Тува", "addr:country": "RU", "is_in:country": "Russia", "short_name:sk": "Tuviansko", "gost_7.67-2003": "РОФ-ТУВ", "is_in:continent": "Asia", "is_in:country_code": "RU"}}, "center_lat": 51.58, "center_lon": 94.8, "timezone": "Asia/Krasnoyarsk", "population": 321722, "wikidata_id": "Q960", "wikipedia_id": "ru:Тыва"}, "geometry": {"type": "MultiPolygon", "coordinates": [[[[88.792, 51.554], [89.056, 51.046], [89.865, 50.47], [89.308, 50.208], [89.594, 49.912], [90.022, 50.001], [91.409, 50.451], [91.855, 50.734], [93.032, 50.768], [93.05, 50.601], [94.24, 50.588], [94.615, 50.035], [95.505, 49.907], [95.844, 50.044], [97.131, 49.791], [98.07, 50.036], [98.307, 50.322], [97.858, 50.96], [98.05, 51.45], [98.764, 51.87], [98.969, 52.143], [98.632, 52.422], [99.23, 52.963], [99.057, 53.109], [98.312, 53.095], [96.896, 53.725], [96.688, 53.646], [96.111, 53.452], [95.732, 53.525], [94.618, 53.331], [94.583, 52.997], [94.158, 52.831], [93.677, 52.212], [92.891, 51.844], [92.077, 51.772], [90.849, 51.9], [90.487, 52.196], [90.146, 52.151], [90.08, 51.731], [89.659, 51.539], [88.792, 51.554]]]]}}