{"type": "Feature", "properties": {"name": "Tomsk Oblast", "iso2": "RU-TOM", "admin_level": 4, "osm_id": 140295, "countrylevel_id": "iso2:RU-TOM", "osm_data": {"localname": "Томская область", "official_name": "", "alltags": {"int_ref": "RU-TOM", "name:ca": "Província de Tomsk", "name:cs": "Tomská oblast", "name:en": "Tomsk Oblast", "name:eo": "Tomsk regiono", "name:es": "Tomsk", "name:fr": "Oblast de Tomsk", "name:hu": "Tomszki terület", "name:ja": "トムスク州", "name:lt": "Tomsko sritis", "name:pl": "Obwód tomski", "name:ru": "Томская область", "name:sk": "Tomská oblasť", "int_name": "Tomsk Oblast", "addr:country": "RU", "is_in:country": "Russia", "gost_7.67-2003": "РОФ-ТОМ", "is_in:continent": "Asia", "is_in:country_code": "RU"}}, "center_lat": 58.49, "center_lon": 82.16, "timezone": "Asia/Tomsk", "population": 1078280, "wikidata_id": "Q5884", "wikipedia_id": "ru:Томская область"}, "geometry": {"type": "MultiPolygon", "coordinates": [[[[76.095, 57.235], [78.448, 57.165], [79.589, 56.923], [80.264, 56.422], [81.22, 56.538], [81.573, 56.242], [83.288, 56.443], [83.065, 56.23], [83.585, 55.671], [83.95, 56.015], [84.448, 56.042], [86.805, 56.626], [87.702, 56.552], [88.597, 56.802], [88.865, 57.444], [89.355, 57.616], [89.353, 57.913], [88.107, 58.113], [87.924, 58.511], [88.829, 59.023], [88.626, 59.295], [87.902, 59.256], [87.514, 59.664], [86.637, 59.949], [84.708, 59.892], [84.791, 60.352], [84.263, 60.863], [83.157, 61.027], [82.167, 60.516], [80.705, 60.803], [79.399, 60.636], [77.11, 60.859], [76.829, 60.467], [76.665, 59.571], [76.177, 59.53], [75.638, 59.212], [75.635, 58.912], [75.131, 58.664], [75.109, 58.576], [75.071, 58.117], [75.566, 57.935], [75.55, 57.625], [76.095, 57.235]]]]}}