{"type": "Feature", "properties": {"name": "Tatarstan", "iso2": "RU-TA", "admin_level": 4, "osm_id": 79374, "countrylevel_id": "iso2:RU-TA", "osm_data": {"localname": "Татарстан", "official_name": "Республика Татарстан", "alltags": {"int_ref": "RU-TA", "name:av": "Татаристан", "name:ba": "Татарстан Республикаһы", "name:be": "Татарстан", "name:ca": "Tatarstan", "name:ce": "ГӀезалойчоь", "name:cs": "Tatarstán", "name:cu": "Татарстанъ", "name:cv": "Тутарстан", "name:el": "Ταταρστάν", "name:en": "Tatarstan", "name:es": "Tartaristán", "name:fr": "Tatarstan", "name:hi": "तातारस्तान", "name:hu": "Tatárföld", "name:hy": "Թաթարստան", "name:ja": "タタールスタン共和国", "name:ka": "თათრეთი", "name:ko": "타타르 공화국", "name:lt": "Tatarstanas", "name:nl": "Tartarije", "name:os": "Тæтæрстан", "name:pl": "Tatarstan", "name:pt": "Tartaristão", "name:ru": "Татарстан", "name:sk": "Tatársko", "name:tr": "Tataristan", "name:tt": "Татарстан", "name:uk": "Татарстан", "alt_name": "Татария", "name:gag": "Tatarstan", "name:koi": "Тотарму", "name:udm": "Татарстан", "oktmo:user": "92000000", "border_type": "region", "name:tt-lat": "Tatarstan", "official_name": "Республика Татарстан", "gost_7.67-2003": "РОФ-ТАТ", "official_name:sk": "Tatárska republika"}}, "center_lat": 55.36, "center_lon": 50.96, "timezone": "Europe/Moscow", "population": 3902642, "wikidata_id": "Q5481", "wikipedia_id": "ru:Татарстан"}, "geometry": {"type": "MultiPolygon", "coordinates": [[[[47.237, 54.847], [47.237, 54.847], [47.237, 54.847], [47.237, 54.847]]], [[[47.268, 54.673], [47.291, 54.674], [47.356, 54.627], [48.07, 54.764], [48.882, 54.625], [49.288, 54.891], [50.092, 54.507], [50.951, 54.343], [51.19, 54.66], [52.568, 54.34], [53.369, 53.974], [53.501, 54.056], [53.382, 54.374], [53.618, 54.697], [53.319, 55.162], [54.265, 55.703], [53.704, 55.928], [53, 56.178], [52.945, 56.538], [52.156, 55.904], [51.417, 55.96], [51.444, 56.127], [50.875, 56.196], [50.346, 56.675], [50.081, 56.611], [49.216, 56.39], [48.396, 55.83], [47.872, 55.321], [48.108, 55.146], [47.268, 54.673]], [[47.82, 54.903], [47.82, 54.903], [47.82, 54.903], [47.82, 54.903]], [[47.837, 54.768], [47.837, 54.768], [47.837, 54.768], [47.837, 54.768]], [[48.051, 54.989], [48.051, 54.989], [48.051, 54.989], [48.051, 54.989]]], [[[47.291, 54.869], [47.291, 54.869], [47.291, 54.869], [47.291, 54.869]]], [[[47.294, 54.848], [47.294, 54.848], [47.294, 54.848], [47.294, 54.848]]], [[[47.342, 54.876], [47.342, 54.876], [47.342, 54.876], [47.342, 54.876]]], [[[47.699, 55.389], [47.699, 55.389], [47.699, 55.389], [47.699, 55.389]]], [[[52.198, 56.063], [52.198, 56.063], [52.198, 56.063], [52.198, 56.063]]], [[[53.063, 56.193], [53.063, 56.193], [53.063, 56.193], [53.063, 56.193]]], [[[53.082, 56.198], [53.082, 56.198], [53.082, 56.198], [53.082, 56.198]]]]}}