{"type": "Feature", "properties": {"name": "Voronezh Oblast", "iso2": "RU-VOR", "admin_level": 4, "osm_id": 72181, "countrylevel_id": "iso2:RU-VOR", "osm_data": {"localname": "Воронежская область", "official_name": "", "alltags": {"is_in": "Russia", "int_ref": "RU-VOR", "name:ar": "فارونيش أوبلاست", "name:az": "Voronej vilayəti", "name:ba": "Воронеж өлкәһе", "name:be": "Варонежская вобласць", "name:ca": "Província de Vorónej", "name:ce": "Воронежан область", "name:cs": "Voroněžská oblast", "name:cv": "Воронеж облаçĕ", "name:el": "Περιφέρεια Βορόνεζ", "name:en": "Voronezh Oblast", "name:es": "Óblast de Vorónezh", "name:fi": "Voronežin alue", "name:fr": "Oblast de Voronej", "name:he": "מחוז וורונז'", "name:hu": "Voronyezsi terület", "name:hy": "Վորոնեժի մարզ", "name:it": "Oblast' di Voronež", "name:ka": "ვორონეჟის ოლქი", "name:kv": "Воронеж обласьт", "name:lt": "Voronežo sritis", "name:mn": "Воронеж муж", "name:nl": "Oblast Voronezj", "name:os": "Воронежы облæст", "name:pl": "Obwód woroneski", "name:pt": "Oblast de Voronej", "name:ru": "Воронежская область", "name:sk": "Voronežská oblasť", "name:sr": "Вороњешка област", "name:tr": "Voronej Oblastı", "name:tt": "Воронеж өлкәсе", "name:uk": "Воронезька область", "int_name": "Voronezh Oblast", "name:kbd": "Воронеж област", "name:sah": "Воронеж уобалаһа", "name:xal": "Воронежа төгәлң", "population": "2328008", "alt_name:ar": "فورونيج أوبلاست", "border_type": "region", "addr:country": "RU", "is_in:country": "Russia", "gost_7.67-2003": "РОФ-ВОР", "is_in:continent": "Europe", "official_status": "ru:область"}}, "center_lat": 50.97, "center_lon": 40.17, "timezone": "Europe/Moscow", "population": 2333768, "wikidata_id": "Q3447", "wikipedia_id": "ru:Воронежская область"}, "geometry": {"type": "MultiPolygon", "coordinates": [[[[38.289, 51.296], [39.281, 50.035], [39.18, 49.889], [39.806, 49.558], [40.135, 49.617], [40.921, 49.7], [41.401, 50.203], [41.448, 50.606], [41.169, 50.776], [41.928, 51.194], [42.881, 51.233], [42.521, 51.596], [41.463, 51.806], [40.882, 51.739], [40.534, 51.946], [39.841, 51.921], [38.707, 52.098], [38.293, 51.966], [38.289, 51.296]]]]}}