{"type": "Feature", "properties": {"name": "Volgograd Oblast", "iso2": "RU-VGG", "admin_level": 4, "osm_id": 77665, "countrylevel_id": "iso2:RU-VGG", "osm_data": {"localname": "Волгоградская область", "official_name": "", "alltags": {"int_ref": "RU-VGG", "name:az": "Volqoqrad vilayəti", "name:be": "Валгаградская вобласць", "name:ca": "Província de Volgograd", "name:ce": "Волгоградан область", "name:cv": "Волгоград облаçĕ", "name:en": "Volgograd Oblast", "name:es": "Volgogrado", "name:fr": "Oblast de Volgograd", "name:hu": "Volgográdi terület", "name:hy": "Վոլգոգրադի մարզ", "name:it": "Oblast' di Volgograd", "name:ja": "ヴォルゴグラード州", "name:ka": "ვოლგოგრადის ოლქი", "name:kv": "Волгоград обласьт", "name:lt": "Volgogrado sritis", "name:nl": "Oblast Wolgograd", "name:os": "Волгограды облæст", "name:pl": "Obwód wołgogradzki", "name:pt": "Oblast de Volgogrado", "name:ro": "Regiunea Volgograd", "name:ru": "Волгоградская область", "name:sk": "Volgogradská oblasť", "name:sl": "Volgograjska oblast", "name:sv": "Volgograd oblast", "name:tt": "Волгоград өлкәсе", "name:uk": "Волгоградська область", "name:uz": "Volgograd viloyati", "name:vi": "Volgograd (tỉnh)", "name:zh": "伏尔加格勒州", "int_name": "Volgograd Oblast", "name:myv": "Равошонь ёнкс", "name:sah": "Волгоград уобалаһа", "name:xal": "Аһша төгәлң", "population": "2611200", "border_type": "region", "addr:country": "RU", "gost_7.67-2003": "РОФ-ВОГ", "name:be-tarask": "Валгаградзкая вобласьць", "official_status": "ru:область"}}, "center_lat": 49.63, "center_lon": 44.14, "timezone": "Europe/Volgograd", "population": 2521276, "wikidata_id": "Q3819", "wikipedia_id": "ru:Волгоградская область"}, "geometry": {"type": "MultiPolygon", "coordinates": [[[[41.401, 50.203], [42.184, 49.676], [42.021, 49.134], [42.682, 48.938], [42.704, 48.587], [42.086, 48.416], [42.052, 48.013], [42.525, 48.019], [42.926, 47.519], [43.711, 47.474], [43.715, 47.718], [44.359, 47.852], [44.326, 48.239], [44.81, 48.051], [44.961, 48.271], [45.201, 48.535], [46.038, 48.864], [46.622, 48.668], [47.029, 49.089], [46.782, 49.34], [46.903, 49.864], [47.182, 49.935], [47.432, 50.378], [46.583, 50.712], [46.425, 50.547], [45.744, 50.757], [45.193, 50.585], [45.326, 50.862], [44.993, 51.146], [44.228, 51.199], [43.359, 50.999], [42.881, 51.233], [41.928, 51.194], [41.169, 50.776], [41.448, 50.606], [41.401, 50.203]]]]}}