{"type": "Feature", "properties": {"name": "Kirkuk", "iso2": "IQ-KI", "admin_level": 4, "osm_id": 2969788, "countrylevel_id": "iso2:IQ-KI", "osm_data": {"localname": "كركوك", "official_name": "", "alltags": {"name:ar": "كركوك", "name:cs": "Kirkúk", "name:en": "Kirkuk", "name:es": "Gobernación de Kirkuk", "name:fr": "Kirkouk", "name:ja": "キルクーク", "name:ku": "Kerkûk", "name:pl": "Kirkuk", "name:ru": "Киркук", "name:tr": "Kerkük", "name:uk": "Кіркук", "alt_name": "Karkūk", "name:syc": "ܟܪܟ ܣܠܘܟ", "old_name": "At-Ta'mim", "alt_name:syc": "Karḵ Sloḵ", "long_name:ar": "محافظة كركوك", "long_name:ar1": "محافظة التأميم", "official_name:ar": "محافظة كركوك"}}, "center_lat": 35.32, "center_lon": 44.15, "timezone": "Asia/Baghdad", "population": 1325853, "wikidata_id": "Q193268", "wikipedia_id": "ar:كركوك_(محافظة)"}, "geometry": {"type": "MultiPolygon", "coordinates": [[[[44.527, 35.109], [44.798, 35.471], [44.628, 35.884], [44.211, 35.824], [43.798, 35.478], [43.413, 35.503], [43.389, 35.207], [44.302, 34.686], [44.527, 35.109]]]]}}