{"type": "Feature", "properties": {"name": "Nineveh", "iso2": "IQ-NI", "admin_level": 4, "osm_id": 2969789, "countrylevel_id": "iso2:IQ-NI", "osm_data": {"localname": "نینوى", "official_name": "", "alltags": {"name:ar": "نینوى", "name:cs": "Ninive", "name:en": "Nineveh", "name:es": "Gobernación de Nínive", "name:fr": "Ninive", "name:ja": "ニーナワー", "name:ku": "Nînewa", "name:pl": "Niniwa", "name:ru": "Найнава", "name:tr": "Ninova", "name:uk": "Найнава", "alt_name": "Nīnawā", "name:syc": "ܢܝܢܘܐ", "alt_name:ku": "Neynewa", "alt_name:syc": "Nīnwē"}}, "center_lat": 35.94, "center_lon": 42.33, "timezone": "Asia/Baghdad", "population": 3106948, "wikidata_id": "Q189352", "wikipedia_id": "en:Nineveh Province"}, "geometry": {"type": "MultiPolygon", "coordinates": [[[[41.219, 35.109], [41.938, 34.898], [42.429, 34.905], [42.424, 35.076], [43.008, 35.092], [42.794, 35.458], [43.337, 35.717], [43.342, 35.994], [43.734, 36.326], [43.351, 36.795], [42.828, 36.705], [42.369, 37.056], [41.817, 36.588], [41.402, 36.524], [41.256, 36.06], [41.324, 35.554], [41.219, 35.109]]]]}}