{"type": "Feature", "properties": {"name": "Saladin", "iso2": "IQ-SD", "admin_level": 4, "osm_id": 3242295, "countrylevel_id": "iso2:IQ-SD", "osm_data": {"localname": "صلاح الدين", "official_name": "", "alltags": {"name:cs": "Saladdín", "name:en": "Saladin", "name:es": "Gobernación de Saladino", "name:fr": "Salah ad-Din", "name:ja": "サラーフッディーン", "name:ku": "Selahedîn", "name:pl": "Salah ad-Din", "name:ru": "Салах-эд-Дин", "name:uk": "Салах-ед-Дін", "alt_name": "Salāh ad Dīn", "alt_name:en": "Salah ad Din"}}, "center_lat": 34.56, "center_lon": 43.57, "timezone": "Asia/Baghdad", "population": 1337786, "wikidata_id": "Q190131", "wikipedia_id": "en:Saladin Governorate"}, "geometry": {"type": "MultiPolygon", "coordinates": [[[[42.429, 34.905], [42.448, 34.539], [42.779, 34.354], [43.304, 33.809], [44.085, 33.647], [44.418, 33.727], [44.303, 34.034], [44.917, 34.852], [44.527, 35.109], [44.302, 34.686], [43.389, 35.207], [43.413, 35.503], [43.337, 35.717], [42.794, 35.458], [43.008, 35.092], [42.424, 35.076], [42.429, 34.905]]]]}}