{"type": "Feature", "properties": {"name": "Ariana", "iso2": "TN-12", "admin_level": 4, "osm_id": 1435830, "countrylevel_id": "iso2:TN-12", "osm_data": {"localname": "أريانة", "official_name": "", "alltags": {"name:ar": "أريانة", "name:en": "Ariana", "name:eo": "Arjana", "name:fr": "Ariana", "name:it": "Ariana", "name:pl": "Arjana", "population": "422246", "long_name:ar": "ولاية أريانة", "long_name:en": "Ariana Governorate", "long_name:eo": "Gubernio de Arjana", "long_name:fr": "Gouvernorat de Ariana", "long_name:it": "Governatorato di Ariana", "long_name:pl": "Gubernatorstwo Arjana", "ref:tn:codegeo": "12"}}, "center_lat": 36.96, "center_lon": 10.14, "timezone": "Africa/Tunis", "population": 576088, "wikidata_id": "Q233116"}, "geometry": {"type": "MultiPolygon", "coordinates": [[[[10.252, 36.943], [10.115, 36.827], [10, 36.918], [10.215, 37.112], [10.252, 36.943]]], [[[10.197, 37.085], [10.197, 37.085], [10.197, 37.085], [10.197, 37.085]]], [[[10.211, 37.107], [10.211, 37.107], [10.211, 37.107], [10.211, 37.107]]]]}}