{"type": "Feature", "properties": {"name": "Kébili", "iso2": "TN-73", "admin_level": 4, "osm_id": 1434950, "countrylevel_id": "iso2:TN-73", "osm_data": {"localname": "قبلي", "official_name": "ولاية قبلي", "alltags": {"name:ar": "قبلي", "name:en": "Kébili", "name:eo": "Kebili", "name:fa": "قبلی", "name:fr": "Kébili", "name:it": "Kébili", "name:ks": "قبلی", "name:pl": "Kibili", "name:ur": "قبلی", "population": "156961", "official_name": "ولاية قبلي", "ref:tn:codegeo": "63", "population:date": "2014", "official_name:ar": "ولاية قبلي", "official_name:en": "Kebili Governorate", "official_name:eo": "Gubernio de Kebili", "official_name:fa": "استان قبلی", "official_name:fr": "Gouvernorat de Kébili", "official_name:it": "Governatorato di Kébili", "official_name:pl": "Gubernatorstwo Kibili", "official_name:ur": "ولایت قبلی"}}, "center_lat": 33.3, "center_lon": 8.86, "timezone": "Africa/Tunis", "population": 156961, "wikidata_id": "Q286063", "wikipedia_id": "ar:ولاية قبلي"}, "geometry": {"type": "MultiPolygon", "coordinates": [[[[8.357, 32.503], [9.971, 32.856], [9.907, 33.066], [9.71, 33.284], [9.351, 33.711], [9.247, 34.185], [8.648, 34.061], [7.737, 33.425], [8.117, 33.1], [8.357, 32.503]]]]}}