{"type": "Feature", "properties": {"name": "Buskerud", "iso2": "NO-06", "admin_level": 4, "osm_id": 412297, "countrylevel_id": "iso2:NO-06", "osm_data": {"localname": "Buskerud", "official_name": "", "alltags": {"name:ar": "بوسكرود", "name:be": "Бускеруд", "name:bg": "Бюскерю", "name:en": "Buskerud", "name:fa": "بوسکرود", "name:fi": "Buskerudin lääni", "name:hu": "Buskerud megye", "name:hy": "Բուսքերուդ", "name:ja": "ブスケルー県", "name:ka": "ბუსკერუდი", "name:ko": "부스케루주", "name:lt": "Biuskeriudas", "name:lv": "Buskeruda", "name:mk": "Бускеруд", "name:os": "Бускеруд", "name:ru": "Бускеруд", "name:se": "Buskeruda fylka", "name:sr": "Бускеруд", "name:sv": "Buskerud fylke", "name:th": "เทศมณฑลบุสเครุด", "name:uk": "Бускерюд", "name:ur": "بوسکرود", "name:zh": "布斯克吕郡", "alt_name": "Buskerud fylke"}}, "center_lat": 60.3, "center_lon": 9.09, "timezone": "Europe/Oslo", "population": 283148, "wikidata_id": "Q50618", "wikipedia_id": "no:Buskerud"}, "geometry": {"type": "MultiPolygon", "coordinates": [[[[10.521, 59.744], [10.521, 59.744], [10.521, 59.744], [10.521, 59.744]]], [[[10.502, 59.766], [10.502, 59.766], [10.502, 59.766], [10.502, 59.766]]], [[[10.506, 59.781], [10.506, 59.781], [10.506, 59.781], [10.506, 59.781]]], [[[10.314, 59.718], [10.314, 59.718], [10.314, 59.718], [10.314, 59.718]]], [[[10.534, 59.723], [10.534, 59.723], [10.534, 59.723], [10.534, 59.723]]], [[[10.535, 59.726], [10.535, 59.726], [10.535, 59.726], [10.535, 59.726]]], [[[10.529, 59.732], [10.529, 59.732], [10.529, 59.732], [10.529, 59.732]]], [[[10.53, 59.732], [10.53, 59.732], [10.53, 59.732], [10.53, 59.732]]], [[[10.531, 59.693], [10.531, 59.693], [10.531, 59.693], [10.531, 59.693]]], [[[10.534, 59.691], [10.534, 59.691], [10.534, 59.691], [10.534, 59.691]]], [[[10.539, 59.695], [10.539, 59.695], [10.539, 59.695], [10.539, 59.695]]], [[[10.541, 59.693], [10.541, 59.693], [10.541, 59.693], [10.541, 59.693]]], [[[10.529, 59.71], [10.529, 59.71], [10.529, 59.71], [10.529, 59.71]]], [[[10.498, 59.482], [10.498, 59.482], [10.498, 59.482], [10.498, 59.482]]], [[[10.558, 59.513], [10.558, 59.513], [10.558, 59.513], [10.558, 59.513]]], [[[10.535, 59.516], [10.535, 59.516], [10.535, 59.516], [10.535, 59.516]]], [[[10.434, 59.583], [10.434, 59.583], [10.434, 59.583], [10.434, 59.583]]], [[[10.49, 59.519], [10.49, 59.519], [10.49, 59.519], [10.49, 59.519]]], [[[10.433, 59.521], [10.433, 59.521], [10.433, 59.521], [10.433, 59.521]]], [[[10.534, 59.52], [10.534, 59.52], [10.534, 59.52], [10.534, 59.52]]], [[[10.546, 59.52], [10.546, 59.52], [10.546, 59.52], [10.546, 59.52]]], [[[10.417, 59.586], [10.417, 59.586], [10.417, 59.586], [10.417, 59.586]]], [[[10.61, 59.658], [10.61, 59.658], [10.61, 59.658], [10.61, 59.658]]], [[[10.575, 59.67], [10.575, 59.67], [10.575, 59.67], [10.575, 59.67]]], [[[10.566, 59.674], [10.566, 59.674], [10.566, 59.674], [10.566, 59.674]]], [[[10.534, 59.683], [10.534, 59.683], [10.534, 59.683], [10.534, 59.683]]], [[[10.548, 59.687], [10.548, 59.687], [10.548, 59.687], [10.548, 59.687]]], [[[10.546, 59.69], [10.546, 59.69], [10.546, 59.69], [10.546, 59.69]]], [[[10.542, 59.691], [10.542, 59.691], [10.542, 59.691], [10.542, 59.691]]], [[[10.521, 59.695], [10.521, 59.695], [10.521, 59.695], [10.521, 59.695]]], [[[7.47, 60.676], [8.252, 61.074], [9.291, 60.762], [9.831, 60.456], [10.035, 60.632], [10.601, 60.132], [10.489, 60.017], [10.497, 59.788], [10.32, 59.691], [9.778, 59.412], [8.723, 60.183], [7.488, 60.099], [7.732, 60.521], [7.47, 60.676]]]]}}