{"type": "Feature", "properties": {"name": "Temburong District", "iso2": "BN-TE", "admin_level": 4, "osm_id": 7843853, "countrylevel_id": "iso2:BN-TE", "osm_data": {"localname": "Temburong", "official_name": "Daerah Temburong", "alltags": {"name:bg": "Тембуронг", "name:cs": "Temburong", "name:el": "Τεμπουρόνγκ", "name:en": "Temburong District", "name:es": "Temburong", "name:eu": "Temburong", "name:fa": "تمبورونگ", "name:fi": "Temburong", "name:fr": "Temburong", "name:gl": "Temburong", "name:he": "טמבורונג", "name:id": "Temburong", "name:it": "Temburong", "name:ja": "テンブロン地区", "name:ko": "틈부롱 구", "name:lt": "Temburongo", "name:ms": "Daerah Temburong", "name:nl": "Temburong", "name:pl": "Temburong", "name:ps": "تيمبورونگ", "name:pt": "Temburong", "name:ru": "Тембуронг", "name:sv": "Temburong", "name:ta": "டெம்புரோங்கு", "name:th": "เติมบูรง", "name:tr": "Temburong", "name:uk": "Тембуронґ", "name:ur": "تیمبورونگ ضلع", "name:zh": "淡武廊縣", "name:ace": "Temburong", "name:ceb": "Temburong", "name:nan": "Temburong", "name:war": "Temburong", "official_name": "Daerah Temburong"}}, "center_lat": 4.6, "center_lon": 115.17, "timezone": "Asia/Brunei", "population": 10900, "wikidata_id": "Q263285", "wikipedia_id": "ms:Daerah Temburong"}, "geometry": {"type": "MultiPolygon", "coordinates": [[[[115.056, 4.792], [115.056, 4.792], [115.056, 4.792], [115.056, 4.792]]], [[[115.055, 4.79], [115.058, 4.797], [115.059, 4.825], [115.073, 4.84], [115.086, 4.845], [115.102, 4.842], [115.102, 4.849], [115.112, 4.847], [115.118, 4.865], [115.104, 4.875], [115.099, 4.891], [115.115, 4.904], [115.135, 4.904], [115.155, 4.911], [115.157, 4.898], [115.158, 4.897], [115.159, 4.889], [115.16, 4.888], [115.159, 4.886], [115.159, 4.886], [115.158, 4.886], [115.153, 4.88], [115.153, 4.879], [115.152, 4.879], [115.15, 4.872], [115.159, 4.868], [115.166, 4.873], [115.185, 4.865], [115.181, 4.859], [115.192, 4.839], [115.228, 4.811], [115.235, 4.803], [115.232, 4.764], [115.241, 4.744], [115.256, 4.728], [115.248, 4.7], [115.252, 4.692], [115.261, 4.692], [115.266, 4.676], [115.259, 4.655], [115.281, 4.641], [115.285, 4.633], [115.289, 4.604], [115.282, 4.579], [115.274, 4.562], [115.268, 4.527], [115.276, 4.499], [115.273, 4.487], [115.28, 4.473], [115.272, 4.448], [115.287, 4.423], [115.3, 4.411], [115.308, 4.396], [115.333, 4.387], [115.334, 4.381], [115.35, 4.352], [115.363, 4.346], [115.36, 4.33], [115.344, 4.309], [115.323, 4.296], [115.294, 4.324], [115.296, 4.338], [115.281, 4.337], [115.274, 4.345], [115.26, 4.336], [115.245, 4.343], [115.245, 4.362], [115.239, 4.366], [115.219, 4.363], [115.218, 4.359], [115.158, 4.374], [115.155, 4.383], [115.133, 4.374], [115.112, 4.372], [115.104, 4.38], [115.091, 4.385], [115.104, 4.417], [115.092, 4.435], [115.097, 4.453], [115.098, 4.473], [115.092, 4.484], [115.094, 4.493], [115.082, 4.513], [115.086, 4.532], [115.076, 4.543], [115.069, 4.572], [115.059, 4.596], [115.041, 4.619], [115.045, 4.628], [115.039, 4.633], [115.048, 4.655], [115.039, 4.659], [115.047, 4.668], [115.029, 4.7], [115.042, 4.717], [115.034, 4.722], [115.043, 4.731], [115.033, 4.737], [115.025, 4.736], [115.022, 4.75], [115.032, 4.753], [115.034, 4.773], [115.053, 4.785], [115.055, 4.79]]], [[[115.055, 4.793], [115.055, 4.793], [115.055, 4.793], [115.055, 4.793]]], [[[115.028, 4.806], [115.027, 4.807], [115.028, 4.806], [115.028, 4.806]]], [[[115.027, 4.807], [115.029, 4.811], [115.027, 4.807], [115.027, 4.807]]], [[[115.098, 4.878], [115.098, 4.878], [115.098, 4.878], [115.098, 4.878]]], [[[115.039, 4.802], [115.039, 4.82], [115.053, 4.813], [115.054, 4.795], [115.04, 4.796], [115.039, 4.802]]]]}}