{"type": "Feature", "properties": {"name": "Casablanca", "iso2": "MA-CAS", "admin_level": 8, "osm_id": 4072985, "countrylevel_id": "iso2:MA-CAS", "osm_data": {"localname": "Casablanca ⵜⵉⴳⵎⵉ ⵜⵓⵎⵍⵉⵍⵜ الدار البيضاء", "official_name": "", "alltags": {"name:ar": "الدار البيضاء", "name:cs": "Casablanca", "name:en": "Casablanca", "name:fa": "دارالبیضا", "name:fr": "Casablanca", "name:pl": "Casablanca", "name:ur": "دار البیضاء", "name:ber": "ⵜⵉⴳⵎⵉ ⵜⵓⵎⵍⵉⵍⵜ", "name:zgh": "ⵜⵉⴳⵎⵉ ⵜⵓⵎⵍⵉⵍⵜ"}}, "center_lat": 33.57, "center_lon": -7.6, "timezone": "Africa/Casablanca", "population": 4370000, "wikidata_id": "Q7903", "wikipedia_id": "ar:الدار البيضاء"}, "geometry": {"type": "MultiPolygon", "coordinates": [[[[-7.502, 33.641], [-7.473, 33.62], [-7.457, 33.62], [-7.465, 33.609], [-7.484, 33.565], [-7.497, 33.562], [-7.515, 33.568], [-7.547, 33.548], [-7.534, 33.532], [-7.544, 33.532], [-7.558, 33.52], [-7.567, 33.529], [-7.584, 33.519], [-7.611, 33.51], [-7.624, 33.502], [-7.66, 33.494], [-7.673, 33.496], [-7.671, 33.507], [-7.687, 33.509], [-7.698, 33.516], [-7.7, 33.529], [-7.732, 33.554], [-7.746, 33.556], [-7.709, 33.577], [-7.704, 33.583], [-7.68, 33.592], [-7.661, 33.604], [-7.652, 33.616], [-7.643, 33.605], [-7.625, 33.611], [-7.585, 33.607], [-7.55, 33.62], [-7.536, 33.621], [-7.502, 33.641]], [[-7.61, 33.581], [-7.61, 33.581], [-7.61, 33.581], [-7.61, 33.581]]]]}}