{"type": "Feature", "properties": {"name": "Center District", "iso2": "IL-M", "admin_level": 4, "osm_id": 1400928, "countrylevel_id": "iso2:IL-M", "osm_data": {"localname": "מחוז המרכז", "official_name": "", "alltags": {"name:ar": "المنطقة الوسطى", "name:en": "Center District", "name:es": "Distrito Central", "name:fi": "Keski-Israelin hallintoalue", "name:fr": "District centre", "name:he": "מחוז המרכז", "name:hu": "Központi körzet", "name:it": "Distretto Centrale", "name:pl": "Dystrykt Centralny", "name:pt": "Distrito Central", "name:ro": "Districtul Central", "name:ru": "Центральный округ", "complete:relation": "yes"}}, "center_lat": 32.07, "center_lon": 34.88, "timezone": "Asia/Jerusalem", "population": 2115800, "wikidata_id": "Q188785", "wikipedia_id": "de:Zentralbezirk (Israel)"}, "geometry": {"type": "MultiPolygon", "coordinates": [[[[34.733, 32.004], [34.809, 32.202], [34.869, 32.411], [35.042, 32.378], [35.042, 32.378], [35.042, 32.351], [35.015, 32.311], [35.01, 32.283], [35.01, 32.283], [35.024, 32.249], [35.024, 32.249], [35.007, 32.227], [34.988, 32.207], [34.988, 32.207], [34.988, 32.135], [34.988, 32.134], [34.986, 32.123], [34.986, 32.123], [34.993, 32.107], [34.991, 32.075], [34.991, 32.075], [34.995, 32.064], [34.999, 32.052], [35, 32.052], [35, 32.049], [34.999, 31.854], [34.82, 31.789], [34.665, 31.862], [34.733, 32.004]]]]}}