{"type": "Feature", "properties": {"name": "Reykjavik", "iso2": "IS-0", "admin_level": 6, "osm_id": 2580605, "countrylevel_id": "iso2:IS-0", "osm_data": {"localname": "Reykjavíkurborg", "official_name": "", "alltags": {"is_in": "Iceland", "capital": "yes", "name:af": "Reykjavik", "name:am": "ሬይኪያቪክ", "name:ar": "ريكيافيك", "name:az": "Reykyavik", "name:be": "Рэйк'явік", "name:bg": "Рейкявик", "name:bn": "রেইকিয়াভিক", "name:bo": "རེཀ་ཇ་བིཀ།", "name:ce": "Рейкьявик", "name:cs": "Reykjavík", "name:cv": "Рейкьявик", "name:da": "Reykjavik", "name:el": "Ρέυκιαβικ", "name:en": "Reykjavik", "name:eo": "Rejkjaviko", "name:es": "Reikiavik", "name:eu": "Reykjavik", "name:fa": "ریکیاویک", "name:fr": "Reykjavik", "name:ga": "Réicivíc", "name:gl": "Reiquiavik - Reykjavík", "name:he": "רייקיויק", "name:hi": "रेक्जाविक", "name:hr": "Rejkjavik", "name:ht": "Rèkyavik", "name:hu": "Reykjavík", "name:hy": "Ռեյկյավիկ", "name:is": "Reykjavíkurborg", "name:ja": "レイキャヴィーク", "name:ka": "რეიკიავიკი", "name:kk": "Рейкиявик", "name:ko": "레이캬비크", "name:ku": "Reykjavik", "name:kv": "Рейкьявик", "name:la": "Reykiavica", "name:lt": "Reikjavikas", "name:lv": "Reikjavīka", "name:mi": "Reykjavik", "name:mk": "Рејкјавик", "name:ml": "റെയിക്യാവിക്", "name:mr": "रेक्याविक", "name:mt": "Reykjavik", "name:nl": "Reykjavik", "name:os": "Рейкьявик", "name:ru": "Рейкьявик", "name:sg": "Reykjavik", "name:sh": "Rejkjavik", "name:sk": "Reykjavík", "name:sr": "Рејкјавик", "name:sv": "Reykjavik", "name:ta": "ரெய்க்யவிக்", "name:te": "రేకవిక్", "name:tg": "Рейкявик", "name:th": "เรคยาวิก", "name:tl": "Reykjavik", "name:tr": "Reykjavik", "name:tt": "Рейкьявик", "name:ug": "رېيكياۋىك", "name:uk": "Рейк'явік", "name:ur": "ریکیاوک", "name:wo": "Reykjawik", "name:yi": "רעקיאוויק", "name:zh": "雷克雅維克", "alt_name": "Reykjavík", "name:ang": "Rēcwīc", "name:ckb": "ڕێکیاڤیک", "name:frr": "Reykjavik", "name:kab": "Reykyabik", "name:lad": "Reikiavik", "name:lmo": "Reykjavik", "name:mhr": "Рейкьявик", "name:nah": "Reikiavik", "name:pnb": "ریکجاوک", "name:sah": "Рейкьявик", "name:tet": "Reikiavike", "name:tpi": "Reykjavik", "name:udm": "Рейкьявик", "name:vec": "Reykjavik", "name:vep": "Reikjavik", "name:yue": "雷克雅未克", "is_in:ocean": "Atlantic", "name:nds-nl": "Reykjavik", "name:bat-smg": "Rėikjavėks", "name:roa-rup": "Reikiavic", "is_in:country": "Iceland", "name:be-tarask": "Рэйк’явік"}}, "center_lat": 64.17, "center_lon": -21.69, "timezone": "Atlantic/Reykjavik", "population": 128793, "wikidata_id": "Q1764", "wikipedia_id": "is:Reykjavík"}, "geometry": {"type": "MultiPolygon", "coordinates": [[[[-21.969, 64.173], [-21.969, 64.173], [-21.969, 64.173], [-21.969, 64.173]]], [[[-21.833, 64.187], [-21.833, 64.187], [-21.833, 64.187], [-21.833, 64.187]]], [[[-21.794, 64.186], [-21.794, 64.186], [-21.794, 64.186], [-21.794, 64.186]]], [[[-21.873, 64.174], [-21.873, 64.174], [-21.873, 64.174], [-21.873, 64.174]]], [[[-21.977, 64.145], [-21.981, 64.151], [-21.746, 64.165], [-21.587, 64.019], [-21.609, 63.99], [-21.902, 64.117], [-21.977, 64.145]]], [[[-21.925, 64.174], [-21.925, 64.174], [-21.925, 64.174], [-21.925, 64.174]]], [[[-21.777, 64.315], [-21.421, 64.244], [-21.402, 64.22], [-21.72, 64.183], [-21.777, 64.315]]]]}}