{"type": "Feature", "properties": {"name": "Asyut Governorate", "iso2": "EG-AST", "admin_level": 4, "osm_id": 3726184, "countrylevel_id": "iso2:EG-AST", "osm_data": {"localname": "أسيوط", "official_name": "محافظة أسيوط", "alltags": {"name:ar": "أسيوط", "name:en": "Asyut Governorate", "name:eo": "Provinco Asjut", "name:fr": "Gouvernorat d'Assiout", "name:hu": "Assziut kormányzóság", "name:lt": "Asjuto muchafaza", "name:pl": "Muhafaza Asjut", "name:ru": "мухафаза Асьют", "official_name": "محافظة أسيوط", "official_name:ar": "محافظة أسيوط"}}, "center_lat": 27.43, "center_lon": 31.8, "timezone": "Africa/Cairo", "population": 4383289, "wikidata_id": "Q29965", "wikipedia_id": "ar:محافظة أسيوط"}, "geometry": {"type": "MultiPolygon", "coordinates": [[[[30.654, 27.73], [30.66, 27.603], [30.756, 27.433], [30.898, 27.301], [31.079, 27.219], [31.165, 27.124], [31.246, 26.968], [31.296, 26.893], [31.417, 26.97], [31.899, 27.057], [32.161, 26.984], [32.25, 27.047], [32.615, 27.374], [32.673, 27.366], [32.744, 27.501], [32.754, 27.557], [32.695, 27.797], [32.654, 27.903], [32.419, 27.91], [32.373, 27.895], [32.117, 27.85], [31.635, 27.695], [31.123, 27.666], [30.884, 27.666], [30.818, 27.618], [30.712, 27.623], [30.671, 27.642], [30.671, 27.703], [30.654, 27.73]]]]}}