{"type": "Feature", "properties": {"name": "Cairo Governorate", "iso2": "EG-C", "admin_level": 4, "osm_id": 4103336, "countrylevel_id": "iso2:EG-C", "osm_data": {"localname": "محافظة القاهرة", "official_name": "", "alltags": {"name:ar": "محافظة القاهرة", "name:en": "Cairo Governorate", "name:es": "El Cairo", "name:fr": "Gouvernorat du Caire", "name:hu": "Kairó kormányzóság", "name:lt": "Kairo muchafaza", "name:ru": "мухафаза Каир"}}, "center_lat": 29.98, "center_lon": 31.6, "timezone": "Africa/Cairo", "population": 9539673, "wikidata_id": "Q30805", "wikipedia_id": "ar:محافظة القاهرة"}, "geometry": {"type": "MultiPolygon", "coordinates": [[[[31.906, 29.748], [31.909, 29.992], [31.871, 30.23], [31.837, 30.321], [31.63, 30.198], [31.592, 30.172], [31.394, 30.155], [31.308, 30.131], [31.231, 30.093], [31.22, 30.014], [31.235, 29.965], [31.269, 29.944], [31.284, 29.908], [31.296, 29.803], [31.287, 29.766], [31.33, 29.753], [31.464, 29.753], [31.53, 29.764], [31.732, 29.769], [31.798, 29.753], [31.906, 29.748]]]]}}