{"type": "Feature", "properties": {"name": "Ascension", "iso2": "SH-AC", "admin_level": 3, "osm_id": 156166, "countrylevel_id": "iso2:SH-AC", "osm_data": {"localname": "Ascension", "official_name": "", "alltags": {"name:ar": "جزيرة أسينشين", "name:be": "Востраў Ушэсця", "name:el": "Νήσος Αναλήψεως", "name:en": "Ascension", "name:es": "Isla Ascensión", "name:fr": "Île de l'Ascension", "name:hi": "असेन्शियन द्वीप", "name:pl": "Wyspa Wniebowstąpienia", "name:pt": "Ilha de Ascensão", "name:ru": "Остров Вознесения", "name:ast": "Islla Ascensión", "is_in:state": "Ascension Island", "is_in:country": "Saint Helena, Ascension and Tristan da Cunha", "Schalansky_ref": "36"}, "iso1": "AC"}, "center_lat": -7.94, "center_lon": -14.37, "timezone": "Atlantic/St_Helena", "population": 806, "wikidata_id": "Q46197", "wikipedia_id": "en:Ascension Island"}, "geometry": {"type": "MultiPolygon", "coordinates": [[[[-14.339, -7.981], [-14.339, -7.981], [-14.339, -7.981], [-14.339, -7.981]]], [[[-14.351, -7.981], [-14.351, -7.981], [-14.351, -7.981], [-14.351, -7.981]]], [[[-14.42, -7.942], [-14.394, -7.894], [-14.373, -7.89], [-14.326, -7.918], [-14.297, -7.954], [-14.395, -7.993], [-14.42, -7.942]]], [[[-14.308, -7.936], [-14.308, -7.936], [-14.308, -7.936], [-14.308, -7.936]]], [[[-14.381, -7.89], [-14.381, -7.89], [-14.381, -7.89], [-14.381, -7.89]]], [[[-14.378, -7.89], [-14.378, -7.89], [-14.378, -7.89], [-14.378, -7.89]]]]}}