{"type": "Feature", "properties": {"name": "Miaoli County", "iso2": "TW-MIA", "admin_level": 6, "osm_id": 2915592, "countrylevel_id": "iso2:TW-MIA", "osm_data": {"localname": "苗栗縣", "official_name": "", "alltags": {"name:en": "Miaoli County", "name:id": "Kabupaten Miaoli", "name:it": "Contea di Miaoli", "name:ja": "苗栗県", "name:ko": "먀오리 현", "name:pl": "Miaoli", "name:ru": "Мяоли", "name:th": "เหมียวลี่", "name:uk": "Повіт Мяолі", "name:vi": "Miêu Lật", "name:zh": "苗栗縣", "nat_ref": "10005", "name:cdo": "Mièu-lĭk", "name:ceb": "Miaoli", "name:hak": "Mèu-li̍t-yen", "name:nan": "Biâu-le̍k-koān", "name:yue": "苗栗縣"}}, "center_lat": 24.48, "center_lon": 120.92, "timezone": "Asia/Taipei", "population": 548863, "wikidata_id": "Q63706", "wikipedia_id": "zh:苗栗縣"}, "geometry": {"type": "MultiPolygon", "coordinates": [[[[120.622, 24.44], [120.634, 24.445], [120.666, 24.484], [120.666, 24.49], [120.686, 24.521], [120.695, 24.546], [120.708, 24.573], [120.711, 24.586], [120.727, 24.608], [120.736, 24.612], [120.745, 24.607], [120.761, 24.639], [120.78, 24.661], [120.817, 24.669], [120.831, 24.669], [120.832, 24.677], [120.854, 24.696], [120.861, 24.706], [120.866, 24.724], [120.879, 24.735], [120.891, 24.732], [120.906, 24.741], [120.916, 24.722], [120.914, 24.717], [120.935, 24.713], [120.953, 24.704], [120.964, 24.712], [120.977, 24.706], [120.964, 24.684], [120.973, 24.686], [120.977, 24.674], [120.996, 24.655], [121.01, 24.656], [121.008, 24.644], [121.025, 24.641], [121.029, 24.633], [121.043, 24.627], [121.053, 24.615], [121.062, 24.622], [121.074, 24.613], [121.083, 24.59], [121.075, 24.581], [121.07, 24.563], [121.058, 24.558], [121.08, 24.541], [121.078, 24.529], [121.067, 24.523], [121.072, 24.498], [121.086, 24.501], [121.098, 24.496], [121.123, 24.51], [121.137, 24.507], [121.145, 24.512], [121.151, 24.506], [121.169, 24.503], [121.187, 24.505], [121.216, 24.516], [121.224, 24.507], [121.219, 24.498], [121.235, 24.488], [121.244, 24.47], [121.258, 24.463], [121.263, 24.455], [121.259, 24.438], [121.257, 24.425], [121.244, 24.42], [121.244, 24.406], [121.235, 24.397], [121.232, 24.384], [121.213, 24.382], [121.211, 24.396], [121.197, 24.397], [121.19, 24.382], [121.173, 24.373], [121.168, 24.361], [121.141, 24.36], [121.125, 24.342], [121.122, 24.331], [121.109, 24.331], [121.087, 24.318], [121.081, 24.324], [121.055, 24.31], [121.052, 24.299], [121.035, 24.297], [121.018, 24.311], [121.005, 24.332], [120.991, 24.33], [120.982, 24.336], [120.972, 24.334], [120.935, 24.343], [120.916, 24.334], [120.922, 24.304], [120.912, 24.294], [120.903, 24.292], [120.875, 24.295], [120.858, 24.289], [120.834, 24.29], [120.807, 24.315], [120.784, 24.318], [120.763, 24.326], [120.728, 24.353], [120.707, 24.358], [120.692, 24.368], [120.658, 24.406], [120.649, 24.409], [120.64, 24.428], [120.622, 24.44]]]]}}