{"type": "Feature", "properties": {"name": "Djibouti", "iso2": "DJ-DJ", "admin_level": 4, "osm_id": 3725245, "countrylevel_id": "iso2:DJ-DJ", "osm_data": {"localname": "Djibouti جيبوتي", "official_name": "", "alltags": {"name:ar": "جيبوتي", "name:en": "Djibouti", "name:es": "Yibuti", "name:fr": "Djibouti", "name:fy": "Dzjibûty", "name:nl": "Djibouti", "name:zh": "吉布提", "name:tzl": "Xhibuti", "is_in:country": "Djibouti", "is_in:continent": "Africa", "is_in:country_code": "DJ"}}, "center_lat": 11.56, "center_lon": 43.05, "timezone": "Africa/Djibouti", "population": 562000, "wikidata_id": "Q3604", "wikipedia_id": "ar:جيبوتي (مدينة)"}, "geometry": {"type": "MultiPolygon", "coordinates": [[[[43.186, 11.529], [42.924, 11.532], [42.925, 11.592], [42.957, 11.595], [42.971, 11.591], [43.004, 11.591], [43.028, 11.595], [43.059, 11.587], [43.063, 11.6], [43.074, 11.602], [43.098, 11.58], [43.122, 11.59], [43.132, 11.59], [43.143, 11.604], [43.135, 11.612], [43.15, 11.613], [43.159, 11.602], [43.152, 11.596], [43.17, 11.557], [43.18, 11.547], [43.186, 11.529]]], [[[43.149, 11.712], [43.149, 11.712], [43.149, 11.712], [43.149, 11.712]]], [[[43.198, 11.73], [43.213, 11.731], [43.207, 11.712], [43.198, 11.713], [43.209, 11.728], [43.198, 11.73]]], [[[43.176, 11.724], [43.186, 11.728], [43.202, 11.719], [43.191, 11.718], [43.176, 11.724]]]]}}