{"type": "Feature", "properties": {"name": "Jilin", "iso2": "CN-JL", "admin_level": 4, "osm_id": 198590, "countrylevel_id": "iso2:CN-JL", "osm_data": {"localname": "吉林省", "official_name": "", "alltags": {"name:af": "Jilin", "name:ar": "جيلين", "name:be": "Гірын", "name:bg": "Дзилин", "name:bn": "চিলিন", "name:bo": "ཅི་ལིན་ཞིང་ཆེན།", "name:br": "Jilin", "name:ca": "Jilin", "name:ce": "Гирин", "name:cs": "Ťi-lin", "name:cy": "Jilin", "name:da": "Jilin", "name:en": "Jilin", "name:eo": "Ĝilinio", "name:es": "Jilin", "name:et": "Jilini provints", "name:eu": "Jilin", "name:fa": "جی‌لین", "name:fi": "Jilin", "name:fr": "Jilin", "name:ga": "Jilin", "name:gl": "Jilin", "name:gv": "Jilin", "name:he": "ג'ילין", "name:hi": "जीलिन", "name:hr": "Jilin", "name:hu": "Csilin", "name:hy": "Գիրին", "name:ia": "Jilin", "name:id": "Jilin", "name:it": "Jilin", "name:ja": "吉林省", "name:jv": "Jilin", "name:ka": "გირინი", "name:kg": "Jilin", "name:ko": "지린 성", "name:la": "Jilinensis", "name:lt": "Dzilinas", "name:lv": "Dzjiliņa", "name:mg": "Jilin", "name:mn": "Гирин муж", "name:mr": "चीलिन", "name:ms": "Jilin", "name:nl": "Jilin", "name:nn": "Jilin", "name:no": "Jilin", "name:oc": "Jilin", "name:os": "Цзилинь", "name:pa": "ਜੀਲਿਨ", "name:pl": "Jilin", "name:pt": "Jilin", "name:qu": "Jilin pruwinsya", "name:ro": "Jilin", "name:ru": "Гирин", "name:sr": "Ђилин", "name:sv": "Jilin", "name:sw": "Jilin", "name:ta": "சிலின் மாகாணம்", "name:tg": "Ҷилин", "name:th": "มณฑลจี๋หลิน", "name:tl": "Jilin", "name:tr": "Jilin", "name:ug": "جىلىن ئۆلكىسى", "name:uk": "Цзілінь", "name:ur": "جیلن", "name:uz": "Girin", "name:vi": "Cát Lâm", "name:za": "Gizlinz", "name:zh": "吉林省", "alt_name": "吉林省", "int_name": "Jilin", "name:lzh": "吉林省", "name:nan": "Kiat-lîm-séng", "name:yue": "吉林省", "name:zh-Hans": "吉林省", "name:zh-Hant": "吉林省", "is_in:country": "China", "name:zh_pinyin": "Jílín", "is_in:continent": "Asia", "is_in:country_code": "CN"}}, "center_lat": 43.67, "center_lon": 126.19, "timezone": "Asia/Harbin", "population": 27462297, "wikidata_id": "Q45208", "wikipedia_id": "zh:吉林省"}, "geometry": {"type": "MultiPolygon", "coordinates": [[[[123.698, 43.368], [123.704, 43.412], [123.743, 43.436], [123.74, 43.466], [123.786, 43.489], [123.865, 43.449], [123.844, 43.413], [123.895, 43.378], [123.891, 43.359], [123.958, 43.339], [124.027, 43.279], [124.092, 43.29], [124.109, 43.245], [124.27, 43.231], [124.278, 43.163], [124.36, 43.119], [124.412, 43.066], [124.327, 42.995], [124.366, 42.968], [124.416, 42.973], [124.426, 42.928], [124.36, 42.9], [124.363, 42.88], [124.435, 42.875], [124.445, 42.824], [124.467, 42.854], [124.534, 42.876], [124.589, 42.913], [124.63, 42.971], [124.653, 42.972], [124.686, 43.056], [124.735, 43.065], [124.779, 43.115], [124.889, 43.129], [124.884, 43.073], [124.834, 43.031], [124.869, 42.966], [124.844, 42.89], [124.853, 42.818], [124.892, 42.786], [124.923, 42.818], [124.97, 42.8], [124.991, 42.744], [124.962, 42.72], [125.032, 42.613], [125.09, 42.62], [125.085, 42.57], [125.061, 42.534], [125.063, 42.497], [125.13, 42.469], [125.134, 42.445], [125.18, 42.425], [125.161, 42.35], [125.168, 42.307], [125.207, 42.298], [125.257, 42.311], [125.293, 42.287], [125.27, 42.265], [125.275, 42.229], [125.307, 42.217], [125.3, 42.144], [125.351, 42.143], [125.362, 42.18], [125.407, 42.154], [125.452, 42.158], [125.484, 42.134], [125.449, 42.101], [125.406, 42.098], [125.41, 42.061], [125.357, 42.014], [125.364, 42.001], [125.292, 41.972], [125.285, 41.956], [125.345, 41.926], [125.301, 41.922], [125.285, 41.839], [125.314, 41.77], [125.34, 41.762], [125.311, 41.675], [125.405, 41.688], [125.444, 41.672], [125.465, 41.637], [125.443, 41.601], [125.473, 41.544], [125.501, 41.532], [125.487, 41.506], [125.535, 41.465], [125.543, 41.398], [125.576, 41.393], [125.571, 41.367], [125.635, 41.334], [125.613, 41.316], [125.642, 41.262], [125.678, 41.272], [125.688, 41.243], [125.752, 41.231], [125.731, 41.177], [125.785, 41.165], [125.704, 41.094], [125.735, 41.087], [125.678, 41.019], [125.677, 40.984], [125.63, 40.94], [125.584, 40.929], [125.582, 40.89], [125.652, 40.915], [125.702, 40.864], [125.753, 40.867], [125.769, 40.891], [125.796, 40.865], [125.858, 40.883], [125.873, 40.906], [125.935, 40.876], [125.973, 40.901], [125.995, 40.892], [126.008, 40.933], [126.034, 40.927], [126.07, 41], [126.122, 41.033], [126.121, 41.089], [126.166, 41.093], [126.235, 41.145], [126.274, 41.155], [126.309, 41.215], [126.354, 41.243], [126.362, 41.281], [126.433, 41.352], [126.486, 41.371], [126.535, 41.364], [126.506, 41.395], [126.505, 41.435], [126.555, 41.526], [126.588, 41.562], [126.567, 41.617], [126.592, 41.617], [126.615, 41.673], [126.647, 41.654], [126.725, 41.705], [126.682, 41.732], [126.722, 41.744], [126.795, 41.693], [126.81, 41.748], [126.84, 41.722], [126.878, 41.787], [126.944, 41.805], [126.937, 41.769], [126.97, 41.775], [127.012, 41.74], [127.048, 41.74], [127.03, 41.672], [127.057, 41.66], [127.129, 41.596], [127.173, 41.597], [127.122, 41.567], [127.108, 41.536], [127.161, 41.54], [127.235, 41.519], [127.249, 41.487], [127.355, 41.461], [127.395, 41.478], [127.411, 41.455], [127.496, 41.476], [127.543, 41.473], [127.559, 41.43], [127.61, 41.431], [127.66, 41.409], [127.805, 41.422], [127.864, 41.401], [127.874, 41.445], [127.908, 41.428], [127.94, 41.439], [128.04, 41.39], [128.083, 41.393], [128.108, 41.361], [128.165, 41.402], [128.201, 41.408], [128.237, 41.473], [128.235, 41.498], [128.279, 41.525], [128.311, 41.6], [128.287, 41.612], [128.272, 41.657], [128.202, 41.685], [128.15, 41.728], [128.135, 41.774], [128.108, 41.789], [128.099, 41.945], [128.031, 41.995], [128.084, 42.02], [128.285, 42.024], [128.456, 42.019], [128.506, 41.997], [128.564, 41.997], [128.631, 42.037], [128.677, 42.012], [128.73, 42.05], [128.771, 42.032], [128.813, 42.041], [128.835, 42.024], [128.915, 42.01], [128.959, 42.055], [128.963, 42.095], [129.004, 42.089], [129.041, 42.135], [129.114, 42.139], [129.167, 42.164], [129.161, 42.186], [129.22, 42.204], [129.176, 42.237], [129.182, 42.264], [129.256, 42.329], [129.224, 42.352], [129.243, 42.38], [129.317, 42.383], [129.304, 42.415], [129.363, 42.456], [129.382, 42.423], [129.401, 42.45], [129.494, 42.413], [129.539, 42.364], [129.609, 42.462], [129.648, 42.424], [129.704, 42.427], [129.743, 42.466], [129.732, 42.498], [129.739, 42.58], [129.78, 42.614], [129.749, 42.642], [129.802, 42.682], [129.76, 42.708], [129.786, 42.773], [129.808, 42.789], [129.812, 42.848], [129.837, 42.865], [129.844, 42.92], [129.869, 42.921], [129.851, 42.962], [129.9, 43.005], [129.957, 43.006], [129.954, 42.979], [130.063, 42.968], [130.098, 42.987], [130.145, 42.979], [130.102, 42.926], [130.138, 42.902], [130.172, 42.914], [130.262, 42.903], [130.267, 42.873], [130.238, 42.821], [130.252, 42.79], [130.235, 42.74], [130.253, 42.706], [130.287, 42.7], [130.317, 42.651], [130.391, 42.598], [130.436, 42.602], [130.42, 42.561], [130.446, 42.547], [130.48, 42.565], [130.462, 42.604], [130.522, 42.606], [130.51, 42.584], [130.549, 42.497], [130.584, 42.474], [130.561, 42.457], [130.579, 42.43], [130.637, 42.418], [130.593, 42.446], [130.592, 42.485], [130.558, 42.505], [130.563, 42.555], [130.603, 42.555], [130.627, 42.598], [130.588, 42.665], [130.521, 42.701], [130.461, 42.685], [130.395, 42.726], [130.459, 42.77], [130.526, 42.785], [130.659, 42.845], [130.776, 42.839], [130.794, 42.877], [130.838, 42.878], [130.882, 42.851], [130.942, 42.875], [130.973, 42.855], [131.035, 42.86], [131.012, 42.915], [131.109, 42.913], [131.143, 42.966], [131.107, 42.972], [131.096, 43.021], [131.113, 43.066], [131.164, 43.067], [131.155, 43.095], [131.21, 43.144], [131.198, 43.234], [131.248, 43.262], [131.273, 43.375], [131.311, 43.395], [131.287, 43.44], [131.306, 43.473], [131.228, 43.473], [131.135, 43.423], [131.02, 43.506], [130.937, 43.475], [130.901, 43.432], [130.854, 43.436], [130.817, 43.5], [130.768, 43.519], [130.722, 43.558], [130.664, 43.563], [130.617, 43.588], [130.628, 43.612], [130.578, 43.611], [130.495, 43.635], [130.483, 43.653], [130.406, 43.651], [130.387, 43.701], [130.417, 43.742], [130.385, 43.765], [130.379, 43.851], [130.359, 43.888], [130.375, 43.907], [130.332, 43.962], [130.357, 43.99], [130.358, 44.041], [130.312, 44.037], [130.3, 44], [130.255, 43.947], [130.182, 43.939], [130.146, 43.913], [130.138, 43.878], [130.109, 43.875], [130.072, 43.835], [130.02, 43.849], [130.002, 43.887], [130.018, 43.941], [129.973, 44.013], [129.942, 44.025], [129.862, 44.01], [129.796, 43.962], [129.77, 43.924], [129.773, 43.891], [129.735, 43.875], [129.645, 43.87], [129.602, 43.88], [129.52, 43.868], [129.46, 43.872], [129.363, 43.799], [129.249, 43.818], [129.205, 43.782], [129.211, 43.646], [129.223, 43.591], [129.163, 43.559], [129.034, 43.538], [129.007, 43.521], [128.94, 43.554], [128.872, 43.538], [128.828, 43.586], [128.819, 43.625], [128.78, 43.684], [128.778, 43.713], [128.723, 43.744], [128.753, 43.758], [128.712, 43.816], [128.754, 43.855], [128.722, 43.889], [128.63, 43.889], [128.639, 43.934], [128.578, 43.988], [128.569, 44.045], [128.463, 44.157], [128.448, 44.255], [128.47, 44.308], [128.439, 44.337], [128.47, 44.344], [128.456, 44.432], [128.366, 44.512], [128.29, 44.481], [128.287, 44.466], [128.206, 44.43], [128.181, 44.36], [128.158, 44.341], [128.06, 44.369], [128.043, 44.348], [128.059, 44.305], [128.095, 44.289], [128.057, 44.259], [128.086, 44.246], [128.086, 44.18], [128.054, 44.167], [128.095, 44.133], [128.037, 44.101], [127.944, 44.086], [127.902, 44.062], [127.84, 44.08], [127.777, 44.07], [127.723, 44.097], [127.714, 44.2], [127.674, 44.165], [127.62, 44.186], [127.586, 44.226], [127.617, 44.279], [127.515, 44.359], [127.477, 44.401], [127.502, 44.436], [127.457, 44.483], [127.477, 44.526], [127.53, 44.52], [127.564, 44.549], [127.552, 44.574], [127.386, 44.63], [127.268, 44.639], [127.259, 44.611], [127.176, 44.642], [127.133, 44.605], [127.088, 44.613], [127.05, 44.567], [127.023, 44.594], [127.035, 44.71], [126.991, 44.763], [126.978, 44.823], [127.005, 44.888], [127.066, 44.905], [127.08, 44.952], [127.045, 45.004], [126.961, 45.079], [126.957, 45.135], [126.784, 45.133], [126.781, 45.158], [126.724, 45.187], [126.689, 45.184], [126.613, 45.235], [126.557, 45.251], [126.533, 45.236], [126.414, 45.232], [126.358, 45.194], [126.262, 45.166], [126.228, 45.137], [126.183, 45.154], [126.164, 45.132], [126.089, 45.145], [126.078, 45.162], [125.996, 45.161], [125.986, 45.187], [125.921, 45.194], [125.809, 45.264], [125.754, 45.288], [125.717, 45.338], [125.688, 45.35], [125.71, 45.419], [125.682, 45.493], [125.633, 45.518], [125.571, 45.485], [125.484, 45.465], [125.475, 45.484], [125.414, 45.484], [125.429, 45.467], [125.375, 45.398], [125.339, 45.39], [125.305, 45.418], [125.169, 45.398], [125.129, 45.406], [125.06, 45.385], [125.086, 45.415], [125.046, 45.423], [125.023, 45.489], [124.943, 45.503], [124.882, 45.498], [124.877, 45.435], [124.835, 45.453], [124.797, 45.436], [124.749, 45.465], [124.723, 45.44], [124.683, 45.449], [124.63, 45.434], [124.575, 45.452], [124.544, 45.409], [124.498, 45.424], [124.475, 45.453], [124.395, 45.436], [124.344, 45.488], [124.348, 45.543], [124.288, 45.536], [124.254, 45.557], [124.266, 45.585], [124.223, 45.594], [124.225, 45.63], [124.178, 45.612], [124.132, 45.634], [124.133, 45.682], [124.048, 45.75], [123.994, 45.767], [124.058, 45.8], [124.025, 45.83], [124.064, 45.843], [124.051, 45.887], [123.996, 45.901], [123.957, 45.949], [124.014, 45.988], [123.992, 46.018], [124.033, 46.018], [123.987, 46.094], [124.007, 46.122], [123.994, 46.164], [123.948, 46.203], [123.951, 46.24], [123.897, 46.303], [123.843, 46.3], [123.781, 46.266], [123.719, 46.254], [123.599, 46.25], [123.538, 46.233], [123.493, 46.258], [123.446, 46.231], [123.389, 46.242], [123.367, 46.221], [123.341, 46.244], [123.28, 46.248], [123.241, 46.271], [123.171, 46.247], [123.098, 46.171], [123.105, 46.128], [123.038, 46.097], [122.788, 46.071], [122.821, 45.912], [122.795, 45.854], [122.747, 45.83], [122.787, 45.768], [122.736, 45.703], [122.665, 45.699], [122.636, 45.77], [122.603, 45.773], [122.551, 45.82], [122.498, 45.787], [122.489, 45.859], [122.44, 45.915], [122.355, 45.914], [122.363, 45.859], [122.315, 45.842], [122.253, 45.792], [122.194, 45.855], [122.085, 45.88], [122.077, 45.915], [122.034, 45.956], [121.865, 45.997], [121.837, 46.022], [121.758, 45.997], [121.802, 45.959], [121.81, 45.873], [121.762, 45.841], [121.747, 45.793], [121.683, 45.761], [121.636, 45.752], [121.664, 45.721], [121.75, 45.689], [121.804, 45.685], [121.805, 45.703], [121.86, 45.718], [121.943, 45.709], [121.997, 45.621], [121.961, 45.594], [122.015, 45.489], [122.16, 45.44], [122.174, 45.408], [122.141, 45.372], [122.146, 45.296], [122.231, 45.274], [122.232, 45.222], [122.185, 45.18], [122.136, 45.181], [122.105, 45.139], [122.111, 45.062], [122.067, 45.002], [122.074, 44.912], [122.036, 44.898], [122.064, 44.879], [122.111, 44.775], [122.162, 44.775], [122.137, 44.754], [122.107, 44.766], [122.094, 44.735], [122.154, 44.725], [122.097, 44.669], [122.124, 44.576], [122.193, 44.554], [122.22, 44.524], [122.208, 44.494], [122.28, 44.474], [122.29, 44.412], [122.284, 44.305], [122.263, 44.261], [122.311, 44.232], [122.488, 44.234], [122.517, 44.247], [122.676, 44.286], [122.759, 44.373], [122.842, 44.394], [122.904, 44.423], [123.021, 44.495], [123.119, 44.507], [123.118, 44.455], [123.136, 44.427], [123.108, 44.4], [123.121, 44.365], [123.19, 44.343], [123.27, 44.251], [123.281, 44.21], [123.317, 44.178], [123.381, 44.159], [123.337, 44.084], [123.326, 44.026], [123.394, 43.977], [123.364, 43.968], [123.422, 43.925], [123.462, 43.851], [123.456, 43.82], [123.492, 43.769], [123.477, 43.732], [123.519, 43.687], [123.531, 43.63], [123.507, 43.59], [123.415, 43.596], [123.456, 43.562], [123.447, 43.544], [123.347, 43.566], [123.298, 43.549], [123.323, 43.515], [123.31, 43.49], [123.371, 43.473], [123.412, 43.408], [123.434, 43.436], [123.48, 43.443], [123.52, 43.396], [123.54, 43.412], [123.604, 43.364], [123.698, 43.368]]]]}}