{"type": "Feature", "properties": {"name": "Pahang", "iso2": "MY-06", "admin_level": 4, "osm_id": 4444595, "countrylevel_id": "iso2:MY-06", "osm_data": {"localname": "Pahang", "official_name": "", "alltags": {"name:ar": "فهغ", "name:az": "Pahanq", "name:bg": "Паханг", "name:bn": "পেহাং", "name:en": "Pahang", "name:eo": "Pahango", "name:et": "Pahangi osariik", "name:fa": "پاهانگ", "name:he": "פהנג", "name:hi": "पाहांग", "name:id": "Pahang", "name:ja": "パハン", "name:ko": "파항", "name:lt": "Pahangas", "name:mk": "Паханг", "name:ml": "പഹാങ്ങ്", "name:mr": "पाहांग", "name:ms": "Pahang", "name:nl": "Pahang", "name:qu": "Pahang suyu", "name:ru": "Паханг", "name:ta": "பகாங்", "name:th": "รัฐปะหัง", "name:uk": "Паганґ", "name:ur": "پاہانگ", "name:zh": "彭亨"}}, "center_lat": 3.73, "center_lon": 102.55, "timezone": "Asia/Kuala_Lumpur", "population": 1443365, "wikidata_id": "Q191346", "wikipedia_id": "en:Pahang"}, "geometry": {"type": "MultiPolygon", "coordinates": [[[[103.635, 2.665], [103.609, 2.458], [103.152, 2.524], [102.7, 2.832], [102.389, 3.117], [101.915, 3.257], [101.625, 3.772], [101.374, 4.614], [101.779, 4.759], [102.222, 4.627], [102.658, 4.762], [103.022, 4.421], [102.909, 4.232], [103.334, 3.968], [103.444, 4.187], [103.326, 3.752], [103.475, 3.522], [103.432, 2.927], [103.635, 2.665]]]]}}