{"type": "Feature", "properties": {"name": "Perlis", "iso2": "MY-09", "admin_level": 4, "osm_id": 4444918, "countrylevel_id": "iso2:MY-09", "osm_data": {"localname": "Perlis", "official_name": "", "alltags": {"name:ar": "برليس", "name:bg": "Перлис", "name:en": "Perlis", "name:eo": "Perliso", "name:fa": "پرلیس", "name:he": "פרליס", "name:hi": "पेरलिस", "name:ja": "プルリス", "name:ka": "პერლისი", "name:ko": "프를리스", "name:mk": "Перлис", "name:mr": "पर्लिस", "name:ms": "Perlis", "name:qu": "Perlis suyu", "name:ru": "Перлис", "name:ta": "பெர்லிஸ்", "name:th": "รัฐปะลิส", "name:uk": "Перліс", "name:ur": "پرلس", "name:zh": "玻璃市", "alt_name": "Perlis Indera Kayangan", "old_name": "Palit;ปะลิส", "old_name:th": "ไทรบุร"}}, "center_lat": 6.51, "center_lon": 100.24, "timezone": "Asia/Kuala_Lumpur", "population": 227025, "wikidata_id": "Q213467", "wikipedia_id": "en:Perlis"}, "geometry": {"type": "MultiPolygon", "coordinates": [[[[100.12, 6.423], [100.205, 6.726], [100.327, 6.664], [100.327, 6.664], [100.367, 6.54], [100.195, 6.254], [100.12, 6.423]]]]}}