{"type": "Feature", "properties": {"name": "Labuan", "iso2": "MY-15", "admin_level": 4, "osm_id": 4521286, "countrylevel_id": "iso2:MY-15", "osm_data": {"localname": "Labuan", "official_name": "", "alltags": {"name:ar": "لابوان", "name:be": "Лабуан", "name:bg": "Лабуан", "name:br": "Labuan", "name:el": "Λαμπουάν", "name:eo": "Labuano", "name:es": "Labuán", "name:fa": "لابوآن", "name:fr": "Labuan", "name:he": "לבואן", "name:hi": "लबूअन", "name:id": "Labuan", "name:ja": "ラブアン", "name:ka": "ლაბუანი", "name:ko": "라부안", "name:mk": "Лабуан", "name:mr": "लाबुआन", "name:ms": "Labuan", "name:nl": "Labuan", "name:ru": "Лабуан", "name:th": "ลาบวน", "name:uk": "Лабуан", "name:ur": "لابوان", "name:zh": "纳闽"}}, "center_lat": 4.92, "center_lon": 115.33, "timezone": "Asia/Kuching", "population": 83920, "wikidata_id": "Q214504", "wikipedia_id": "en:Labuan"}, "geometry": {"type": "MultiPolygon", "coordinates": [[[[115.324, 4.891], [115.323, 4.89], [115.324, 4.891], [115.324, 4.891]]], [[[115.175, 4.922], [115.176, 4.92], [115.175, 4.922], [115.175, 4.922]]], [[[115.395, 4.928], [115.391, 4.923], [115.395, 4.928], [115.395, 4.928]]], [[[115.246, 4.92], [115.246, 4.92], [115.246, 4.92], [115.246, 4.92]]], [[[115.189, 4.964], [115.189, 4.964], [115.189, 4.964], [115.189, 4.964]]], [[[115.139, 5.186], [115.139, 5.186], [115.139, 5.186], [115.139, 5.186]]], [[[115.146, 5.201], [115.146, 5.201], [115.146, 5.201], [115.146, 5.201]]], [[[115.131, 5.217], [115.131, 5.217], [115.131, 5.217], [115.131, 5.217]]], [[[115.19, 5.238], [115.19, 5.238], [115.19, 5.238], [115.19, 5.238]]], [[[115.268, 5.252], [115.268, 5.252], [115.268, 5.252], [115.268, 5.252]]], [[[115.324, 5.265], [115.324, 5.265], [115.324, 5.265], [115.324, 5.265]]], [[[115.327, 5.273], [115.327, 5.273], [115.327, 5.273], [115.327, 5.273]]], [[[115.325, 5.275], [115.325, 5.275], [115.325, 5.275], [115.325, 5.275]]], [[[115.249, 5.273], [115.249, 5.273], [115.249, 5.273], [115.249, 5.273]]]]}}