{"type": "Feature", "properties": {"name": "Sidi Bel Abbès", "iso2": "DZ-22", "admin_level": 4, "osm_id": 1259189, "countrylevel_id": "iso2:DZ-22", "osm_data": {"localname": "سيدي بلعباس", "official_name": "", "alltags": {"name:ar": "سيدي بلعباس", "name:be": "Сідзі-Бель-Абес", "name:bg": "Сиди Бел Абес", "name:ca": "Província de Sidi Bel Abbès", "name:da": "Sidi Bel Abbes", "name:el": "Σίντι Μπελ Αμπές", "name:en": "Sidi Bel Abbès", "name:eo": "Provinco Sidi Bel Abbes", "name:es": "Provincia de Sidi Bel Abbes", "name:fa": "سیدی بلعباس", "name:fr": "Sidi Bel Abbès", "name:gl": "Vilaia de Sidi Bel Abbes", "name:hi": "सिदी बेल अब्बास प्रांत", "name:id": "Provinsi Sidi Bil `Abbas", "name:it": "Provincia di Sidi Bel Abbes", "name:ja": "シディ・ベル・アッベス県", "name:ka": "სიდი-ბელ-აბესის პროვინცია", "name:ko": "시디벨아베스주", "name:ks": "سیدی بلعباس", "name:lt": "Sidi bel Abeso vilaja", "name:ms": "Wilayah Sidi Bel Abbès", "name:nl": "Sidi-bel-Abbès", "name:no": "Sidi bel Abbès", "name:pl": "Prowincja Sidi Bu-l-Abbas", "name:pt": "Sidi Bel Abbès", "name:ro": "Provincia Sidi Bel Abbès", "name:ru": "Сиди-Бель-Аббес", "name:se": "Sidi Bel Abbes eanangoddi", "name:sr": "Сиди Бел Абес", "name:sv": "Sidi Bel Abbès", "name:sw": "Wilaya ya Sidi Bel Abbes", "name:tg": "Вилояти Сиди Бил-Аббос", "name:tl": "Lalawigan ng Sidi Bel Abbès", "name:tr": "Sidi Belabbas Vilayeti", "name:uk": "Сіді-Бель-Аббес", "name:ur": "سیدی بلعباس", "name:vi": "Sidi Bel Abbès", "name:zh": "西迪贝勒阿巴斯省", "name:azb": "سیدی بلعباس", "name:ber": "ⵙⵉⴷⵉ ⴱⴻⵍ ⵄⴻⴱⴱⴰⵙ", "name:kab": "Sidi bel ɛebbas", "name:pnb": "سیدی بلعباس", "long_name": "ولاية سيدي بلعباس", "long_name:ar": "ولاية سيدي بلعباس", "long_name:en": "Sidi Bel Abbès Province", "long_name:fr": "Wilaya de Sidi Bel Abbès"}}, "center_lat": 34.71, "center_lon": -0.5, "timezone": "Africa/Algiers", "population": 604744, "wikidata_id": "Q235714", "wikipedia_id": "ar:ولاية سيدي بلعباس"}, "geometry": {"type": "MultiPolygon", "coordinates": [[[[-1.125, 34.28], [-1.101, 34.264], [-1.089, 34.248], [-1.073, 34.217], [-1.055, 34.226], [-0.997, 34.268], [-0.975, 34.28], [-0.968, 34.259], [-0.946, 34.241], [-0.93, 34.258], [-0.924, 34.253], [-0.894, 34.246], [-0.88, 34.234], [-0.85, 34.235], [-0.836, 34.243], [-0.813, 34.237], [-0.791, 34.225], [-0.78, 34.229], [-0.603, 34.326], [-0.592, 34.311], [-0.575, 34.302], [-0.534, 34.295], [-0.515, 34.287], [-0.502, 34.275], [-0.5, 34.257], [-0.489, 34.244], [-0.483, 34.222], [-0.484, 34.211], [-0.473, 34.187], [-0.471, 34.139], [-0.449, 34.11], [-0.434, 34.078], [-0.423, 34.063], [-0.407, 34.053], [-0.394, 34.007], [-0.396, 33.991], [-0.388, 33.976], [-0.38, 33.974], [-0.382, 33.96], [-0.392, 33.947], [-0.386, 33.938], [-0.369, 33.935], [-0.361, 33.908], [-0.349, 33.914], [-0.347, 33.925], [-0.355, 33.937], [-0.347, 33.953], [-0.326, 33.963], [-0.307, 33.952], [-0.295, 33.964], [-0.284, 34.006], [-0.258, 34.033], [-0.212, 34.065], [-0.187, 34.069], [-0.156, 34.086], [-0.136, 34.094], [-0.11, 34.09], [-0.089, 34.082], [-0.071, 34.087], [-0.053, 34.119], [-0.013, 34.181], [-0.003, 34.207], [0.004, 34.212], [0.032, 34.215], [0.04, 34.231], [0.04, 34.242], [0.025, 34.278], [0.029, 34.304], [0.018, 34.325], [0.019, 34.358], [0.008, 34.369], [-0.002, 34.395], [-0.008, 34.399], [-0.012, 34.419], [-0.02, 34.432], [-0.021, 34.448], [-0.017, 34.461], [-0.022, 34.467], [-0.036, 34.468], [-0.055, 34.479], [-0.066, 34.498], [-0.078, 34.504], [-0.092, 34.506], [-0.098, 34.498], [-0.16, 34.479], [-0.173, 34.473], [-0.194, 34.455], [-0.205, 34.512], [-0.203, 34.54], [-0.216, 34.547], [-0.22, 34.557], [-0.233, 34.562], [-0.249, 34.582], [-0.251, 34.595], [-0.239, 34.607], [-0.243, 34.633], [-0.238, 34.641], [-0.217, 34.629], [-0.206, 34.627], [-0.164, 34.601], [-0.134, 34.592], [-0.12, 34.593], [-0.12, 34.574], [-0.112, 34.548], [-0.1, 34.535], [-0.101, 34.524], [-0.089, 34.52], [-0.06, 34.551], [-0.034, 34.572], [-0.037, 34.586], [-0.054, 34.61], [-0.05, 34.616], [-0.068, 34.635], [-0.086, 34.662], [-0.092, 34.681], [-0.104, 34.696], [-0.127, 34.702], [-0.153, 34.731], [-0.181, 34.745], [-0.195, 34.745], [-0.209, 34.754], [-0.199, 34.769], [-0.219, 34.79], [-0.247, 34.793], [-0.255, 34.788], [-0.279, 34.797], [-0.29, 34.792], [-0.303, 34.796], [-0.301, 34.82], [-0.285, 34.838], [-0.292, 34.848], [-0.311, 34.854], [-0.319, 34.851], [-0.337, 34.859], [-0.348, 34.876], [-0.348, 34.884], [-0.322, 34.89], [-0.3, 34.901], [-0.294, 34.913], [-0.314, 34.922], [-0.312, 34.943], [-0.3, 34.944], [-0.302, 34.954], [-0.312, 34.952], [-0.309, 34.965], [-0.316, 34.968], [-0.314, 34.988], [-0.293, 34.989], [-0.289, 34.995], [-0.231, 34.995], [-0.238, 35.009], [-0.221, 35.03], [-0.244, 35.044], [-0.241, 35.054], [-0.252, 35.066], [-0.252, 35.079], [-0.246, 35.078], [-0.237, 35.103], [-0.228, 35.097], [-0.211, 35.098], [-0.211, 35.107], [-0.188, 35.121], [-0.174, 35.119], [-0.17, 35.134], [-0.178, 35.168], [-0.186, 35.178], [-0.21, 35.179], [-0.208, 35.194], [-0.214, 35.205], [-0.2, 35.219], [-0.187, 35.224], [-0.198, 35.241], [-0.15, 35.266], [-0.13, 35.27], [-0.147, 35.281], [-0.175, 35.283], [-0.183, 35.265], [-0.217, 35.254], [-0.231, 35.243], [-0.242, 35.265], [-0.227, 35.277], [-0.224, 35.285], [-0.212, 35.282], [-0.192, 35.289], [-0.18, 35.298], [-0.176, 35.319], [-0.164, 35.329], [-0.178, 35.351], [-0.199, 35.35], [-0.219, 35.356], [-0.239, 35.354], [-0.253, 35.365], [-0.297, 35.372], [-0.297, 35.38], [-0.31, 35.393], [-0.344, 35.367], [-0.344, 35.359], [-0.381, 35.368], [-0.383, 35.362], [-0.4, 35.365], [-0.418, 35.362], [-0.424, 35.368], [-0.423, 35.386], [-0.407, 35.397], [-0.412, 35.417], [-0.4, 35.436], [-0.405, 35.446], [-0.432, 35.457], [-0.446, 35.441], [-0.462, 35.432], [-0.484, 35.428], [-0.522, 35.44], [-0.532, 35.427], [-0.533, 35.415], [-0.551, 35.401], [-0.554, 35.386], [-0.539, 35.364], [-0.545, 35.36], [-0.56, 35.367], [-0.574, 35.36], [-0.577, 35.345], [-0.6, 35.344], [-0.609, 35.334], [-0.611, 35.348], [-0.619, 35.359], [-0.641, 35.361], [-0.662, 35.355], [-0.675, 35.346], [-0.683, 35.35], [-0.694, 35.344], [-0.73, 35.338], [-0.753, 35.338], [-0.749, 35.321], [-0.764, 35.304], [-0.795, 35.296], [-0.817, 35.297], [-0.833, 35.315], [-0.874, 35.28], [-0.875, 35.257], [-0.882, 35.254], [-0.901, 35.268], [-0.906, 35.251], [-0.902, 35.235], [-0.893, 35.228], [-0.885, 35.21], [-0.896, 35.203], [-0.892, 35.189], [-0.924, 35.184], [-0.927, 35.18], [-0.957, 35.169], [-0.948, 35.164], [-0.952, 35.146], [-0.963, 35.141], [-0.967, 35.113], [-0.989, 35.109], [-1.005, 35.093], [-0.988, 35.08], [-0.981, 35.085], [-0.972, 35.076], [-0.959, 35.077], [-0.94, 35.065], [-0.942, 35.056], [-0.912, 35.054], [-0.935, 35.001], [-0.953, 34.982], [-0.972, 34.97], [-0.947, 34.938], [-0.942, 34.92], [-0.952, 34.911], [-0.946, 34.9], [-0.922, 34.912], [-0.89, 34.899], [-0.893, 34.891], [-0.921, 34.874], [-0.928, 34.856], [-0.924, 34.852], [-0.885, 34.874], [-0.873, 34.866], [-0.87, 34.855], [-0.885, 34.83], [-0.878, 34.82], [-0.877, 34.807], [-0.892, 34.779], [-0.891, 34.758], [-0.884, 34.756], [-0.889, 34.74], [-0.834, 34.747], [-0.819, 34.741], [-0.814, 34.746], [-0.8, 34.745], [-0.778, 34.752], [-0.768, 34.733], [-0.768, 34.721], [-0.783, 34.72], [-0.788, 34.71], [-0.786, 34.693], [-0.775, 34.688], [-0.783, 34.674], [-0.799, 34.661], [-0.798, 34.65], [-0.805, 34.63], [-0.833, 34.58], [-0.859, 34.565], [-0.869, 34.569], [-0.908, 34.542], [-0.863, 34.535], [-0.858, 34.522], [-0.845, 34.504], [-0.862, 34.494], [-0.895, 34.467], [-0.896, 34.46], [-0.91, 34.444], [-0.939, 34.428], [-0.94, 34.42], [-0.978, 34.399], [-1.027, 34.379], [-1.044, 34.362], [-1.075, 34.339], [-1.097, 34.308], [-1.125, 34.28]]]]}}