{"type": "Feature", "properties": {"name": "Nghe An province", "iso2": "VN-22", "admin_level": 4, "osm_id": 1898509, "countrylevel_id": "iso2:VN-22", "osm_data": {"localname": "Tỉnh Nghệ An", "official_name": "", "alltags": {"name:ar": "محافظة ني أن", "name:bg": "Нге Ан", "name:en": "Nghe An province", "name:fa": "استان نه آن", "name:fr": "Province de Nghệ An", "name:id": "Provinsi Nghệ An", "name:it": "Provincia di Nghe An", "name:ja": "ゲアン", "name:ko": "응에안성", "name:mk": "Нге Ан", "name:pl": "Prowincja Nghệ An", "name:pt": "Nghe An", "name:ro": "Nghệ An", "name:ru": "Нгеан", "name:sr": "Нге Ан", "name:sw": "Mkoa wa Nghệ An", "name:tg": "Вилояти Нге Ан", "name:th": "จังหวัดเหงะอาน", "name:uk": "Нгеан", "name:ur": "نگہ آن صوبہ", "name:vi": "Tỉnh Nghệ An", "name:zh": "乂安省", "alt_name": "Nghệ An", "population": "2942900", "is_in:country_code": "VN"}}, "center_lat": 19.24, "center_lon": 104.94, "timezone": "Asia/Bangkok", "wikidata_id": "Q36587", "wikipedia_id": "vi:Nghệ An"}, "geometry": {"type": "MultiPolygon", "coordinates": [[[[105.774, 18.796], [105.774, 18.796], [105.774, 18.796], [105.774, 18.796]]], [[[104.161, 19.695], [104.236, 19.708], [104.322, 19.686], [104.413, 19.705], [104.428, 19.673], [104.49, 19.656], [104.506, 19.626], [104.567, 19.615], [104.61, 19.635], [104.646, 19.625], [104.664, 19.702], [104.712, 19.754], [104.753, 19.75], [104.761, 19.774], [104.835, 19.802], [104.832, 19.85], [104.847, 19.87], [104.84, 19.917], [104.903, 19.968], [104.907, 19.998], [104.958, 19.99], [105.05, 19.931], [105.095, 19.939], [105.169, 19.914], [105.19, 19.865], [105.154, 19.856], [105.129, 19.802], [105.139, 19.738], [105.183, 19.682], [105.236, 19.645], [105.249, 19.657], [105.277, 19.589], [105.27, 19.528], [105.293, 19.476], [105.334, 19.531], [105.369, 19.519], [105.391, 19.454], [105.445, 19.44], [105.471, 19.457], [105.533, 19.458], [105.591, 19.37], [105.621, 19.383], [105.689, 19.301], [105.743, 19.322], [105.768, 19.291], [105.805, 19.287], [105.783, 19.274], [105.771, 19.234], [105.736, 19.213], [105.731, 19.115], [105.691, 19.081], [105.654, 19.085], [105.628, 19.042], [105.615, 18.983], [105.637, 18.898], [105.691, 18.874], [105.728, 18.802], [105.766, 18.764], [105.743, 18.737], [105.769, 18.678], [105.713, 18.663], [105.689, 18.621], [105.682, 18.58], [105.638, 18.566], [105.616, 18.577], [105.584, 18.559], [105.531, 18.561], [105.502, 18.611], [105.398, 18.58], [105.359, 18.582], [105.296, 18.622], [105.263, 18.618], [105.228, 18.588], [105.187, 18.604], [105.198, 18.64], [105.136, 18.69], [105.134, 18.717], [105.052, 18.709], [105.061, 18.723], [105.021, 18.749], [104.941, 18.739], [104.94, 18.766], [104.913, 18.787], [104.795, 18.783], [104.785, 18.8], [104.74, 18.8], [104.714, 18.835], [104.693, 18.833], [104.63, 18.886], [104.581, 18.901], [104.545, 18.97], [104.496, 19.004], [104.445, 18.984], [104.419, 19.006], [104.398, 19.055], [104.304, 19.094], [104.278, 19.121], [104.248, 19.112], [104.212, 19.13], [104.179, 19.198], [104.101, 19.215], [104.068, 19.248], [104, 19.233], [103.967, 19.248], [103.877, 19.32], [103.953, 19.358], [103.958, 19.384], [104.052, 19.426], [104.07, 19.418], [104.101, 19.522], [104.105, 19.568], [104.06, 19.613], [104.056, 19.653], [104.072, 19.682], [104.105, 19.662], [104.152, 19.666], [104.161, 19.695]]]]}}