{"type": "Feature", "properties": {"name": "Ninh Thuan province", "iso2": "VN-36", "admin_level": 4, "osm_id": 1886159, "countrylevel_id": "iso2:VN-36", "osm_data": {"localname": "Tỉnh Ninh Thuận", "official_name": "", "alltags": {"name:ar": "محافظة ننه توان", "name:bg": "Нин Тхуан", "name:en": "Ninh Thuan province", "name:es": "Ninh Thuận", "name:fa": "استان نین توان", "name:fi": "Ninh Thuận", "name:fr": "Province de Ninh Thuận", "name:id": "Provinsi Ninh Thuan", "name:it": "Provincia di Ninh Thuan", "name:ja": "ニントゥアン", "name:ko": "닌투언성", "name:nl": "Ninh Thuận", "name:pl": "Prowincja Ninh Thuận", "name:pt": "Ninh Thuan", "name:ro": "Ninh Thuận", "name:ru": "Ниньтхуан", "name:sr": "Нињ Туан", "name:sv": "Ninh Thuan", "name:sw": "Mkoa wa Ninh Thuận", "name:tg": "Вилояти Нин Фуан", "name:th": "จังหวัดนิญถ่วน", "name:uk": "Ніньтхуан", "name:ur": "ننہ تھوان صوبہ", "name:zh": "寧順省", "population": "569000", "is_in:country_code": "VN"}}, "center_lat": 11.71, "center_lon": 108.87, "timezone": "Asia/Ho_Chi_Minh", "wikidata_id": "Q36903", "wikipedia_id": "vi:Ninh Thuận"}, "geometry": {"type": "MultiPolygon", "coordinates": [[[[109.221, 11.715], [109.221, 11.715], [109.221, 11.715], [109.221, 11.715]]], [[[109.224, 11.771], [109.224, 11.771], [109.224, 11.771], [109.224, 11.771]]], [[[109.214, 11.786], [109.214, 11.786], [109.214, 11.786], [109.214, 11.786]]], [[[109.208, 11.79], [109.208, 11.79], [109.208, 11.79], [109.208, 11.79]]], [[[109.13, 11.574], [109.13, 11.574], [109.13, 11.574], [109.13, 11.574]]], [[[109.147, 11.578], [109.147, 11.578], [109.147, 11.578], [109.147, 11.578]]], [[[109.141, 11.59], [109.141, 11.59], [109.141, 11.59], [109.141, 11.59]]], [[[109.178, 11.65], [109.178, 11.65], [109.178, 11.65], [109.178, 11.65]]], [[[109.207, 11.715], [109.207, 11.715], [109.207, 11.715], [109.207, 11.715]]], [[[108.732, 12.162], [108.791, 12.159], [108.784, 12.125], [108.808, 12.058], [108.8, 12.045], [108.857, 12.017], [108.848, 11.981], [108.893, 11.947], [108.917, 11.952], [108.982, 11.915], [109.006, 11.923], [109.049, 11.898], [109.06, 11.861], [109.094, 11.817], [109.135, 11.805], [109.196, 11.811], [109.186, 11.793], [109.228, 11.754], [109.234, 11.728], [109.2, 11.711], [109.177, 11.676], [109.166, 11.621], [109.123, 11.573], [109.092, 11.587], [109.035, 11.587], [109.035, 11.549], [109.011, 11.509], [109.006, 11.406], [109.015, 11.356], [108.962, 11.316], [108.919, 11.308], [108.886, 11.338], [108.867, 11.333], [108.844, 11.377], [108.786, 11.388], [108.757, 11.412], [108.761, 11.469], [108.679, 11.474], [108.644, 11.55], [108.582, 11.556], [108.552, 11.601], [108.563, 11.642], [108.678, 11.668], [108.701, 11.699], [108.691, 11.734], [108.667, 11.748], [108.67, 11.788], [108.619, 11.805], [108.653, 11.842], [108.664, 11.915], [108.662, 11.963], [108.712, 12.062], [108.673, 12.12], [108.694, 12.146], [108.732, 12.162]]]]}}