{"type": "Feature", "properties": {"name": "Lâm Đồng Province", "iso2": "VN-35", "admin_level": 4, "osm_id": 1885367, "countrylevel_id": "iso2:VN-35", "osm_data": {"localname": "Lâm Đồng", "official_name": "Tỉnh Lâm Đồng", "alltags": {"name:ar": "محافظة لام دونغ", "name:bg": "Лам Донг", "name:en": "Lâm Đồng Province", "name:fa": "استان لام دونگ", "name:fr": "Province de Lâm Đồng", "name:id": "Provinsi Lam Dong", "name:it": "Provincia di Lam Dong", "name:ja": "ラムドン", "name:ko": "럼동성", "name:pl": "Prowincja Lâm Đồng", "name:pt": "Lam Dong", "name:ro": "Lâm Đồng", "name:ru": "Ламдонг", "name:sr": "Лам Донг", "name:sw": "Mkoa wa Lâm Đồng", "name:tg": "Вилояти Лам Донг", "name:th": "จังหวัดเลิมด่ง", "name:uk": "Ламдонг", "name:ur": "لام دونگ صوبہ", "name:zh": "林同省", "population": "1218700", "official_name": "Tỉnh Lâm Đồng", "is_in:country_code": "VN"}}, "center_lat": 11.75, "center_lon": 108.1, "timezone": "Asia/Ho_Chi_Minh", "population": 1198800, "wikidata_id": "Q36721", "wikipedia_id": "vi:Lâm Đồng"}, "geometry": {"type": "MultiPolygon", "coordinates": [[[[107.336, 11.548], [107.358, 11.58], [107.376, 11.524], [107.41, 11.528], [107.472, 11.477], [107.431, 11.425], [107.486, 11.429], [107.488, 11.396], [107.541, 11.359], [107.576, 11.381], [107.608, 11.345], [107.687, 11.323], [107.725, 11.361], [107.797, 11.372], [107.908, 11.363], [108.028, 11.327], [108.053, 11.24], [108.255, 11.36], [108.306, 11.413], [108.258, 11.474], [108.279, 11.516], [108.325, 11.532], [108.351, 11.509], [108.418, 11.527], [108.431, 11.514], [108.494, 11.53], [108.542, 11.506], [108.582, 11.556], [108.552, 11.601], [108.563, 11.642], [108.678, 11.668], [108.701, 11.699], [108.691, 11.734], [108.667, 11.748], [108.67, 11.788], [108.619, 11.805], [108.653, 11.842], [108.664, 11.915], [108.662, 11.963], [108.712, 12.062], [108.673, 12.12], [108.694, 12.146], [108.732, 12.162], [108.712, 12.19], [108.724, 12.218], [108.702, 12.245], [108.702, 12.308], [108.681, 12.316], [108.663, 12.298], [108.596, 12.276], [108.545, 12.297], [108.508, 12.278], [108.491, 12.306], [108.442, 12.276], [108.437, 12.256], [108.388, 12.241], [108.335, 12.247], [108.3, 12.208], [108.259, 12.2], [108.241, 12.161], [108.218, 12.184], [108.185, 12.174], [108.165, 12.197], [108.113, 12.184], [108.09, 12.134], [108.034, 12.144], [107.989, 12.121], [107.983, 12.081], [107.963, 12.067], [108.012, 12.051], [108.008, 12.023], [108.066, 11.949], [108.085, 11.911], [108.112, 11.899], [108.068, 11.834], [107.98, 11.791], [107.954, 11.818], [107.9, 11.808], [107.889, 11.873], [107.834, 11.878], [107.774, 11.849], [107.735, 11.875], [107.729, 11.915], [107.673, 11.912], [107.675, 11.886], [107.631, 11.866], [107.619, 11.839], [107.578, 11.822], [107.548, 11.79], [107.484, 11.793], [107.464, 11.761], [107.419, 11.75], [107.391, 11.767], [107.301, 11.739], [107.266, 11.659], [107.303, 11.619], [107.297, 11.585], [107.312, 11.553], [107.336, 11.548]]]]}}