{"type": "Feature", "properties": {"name": "Đắk Lắk province", "iso2": "VN-33", "admin_level": 4, "osm_id": 1884034, "countrylevel_id": "iso2:VN-33", "osm_data": {"localname": "Đắk Lắk", "official_name": "", "alltags": {"name:ar": "محافظة داك لاك", "name:bg": "Дак Лак", "name:en": "Đắk Lắk province", "name:fa": "استان داک لاک", "name:fr": "Province de Đắk Lắk", "name:id": "Provinsi Dak Lak", "name:it": "Provincia di Dak Lak", "name:ja": "ダクラク", "name:ko": "닥락성", "name:pl": "Prowincja Đăk Lăk", "name:pt": "Dac Lac", "name:ru": "провинция Даклак", "name:sr": "Дак Лак", "name:sw": "Mkoa wa Đắk Lắk", "name:tg": "Вилояти Дак Лак", "name:th": "จังหวัดดั๊กลัก", "name:uk": "Даклак", "name:ur": "داک لاک صوبہ", "name:vi": "Đắk Lắk", "name:zh": "多樂省", "alt_name": "Tỉnh Đắk Lắk", "population": "1771800", "is_in:country_code": "VN"}}, "center_lat": 12.82, "center_lon": 108.21, "timezone": "Asia/Ho_Chi_Minh", "wikidata_id": "Q36690", "wikipedia_id": "vi:Đắk Lắk"}, "geometry": {"type": "MultiPolygon", "coordinates": [[[[107.56, 12.796], [107.636, 12.804], [107.686, 12.79], [107.804, 12.78], [107.85, 12.811], [107.868, 12.751], [107.91, 12.743], [107.896, 12.712], [107.934, 12.586], [107.894, 12.565], [107.91, 12.526], [107.945, 12.526], [108.002, 12.475], [107.984, 12.445], [107.946, 12.441], [107.913, 12.401], [107.936, 12.341], [107.974, 12.298], [108.015, 12.303], [108.083, 12.244], [108.113, 12.184], [108.165, 12.197], [108.185, 12.174], [108.218, 12.184], [108.241, 12.161], [108.259, 12.2], [108.3, 12.208], [108.335, 12.247], [108.388, 12.241], [108.437, 12.256], [108.442, 12.276], [108.491, 12.306], [108.508, 12.278], [108.545, 12.297], [108.596, 12.276], [108.663, 12.298], [108.681, 12.316], [108.688, 12.387], [108.671, 12.424], [108.716, 12.483], [108.75, 12.481], [108.78, 12.505], [108.868, 12.452], [108.862, 12.495], [108.895, 12.55], [108.896, 12.574], [108.865, 12.596], [108.899, 12.624], [108.916, 12.66], [108.904, 12.675], [108.945, 12.693], [108.981, 12.681], [108.995, 12.706], [108.986, 12.783], [108.971, 12.816], [108.946, 12.806], [108.869, 12.816], [108.851, 12.853], [108.816, 12.874], [108.795, 12.867], [108.751, 12.945], [108.72, 12.954], [108.676, 12.996], [108.613, 13.008], [108.592, 13.03], [108.568, 13.02], [108.513, 13.034], [108.521, 13.064], [108.457, 13.127], [108.464, 13.162], [108.437, 13.18], [108.405, 13.26], [108.372, 13.268], [108.372, 13.303], [108.347, 13.339], [108.288, 13.351], [108.264, 13.373], [108.213, 13.368], [108.162, 13.4], [108.112, 13.417], [108.073, 13.399], [108.053, 13.413], [108.008, 13.381], [107.998, 13.39], [107.943, 13.373], [107.839, 13.401], [107.749, 13.363], [107.704, 13.375], [107.603, 13.303], [107.548, 13.17], [107.496, 13.028], [107.504, 12.976], [107.485, 12.945], [107.492, 12.897], [107.56, 12.796]]]]}}