{"type": "Feature", "properties": {"name": "Tay Ninh province", "iso2": "VN-37", "admin_level": 4, "osm_id": 1898961, "countrylevel_id": "iso2:VN-37", "osm_data": {"localname": "Tỉnh Tây Ninh", "official_name": "", "alltags": {"name:ar": "محافظة تاي ننه", "name:bg": "Тай Нин", "name:en": "Tay Ninh province", "name:es": "Tay Ninh", "name:fa": "استان تای نین", "name:fi": "Tây Ninh", "name:fr": "Province de Tây Ninh", "name:id": "Provinsi Tay Ninh", "name:it": "Provincia di Tay Ninh", "name:ja": "タイニン", "name:km": "ខេត្តរោងដំរី", "name:ko": "떠이닌성", "name:nl": "Tây Ninh", "name:no": "Tay Ninh", "name:pl": "Prowincja Tây Ninh", "name:pt": "Tay Ninh", "name:ro": "Tây Ninh", "name:ru": "Тэйнинь", "name:sr": "Тај Нињ", "name:sv": "Tay Ninh", "name:sw": "Mkoa wa Tây Ninh", "name:th": "จังหวัดเต็ยนิญ", "name:uk": "Тейнінь", "name:ur": "تاے ننہ صوبہ", "name:zh": "西寧省", "population": "1080700", "is_in:country_code": "VN"}}, "center_lat": 11.4, "center_lon": 106.16, "timezone": "Asia/Ho_Chi_Minh", "wikidata_id": "Q36608", "wikipedia_id": "vi:Tây Ninh"}, "geometry": {"type": "MultiPolygon", "coordinates": [[[[105.809, 11.6], [105.818, 11.568], [105.863, 11.565], [105.881, 11.546], [105.875, 11.463], [105.902, 11.429], [105.874, 11.406], [105.885, 11.361], [105.868, 11.282], [105.909, 11.283], [105.911, 11.241], [105.965, 11.196], [106.014, 11.19], [106.023, 11.14], [106.088, 11.101], [106.109, 11.071], [106.154, 11.102], [106.187, 11.052], [106.206, 10.978], [106.164, 10.978], [106.168, 10.963], [106.24, 10.987], [106.273, 10.981], [106.271, 11.012], [106.3, 11.026], [106.357, 10.992], [106.414, 11.008], [106.427, 11.092], [106.447, 11.135], [106.43, 11.174], [106.388, 11.186], [106.389, 11.213], [106.352, 11.252], [106.356, 11.285], [106.335, 11.296], [106.33, 11.342], [106.347, 11.37], [106.373, 11.455], [106.425, 11.494], [106.434, 11.539], [106.48, 11.547], [106.487, 11.604], [106.469, 11.614], [106.451, 11.671], [106.368, 11.697], [106.313, 11.674], [106.25, 11.728], [106.209, 11.731], [106.19, 11.754], [106.152, 11.737], [106.115, 11.743], [106.067, 11.777], [106.024, 11.774], [106.016, 11.728], [105.953, 11.64], [105.884, 11.677], [105.852, 11.662], [105.809, 11.6]]]]}}