{"type": "Feature", "properties": {"name": "Vinh Long province", "iso2": "VN-49", "admin_level": 4, "osm_id": 1875887, "countrylevel_id": "iso2:VN-49", "osm_data": {"localname": "Tỉnh Vĩnh Long", "official_name": "", "alltags": {"name:ar": "محافظة فين لونغ", "name:bg": "Вин Лонг", "name:en": "Vinh Long province", "name:es": "Vĩnh Long", "name:fa": "استان وین لونگ", "name:fi": "Vĩnh Long", "name:id": "Provinsi Vinh Long", "name:it": "Provincia di Vinh Long", "name:ja": "ヴィンロン", "name:km": "ខេត្តលង់ហោរ", "name:ko": "빈롱성", "name:nl": "Vĩnh Long", "name:pl": "Prowincja Vĩnh Long", "name:pt": "Vinh Long", "name:ro": "Vĩnh Long", "name:ru": "Виньлонг", "name:sr": "Вињ Лонг", "name:sv": "Vinh Long", "name:sw": "Mkoa wa Vĩnh Long", "name:tg": "Вилояти Вин Лонг", "name:uk": "Віньлонг", "name:ur": "وینہ لونگ صوبہ", "name:vi": "Tỉnh Vĩnh Long", "name:zh": "永隆省", "population": "1028600", "is_in:country_code": "VN"}}, "center_lat": 10.1, "center_lon": 105.99, "timezone": "Asia/Ho_Chi_Minh", "wikidata_id": "Q7333405", "wikipedia_id": "fr:Province de Vĩnh Long"}, "geometry": {"type": "MultiPolygon", "coordinates": [[[[105.683, 10.134], [105.785, 10.068], [105.845, 9.983], [105.897, 9.938], [105.922, 9.93], [105.982, 9.883], [105.955, 9.92], [105.987, 9.902], [106.087, 9.96], [106.113, 9.938], [106.132, 9.962], [106.135, 10.024], [106.191, 10.026], [106.207, 10.004], [106.232, 10.024], [106.231, 10.058], [106.29, 10.05], [106.225, 10.143], [106.175, 10.176], [106.121, 10.232], [106.037, 10.251], [106.035, 10.299], [105.99, 10.331], [105.927, 10.284], [105.894, 10.276], [105.878, 10.264], [105.92, 10.211], [105.876, 10.189], [105.87, 10.154], [105.801, 10.156], [105.728, 10.205], [105.683, 10.134]]]]}}