{"type": "Feature", "properties": {"name": "Bến Tre Province", "iso2": "VN-50", "admin_level": 4, "osm_id": 1875968, "countrylevel_id": "iso2:VN-50", "osm_data": {"localname": "Tỉnh Bến Tre", "official_name": "", "alltags": {"name:ar": "محافظة بن تشي", "name:bg": "Бен Че", "name:en": "Bến Tre Province", "name:es": "Bến Tre", "name:fa": "استان بن تر", "name:fi": "Bến Tre", "name:fr": "Province de Bến Tre", "name:id": "Provinsi Ben Tre", "name:it": "Provincia di Ben Tre", "name:ja": "ベンチェ", "name:ko": "벤째성", "name:nl": "Bến Tre", "name:pl": "Prowincja Bến Tre", "name:pt": "Ben Tre", "name:ru": "Бенче", "name:sr": "Бен Че", "name:sv": "Bến Tre", "name:sw": "Mkoa wa Bến Tre", "name:tg": "Вилояти Бен Тре", "name:uk": "Бенче", "name:ur": "بئن تر صوبہ", "name:zh": "槟椥省", "population": "1257800", "is_in:country_code": "VN"}}, "center_lat": 10.12, "center_lon": 106.47, "timezone": "Asia/Ho_Chi_Minh", "population": 1254589, "wikidata_id": "Q33366", "wikipedia_id": "vi:Bến Tre"}, "geometry": {"type": "MultiPolygon", "coordinates": [[[[106.035, 10.299], [106.078, 10.278], [106.15, 10.287], [106.202, 10.313], [106.29, 10.329], [106.3, 10.319], [106.373, 10.34], [106.448, 10.307], [106.474, 10.307], [106.536, 10.268], [106.651, 10.237], [106.742, 10.194], [106.79, 10.151], [106.791, 10.112], [106.734, 10.043], [106.69, 10.025], [106.638, 9.971], [106.635, 9.944], [106.661, 9.929], [106.687, 9.884], [106.658, 9.829], [106.624, 9.797], [106.576, 9.806], [106.55, 9.85], [106.471, 9.928], [106.419, 9.953], [106.29, 10.05], [106.225, 10.143], [106.175, 10.176], [106.121, 10.232], [106.037, 10.251], [106.035, 10.299]]]]}}