{"type": "Feature", "properties": {"name": "Binh Duong province", "iso2": "VN-57", "admin_level": 4, "osm_id": 1906037, "countrylevel_id": "iso2:VN-57", "osm_data": {"localname": "Tỉnh Bình Dương", "official_name": "", "alltags": {"name:ar": "محافظة بنه ديونغ", "name:bg": "Бин Дуонг", "name:en": "Binh Duong province", "name:es": "Bình Dương", "name:fa": "استان بین دونگ", "name:fi": "Bình Dương", "name:fr": "Province de Bình Dương", "name:id": "Provinsi Bình Dương", "name:it": "Provincia di Binh Duong", "name:ja": "ビンズオン", "name:ko": "빈즈엉성", "name:nl": "Bình Dương", "name:no": "Binh Duong", "name:pl": "Prowincja Bình Dương", "name:pt": "Binh Duong", "name:ru": "Биньзыонг", "name:sr": "Бињ Зуонг", "name:sv": "Binh Duong", "name:sw": "Mkoa wa Bình Dương", "name:tg": "Вилояти Бин Дуонг", "name:th": "จังหวัดบิ่ญเซือง", "name:uk": "Біньзионг", "name:ur": "بنہ دیونگ صوبہ", "name:vi": "Tỉnh Bình Dương", "name:zh": "平阳省", "population": "1691400", "name:vi-hani": "省平陽", "name:zh-Hans": "平阳省", "name:zh-Hant": "平陽省", "is_in:country_code": "VN"}}, "center_lat": 11.22, "center_lon": 106.66, "timezone": "Asia/Ho_Chi_Minh", "wikidata_id": "Q36866", "wikipedia_id": "vi:Bình Dương"}, "geometry": {"type": "MultiPolygon", "coordinates": [[[[106.447, 11.135], [106.452, 11.158], [106.506, 11.142], [106.526, 11.121], [106.524, 11.073], [106.55, 11.046], [106.595, 11.045], [106.617, 10.989], [106.648, 10.981], [106.653, 10.929], [106.685, 10.921], [106.69, 10.88], [106.713, 10.866], [106.718, 10.896], [106.762, 10.868], [106.809, 10.873], [106.84, 10.899], [106.815, 10.904], [106.763, 10.953], [106.796, 10.975], [106.775, 11.006], [106.81, 11.027], [106.803, 11.06], [106.827, 11.065], [106.869, 11.022], [106.908, 11.022], [106.966, 11.111], [106.967, 11.145], [106.933, 11.19], [106.905, 11.194], [106.911, 11.241], [106.938, 11.308], [106.94, 11.352], [106.908, 11.354], [106.857, 11.315], [106.857, 11.375], [106.785, 11.38], [106.77, 11.426], [106.806, 11.451], [106.792, 11.492], [106.754, 11.476], [106.754, 11.447], [106.704, 11.396], [106.675, 11.401], [106.674, 11.354], [106.616, 11.363], [106.613, 11.387], [106.562, 11.37], [106.544, 11.385], [106.546, 11.433], [106.573, 11.457], [106.557, 11.484], [106.54, 11.468], [106.497, 11.496], [106.425, 11.494], [106.373, 11.455], [106.347, 11.37], [106.33, 11.342], [106.335, 11.296], [106.356, 11.285], [106.352, 11.252], [106.389, 11.213], [106.388, 11.186], [106.43, 11.174], [106.447, 11.135]]]]}}