{"type": "Feature", "properties": {"name": "Can Tho City", "iso2": "VN-CT", "admin_level": 4, "osm_id": 1874283, "countrylevel_id": "iso2:VN-CT", "osm_data": {"localname": "Thành phố Cần Thơ", "official_name": "Thành phố Cần Thơ", "alltags": {"name:af": "Can Tho", "name:ar": "كن تاه", "name:bg": "Кан Тхо", "name:ce": "Кантхо", "name:cs": "Can Tho", "name:da": "Can Tho", "name:en": "Can Tho City", "name:eo": "Can Tho", "name:fa": "کان تو", "name:gl": "Can Tho", "name:ja": "カントー", "name:kl": "Can Tho", "name:km": "ទីក្រុងព្រែកឫស្សី", "name:ko": "껀터", "name:ky": "Кантхо", "name:lt": "Kantas", "name:mi": "Can Tho", "name:mn": "Кантхо", "name:ms": "Can Tho", "name:nl": "Cần Thơ", "name:no": "Can Tho", "name:pt": "Can Tho", "name:ru": "Кантхо", "name:sr": "Кантхо", "name:sv": "Can Tho", "name:sw": "Can Tho", "name:th": "เกิ่นเทอ", "name:tl": "Can Tho", "name:uk": "Кантхо", "name:ur": "کآن تھؤ", "name:vi": "Cần Thơ", "name:zh": "芹苴市", "alt_name": "Cần Thơ", "population": "1200300", "wikivoyage": "en:Can Tho", "alt_name:en": "Cantho", "official_name": "Thành phố Cần Thơ", "official_name:en": "Can Tho City", "official_name:ko": "껀터시", "is_in:country_code": "VN"}}, "center_lat": 10.11, "center_lon": 105.53, "timezone": "Asia/Ho_Chi_Minh", "population": 1237300, "wikidata_id": "Q216075", "wikipedia_id": "vi:Cần Thơ"}, "geometry": {"type": "MultiPolygon", "coordinates": [[[[105.532, 9.919], [105.574, 9.994], [105.619, 9.945], [105.647, 9.976], [105.673, 9.964], [105.671, 9.939], [105.724, 9.976], [105.76, 9.958], [105.819, 9.965], [105.845, 9.983], [105.785, 10.068], [105.683, 10.134], [105.625, 10.186], [105.597, 10.242], [105.496, 10.326], [105.427, 10.303], [105.441, 10.27], [105.336, 10.234], [105.301, 10.277], [105.231, 10.209], [105.226, 10.201], [105.298, 10.139], [105.318, 10.141], [105.364, 10.074], [105.532, 9.919]]]]}}