{"type": "Feature", "properties": {"name": "Birštonas Municipality", "iso2": "LT-05", "admin_level": 5, "osm_id": 3855485, "countrylevel_id": "iso2:LT-05", "osm_data": {"localname": "Birštono savivaldybė", "official_name": "", "alltags": {"name:el": "Δήμος Μπίρστονας", "name:en": "Birštonas Municipality", "name:et": "Birštonase omavalitsus", "name:fi": "Birštonasin kunta", "name:fr": "Municipalité de Birštonas", "name:it": "Comune di Birštonas", "name:lt": "Birštono savivaldybė", "name:lv": "Birštonas pašvaldība", "name:nl": "Birštonas gemeente", "name:no": "Birštonas kommune", "name:pl": "rejon birsztański", "name:ru": "Бирштонское самоуправление"}}, "center_lat": 54.57, "center_lon": 24.03, "timezone": "Europe/Vilnius", "population": 4370, "wikidata_id": "Q2015893", "wikipedia_id": "lt:Birštono savivaldybė"}, "geometry": {"type": "MultiPolygon", "coordinates": [[[[23.972, 54.493], [24.013, 54.545], [24.085, 54.55], [24.102, 54.527], [24.17, 54.536], [24.146, 54.575], [24.046, 54.624], [23.965, 54.644], [23.958, 54.624], [24.01, 54.586], [23.886, 54.533], [23.972, 54.493]]]]}}