{"type": "Feature", "properties": {"name": "Alytus District Municipality", "iso2": "LT-03", "admin_level": 5, "osm_id": 1085089, "countrylevel_id": "iso2:LT-03", "osm_data": {"localname": "Alytaus rajono savivaldybė", "official_name": "", "alltags": {"name:en": "Alytus District Municipality", "name:fi": "Alytusin piiri", "name:fr": "District d'Alytus", "name:it": "Distretto di Alytus", "name:ka": "ალიტუსის რაიონი", "name:lt": "Alytaus rajono savivaldybė", "name:lv": "Alītas rajona pašvaldība", "name:nl": "Alytus district", "name:no": "Alytus district", "name:pl": "rejon olicki", "name:ru": "Алитусский район", "name:bat-smg": "Alītaus rajuons"}}, "center_lat": 54.39, "center_lon": 24.04, "timezone": "Europe/Vilnius", "population": 32086, "wikidata_id": "Q769940", "wikipedia_id": "lt:Alytaus rajono savivaldybė"}, "geometry": {"type": "MultiPolygon", "coordinates": [[[[23.512, 54.416], [23.567, 54.422], [23.587, 54.369], [23.563, 54.34], [23.629, 54.353], [23.679, 54.325], [23.724, 54.338], [23.8, 54.293], [23.912, 54.287], [23.933, 54.261], [23.983, 54.255], [23.95, 54.193], [23.966, 54.176], [23.994, 54.167], [24.078, 54.184], [24.079, 54.205], [24.143, 54.244], [24.154, 54.279], [24.243, 54.268], [24.393, 54.297], [24.398, 54.371], [24.45, 54.352], [24.437, 54.425], [24.414, 54.533], [24.399, 54.523], [24.273, 54.53], [24.264, 54.556], [24.17, 54.536], [24.102, 54.527], [24.085, 54.55], [24.013, 54.545], [23.972, 54.493], [23.907, 54.484], [23.911, 54.465], [23.755, 54.469], [23.687, 54.474], [23.657, 54.512], [23.614, 54.485], [23.51, 54.466], [23.512, 54.416]], [[23.959, 54.394], [24.002, 54.41], [24.006, 54.439], [24.102, 54.397], [24.091, 54.368], [23.985, 54.371], [23.959, 54.394]]]]}}