{"type": "Feature", "properties": {"name": "Salzburg", "iso2": "AT-5", "admin_level": 4, "osm_id": 86539, "countrylevel_id": "iso2:AT-5", "osm_data": {"localname": "Salzburg", "official_name": "", "alltags": {"name:ar": "زالتسبورغ", "name:be": "Зальцбург", "name:ca": "Estat de Salzburg", "name:cs": "Salcbursko", "name:en": "Salzburg", "name:es": "Salzburgo", "name:fr": "Salzbourg", "name:hr": "Salzburg (pokrajina)", "name:hu": "Salzburg", "name:lt": "Zalcburgas", "name:lv": "Zalcburga", "name:mk": "Салцбург", "name:nl": "Salzburg", "name:pl": "Salzburg", "name:ru": "Зальцбург", "name:sk": "Salzbursko", "name:sl": "Salzburška", "name:ta": "சல்பேர்க்", "website": "https://www.salzburg.gv.at/", "ref:at:gkz": "5", "alt_name:cs": "Solnohradsko", "alt_name:mk": "Залцбург", "alt_name:sl": "Solnograško", "description": "Land Salzburg", "is_in:country": "Austria", "name:be-tarask": "Зальцбург", "name:prefix:at": "Bundesland", "is_in:continent": "Europe", "is_in:country_code": "AT"}}, "center_lat": 47.39, "center_lon": 13.08, "timezone": "Europe/Vienna", "population": 545742, "wikidata_id": "Q43325", "wikipedia_id": "de:Land Salzburg"}, "geometry": {"type": "MultiPolygon", "coordinates": [[[[12.136, 47.081], [12.186, 47.092], [12.241, 47.069], [12.359, 47.114], [12.4, 47.152], [12.484, 47.158], [12.539, 47.132], [12.566, 47.136], [12.656, 47.1], [12.666, 47.123], [12.731, 47.131], [12.733, 47.104], [12.82, 47.098], [12.938, 47.076], [12.965, 47.039], [13.003, 47.044], [13.073, 47.013], [13.08, 47.027], [13.248, 47.051], [13.25, 47.088], [13.362, 47.099], [13.406, 47.069], [13.428, 47.081], [13.581, 47.052], [13.638, 47.056], [13.693, 47.04], [13.694, 47.006], [13.772, 46.977], [13.785, 46.944], [13.865, 46.996], [13.864, 47.02], [13.907, 47.07], [13.881, 47.108], [13.944, 47.137], [13.994, 47.142], [13.92, 47.172], [13.85, 47.23], [13.862, 47.254], [13.824, 47.267], [13.817, 47.296], [13.761, 47.266], [13.712, 47.26], [13.631, 47.274], [13.598, 47.294], [13.604, 47.33], [13.563, 47.42], [13.586, 47.475], [13.49, 47.513], [13.478, 47.568], [13.523, 47.618], [13.484, 47.642], [13.551, 47.714], [13.436, 47.739], [13.465, 47.786], [13.515, 47.772], [13.529, 47.797], [13.451, 47.804], [13.395, 47.795], [13.286, 47.83], [13.28, 47.955], [13.308, 47.964], [13.359, 47.941], [13.372, 47.977], [13.301, 47.995], [13.3, 48.01], [13.199, 47.974], [13.146, 47.97], [13.075, 48.004], [13.042, 48.041], [12.913, 48.023], [12.892, 47.991], [12.86, 47.997], [12.871, 47.966], [12.939, 47.943], [13.001, 47.854], [12.928, 47.77], [12.905, 47.727], [12.925, 47.71], [12.987, 47.707], [13.011, 47.723], [13.081, 47.687], [13.099, 47.635], [13.044, 47.583], [13.031, 47.533], [13.048, 47.492], [13.007, 47.464], [12.909, 47.497], [12.848, 47.546], [12.818, 47.545], [12.779, 47.579], [12.824, 47.612], [12.745, 47.676], [12.666, 47.681], [12.603, 47.672], [12.575, 47.632], [12.575, 47.605], [12.667, 47.579], [12.628, 47.55], [12.7, 47.478], [12.631, 47.465], [12.638, 47.437], [12.579, 47.392], [12.506, 47.394], [12.479, 47.365], [12.498, 47.345], [12.375, 47.311], [12.297, 47.333], [12.264, 47.302], [12.226, 47.313], [12.144, 47.288], [12.115, 47.306], [12.076, 47.27], [12.111, 47.243], [12.086, 47.215], [12.093, 47.147], [12.136, 47.081]]]]}}