{"type": "Feature", "properties": {"name": "Tyrol", "iso2": "AT-7", "admin_level": 4, "osm_id": 52343, "countrylevel_id": "iso2:AT-7", "osm_data": {"localname": "Tirol", "official_name": "", "alltags": {"name:ar": "تيرول", "name:be": "Ціроль", "name:ca": "Tirol", "name:cs": "Tyrolsko", "name:en": "Tyrol", "name:es": "Tirol", "name:fi": "Tiroli", "name:fr": "Tyrol", "name:ga": "An Tioróil", "name:hr": "Tirol", "name:hu": "Tirol", "name:lv": "Tirole", "name:mk": "Тирол", "name:nl": "Tirol", "name:pl": "Tyrol", "name:ru": "Тироль", "name:sk": "Tirolsko", "name:sl": "Tirolska", "name:ta": "டைரொல்", "website": "https://www.tirol.gv.at/", "name:tzl": "Tirol", "population": "707573", "ref:at:gkz": "7", "alt_name:mk": "Туролска", "name:be-tarask": "Тыроль", "name:prefix:at": "Bundesland"}}, "center_lat": 47.19, "center_lon": 11.5, "timezone": "Europe/Vienna", "population": 739002, "wikidata_id": "Q42880", "wikipedia_id": "de:Tirol (Bundesland)"}, "geometry": {"type": "MultiPolygon", "coordinates": [[[[10.454, 47.556], [10.431, 47.504], [10.464, 47.482], [10.476, 47.433], [10.397, 47.377], [10.349, 47.318], [10.232, 47.271], [10.178, 47.27], [10.222, 47.254], [10.198, 47.236], [10.197, 47.194], [10.222, 47.15], [10.222, 47.15], [10.158, 47.115], [10.133, 47.082], [10.157, 47.049], [10.124, 47.024], [10.154, 47.005], [10.135, 46.955], [10.098, 46.927], [10.145, 46.851], [10.233, 46.866], [10.242, 46.932], [10.297, 46.92], [10.355, 46.992], [10.398, 46.997], [10.422, 46.96], [10.489, 46.938], [10.465, 46.884], [10.47, 46.855], [10.571, 46.842], [10.667, 46.875], [10.763, 46.821], [10.73, 46.788], [10.787, 46.796], [10.883, 46.763], [10.918, 46.775], [11.022, 46.766], [11.082, 46.821], [11.072, 46.856], [11.115, 46.931], [11.206, 46.963], [11.319, 46.992], [11.417, 46.966], [11.479, 47.011], [11.538, 46.984], [11.627, 47.013], [11.665, 46.992], [11.711, 46.993], [11.764, 46.973], [11.916, 47.032], [12.02, 47.047], [12.136, 47.081], [12.093, 47.147], [12.086, 47.215], [12.111, 47.243], [12.076, 47.27], [12.115, 47.306], [12.144, 47.288], [12.226, 47.313], [12.264, 47.302], [12.297, 47.333], [12.375, 47.311], [12.498, 47.345], [12.479, 47.365], [12.506, 47.394], [12.579, 47.392], [12.638, 47.437], [12.631, 47.465], [12.7, 47.478], [12.628, 47.55], [12.667, 47.579], [12.575, 47.605], [12.575, 47.632], [12.499, 47.625], [12.429, 47.696], [12.364, 47.684], [12.338, 47.697], [12.255, 47.679], [12.265, 47.733], [12.162, 47.701], [12.208, 47.612], [12.14, 47.605], [12.013, 47.623], [11.855, 47.602], [11.847, 47.582], [11.781, 47.591], [11.607, 47.582], [11.572, 47.515], [11.449, 47.507], [11.391, 47.482], [11.421, 47.445], [11.339, 47.45], [11.272, 47.398], [11.222, 47.397], [11.253, 47.428], [11.128, 47.412], [11.115, 47.396], [10.97, 47.4], [10.984, 47.43], [10.912, 47.485], [10.87, 47.499], [10.918, 47.514], [10.89, 47.537], [10.778, 47.514], [10.691, 47.559], [10.598, 47.57], [10.573, 47.534], [10.489, 47.54], [10.454, 47.556]]], [[[10.454, 47.556], [10.482, 47.584], [10.429, 47.578], [10.454, 47.556]]], [[[12.478, 46.68], [12.517, 46.678], [12.569, 46.651], [12.691, 46.657], [12.693, 46.702], [12.722, 46.703], [12.712, 46.736], [12.802, 46.757], [12.841, 46.749], [12.899, 46.777], [12.931, 46.764], [12.965, 46.797], [12.841, 46.861], [12.837, 46.912], [12.783, 46.932], [12.725, 46.996], [12.766, 47.044], [12.711, 47.048], [12.656, 47.1], [12.566, 47.136], [12.539, 47.132], [12.484, 47.158], [12.4, 47.152], [12.359, 47.114], [12.241, 47.069], [12.204, 47.027], [12.147, 47.025], [12.121, 47.006], [12.153, 46.917], [12.215, 46.874], [12.274, 46.884], [12.306, 46.833], [12.284, 46.783], [12.357, 46.775], [12.384, 46.716], [12.478, 46.68]]]]}}