{"type": "Feature", "properties": {"name": "Caldas", "iso2": "CO-CAL", "admin_level": 4, "osm_id": 396705, "countrylevel_id": "iso2:CO-CAL", "osm_data": {"localname": "Caldas", "official_name": "", "alltags": {"clcfile": "MunicipiosDepartamentos/ADM_Departamentos.shp", "name:ar": "كالداس", "name:el": "Καλδάς", "name:en": "Caldas", "name:eo": "Kaldaso", "name:fr": "Caldas", "name:ja": "カルダス県", "name:ko": "칼다스", "name:lt": "Kaldas", "name:ru": "Калдас", "name:uk": "Кальдас", "name:zh": "卡尔达斯省", "population": "1170187", "state_code": "CAL", "is_in:country": "Colombia", "state_capital": "Manizales", "DANE:departamento": "17"}}, "center_lat": 5.32, "center_lon": -75.34, "timezone": "America/Bogota", "wikidata_id": "Q230607", "wikipedia_id": "es:Caldas"}, "geometry": {"type": "MultiPolygon", "coordinates": [[[[-75.375, 4.804], [-75.342, 5.085], [-74.734, 5.286], [-74.659, 5.751], [-74.657, 5.783], [-75.099, 5.641], [-75.276, 5.419], [-75.429, 5.696], [-75.867, 5.488], [-75.896, 4.964], [-75.375, 4.804]]]]}}