{"type": "Feature", "properties": {"name": "Albania", "iso1": "AL", "admin_level": 2, "osm_id": 53292, "countrylevel_id": "iso1:AL", "osm_data": {"localname": "Shqipëria", "official_name": "Republika e Shqipërisë", "alltags": {"flag": "http://upload.wikimedia.org/wikipedia/commons/3/36/Flag_of_Albania.svg", "name:ab": "Арнауыҭтәыла", "name:af": "Albanië", "name:ak": "Albania", "name:am": "አልባኒያ", "name:an": "Albania", "name:ar": "ألبانيا", "name:as": "আলবেনিয়া", "name:av": "Алба́ния", "name:az": "Albaniya", "name:ba": "Алба́ния", "name:be": "Алба́нія", "name:bg": "Албания", "name:bh": "अल्बानिया", "name:bi": "Albania", "name:bm": "Alibani", "name:bn": "আলবেনিয়া", "name:bo": "ཨལ་པ་ཉི་ཡ།", "name:br": "Albania", "name:bs": "Albanija", "name:ca": "Albània", "name:ce": "Алба́ни", "name:co": "Albania", "name:cs": "Albánie", "name:cu": "Алванїꙗ", "name:cv": "Албани", "name:cy": "Albania", "name:da": "Albanien", "name:dv": "އަލްބޭނިއާ", "name:dz": "ཨཱལ་བེ་ནི་ཡ", "name:ee": "Albania", "name:el": "Αλβανία", "name:en": "Albania", "name:eo": "Albanujo", "name:es": "Albania", "name:et": "Albaania", "name:eu": "Albania", "name:fa": "آلبانی", "name:ff": "Albaniya", "name:fi": "Albania", "name:fo": "Albania", "name:fr": "Albanie", "name:fy": "Albaanje", "name:ga": "An Albáin", "name:gd": "Albàinia", "name:gl": "Albania", "name:gn": "Avaña", "name:gu": "આલ્બેનિયા", "name:gv": "Yn Albaan", "name:ha": "Albaniya", "name:he": "אַלְבַּנְיָה", "name:hi": "अल्बानिया", "name:hr": "Albanija", "name:ht": "Albani", "name:hu": "Albánia", "name:hy": "Ալբանիա", "name:ia": "Albania", "name:id": "Albania", "name:ie": "Albania", "name:ig": "Albania", "name:io": "Albania", "name:is": "Albanía", "name:it": "Albania", "name:ja": "アルバニア", "name:jv": "Albania", "name:ka": "ალბანეთი", "name:kg": "Albania", "name:ki": "Arũmbĩnia", "name:kk": "Албания", "name:kl": "Albania", "name:km": "អាល់បានី", "name:kn": "ಅಲ್ಬೇನಿಯ", "name:ko": "알바니아", "name:ks": "اٮ۪لبانِیا", "name:ku": "Albanya", "name:kv": "Албания", "name:kw": "Albani", "name:ky": "Албания", "name:la": "Albania", "name:lb": "Albanien", "name:lg": "Alibaniya", "name:li": "Albanië", "name:ln": "Albania", "name:lo": "ແອລເບເນຍ", "name:lt": "Albanija", "name:lv": "Albānija", "name:mg": "Albania", "name:mi": "Arapeinia", "name:mk": "Албанија", "name:ml": "അൽബേനിയ", "name:mn": "Албани", "name:mr": "आल्बेनिया", "name:ms": "Albania", "name:mt": "Albanija", "name:my": "အယ်လ်ဘေးနီးယား၏", "name:na": "Arbainiya", "name:ne": "अल्बानिया", "name:nl": "Albanië", "name:nn": "Albania", "name:no": "Albania", "name:nv": "Dziłigaii Bikéyah", "name:oc": "Albania", "name:om": "Albeeniyaa", "name:or": "ଆଲବାନିଆ", "name:os": "Албани", "name:pa": "ਅਲਬਾਨੀਆ", "name:pi": "अल्बानिया", "name:pl": "Albania", "name:ps": "البانیا", "name:pt": "Albânia", "name:qu": "Albanya", "name:rm": "Albania", "name:rn": "Alubaniya", "name:ro": "Albania", "name:ru": "Албания", "name:rw": "Alubaniya", "name:sa": "अल्बेनिया", "name:sc": "Albania", "name:se": "Albánia", "name:sg": "Albanïi", "name:sh": "Albanija", "name:si": "ඇල්බේනියාව", "name:sk": "Albánsko", "name:sl": "Albanija", "name:sn": "Albania", "name:so": "Albania", "name:sq": "Shqipëria", "name:sr": "Албанија", "name:ss": "I-Alibheniya", "name:st": "Albania", "name:su": "Albania", "name:sv": "Albanien", "name:sw": "Albania", "name:ta": "அல்பேனியா", "name:te": "అల్బేనియా", "name:tg": "Албания", "name:th": "ประเทศแอลเบเนีย", "name:ti": "አልባኒያ", "name:tk": "Albaniýa", "name:tl": "Albanya", "name:to": "ʻAlipania", "name:tr": "Arnavutluk", "name:ts": "Albania", "name:tt": "Албания", "name:tw": "Albania", "name:ty": "Arapania", "name:ug": "ئالبانىيە", "name:uk": "Алба́нія", "name:ur": "البانیا", "name:uz": "Albaniya", "name:vi": "Albania", "name:vo": "Lalbanän", "name:wo": "Albaani", "name:yi": "אלבאניע", "name:yo": "Albáníà", "name:zh": "阿爾巴尼亞", "name:zu": "I-Albaniya", "int_name": "Albania", "name:ace": "Albania", "name:ady": "Албание", "name:als": "Albanien", "name:ang": "Albania", "name:arc": "ܐܠܒܢܝܐ", "name:arz": "البانيا", "name:ast": "Albania", "name:azb": "آلبانی", "name:bar": "Oibanien", "name:bcl": "Albanya", "name:bpy": "আলবেনিয়া", "name:bxr": "Албани", "name:cdo": "Albania", "name:ceb": "Albanya", "name:chr": "ᎠᎸᏇᏂᏯ", "name:ckb": "ئالبانیا", "name:crh": "Arnavutlıq", "name:csb": "Albańskô", "name:diq": "Arnawutiye", "name:dsb": "Albańska", "name:dty": "अल्बानिया", "name:eml": "Albanî", "name:ext": "Albánia", "name:frp": "Albanie", "name:frr": "Albaanien", "name:fur": "Albanie", "name:gag": "Albaniya", "name:gom": "अल्बानिया", "name:got": "𐌰𐌻𐌱𐌰𐌽𐌾𐌰", "name:hak": "Â-ngì-pâ-nì-â", "name:haw": "‘Alepania", "name:hif": "Albania", "name:hsb": "Albanska", "name:ilo": "Albania", "name:jam": "Albienia", "name:jbo": "ckipyris", "name:kaa": "Albaniya", "name:kab": "Albanya", "name:kbd": "Албаниэ", "name:koi": "Штипри́я", "name:krc": "Албания", "name:ksh": "Albanien", "name:lad": "אלבאניה", "name:lij": "Albania", "name:lmo": "Albania", "name:lrc": "آلبانی", "name:ltg": "Albaneja", "name:lzh": "阿爾巴尼亞", "name:mai": "अल्बानिया", "name:mdf": "Албания", "name:mhr": "Албаний", "name:min": "Albania", "name:mrj": "Албани", "name:mwl": "Albánia", "name:myv": "Албания", "name:mzn": "آلبانی", "name:nah": "Albania", "name:nan": "Albania", "name:nap": "Albania", "name:nds": "Albanien", "name:new": "अल्बानिया", "name:nov": "Albania", "name:olo": "Albuanii", "name:pag": "Shqip", "name:pam": "Albania", "name:pap": "Albania", "name:pcd": "Albanie", "name:pdc": "Albaani", "name:pih": "Elbanya", "name:pms": "Albanìa", "name:pnb": "البانیا", "name:pnt": "Αλβανία", "name:rmy": "Shkiperiya", "name:rue": "Албанія", "name:sah": "Албания", "name:scn": "Albanìa", "name:sco": "Albanie", "name:srn": "Albanikondre", "name:stq": "Albanien", "name:szl": "Albańijo", "name:tet": "Albánia", "name:tok": "ma Sipe", "name:tpi": "Albenia", "name:tum": "Albania", "name:tzl": "Schqiperia", "name:udm": "Албания", "name:vec": "Albanìa", "name:vep": "Albanii", "name:vls": "Albanië", "name:war": "Albanya", "name:wuu": "阿尔巴尼亚", "name:xal": "Арнгудин Орн", "name:xmf": "ალბანეთი", "name:yue": "阿爾巴尼亞", "name:zea": "Albanië", "ref:nuts": "AL", "population": "2876591", "ref:nuts:1": "AL", "alt_name:ab": "Албаниа", "alt_name:eo": "Albanio", "alt_name:qu": "Shkipirya", "alt_name:tt": "Арнаутлык", "alt_name:uk": "Шкіперія", "name:nds-nl": "Albanië", "alt_name:rmy": "Albaniya", "alt_name:war": "Albania", "capital_city": "Tirana", "name:bat-smg": "Albanėjė", "name:cbk-zam": "Albania", "name:fiu-vro": "Albaania", "name:roa-rup": "Arbinishia", "name:roa-tara": "Albanie", "official_name": "Republika e Shqipërisë", "name:be-tarask": "Альба́нія", "name:zh_pinyin": "Āěrbāníyà", "alt_name:roa-rup": "Arbinișia", "default_language": "sq", "official_name:ab": "Арнауыҭтәыла Аҳәынҭқарра", "official_name:af": "Republiek Albanië", "official_name:am": "የኣልባኒያ ሬፑብሊክ", "official_name:ar": "جمهورية ألبانيا", "official_name:av": "Респу́блика Алба́ния", "official_name:az": "Albaniya Respublikası", "official_name:ba": "Албания Республикаһы", "official_name:be": "Рэспу́бліка Алба́нія", "official_name:bg": "Република Албания", "official_name:bn": "প্রজাতন্ত্রী আলবেনিয়া", "official_name:br": "Republik Albania", "official_name:bs": "Republika Albanija", "official_name:ce": "Албани Республика", "official_name:co": "Republica d'Albania", "official_name:cs": "Albánská republika", "official_name:cu": "Алвані́ꙗ Димократі́ꙗ", "official_name:cv": "Албани республики", "official_name:cy": "Gweriniaeth Albania", "official_name:da": "Republikken Albanien", "official_name:de": "Republik Albanien", "official_name:el": "Δημοκρατία της Αλβανίας", "official_name:en": "Republic of Albania", "official_name:eo": "Respubliko Albanujo", "official_name:es": "República de Albania", "official_name:et": "Albaania Vabariik", "official_name:eu": "Albaniako Errepublika", "official_name:fa": "جمهوری آلبانی", "official_name:ff": "Republik bu Albaniya", "official_name:fi": "Albanian tasavalta", "official_name:fo": "Lýðveldið Albania", "official_name:fr": "République d'Albanie", "official_name:ga": "Poblacht na hAlbáine", "official_name:gd": "Poblachd Albàinia", "official_name:gl": "República de Albania", "official_name:gn": "Tetã Avaña", "official_name:gu": "આલ્બેનિયા ગણરાજ્ય", "official_name:gv": "Pobblaght ny h-Albaan", "official_name:he": "רֶפּוּבְּלִיקַת אַלְבַּנְיָה", "official_name:hi": "अल्बानिया गणराज्य", "official_name:hr": "Republika Albanija", "official_name:hu": "Albán Köztársaság", "official_name:hy": "Ալբանիայի Հանրապետություն", "official_name:ia": "Republica de Albania", "official_name:id": "Republik Albania", "official_name:ig": "Republic nke Albania", "official_name:is": "Lýðveldið Albanía", "official_name:it": "Repubblica d'Albania", "official_name:ja": "アルバニア共和国", "official_name:ka": "ალბანეთის რესპუბლიკა", "official_name:kg": "Repubilika ya Albania", "official_name:kk": "Албания Республикасы", "official_name:kl": "Kunngiitsuuffik Albania", "official_name:km": "ប្រទេសអាល់បានី", "official_name:kn": "ಅಲ್ಬೇನಿಯ ಗಣರಾಜ್ಯ", "official_name:ko": "알바니아 공화국", "official_name:ku": "Komara Albanyayê", "official_name:kv": "Албания Республика", "official_name:kw": "Repoblek Albani", "official_name:ky": "Албан Республикасы", "official_name:lb": "Republik Albanien", "official_name:ln": "Republíki ya Albania", "official_name:lt": "Albanijos Respublika", "official_name:lv": "Albānijas Republika", "official_name:mk": "Република Албанија", "official_name:mn": "Бүгд Найрамдах Албани Улс", "official_name:mr": "आल्बेनियाचे प्रजासत्ताक", "official_name:ms": "Republik Albania", "official_name:mt": "Repubblika tal-Albanija", "official_name:my": "အယ်လ်ဘေးနီးယား သမ္မတနိုင်ငံ", "official_name:ne": "गणतन्त्र अल्बानिया", "official_name:nl": "Republiek Albanië", "official_name:nn": "Republikken Albania", "official_name:no": "Republikken Albania", "official_name:or": "ଆଲବାନିଆ ଗଣତନ୍ତ୍ର", "official_name:os": "Республикæ Албани", "official_name:pa": "ਅਲਬਾਨੀਆ ਦਾ ਗਣਰਾਜ", "official_name:pl": "Republika Albanii", "official_name:ps": "د البانيا جمهوريت", "official_name:pt": "República da Albânia", "official_name:qu": "Albanya Ripuwlika", "official_name:rm": "Republica Albania", "official_name:ro": "Republica Albania", "official_name:ru": "Республика Албания", "official_name:rw": "Repebulika y’Alubaniya", "official_name:se": "Albánia dásseváldi", "official_name:sh": "Republika Albanija", "official_name:sk": "Albánska republika", "official_name:sl": "Republika Albanija", "official_name:so": "Jamhuuriyadda Albania", "official_name:sq": "Republika e Shqipërisë", "official_name:sr": "Република Албанија", "official_name:sv": "Republiken Albanien", "official_name:sw": "Jamhuri ya Albania", "official_name:ta": "அல்பேனிய குடியரசு", "official_name:te": "రిపబ్లిక్ ఆఫ్ అల్బేనియా", "official_name:tg": "Ҷумҳурии Албания", "official_name:th": "สาธารณรัฐแอลเบเนีย", "official_name:tk": "Albaniýa Respublikasy", "official_name:tl": "Republika ng Albanya", "official_name:tr": "Arnavutluk Cumhuriyeti", "official_name:tt": "Албания Җөмһүрияте", "official_name:uk": "Республіка Албанія", "official_name:ur": "جمہوریہ البانیا", "official_name:uz": "Albaniya Respublikasi", "official_name:vi": "Cộng hoà Albania", "official_name:wo": "Republik bu Albaani", "official_name:yo": "Orílẹ̀òmìnira ilẹ̀ Albáníà", "official_name:zh": "阿尔巴尼亚共和国", "official_name:ace": "Rèpublik Albania", "official_name:ady": "Республикэу Албание", "official_name:als": "Republik Albanie", "official_name:ang": "Albania Cynewise", "official_name:arc": "ܩܘܛܢܝܘܬܐ ܕܐܠܒܢܝܐ", "official_name:bcl": "Republika kan Albanya", "official_name:bpy": "প্রজাতন্ত্রি আলবেনিয়া", "official_name:ceb": "Republika sa Albanya", "official_name:chr": "ᏍᎦᏚᎩ ᎾᎿ ᎠᎵᏇᏂᏯ", "official_name:ckb": "کۆماری ئالبانیا", "official_name:crh": "Arnavutlıq Cumhuriyeti", "official_name:dsb": "Republika Albańska", "official_name:dty": "गणतन्त्र अल्बानिया", "official_name:eml": "Repóbblica d'l Albanî", "official_name:ext": "Repúbrica d'Albánia", "official_name:frr": "Republiik faan Albaanien", "official_name:haw": "Lepupalika o ʻAlepania", "official_name:hsb": "Albanska republika", "official_name:ilo": "Republika iti Albania", "official_name:jam": "Ripoblik a Albienia", "official_name:kbd": "Алба́ниэ Респу́бликэ", "official_name:koi": "Штиптар Республика", "official_name:krc": "Албания Республика", "official_name:lad": "Republika de Albania", "official_name:lmo": "Republica de Albania", "official_name:lrc": "کوٙمأره ڤولات آلبانی", "official_name:lzh": "阿爾巴尼亞共和國", "official_name:mai": "अल्बानिया गणराज्य", "official_name:mrj": "Респу́блика Алба́ния", "official_name:myv": "Албания Мастор", "official_name:nah": "Tlācatlahtohcāyōtl Albania", "official_name:nan": "Albania Kiōng-hô-kok", "official_name:nap": "Repubbreca 'e Albania", "official_name:nds": "Republiek Albanien", "official_name:new": "अल्बानिया गणराज्य", "official_name:nov": "Republike de Albania", "official_name:pam": "Republika ning Albania", "official_name:pap": "Republika di Albania", "official_name:pcd": "République d'Albanie", "official_name:pnt": "Δημοκρατίαν τ' Αλβανίας", "official_name:rue": "Албаньска републіка", "official_name:sah": "Албания Республиката", "official_name:sco": "Republic o Albanie", "official_name:srn": "Repoliku fu Albani", "official_name:szl": "Republika Albańije", "official_name:tet": "Repúblika Albánia niam", "official_name:tpi": "Ripablik bilong Albenia", "official_name:udm": "Республика Албания", "official_name:vec": "Repubblica di Albania", "official_name:vep": "Albanijan Tazovaldkund", "official_name:vls": "Republiek Albanië", "official_name:war": "Republika han Albanya", "official_name:wuu": "阿爾巴尼亞共和國", "official_name:yue": "阿爾巴尼亞共和國", "official_name:zea": "Rippebliek Albanië", "official_name:nds-nl": "Reppubliek Albanië", "official_name:bat-smg": "Albanėjės Respoblėka", "official_name:fiu-vro": "Albaania Vabariik", "official_name:roa-rup": "Republica Arbinishia", "official_name:roa-tara": "Repubbleche de Albanie", "official_name:be-tarask": "Рэспубліка Альбанія"}}, "center_lat": 41.13, "center_lon": 20.06, "timezone": "Europe/Tirane", "population": 2873457, "wikidata_id": "Q222", "wikipedia_id": "sq:Shqipëria"}, "geometry": {"type": "MultiPolygon", "coordinates": [[[[19.476, 41.183], [19.476, 41.183], [19.476, 41.183], [19.476, 41.183]]], [[[19.579, 41.629], [19.579, 41.629], [19.579, 41.629], [19.579, 41.629]]], [[[19.61, 41.776], [19.61, 41.776], [19.61, 41.776], [19.61, 41.776]]], [[[19.478, 42.056], [19.478, 42.056], [19.478, 42.056], [19.478, 42.056]]], [[[19.462, 42.059], [19.462, 42.059], [19.462, 42.059], [19.462, 42.059]]], [[[19.471, 42.065], [19.471, 42.065], [19.471, 42.065], [19.471, 42.065]]], [[[19.99, 39.685], [19.99, 39.685], [19.99, 39.685], [19.99, 39.685]]], [[[20.006, 39.689], [20.006, 39.689], [20.006, 39.689], [20.006, 39.689]]], [[[19.996, 39.773], [19.996, 39.773], [19.996, 39.773], [19.996, 39.773]]], [[[19.264, 40.503], [19.27, 40.514], [19.29, 40.5], [19.294, 40.491], [19.28, 40.475], [19.275, 40.491], [19.264, 40.503]]], [[[20.931, 40.792], [20.931, 40.792], [20.931, 40.792], [20.931, 40.792]]], [[[19.991, 39.774], [19.991, 39.774], [19.991, 39.774], [19.991, 39.774]]], [[[19.991, 39.774], [19.991, 39.774], [19.991, 39.774], [19.991, 39.774]]], [[[19.996, 39.776], [19.996, 39.776], [19.996, 39.776], [19.996, 39.776]]], [[[20.984, 40.801], [20.978, 40.782], [20.956, 40.77], [20.973, 40.762], [20.983, 40.763], [20.984, 40.737], [21.007, 40.725], [21.025, 40.709], [21.057, 40.668], [21.052, 40.635], [21.057, 40.617], [21.045, 40.614], [21.048, 40.602], [21.04, 40.592], [21.047, 40.572], [21.043, 40.559], [21.032, 40.554], [21.019, 40.557], [21.006, 40.552], [21, 40.535], [20.97, 40.52], [20.964, 40.507], [20.969, 40.488], [20.961, 40.484], [20.955, 40.469], [20.932, 40.463], [20.908, 40.476], [20.875, 40.474], [20.843, 40.48], [20.832, 40.465], [20.831, 40.454], [20.822, 40.446], [20.787, 40.429], [20.792, 40.414], [20.787, 40.4], [20.792, 40.382], [20.79, 40.362], [20.777, 40.357], [20.78, 40.348], [20.764, 40.342], [20.758, 40.331], [20.764, 40.322], [20.755, 40.314], [20.739, 40.312], [20.731, 40.297], [20.713, 40.283], [20.707, 40.268], [20.723, 40.253], [20.721, 40.229], [20.726, 40.223], [20.707, 40.199], [20.679, 40.19], [20.681, 40.184], [20.675, 40.165], [20.693, 40.154], [20.675, 40.126], [20.68, 40.111], [20.678, 40.095], [20.659, 40.092], [20.637, 40.093], [20.621, 40.089], [20.62, 40.083], [20.594, 40.071], [20.55, 40.064], [20.512, 40.083], [20.494, 40.065], [20.478, 40.065], [20.465, 40.074], [20.45, 40.074], [20.419, 40.061], [20.411, 40.052], [20.415, 40.035], [20.397, 40.015], [20.393, 39.996], [20.376, 39.989], [20.33, 39.994], [20.312, 39.991], [20.32, 39.974], [20.342, 39.953], [20.345, 39.946], [20.337, 39.925], [20.364, 39.91], [20.374, 39.892], [20.383, 39.89], [20.389, 39.869], [20.417, 39.84], [20.414, 39.815], [20.39, 39.788], [20.368, 39.788], [20.348, 39.804], [20.305, 39.817], [20.29, 39.805], [20.307, 39.781], [20.292, 39.766], [20.295, 39.755], [20.322, 39.735], [20.298, 39.714], [20.284, 39.712], [20.279, 39.702], [20.266, 39.695], [20.265, 39.671], [20.249, 39.682], [20.231, 39.685], [20.229, 39.673], [20.219, 39.664], [20.229, 39.65], [20.199, 39.645], [20.151, 39.655], [20.134, 39.654], [20.099, 39.67], [20.088, 39.683], [20.077, 39.68], [20.065, 39.69], [20.035, 39.694], [20.031, 39.701], [20.009, 39.692], [19.999, 39.686], [19.983, 39.689], [19.983, 39.711], [19.999, 39.736], [19.994, 39.745], [19.977, 39.745], [19.973, 39.754], [19.984, 39.769], [19.998, 39.768], [20.008, 39.78], [20.004, 39.791], [19.994, 39.793], [20.013, 39.819], [20.009, 39.836], [20.02, 39.843], [20.02, 39.859], [20.008, 39.874], [20.002, 39.868], [19.983, 39.87], [19.97, 39.877], [19.948, 39.897], [19.915, 39.9], [19.909, 39.908], [19.935, 39.93], [19.937, 39.942], [19.915, 39.964], [19.911, 39.979], [19.894, 39.995], [19.893, 40.002], [19.873, 40.027], [19.855, 40.044], [19.836, 40.051], [19.793, 40.049], [19.803, 40.057], [19.791, 40.068], [19.777, 40.071], [19.771, 40.061], [19.767, 40.079], [19.749, 40.08], [19.751, 40.099], [19.731, 40.101], [19.711, 40.113], [19.699, 40.113], [19.7, 40.121], [19.659, 40.125], [19.635, 40.144], [19.591, 40.161], [19.579, 40.173], [19.544, 40.182], [19.502, 40.199], [19.443, 40.235], [19.431, 40.251], [19.409, 40.27], [19.405, 40.278], [19.38, 40.298], [19.372, 40.308], [19.368, 40.344], [19.356, 40.355], [19.335, 40.387], [19.289, 40.42], [19.321, 40.439], [19.337, 40.434], [19.358, 40.422], [19.397, 40.389], [19.407, 40.371], [19.407, 40.34], [19.425, 40.321], [19.452, 40.326], [19.481, 40.344], [19.485, 40.352], [19.478, 40.377], [19.485, 40.385], [19.478, 40.396], [19.481, 40.415], [19.495, 40.439], [19.493, 40.448], [19.464, 40.459], [19.421, 40.5], [19.401, 40.503], [19.378, 40.533], [19.38, 40.546], [19.361, 40.591], [19.346, 40.615], [19.331, 40.633], [19.315, 40.645], [19.312, 40.665], [19.329, 40.672], [19.344, 40.686], [19.362, 40.709], [19.367, 40.726], [19.37, 40.759], [19.376, 40.794], [19.375, 40.811], [19.361, 40.826], [19.388, 40.841], [19.397, 40.859], [19.404, 40.886], [19.416, 40.918], [19.464, 40.954], [19.475, 40.974], [19.452, 40.989], [19.443, 41.003], [19.444, 41.03], [19.441, 41.043], [19.45, 41.052], [19.456, 41.069], [19.456, 41.113], [19.439, 41.143], [19.442, 41.149], [19.461, 41.149], [19.473, 41.163], [19.474, 41.178], [19.484, 41.198], [19.497, 41.21], [19.512, 41.228], [19.519, 41.249], [19.515, 41.276], [19.502, 41.294], [19.474, 41.314], [19.454, 41.315], [19.449, 41.307], [19.435, 41.311], [19.42, 41.325], [19.419, 41.372], [19.422, 41.384], [19.405, 41.394], [19.391, 41.414], [19.408, 41.4], [19.428, 41.398], [19.442, 41.401], [19.436, 41.407], [19.449, 41.433], [19.46, 41.437], [19.488, 41.457], [19.509, 41.487], [19.514, 41.518], [19.506, 41.54], [19.469, 41.55], [19.45, 41.583], [19.509, 41.569], [19.539, 41.571], [19.557, 41.577], [19.572, 41.591], [19.584, 41.617], [19.593, 41.618], [19.589, 41.638], [19.598, 41.641], [19.587, 41.649], [19.574, 41.63], [19.57, 41.633], [19.57, 41.659], [19.582, 41.701], [19.582, 41.716], [19.574, 41.745], [19.576, 41.766], [19.59, 41.769], [19.592, 41.762], [19.575, 41.759], [19.576, 41.752], [19.608, 41.76], [19.608, 41.771], [19.618, 41.781], [19.604, 41.788], [19.597, 41.808], [19.584, 41.809], [19.545, 41.83], [19.515, 41.842], [19.484, 41.851], [19.447, 41.859], [19.417, 41.862], [19.403, 41.854], [19.373, 41.849], [19.375, 41.876], [19.381, 41.884], [19.37, 41.888], [19.365, 41.898], [19.342, 41.908], [19.363, 41.917], [19.37, 41.928], [19.352, 41.939], [19.352, 41.958], [19.385, 41.962], [19.377, 41.974], [19.382, 41.996], [19.374, 42.005], [19.371, 42.037], [19.38, 42.052], [19.378, 42.073], [19.385, 42.079], [19.395, 42.073], [19.418, 42.07], [19.447, 42.061], [19.481, 42.055], [19.474, 42.06], [19.472, 42.088], [19.466, 42.092], [19.477, 42.107], [19.475, 42.126], [19.459, 42.148], [19.436, 42.156], [19.432, 42.179], [19.421, 42.186], [19.399, 42.191], [19.359, 42.219], [19.358, 42.237], [19.378, 42.261], [19.396, 42.273], [19.387, 42.283], [19.408, 42.302], [19.431, 42.332], [19.42, 42.33], [19.414, 42.351], [19.422, 42.355], [19.425, 42.372], [19.437, 42.381], [19.468, 42.389], [19.487, 42.411], [19.497, 42.431], [19.52, 42.443], [19.521, 42.451], [19.563, 42.501], [19.562, 42.514], [19.602, 42.531], [19.617, 42.543], [19.61, 42.564], [19.61, 42.576], [19.649, 42.614], [19.662, 42.628], [19.679, 42.628], [19.699, 42.651], [19.723, 42.661], [19.733, 42.657], [19.738, 42.643], [19.753, 42.639], [19.752, 42.614], [19.76, 42.611], [19.776, 42.591], [19.775, 42.582], [19.762, 42.583], [19.748, 42.573], [19.753, 42.569], [19.75, 42.551], [19.743, 42.545], [19.76, 42.521], [19.766, 42.502], [19.781, 42.497], [19.793, 42.481], [19.831, 42.466], [19.836, 42.479], [19.872, 42.485], [19.876, 42.495], [19.896, 42.485], [19.907, 42.507], [19.917, 42.508], [19.943, 42.518], [19.952, 42.511], [19.983, 42.512], [20.003, 42.509], [20.016, 42.531], [20.018, 42.544], [20.05, 42.55], [20.057, 42.559], [20.078, 42.556], [20.087, 42.552], [20.098, 42.535], [20.123, 42.522], [20.149, 42.515], [20.168, 42.506], [20.166, 42.498], [20.18, 42.487], [20.183, 42.473], [20.197, 42.462], [20.193, 42.453], [20.221, 42.433], [20.226, 42.414], [20.208, 42.401], [20.24, 42.38], [20.246, 42.369], [20.244, 42.352], [20.236, 42.347], [20.248, 42.333], [20.242, 42.327], [20.257, 42.319], [20.287, 42.323], [20.306, 42.315], [20.329, 42.328], [20.346, 42.325], [20.353, 42.31], [20.395, 42.299], [20.405, 42.285], [20.423, 42.283], [20.457, 42.272], [20.477, 42.254], [20.497, 42.24], [20.502, 42.228], [20.514, 42.224], [20.524, 42.211], [20.532, 42.186], [20.543, 42.161], [20.559, 42.146], [20.555, 42.14], [20.568, 42.121], [20.561, 42.108], [20.568, 42.098], [20.555, 42.083], [20.57, 42.061], [20.595, 42.043], [20.597, 42.02], [20.602, 42.017], [20.612, 41.985], [20.624, 41.974], [20.627, 41.961], [20.619, 41.939], [20.576, 41.918], [20.594, 41.877], [20.571, 41.876], [20.557, 41.868], [20.563, 41.843], [20.562, 41.822], [20.574, 41.789], [20.567, 41.786], [20.547, 41.79], [20.546, 41.78], [20.532, 41.776], [20.536, 41.769], [20.521, 41.751], [20.514, 41.723], [20.527, 41.705], [20.529, 41.685], [20.517, 41.661], [20.526, 41.653], [20.525, 41.637], [20.544, 41.622], [20.547, 41.608], [20.555, 41.601], [20.555, 41.583], [20.519, 41.563], [20.471, 41.559], [20.457, 41.551], [20.472, 41.531], [20.454, 41.522], [20.455, 41.513], [20.477, 41.508], [20.468, 41.498], [20.478, 41.499], [20.495, 41.492], [20.502, 41.467], [20.513, 41.45], [20.514, 41.437], [20.538, 41.437], [20.538, 41.427], [20.557, 41.417], [20.561, 41.405], [20.546, 41.384], [20.552, 41.38], [20.527, 41.354], [20.52, 41.338], [20.498, 41.347], [20.491, 41.333], [20.506, 41.311], [20.508, 41.295], [20.515, 41.287], [20.511, 41.274], [20.514, 41.256], [20.522, 41.246], [20.515, 41.233], [20.532, 41.211], [20.533, 41.199], [20.555, 41.19], [20.559, 41.182], [20.583, 41.156], [20.596, 41.133], [20.583, 41.112], [20.596, 41.092], [20.633, 41.087], [20.628, 41.073], [20.646, 41.069], [20.651, 41.06], [20.635, 41.048], [20.637, 41.019], [20.633, 41.006], [20.646, 40.961], [20.642, 40.951], [20.642, 40.919], [20.659, 40.903], [20.699, 40.901], [20.723, 40.904], [20.732, 40.911], [20.759, 40.903], [20.775, 40.905], [20.801, 40.898], [20.826, 40.905], [20.827, 40.913], [20.848, 40.938], [20.885, 40.925], [20.899, 40.918], [20.912, 40.917], [20.916, 40.924], [20.941, 40.925], [20.968, 40.911], [20.979, 40.898], [20.978, 40.89], [20.966, 40.88], [20.948, 40.88], [20.936, 40.894], [20.922, 40.885], [20.942, 40.87], [20.943, 40.859], [20.956, 40.86], [20.967, 40.852], [20.961, 40.842], [20.94, 40.839], [20.934, 40.832], [20.941, 40.806], [20.917, 40.798], [20.907, 40.789], [20.909, 40.769], [20.92, 40.763], [20.942, 40.777], [20.972, 40.79], [20.984, 40.801]]]]}}