{"type": "Feature", "properties": {"name": "Armenia", "iso1": "AM", "admin_level": 2, "osm_id": 364066, "countrylevel_id": "iso1:AM", "osm_data": {"localname": "Հայաստան", "official_name": "Հայաստանի Հանրապետություն", "alltags": {"flag": "http://upload.wikimedia.org/wikipedia/commons/2/2f/Flag_of_Armenia.svg", "int_ref": "AM", "name:ab": "Ермантәыла", "name:af": "Armenië", "name:ak": "Armenia", "name:am": "አርመኒያ", "name:an": "Armenia", "name:ar": "أرمينيا", "name:as": "আৰ্মেনিয়া", "name:av": "ЦIамухъ", "name:az": "Ermənistan", "name:ba": "Әрмәнстан", "name:be": "Арме́нія", "name:bg": "Армения", "name:bh": "आर्मीनिया", "name:bi": "Armenia", "name:bm": "Arimeni", "name:bn": "আর্মেনিয়া", "name:bo": "ཨར་མེ་ནི་ཡ།", "name:br": "Armenia", "name:bs": "Ermenija", "name:ca": "Armènia", "name:ce": "Эрмалойчоь", "name:ch": "Armenia", "name:co": "Armenia", "name:cs": "Arménie", "name:cu": "Армєні́ꙗ", "name:cv": "Эрмени", "name:cy": "Armenia", "name:da": "Armenien", "name:dv": "އަރުމީނިއާ", "name:dz": "ཨར་མི་ནི་ཡ", "name:ee": "Armenia", "name:el": "Αρμενία", "name:en": "Armenia", "name:eo": "Armenujo", "name:es": "Armenia", "name:et": "Armeenia", "name:eu": "Armenia", "name:fa": "ارمنستان", "name:ff": "Armaaniya", "name:fi": "Armenia", "name:fo": "Armenia", "name:fr": "Arménie", "name:fy": "Armeenje", "name:ga": "An Airméin", "name:gd": "Airmeinia", "name:gl": "Armenia", "name:gn": "Aymenia", "name:gu": "આર્મેનિયા", "name:gv": "Armeain", "name:ha": "Armeniya", "name:he": "אַרְמֶנְיָה", "name:hi": "आर्मीनिया", "name:hr": "Armenija", "name:ht": "Ameni", "name:hu": "Örményország", "name:hy": "Հայաստան", "name:ia": "Armenia", "name:id": "Armenia", "name:ie": "Armenia", "name:io": "Armenia", "name:is": "Armenía", "name:it": "Armenia", "name:ja": "アルメニア", "name:jv": "Armènia", "name:ka": "სომხეთი", "name:kg": "Armenia", "name:ki": "Armenia", "name:kk": "Армения", "name:kl": "Armenia", "name:km": "អាមេនី", "name:kn": "ಆರ್ಮೇನಿಯ", "name:ko": "아르메니아", "name:ks": "اَرمانِیا", "name:ku": "Ermenistan", "name:kv": "Армения", "name:kw": "Armeni", "name:ky": "Армения", "name:la": "Armenia", "name:lb": "Armenien", "name:lg": "Arameniya", "name:li": "Armenië", "name:ln": "Armeni", "name:lo": "ປະເທດອາກເມນີ", "name:lt": "Armėnija", "name:lv": "Armēnija", "name:mg": "Armenia", "name:mi": "Āmenia", "name:mk": "Ерменија", "name:ml": "അർമേനിയ", "name:mn": "Армен", "name:mo": "Армения", "name:mr": "आर्मेनिया", "name:ms": "Armenia", "name:mt": "Armenja", "name:my": "အာမေးနီးယားနိုင်ငံ", "name:na": "Arminiya", "name:ne": "आर्मेनिया", "name:nl": "Armenië", "name:nn": "Armenia", "name:no": "Armenia", "name:nv": "Aooméénii Bikéyah", "name:oc": "Armenia", "name:om": "Armeeniyaa", "name:or": "ଆର୍ମେନିଆ", "name:os": "Сомихыстон", "name:pa": "ਅਰਮੀਨੀਆ", "name:pi": "आर्मीनिया", "name:pl": "Armenia", "name:ps": "ارمنستان", "name:pt": "Arménia", "name:qu": "Arminya", "name:rm": "Armenia", "name:rn": "Arumeniya", "name:ro": "Armenia", "name:ru": "Армения", "name:rw": "Arumeniya", "name:sa": "आर्मीनिया", "name:sc": "Armènia", "name:sd": "آرمينيا", "name:se": "Armenia", "name:sg": "Armenïi", "name:sh": "Jermenija", "name:si": "ආර්මේනියාව", "name:sk": "Arménsko", "name:sl": "Armenija", "name:sm": "Amenia", "name:sn": "Armenia", "name:so": "Armania", "name:sq": "Armenia", "name:sr": "Јерменија", "name:ss": "iArimeniya", "name:su": "Arménia", "name:sv": "Armenien", "name:sw": "Armenia", "name:ta": "ஆர்மீனியா", "name:te": "ఆర్మేనియా", "name:tg": "Арманистон", "name:th": "อาร์มีเนีย", "name:ti": "አርሜኒያ", "name:tk": "Ermenistan", "name:tl": "Armenya", "name:to": "ʻĀminia", "name:tr": "Ermenistan", "name:ts": "Armenia", "name:tt": "Әрмәнстан", "name:tw": "Aminia", "name:ty": "Āmenia", "name:ug": "ئەرمېنىيە", "name:uk": "Вірме́нія", "name:ur": "آرمینیا", "name:uz": "Armaniston", "name:vi": "Armenia", "name:vo": "Larmeniyän", "name:wo": "Armeeni", "name:yi": "אַרמעניע", "name:yo": "Arméníà", "name:za": "Armenia", "name:zh": "亞美尼亞", "name:zu": "i-Armenia", "int_name": "Armenia", "name:ace": "Armenia", "name:ady": "Армение", "name:als": "Armenie", "name:ang": "Armenia", "name:arc": "ܐܪܡܢܝܐ", "name:arz": "أرمينيا", "name:ast": "Armenia", "name:azb": "ائرمنیستان", "name:bar": "Armenien", "name:bcl": "Armenya", "name:bpy": "আর্মেনিয়া", "name:bxr": "Армени", "name:cdo": "Ā-mī-nà̤-ā", "name:ceb": "Armenya", "name:chr": "ᎠᎺᏂᏱ", "name:ckb": "ئەرمەنستان", "name:crh": "Ermenistan", "name:csb": "Armenijô", "name:diq": "Ermenıstan", "name:dsb": "Armeńska", "name:dty": "आर्मीनिया", "name:eml": "Armègna", "name:ext": "Arménia", "name:frp": "Armènie", "name:frr": "Armeenien", "name:fur": "Armenie", "name:gag": "Armeniya", "name:glk": "Armөnөston", "name:gom": "अर्मेनिया", "name:hak": "Â-mî-nì-â", "name:haw": "‘Āmēnia", "name:hif": "Armenia", "name:hsb": "Armenska", "name:ilo": "Armenia", "name:jam": "Aamiinia", "name:jbo": "xaiastan", "name:kaa": "Armeniya", "name:kab": "Arminya", "name:kbp": "Armenii", "name:krc": "Эрмения", "name:ksh": "Arrmeenije", "name:lad": "Armenia", "name:lez": "Эрменистан", "name:lij": "Armenia", "name:lmo": "Armenia", "name:lrc": "أرمنستان", "name:ltg": "Armeneja", "name:lzh": "亞美尼亞", "name:mai": "अर्मेनिया", "name:mdf": "Армение", "name:mhr": "Арме́ний", "name:min": "Armenia", "name:mrj": "Арме́ни", "name:mwl": "Arménia", "name:myv": "Армения Мастор", "name:mzn": "ارمنستون", "name:nah": "Armenia", "name:nan": "Hayastan", "name:nap": "Armenia", "name:nds": "Armenien", "name:new": "आर्मेनिया", "name:nov": "Armenia", "name:olo": "Armenii", "name:pag": "Hayastan", "name:pam": "Armenia", "name:pap": "Armenia", "name:pcd": "Arménie", "name:pdc": "Armeni", "name:pih": "Aarmanya", "name:pms": "Armenia", "name:pnb": "آرمینیا", "name:pnt": "Αρμενία", "name:rue": "Арменія", "name:sah": "Эрмээн Сирэ", "name:scn": "Armenia", "name:sco": "Armenie", "name:stq": "Armenien", "name:szl": "Armyńijo", "name:tet": "Arménia", "name:tok": "ma Aja", "name:tpi": "Armenia", "name:tum": "Armenia", "name:tzl": "Haiastan", "name:udm": "Армения", "name:vec": "Armenia", "name:vep": "Armenii", "name:vls": "Armenië", "name:war": "Armenya", "name:wuu": "亚美尼亚", "name:xal": "Хемшудин Орн", "name:xmf": "სომხეთი", "name:yue": "亞美尼亞", "name:zea": "Armenië", "alt_name:av": "Эрменистан", "alt_name:eo": "Armenio", "alt_name:gd": "Arminia", "alt_name:gn": "Aymeña", "alt_name:jv": "Hayastan", "alt_name:kk": "Әрменстан;Әрмения", "alt_name:kn": "ಹಯಸ್ತಾನಿ ಹನ್ರಪೆತುತ್ಯುನ್", "alt_name:ku": "Flestan", "alt_name:lo": "ປະເທດຮາຢາສະຕານ", "alt_name:os": "Сомих", "alt_name:pt": "Armênia", "alt_name:sh": "Armenija", "alt_name:te": "ఆర్మీనియా", "alt_name:th": "อาร์เมเนีย", "alt_name:vi": "Acmeni", "name:nds-nl": "Armenië", "alt_name:ady": "Ермэлые", "alt_name:lad": "Ermenistan", "alt_name:lij": "Ærminnia", "alt_name:rue": "Арменьско", "name:bat-smg": "Armienėjė", "name:cbk-zam": "Armenia", "name:fiu-vro": "Armeeniä", "name:roa-rup": "Ermenia", "official_name": "Հայաստանի Հանրապետություն", "name:be-tarask": "Армэ́нія", "name:zh_pinyin": "Yàměiníyà", "is_in:continent": "Europe", "default_language": "hy", "official_name:ab": "Ермантәыла Аҳәынҭқарра", "official_name:af": "Republiek van Armenië", "official_name:am": "የአርሜንያ ሪፐብሊክ", "official_name:an": "Republica d'Armenia", "official_name:ar": "جمهورية أرمينيا", "official_name:az": "Ermənistan Respublikası", "official_name:ba": "Әрмәнстан Республикаһы", "official_name:be": "Рэспу́бліка Арме́нія", "official_name:bg": "Република Армения", "official_name:bh": "आर्मीनिया रिपब्लिक", "official_name:bn": "প্রজাতন্ত্রী আর্মেনিয়া", "official_name:br": "Republik Armenia", "official_name:bs": "Republika Ermenija", "official_name:ca": "República d'Armènia", "official_name:co": "Republica di Armenia", "official_name:cs": "Arménská republika", "official_name:cu": "Армєні́ꙗ Димократі́ꙗ", "official_name:cy": "Gweriniaeth Armenia", "official_name:da": "Republikken Armenien", "official_name:de": "Republik Armenien", "official_name:el": "Δημοκρατία της Αρμενίας", "official_name:en": "Republic of Armenia", "official_name:eo": "Armena Respubliko", "official_name:es": "República de Armenia", "official_name:et": "Armeenia Vabariik", "official_name:eu": "Armeniako Errepublika", "official_name:fa": "جمهوری ارمنستان", "official_name:ff": "Republik bu Armaaniya", "official_name:fi": "Armenian tasavalta", "official_name:fo": "Lýðveldið Armenia", "official_name:fr": "République d'Arménie", "official_name:ga": "Poblacht na hAirméine", "official_name:gd": "Poblachd Airmeinia", "official_name:gl": "República de Armenia", "official_name:gn": "Tetã Armenia", "official_name:gu": "આર્મેનિયા ગણરાજ્ય", "official_name:gv": "Pobblaght ny h-Armeain", "official_name:he": "רֶפּוּבְּלִיקַת אַרְמֶנְיָה", "official_name:hi": "आर्मीनिया गणराज्य", "official_name:hr": "Republika Armenija", "official_name:hu": "Örmény Köztársaság", "official_name:hy": "Հայաստանի Հանրապետություն", "official_name:ia": "Republica de Armenia", "official_name:id": "Republik Armenia", "official_name:io": "Republiko Armenia", "official_name:is": "Lýðveldið Armenía", "official_name:it": "Repubblica di Armenia", "official_name:ja": "アルメニア共和国", "official_name:ka": "სომხეთის რესპუბლიკა", "official_name:kk": "Армения Республикасы", "official_name:km": "សាធារណរដ្ឋអាមេនី", "official_name:kn": "ಆರ್ಮೇನಿಯ ಗಣರಾಜ್ಯ", "official_name:ko": "아르메니아 공화국", "official_name:ku": "Komara Ermenistanê", "official_name:kv": "Армения Республика", "official_name:kw": "Repoblek Armeni", "official_name:ky": "Армения Республикасы", "official_name:la": "Res publica Armenia", "official_name:lb": "Republik Armenien", "official_name:li": "Rippebliek Armenië", "official_name:lt": "Armėnijos Respublika", "official_name:lv": "Armēnijas Republika", "official_name:mk": "Република Ерменија", "official_name:ml": "റിപബ്ലിക്ക്‌ ഓഫ്‌ അർമേനിയ", "official_name:mn": "Бүгд Найрамдах Армен Улс", "official_name:mr": "आर्मेनियाचे प्रजासत्ताक", "official_name:ms": "Republik Armenia", "official_name:mt": "Repubblika tal-Armenja", "official_name:my": "အာမေးနီးယား သမ္မတနိုင်ငံ", "official_name:ne": "आर्मीनिया गणराज्य", "official_name:nl": "Republiek Armenië", "official_name:nn": "Republikk Armenia", "official_name:no": "Republikken Armenia", "official_name:oc": "Republica d'Armenia", "official_name:om": "Rippabliikii Armeeniyaa", "official_name:os": "Республикæ Сомих", "official_name:pl": "Republika Armenii", "official_name:ps": "ارمنستان جمهوريت", "official_name:pt": "República da Armênia", "official_name:qu": "Arminya Ripuwlika", "official_name:ro": "Republica Armenia", "official_name:ru": "Республика Армения", "official_name:se": "Armenia dásseváldi", "official_name:sh": "Republika Jermenija", "official_name:si": "ආර්මේනියානු ජනරජය", "official_name:sk": "Arménska republika", "official_name:sl": "Republika Armenija", "official_name:sm": "Lepulika o Amenia", "official_name:sq": "Republika e Armenisë", "official_name:sr": "Република Јерменија", "official_name:su": "Républik Arménia", "official_name:sv": "Republiken Armenien", "official_name:sw": "Jamhuri ya Armenia", "official_name:ta": "ஆர்மீனியக் குடியரசு", "official_name:te": "రిపబ్లిక్ ఆఫ్ ఆర్మేనియా", "official_name:th": "สาธารณรัฐอาร์มีเนีย", "official_name:tk": "Ermenistan Respublikasy", "official_name:tl": "Republika ng Armenia", "official_name:tr": "Ermenistan Cumhuriyeti", "official_name:tt": "Әрмәнстан Җөмһүрияте", "official_name:ug": "ئارمېنىيە جۇمىۇرىيىتى", "official_name:uk": "Респу́бліка Вірме́нія", "official_name:ur": "جمہوریہ آرمینیا", "official_name:uz": "Armaniston Respublikasi", "official_name:vi": "Cộng hoà Armenia", "official_name:wo": "Republik bu Armeeni", "official_name:yi": "רעפובליק פון ארמעניע", "official_name:yo": "Republic of Armenia", "official_name:zh": "亞美尼亞共和國", "official_name:ady": "Республикэу Армение", "official_name:als": "Republik Armenie", "official_name:arc": "ܩܘܛܢܝܘܬܐ ܕܐܪܡܢܝܐ", "official_name:arz": "جمهورية أرمينيا", "official_name:ast": "República d'Armenia", "official_name:azb": "ائرمنیستان جومهوریتی", "official_name:bar": "Republik Armenien", "official_name:bcl": "Republika nin Armenia", "official_name:bpy": "প্রজাতন্ত্রি আর্মেনিয়া", "official_name:bxr": "Бүгэдэ Найрамдаха Армени Улас", "official_name:chr": "ᏍᎦᏚᎩ ᎾᎿ ᎠᎵᎻᏂᎠ", "official_name:ckb": "کۆماری ئەرمەنیا", "official_name:crh": "Ermenistan Cumhuriyeti", "official_name:diq": "Cumhuriyetê Ermenıstani", "official_name:dsb": "Republika Armeńska", "official_name:dty": "आर्मीनिया गणराज्य", "official_name:eml": "Repùblica 'd Armègna", "official_name:frr": "Republiik Armeenien", "official_name:gag": "Ermeniya Respublikası", "official_name:haw": "Lepupalika o ʻĀmēnia", "official_name:hsb": "Armenska republika", "official_name:ilo": "Republika ti Armenia", "official_name:jam": "Ripoblik a Aamiinia", "official_name:kab": "Tagduda n Arminya", "official_name:krc": "Эрмения Республика", "official_name:lad": "Repuvlika de Armenia", "official_name:lez": "Республика Эрменистан", "official_name:lrc": "کۈمرأ ڤولات أرمنستان", "official_name:lzh": "亞美尼亞共和國", "official_name:mai": "अर्मेनिया गणतन्त्र", "official_name:mdf": "Армениень республикась", "official_name:mhr": "Арме́ний Респу́блик", "official_name:mrj": "Арме́ни Респу́блика", "official_name:myv": "Армениянь Республика", "official_name:nah": "Tlācatlahtohcāyōtl Armenia", "official_name:nan": "Armenia Kiōng-hô-kok", "official_name:nap": "Repubbreca 'e Armenia", "official_name:nds": "Republik Armenien", "official_name:new": "आर्मेनिया गणराज्य", "official_name:olo": "Armenien tazavaldu", "official_name:pam": "Republika ning Armenia", "official_name:pap": "Republika di Armenia", "official_name:pcd": "République d'Arménie", "official_name:rue": "Арменьска републіка", "official_name:sah": "Эрмээн Сирин Республиката", "official_name:sco": "Republic o Armenie", "official_name:stq": "Republik Armenien", "official_name:udm": "Армян Элькун", "official_name:vec": "Republica de Armenia", "official_name:vep": "Armenijan Tazovaldkund", "official_name:vls": "Republiek Armenië", "official_name:wuu": "亚美尼亚共和国", "official_name:yue": "亞美尼亞共和國", "official_name:zea": "Republiek Armenië", "official_name:nds-nl": "Reppubliek Armenië", "official_name:fiu-vro": "Armeeniä Vabariik", "official_name:roa-rup": "Republia Ermenia", "official_name:be-tarask": "Рэспу́бліка Армэ́нія"}}, "center_lat": 40.29, "center_lon": 44.94, "timezone": "Asia/Yerevan", "population": 2930450, "wikidata_id": "Q399", "wikipedia_id": "hy:Հայաստան"}, "geometry": {"type": "MultiPolygon", "coordinates": [[[[44.764, 39.714], [44.773, 39.718], [44.853, 39.736], [44.878, 39.738], [44.886, 39.748], [44.904, 39.739], [44.907, 39.728], [44.942, 39.726], [44.965, 39.734], [44.981, 39.744], [45.007, 39.75], [45.011, 39.763], [45.037, 39.772], [45.048, 39.79], [45.061, 39.794], [45.101, 39.775], [45.121, 39.76], [45.135, 39.743], [45.133, 39.735], [45.147, 39.712], [45.169, 39.696], [45.187, 39.677], [45.173, 39.664], [45.175, 39.652], [45.186, 39.649], [45.174, 39.627], [45.179, 39.604], [45.172, 39.593], [45.186, 39.587], [45.213, 39.582], [45.224, 39.587], [45.226, 39.603], [45.243, 39.612], [45.289, 39.614], [45.306, 39.612], [45.3, 39.581], [45.311, 39.563], [45.329, 39.559], [45.347, 39.54], [45.384, 39.54], [45.411, 39.528], [45.435, 39.524], [45.446, 39.502], [45.465, 39.505], [45.473, 39.49], [45.492, 39.511], [45.512, 39.518], [45.528, 39.528], [45.535, 39.543], [45.547, 39.547], [45.559, 39.543], [45.573, 39.563], [45.591, 39.57], [45.613, 39.562], [45.623, 39.563], [45.656, 39.582], [45.673, 39.585], [45.694, 39.604], [45.729, 39.601], [45.735, 39.592], [45.75, 39.594], [45.756, 39.587], [45.777, 39.586], [45.785, 39.57], [45.799, 39.571], [45.806, 39.552], [45.82, 39.527], [45.819, 39.515], [45.826, 39.505], [45.814, 39.484], [45.838, 39.468], [45.84, 39.458], [45.829, 39.453], [45.816, 39.43], [45.805, 39.429], [45.795, 39.386], [45.789, 39.381], [45.793, 39.369], [45.81, 39.361], [45.861, 39.357], [45.884, 39.344], [45.897, 39.332], [45.911, 39.33], [45.939, 39.316], [45.939, 39.311], [45.971, 39.296], [45.998, 39.292], [46.004, 39.28], [46.005, 39.257], [45.987, 39.245], [45.991, 39.223], [45.989, 39.201], [45.999, 39.187], [46.007, 39.162], [46.004, 39.149], [46.019, 39.143], [46.026, 39.126], [46.017, 39.115], [46.031, 39.093], [46.049, 39.083], [46.069, 39.08], [46.077, 39.047], [46.077, 39.03], [46.101, 39.016], [46.103, 38.985], [46.111, 38.976], [46.11, 38.954], [46.121, 38.948], [46.127, 38.936], [46.13, 38.914], [46.145, 38.901], [46.15, 38.889], [46.144, 38.874], [46.147, 38.852], [46.141, 38.845], [46.173, 38.84], [46.187, 38.843], [46.192, 38.851], [46.215, 38.856], [46.216, 38.864], [46.248, 38.874], [46.282, 38.9], [46.298, 38.9], [46.306, 38.906], [46.317, 38.902], [46.337, 38.915], [46.363, 38.916], [46.369, 38.91], [46.394, 38.904], [46.42, 38.883], [46.431, 38.894], [46.453, 38.899], [46.465, 38.889], [46.483, 38.885], [46.498, 38.89], [46.526, 38.886], [46.524, 38.878], [46.534, 38.867], [46.532, 38.892], [46.537, 38.905], [46.53, 38.923], [46.512, 38.936], [46.507, 38.948], [46.509, 38.962], [46.524, 38.971], [46.519, 38.995], [46.535, 38.996], [46.546, 39.003], [46.537, 39.025], [46.536, 39.037], [46.554, 39.056], [46.541, 39.063], [46.518, 39.062], [46.53, 39.071], [46.537, 39.084], [46.531, 39.095], [46.503, 39.105], [46.505, 39.124], [46.484, 39.134], [46.497, 39.141], [46.495, 39.151], [46.47, 39.147], [46.457, 39.152], [46.46, 39.159], [46.44, 39.154], [46.44, 39.171], [46.432, 39.19], [46.446, 39.199], [46.462, 39.199], [46.5, 39.182], [46.505, 39.193], [46.528, 39.192], [46.537, 39.159], [46.544, 39.176], [46.567, 39.188], [46.573, 39.202], [46.587, 39.203], [46.572, 39.209], [46.576, 39.217], [46.621, 39.223], [46.633, 39.231], [46.611, 39.235], [46.59, 39.236], [46.57, 39.256], [46.553, 39.255], [46.52, 39.299], [46.537, 39.309], [46.514, 39.328], [46.512, 39.336], [46.496, 39.345], [46.494, 39.336], [46.471, 39.332], [46.448, 39.34], [46.448, 39.349], [46.427, 39.356], [46.406, 39.369], [46.401, 39.383], [46.39, 39.388], [46.397, 39.393], [46.385, 39.402], [46.391, 39.408], [46.386, 39.428], [46.403, 39.434], [46.391, 39.445], [46.392, 39.456], [46.407, 39.454], [46.432, 39.456], [46.449, 39.447], [46.458, 39.449], [46.481, 39.471], [46.485, 39.483], [46.505, 39.483], [46.515, 39.473], [46.531, 39.468], [46.54, 39.473], [46.532, 39.486], [46.52, 39.488], [46.51, 39.508], [46.499, 39.516], [46.51, 39.525], [46.545, 39.537], [46.548, 39.546], [46.574, 39.541], [46.581, 39.53], [46.582, 39.55], [46.566, 39.572], [46.558, 39.57], [46.489, 39.587], [46.455, 39.573], [46.446, 39.579], [46.434, 39.569], [46.413, 39.58], [46.421, 39.597], [46.416, 39.605], [46.413, 39.631], [46.392, 39.619], [46.371, 39.62], [46.377, 39.627], [46.372, 39.636], [46.335, 39.636], [46.321, 39.628], [46.29, 39.619], [46.284, 39.612], [46.25, 39.601], [46.196, 39.602], [46.191, 39.591], [46.178, 39.579], [46.171, 39.615], [46.165, 39.625], [46.172, 39.633], [46.161, 39.639], [46.155, 39.651], [46.131, 39.655], [46.096, 39.688], [46.08, 39.685], [46.077, 39.677], [46.058, 39.691], [46.07, 39.7], [46.054, 39.716], [46.034, 39.724], [46.027, 39.744], [46.006, 39.752], [46.003, 39.762], [45.991, 39.769], [45.982, 39.783], [45.969, 39.792], [45.941, 39.787], [45.906, 39.803], [45.873, 39.813], [45.868, 39.819], [45.826, 39.826], [45.824, 39.84], [45.803, 39.891], [45.792, 39.897], [45.789, 39.906], [45.805, 39.918], [45.799, 39.936], [45.781, 39.947], [45.734, 39.947], [45.721, 39.951], [45.701, 39.968], [45.662, 39.971], [45.657, 39.976], [45.628, 39.972], [45.611, 39.974], [45.612, 39.986], [45.604, 39.988], [45.599, 40.005], [45.621, 40.021], [45.661, 40.022], [45.68, 40.034], [45.698, 40.025], [45.725, 40.025], [45.738, 40.031], [45.781, 40.023], [45.788, 40.029], [45.807, 40.011], [45.814, 40.012], [45.834, 39.99], [45.852, 40.015], [45.872, 40.022], [45.881, 40.021], [45.912, 40.075], [45.904, 40.104], [45.914, 40.104], [45.922, 40.115], [45.961, 40.12], [45.955, 40.135], [45.962, 40.154], [45.971, 40.163], [45.968, 40.177], [45.978, 40.19], [45.978, 40.223], [45.961, 40.233], [45.959, 40.241], [45.937, 40.249], [45.934, 40.257], [45.955, 40.252], [45.96, 40.276], [45.933, 40.288], [45.93, 40.297], [45.895, 40.292], [45.88, 40.297], [45.872, 40.308], [45.786, 40.329], [45.784, 40.335], [45.754, 40.344], [45.736, 40.354], [45.724, 40.353], [45.698, 40.363], [45.697, 40.367], [45.652, 40.367], [45.639, 40.381], [45.637, 40.396], [45.604, 40.414], [45.59, 40.431], [45.559, 40.428], [45.512, 40.455], [45.507, 40.468], [45.48, 40.491], [45.467, 40.49], [45.453, 40.5], [45.452, 40.511], [45.439, 40.52], [45.431, 40.541], [45.45, 40.553], [45.437, 40.563], [45.454, 40.573], [45.459, 40.581], [45.423, 40.602], [45.406, 40.599], [45.388, 40.619], [45.398, 40.63], [45.379, 40.64], [45.363, 40.655], [45.376, 40.672], [45.379, 40.71], [45.392, 40.697], [45.404, 40.702], [45.406, 40.71], [45.396, 40.716], [45.403, 40.732], [45.418, 40.732], [45.43, 40.746], [45.461, 40.749], [45.49, 40.755], [45.505, 40.77], [45.546, 40.775], [45.592, 40.821], [45.599, 40.842], [45.608, 40.851], [45.598, 40.868], [45.602, 40.882], [45.581, 40.891], [45.565, 40.881], [45.556, 40.881], [45.559, 40.895], [45.54, 40.898], [45.502, 40.927], [45.492, 40.922], [45.477, 40.93], [45.473, 40.946], [45.454, 40.969], [45.439, 40.967], [45.422, 40.959], [45.416, 40.979], [45.407, 40.986], [45.419, 41], [45.44, 41.012], [45.424, 41.022], [45.396, 41.023], [45.393, 41.014], [45.369, 41.008], [45.361, 40.996], [45.342, 41], [45.339, 41.005], [45.319, 41], [45.304, 41.011], [45.299, 41.027], [45.288, 41.038], [45.261, 41.023], [45.26, 41.004], [45.251, 41.014], [45.216, 41.027], [45.215, 41.039], [45.187, 41.051], [45.166, 41.05], [45.162, 41.064], [45.164, 41.082], [45.131, 41.095], [45.132, 41.063], [45.113, 41.055], [45.105, 41.06], [45.091, 41.054], [45.066, 41.054], [45.078, 41.089], [45.074, 41.097], [45.09, 41.107], [45.099, 41.12], [45.109, 41.112], [45.12, 41.115], [45.15, 41.114], [45.156, 41.123], [45.178, 41.12], [45.184, 41.13], [45.202, 41.138], [45.205, 41.15], [45.197, 41.166], [45.17, 41.17], [45.132, 41.195], [45.125, 41.209], [45.099, 41.191], [45.051, 41.193], [45.055, 41.203], [45.027, 41.198], [45.031, 41.218], [45.046, 41.215], [45.052, 41.24], [45.063, 41.246], [45.049, 41.25], [45.031, 41.269], [45.029, 41.278], [45.014, 41.296], [45.003, 41.296], [44.993, 41.285], [44.978, 41.281], [44.965, 41.266], [44.962, 41.256], [44.938, 41.255], [44.926, 41.26], [44.913, 41.257], [44.898, 41.274], [44.891, 41.268], [44.871, 41.277], [44.852, 41.274], [44.848, 41.285], [44.831, 41.299], [44.819, 41.301], [44.807, 41.287], [44.809, 41.272], [44.804, 41.262], [44.814, 41.238], [44.833, 41.229], [44.847, 41.23], [44.866, 41.219], [44.892, 41.221], [44.897, 41.214], [44.884, 41.204], [44.848, 41.209], [44.842, 41.216], [44.807, 41.216], [44.795, 41.23], [44.791, 41.22], [44.749, 41.22], [44.727, 41.203], [44.725, 41.225], [44.698, 41.217], [44.68, 41.226], [44.688, 41.24], [44.646, 41.233], [44.616, 41.241], [44.604, 41.232], [44.603, 41.216], [44.595, 41.193], [44.584, 41.197], [44.585, 41.207], [44.558, 41.204], [44.547, 41.197], [44.533, 41.197], [44.546, 41.226], [44.529, 41.223], [44.528, 41.214], [44.514, 41.204], [44.511, 41.195], [44.476, 41.182], [44.463, 41.181], [44.456, 41.19], [44.436, 41.193], [44.411, 41.202], [44.387, 41.221], [44.354, 41.231], [44.345, 41.226], [44.345, 41.202], [44.324, 41.205], [44.317, 41.213], [44.295, 41.214], [44.286, 41.209], [44.271, 41.213], [44.249, 41.233], [44.237, 41.239], [44.216, 41.233], [44.2, 41.237], [44.18, 41.247], [44.183, 41.233], [44.174, 41.209], [44.162, 41.189], [44.125, 41.186], [44.091, 41.189], [44.088, 41.202], [44.053, 41.19], [44.013, 41.186], [43.98, 41.174], [43.964, 41.165], [43.939, 41.176], [43.88, 41.164], [43.841, 41.161], [43.778, 41.131], [43.751, 41.109], [43.685, 41.134], [43.668, 41.136], [43.633, 41.129], [43.597, 41.129], [43.593, 41.138], [43.568, 41.145], [43.539, 41.139], [43.53, 41.134], [43.508, 41.134], [43.501, 41.128], [43.474, 41.123], [43.459, 41.12], [43.447, 41.099], [43.46, 41.073], [43.472, 41.068], [43.468, 41.031], [43.484, 41.016], [43.507, 41.012], [43.517, 41.015], [43.545, 40.999], [43.563, 40.993], [43.578, 40.993], [43.598, 40.983], [43.672, 40.937], [43.676, 40.93], [43.67, 40.913], [43.681, 40.903], [43.674, 40.885], [43.681, 40.866], [43.678, 40.845], [43.707, 40.821], [43.723, 40.792], [43.726, 40.776], [43.748, 40.731], [43.735, 40.713], [43.747, 40.703], [43.743, 40.693], [43.747, 40.676], [43.739, 40.665], [43.726, 40.665], [43.716, 40.638], [43.686, 40.593], [43.666, 40.574], [43.667, 40.568], [43.644, 40.562], [43.645, 40.545], [43.651, 40.538], [43.627, 40.537], [43.639, 40.523], [43.624, 40.52], [43.619, 40.525], [43.611, 40.514], [43.571, 40.504], [43.569, 40.495], [43.558, 40.495], [43.558, 40.482], [43.547, 40.476], [43.547, 40.468], [43.56, 40.459], [43.572, 40.459], [43.597, 40.44], [43.605, 40.438], [43.62, 40.422], [43.613, 40.415], [43.62, 40.398], [43.618, 40.39], [43.599, 40.372], [43.591, 40.346], [43.614, 40.314], [43.635, 40.294], [43.632, 40.284], [43.641, 40.272], [43.67, 40.267], [43.682, 40.251], [43.677, 40.249], [43.683, 40.226], [43.658, 40.228], [43.653, 40.225], [43.673, 40.206], [43.696, 40.191], [43.701, 40.178], [43.712, 40.173], [43.716, 40.162], [43.684, 40.16], [43.662, 40.154], [43.651, 40.146], [43.649, 40.132], [43.656, 40.113], [43.676, 40.107], [43.678, 40.096], [43.696, 40.096], [43.7, 40.089], [43.728, 40.078], [43.743, 40.083], [43.752, 40.079], [43.761, 40.084], [43.787, 40.069], [43.823, 40.06], [43.825, 40.048], [43.86, 40.042], [43.863, 40.037], [43.897, 40.021], [43.928, 40.025], [43.957, 40.016], [43.977, 40.022], [43.994, 40.032], [44.009, 40.024], [44.023, 40.029], [44.056, 40.027], [44.086, 40.034], [44.106, 40.03], [44.117, 40.035], [44.135, 40.028], [44.139, 40.033], [44.166, 40.032], [44.17, 40.027], [44.188, 40.031], [44.189, 40.039], [44.205, 40.039], [44.214, 40.034], [44.22, 40.042], [44.248, 40.049], [44.274, 40.049], [44.295, 40.043], [44.296, 40.037], [44.314, 40.039], [44.327, 40.031], [44.351, 40.027], [44.38, 40.003], [44.392, 40.005], [44.42, 40], [44.428, 39.99], [44.447, 39.982], [44.456, 39.97], [44.466, 39.973], [44.481, 39.967], [44.501, 39.945], [44.502, 39.937], [44.516, 39.93], [44.52, 39.921], [44.536, 39.921], [44.554, 39.901], [44.55, 39.887], [44.565, 39.87], [44.592, 39.859], [44.596, 39.843], [44.588, 39.833], [44.603, 39.822], [44.614, 39.829], [44.616, 39.813], [44.629, 39.813], [44.661, 39.791], [44.679, 39.788], [44.682, 39.796], [44.696, 39.788], [44.686, 39.782], [44.69, 39.77], [44.711, 39.77], [44.723, 39.742], [44.744, 39.744], [44.748, 39.716], [44.764, 39.714]]]]}}