{"type": "Feature", "properties": {"name": "Bosnia and Herzegovina", "iso1": "BA", "admin_level": 2, "osm_id": 2528142, "countrylevel_id": "iso1:BA", "osm_data": {"localname": "Bosna i Hercegovina / Босна и Херцеговина", "official_name": "Bosna i Hercegovina", "alltags": {"flag": "http://upload.wikimedia.org/wikipedia/commons/b/bf/Flag_of_Bosnia_and_Herzegovina.svg", "name:af": "Bosnië en Herzegowina", "name:ak": "Bosnia and Herzegovina", "name:am": "ቦስኒያና ሄርጸጎቪና", "name:an": "Bosnia y Herzegovina", "name:ar": "البوسنة والهرسك", "name:av": "Бо́сния ва Герцегови́на", "name:az": "Bosniya və Herseqovina", "name:ba": "Босния һәм Герцеговина", "name:be": "Бо́снія і Герцагаві́на", "name:bg": "Босна и Херцеговина", "name:bh": "बोस्निया आ हर्जेगोविना", "name:bi": "Bosnia mo Herzegovina", "name:bm": "Bozni-Ɛrizigovini", "name:bn": "বসনিয়া ও হার্জেগোভিনা", "name:bo": "བྷོསུ་ནིཡ་དང་ཧར་ཛེ་གྷོ་ཝི་ན།", "name:br": "Bosnia-ha-Herzegovina", "name:bs": "Bosna i Hercegovina", "name:ca": "Bòsnia i Hercegovina", "name:ce": "Босни а Герцеговина а", "name:co": "Bosnia è Erzegovina", "name:cs": "Bosna a Hercegovina", "name:cu": "Босна́", "name:cv": "Босни тата Герцеговина", "name:cy": "Bosnia a Hercegovina", "name:da": "Bosnien og Hercegovina", "name:dv": "ބޮސްނިޔާ އެންޑް ހެރްޒިގޮވީނާ", "name:ee": "Bosnia and Herzegovina", "name:el": "Βοσνία και Ερζεγοβίνη", "name:en": "Bosnia and Herzegovina", "name:eo": "Bosnujo kaj Hercegovino", "name:es": "Bosnia y Herzegovina", "name:et": "Bosnia ja Hertsegoviina", "name:eu": "Bosnia eta Herzegovinako", "name:fa": "بوسنی و هرزگوین", "name:ff": "Bosniya e Herzegovina", "name:fi": "Bosnia ja Hertsegovina", "name:fo": "Bosnia og Hersegovina", "name:fr": "Bosnie-et-Herzégovine", "name:fy": "Bosnje-Hertsegovina", "name:ga": "an Bhoisnia-Heirseagaivéin", "name:gd": "Bosna agus Hearsagobhana", "name:gl": "Bosnia e Hercegovina", "name:gn": "Vonia ha Hesegovina", "name:gu": "બોસ્નિયા અને હર્ઝેગોવિના", "name:gv": "Bosnia as Herzegovina", "name:ha": "Bosnia da Herzegovina", "name:he": "בּוֹסְנִיָּה וְהֶרְצֶגוֹבִינָה", "name:hi": "बॉस्निया और हर्ज़ेगोविना", "name:hr": "Bosna i Hercegovina", "name:ht": "Bosni ak Erzegovin", "name:hu": "Bosznia-Hercegovina", "name:hy": "Բոսնիա և Հերցեգովինա", "name:ia": "Bosnia e Herzegovina", "name:id": "Bosnia dan Herzegovina", "name:ie": "Bosnia e Herzegovina", "name:ig": "Bosnia na Herzegovina", "name:io": "Bosnia e Herzegovina", "name:is": "Bosnía og Hersegóvína", "name:it": "Bosnia ed Erzegovina", "name:ja": "ボスニア・ヘルツェゴビナ", "name:jv": "Bosnia lan Hércegovina", "name:ka": "ბოსნია და ჰერცეგოვინა", "name:kg": "Bosna", "name:ki": "Mbocinia na Hecengobina", "name:kk": "Босния және Герцеговина", "name:kl": "Bosnia-Hercegovina", "name:km": "បូស្ន៉ី", "name:kn": "ಬೊಸ್ನಿಯ ಮತ್ತು ಹೆರ್ಜೆಗೊವಿನ", "name:ko": "보스니아 헤르체고비나", "name:ku": "Bosniya û Herzegovîna", "name:kv": "Босния да Герцеговина", "name:kw": "Bosni–Hercegovina", "name:ky": "Босния жана Герцеговина", "name:la": "Bosnia et Herzegovina", "name:lb": "Bosnien an Herzegowina", "name:li": "Bosnië en Herzegovina", "name:ln": "Bosnia na Erzegovina", "name:lo": "ປະເທດບົດສະນີແຮກເຊໂກວີນ", "name:lt": "Bosnija ir Hercegovina", "name:lv": "Bosnija un Hercegovina", "name:mg": "Bosnia sy Herzegovina", "name:mi": "Pōngia-Herekōmina", "name:mk": "Босна и Херцеговина", "name:ml": "ബോസ്നിയ ആന്റ് ഹെർസെഗോവിന", "name:mn": "Босни ба Херцеговина", "name:mr": "बॉस्निया आणि हर्झगोव्हिना", "name:ms": "Bosnia dan Herzegovina", "name:mt": "Bożnija u Ħerżegovina", "name:my": "ဘော့စနီးယားနှင့် ဟာဇီဂိုးဗီးနားနိုင်ငံ", "name:na": "Boteniya me Erdegobina", "name:ne": "बोस्निया र हर्जगोभिना", "name:nl": "Bosnië en Herzegovina", "name:nn": "Bosnia-Hercegovina", "name:no": "Bosnia-Hercegovina", "name:nv": "Bosna dóó Hetsog Bikéyah", "name:oc": "Bòsnia e Ercegovina", "name:om": "Boosniyaa fi Herzegoviinaa", "name:or": "ବୋସନିଆ ଓ ହରଜଗୋଭିନା", "name:os": "Босни æмæ Герцеговинæ", "name:pa": "ਬੋਸਨੀਆ ਅਤੇ ਹਰਜ਼ੇਗੋਵੀਨਾ", "name:pi": "बास्निया", "name:pl": "Bośnia i Hercegowina", "name:ps": "بوسنيا او هېرزګوينا", "name:pt": "Bósnia e Herzegovina", "name:qu": "Busna-Hirsiquwina", "name:rm": "Bosnia-Erzegovina", "name:rn": "Bosiniya na Herigozevine", "name:ro": "Bosnia și Herțegovina", "name:ru": "Босния и Герцеговина", "name:rw": "Bosiniya na Herizegovina", "name:sa": "बास्निया", "name:sc": "Bòsnia e Erzegòvina", "name:se": "Bosnia ja Hercegovina", "name:sg": "Bosnïi na Herzegovînni", "name:sh": "Bosna i Hercegovina", "name:si": "බොස්නියා සහ හර්සගෝවිනා", "name:sk": "Bosna a Hercegovina", "name:sl": "Bosna in Hercegovina", "name:sm": "Bosnia ma Herzegovina", "name:sn": "Bosnia and Herzegovina", "name:so": "Bosniya iyo Herzegovina", "name:sq": "Bosnja dhe Hercegovina", "name:sr": "Босна и Херцеговина", "name:ss": "iBhosinya ne Hezegovi", "name:su": "Bosnia jeung Hérzégovina", "name:sv": "Bosnien och Hercegovina", "name:sw": "Bosnia na Herzegovina", "name:ta": "பொசுனியாவும் எர்செகோவினாவும்", "name:te": "బోస్నియా మరియు హెర్జెగొవీనా", "name:tg": "Босния ва Ҳерсеговина", "name:th": "บอสเนียและเฮอร์เซโกวีนา", "name:ti": "ቦስኒያ እና ሄርዞጎቪኒያ", "name:tk": "Bosniýa we Gersegowina", "name:tl": "Bosnia at Herzegovina", "name:to": "Posinia mo Hesikōvinia", "name:tr": "Bosna-Hersek", "name:ts": "Bosnia and Herzegovina", "name:tt": "Бо́сния һәм Герцегови́на", "name:ty": "Pōtinia-Heretōvina", "name:ug": "بوسنىيە ۋە ھېرسېگوۋىنا", "name:uk": "Бо́снія і Герцеґови́на", "name:ur": "بوسنیا و ہرزیگووینا", "name:uz": "Bosniya va Gersegovina", "name:vi": "Bosnia và Herzegovina", "name:vo": "Bosnän e Härzegovän", "name:wa": "Bosneye", "name:wo": "Bosni Hersegowin", "name:yi": "באסניע און הערצעגאווינע", "name:yo": "Bósníà àti Hẹrjẹgòfínà", "name:zh": "波斯尼亞和黑塞哥維那", "name:zu": "IBhosniya neHerzegovina", "int_name": "Bosnia and Herzegovina", "name:ace": "Bosnia Hèrzègovina", "name:als": "Bosnien und Herzegowina", "name:ang": "Bosnia and Herzegovina", "name:arc": "ܒܘܣܢܐ ܘܗܪܬܣܓܘܒܝܢܐ", "name:arz": "البوسنة و الهرسك", "name:ast": "Bosnia y Herzegovina", "name:azb": "بوسنییا و هرزقووین", "name:bar": "Bosnien und Herzegowina", "name:bcl": "Bosnya asin Hersegobina", "name:bpy": "বসনিয়া বারো হার্জেগোভিনা", "name:bxr": "Босна ба Һерцеговина", "name:cdo": "Bosnia gâe̤ng Herzegovina", "name:ceb": "Bosnia ug Herzegovina", "name:chr": "ᏉᏏᏂᎠ ᎠᎴ ᎲᏤᎪᏫ", "name:ckb": "بۆسنیا و ھەرزەگۆڤینا", "name:crh": "Bosna ve Hersek", "name:csb": "Bòsnijô ë Hercegòwina", "name:diq": "Bosna u Hersek", "name:dsb": "Bosniska-Hercegowinska", "name:dty": "बोस्निया र हर्जगोभिना", "name:ext": "Bósnia Ercegovina", "name:frp": "Bosnie-et-Hèrzègovena", "name:frr": "Bosnien an Herzegowina", "name:fur": "Bosgne-Ercegovine", "name:gag": "Bosniya hem Herțegovina", "name:gom": "बॉस्निया आणि हर्झगोव्हिना", "name:hak": "Pô-sṳ-nì-â lâu Het-set-kô-vì-ná", "name:haw": "Bosenia me Hesegowina", "name:hif": "Bosnia and Herzegovina", "name:hsb": "Bosniska a Hercegowina", "name:ilo": "Bosnia ken Herzegovina", "name:jam": "Baznia ah Oerzigoviina", "name:jbo": "bosnas ertsegovinas", "name:kaa": "Bosniya ha'm Gertsegovina", "name:kab": "Busnya ed Hirziguvina", "name:kbd": "Бо́сниэрэ Герцегови́нэрэ", "name:koi": "Босния и Герцеговина", "name:krc": "Босния бла Герцеговина", "name:ksh": "Boßnije-Häzzejovina", "name:lad": "Bosnia i Hersegovina", "name:lij": "Bòsnia-Erçegòvina", "name:lmo": "Bòsnia e Erzegòvina", "name:lrc": "بوسنی و ھئرزئگوڤین", "name:ltg": "Bosneja i Hercegovina", "name:lzh": "波斯尼亚和黑塞哥维那", "name:mdf": "Босния ди Херцеговина", "name:mhr": "Босний да Герцеговина", "name:myv": "Босния ды Герцеговина Мастор", "name:mzn": "بوسنی و هرزگوین", "name:nah": "Bosnia īhuān Hertzegovina", "name:nan": "Bosnia kap Herzegovina", "name:nap": "Bosnia e l'Erzegovina", "name:nds": "Bosnien-Herzegowina", "name:new": "बोस्निया व हर्जगोविना", "name:nov": "Bosnia e Hertsegovina", "name:olo": "Bosnii-Hertsegovinu", "name:pag": "Bosnia tan Hersegobina", "name:pam": "Bosnia at Herzegovina", "name:pap": "Bosnia Herzogovina", "name:pcd": "Bosnie-et-Érzégovine", "name:pih": "Bosnya a' Hersegowinya", "name:pms": "Bòsnia e Erzegòvina", "name:pnb": "بوسنیا تے ہرزیگووینا", "name:pnt": "Βοσνία και Ερζεγοβίνη", "name:rue": "Боснія і Герцеґовина", "name:sah": "Босния уонна Херцеговина", "name:scn": "Bosnia-Erzegovina", "name:sco": "Bosnie an Herzegovinae", "name:srn": "Bosnikondre", "name:stq": "Bosnien un Herzegowina", "name:szl": "Bośńa a Hercegowina", "name:tet": "Bóznia no Erzegovina", "name:tpi": "Bosnia na Hesegovina", "name:tum": "Bosnia na Herzegovina", "name:udm": "Босния но Герцеговина", "name:vec": "Bosnia e Erzegòvina", "name:vep": "Bosnii da Gercegovin", "name:vls": "Bosnië-Herzegovina", "name:war": "Bosnya ngan Hersegovina", "name:wuu": "波斯尼亚和黑塞哥维那", "name:xal": "Босмудин болн Херцегудин Орн", "name:xmf": "ბოსნია დო ჰერცეგოვინა", "name:yue": "波斯尼亞黑塞哥維那", "name:zea": "Bosnië-Hercegovina", "name:zh-CN": "波斯尼亚和黑塞哥维纳", "name:zh-HK": "波斯尼亞和黑塞哥維那", "name:zh-TW": "波士尼亞與赫塞哥維納", "short_name": "BiH / БиХ", "alt_name:af": "Bosnië-Herzegowina", "alt_name:ar": "البوسنة", "alt_name:ba": "Боснія-Герцагавіна", "alt_name:bs": "Bosna", "alt_name:cv": "Боснипе Герцеговина", "alt_name:cy": "Bosnia-Hertsegofina", "alt_name:da": "Bosnien-Hercegovina", "alt_name:de": "Bosnien und Herzegowina", "alt_name:el": "Βοσνίας - Ερζεγοβίνης", "alt_name:eo": "Bosnio kaj Hercegovino", "alt_name:es": "Bosnia-Herzegovina", "alt_name:eu": "Bosnia-Herzegovina", "alt_name:ff": "Bosniya", "alt_name:fi": "Bosnia-Hertsegovina", "alt_name:fr": "Bosnie-Herzégovine", "alt_name:fy": "Bosnje", "alt_name:gd": "Bosnia-Herzegovina", "alt_name:gu": "બોસ્નિયા-હર્ઝેગોવિના", "alt_name:ha": "Bosnia-Herzegovina", "alt_name:is": "Bosnía-Hersegóvína", "alt_name:it": "Bosnia-Erzegovina", "alt_name:jv": "Bosnia-Herzegovina", "alt_name:ka": "ბოსნია-ჰერცეგოვინა", "alt_name:ku": "Bosnî û Hersegovîn;Bosna û Herzegovîna", "alt_name:lb": "Bosnien-Herzegowina", "alt_name:lt": "Bosnija ir Hercogovina", "alt_name:ml": "ബോസ്നിയ ഹെർസെഗോവിന", "alt_name:pl": "Bośnia", "alt_name:ro": "Bosnia-Herțegovina", "alt_name:rw": "Bosini Herzegovina", "alt_name:sc": "Bòsnia-Erzegòvina", "alt_name:sv": "Bosnien-Hercegovina", "alt_name:vi": "Bosna và Hercegovina", "name:nds-nl": "Bosnië-Herzegovina", "alt_name:als": "Bosnie-Herzegowina", "alt_name:frp": "Bosnie-Hèrzègovena", "alt_name:hif": "Bosnia-Herzegovina", "alt_name:ilo": "Bosnia-Herzegovina", "alt_name:koi": "Босна-Герцеговина", "alt_name:lzh": "波士尼亞赫塞哥維納", "alt_name:nap": "Bosnia-Erzegovina", "alt_name:pag": "Bosnia ken Herzegovina", "alt_name:pcd": "Bosnie-Érzégovine", "alt_name:vec": "Bosnia-Erzegovina", "name:bat-smg": "Bosnėjė ėr Hercuogovėna", "name:cbk-zam": "Bosnia y Hercegovina", "name:fiu-vro": "Bosnia ja Hertsegoviina", "name:ku-Arab": "بۆسنیائوو حەرزەگۆڤینا", "name:map-bms": "Bosnia dan Herzegovina", "name:roa-rup": "Bosna shi Hertsegovina", "name:sr-Latn": "Bosna i Hercegovina", "name:roa-tara": "Bosnie ed Erzegovine", "official_name": "Bosna i Hercegovina", "short_name:av": "БвГ", "short_name:be": "БіГ", "short_name:bs": "BiH", "short_name:cs": "BaH", "short_name:cv": "БиГ", "short_name:de": "Bosnien", "short_name:en": "B&H", "short_name:es": "Bosnia", "short_name:gu": "બોસ્નિયા", "short_name:ha": "Bosnia", "short_name:hr": "BiH", "short_name:it": "Bosnia", "short_name:jv": "Bosnia", "short_name:mk": "БИХ", "short_name:mt": "Bożnija", "short_name:oc": "Bòsnia", "short_name:pl": "BiH", "short_name:pt": "Bósnia", "short_name:ru": "БиГ", "short_name:sc": "Bòsnia", "short_name:sh": "BiH", "short_name:so": "Bosniya", "short_name:sq": "BH", "short_name:sr": "БиХ", "short_name:wo": "Bosni", "short_name:zh": "波黑", "name:be-tarask": "Бо́сьнія і Герцагаві́на", "name:zh_pinyin": "Bōsīníyà hé Hēisāigēwéinà", "short_name:ilo": "Bosnia", "short_name:nap": "Bosnia", "short_name:rue": "БіГ", "short_name:wuu": "波黑", "short_name:yue": "波斯尼亞", "alt_name:map-bms": "Bosnia-Herzegovina", "default_language": "bs", "official_name:ar": "البوسنة والهرسك", "alt_name:roa-tara": "Bosnie-Erzegovine", "short_name:nds-nl": "Bosnië", "short_name:be-tarask": "БіГ"}}, "center_lat": 44.17, "center_lon": 17.79, "timezone": "Europe/Sarajevo", "population": 3507017, "wikidata_id": "Q225", "wikipedia_id": "bs:Bosna i Hercegovina"}, "geometry": {"type": "MultiPolygon", "coordinates": [[[[19.395, 43.554], [19.408, 43.555], [19.424, 43.568], [19.429, 43.553], [19.421, 43.542], [19.395, 43.554]]], [[[17.622, 42.902], [17.622, 42.902], [17.622, 42.902], [17.622, 42.902]]], [[[18.466, 42.813], [18.471, 42.802], [18.466, 42.791], [18.477, 42.775], [18.473, 42.757], [18.481, 42.753], [18.473, 42.757], [18.477, 42.772], [18.465, 42.791], [18.466, 42.813]]], [[[18.441, 42.812], [18.441, 42.812], [18.441, 42.812], [18.441, 42.812]]], [[[18.462, 42.82], [18.463, 42.817], [18.462, 42.82], [18.462, 42.82]]], [[[17.581, 42.938], [17.613, 42.941], [17.666, 42.961], [17.677, 42.968], [17.71, 42.973], [17.682, 43.02], [17.662, 43.05], [17.645, 43.083], [17.639, 43.089], [17.583, 43.118], [17.554, 43.131], [17.516, 43.144], [17.473, 43.164], [17.45, 43.177], [17.43, 43.181], [17.433, 43.204], [17.428, 43.218], [17.398, 43.239], [17.378, 43.249], [17.342, 43.26], [17.334, 43.277], [17.314, 43.304], [17.297, 43.32], [17.265, 43.373], [17.261, 43.393], [17.252, 43.401], [17.276, 43.423], [17.285, 43.44], [17.286, 43.463], [17.269, 43.479], [17.223, 43.499], [17.193, 43.498], [17.177, 43.491], [17.155, 43.493], [17.124, 43.518], [17.087, 43.535], [17.082, 43.543], [17.037, 43.559], [17.008, 43.576], [16.992, 43.59], [16.963, 43.621], [16.934, 43.636], [16.932, 43.648], [16.916, 43.662], [16.894, 43.694], [16.879, 43.695], [16.856, 43.713], [16.826, 43.728], [16.808, 43.758], [16.782, 43.771], [16.749, 43.774], [16.744, 43.787], [16.725, 43.796], [16.724, 43.815], [16.717, 43.851], [16.699, 43.862], [16.667, 43.875], [16.646, 43.888], [16.608, 43.916], [16.592, 43.936], [16.574, 43.948], [16.551, 43.952], [16.542, 43.986], [16.514, 44.007], [16.505, 44.026], [16.468, 44.03], [16.436, 44.03], [16.437, 44.051], [16.442, 44.068], [16.43, 44.083], [16.392, 44.082], [16.382, 44.086], [16.379, 44.111], [16.355, 44.116], [16.321, 44.116], [16.309, 44.127], [16.31, 44.144], [16.292, 44.156], [16.289, 44.164], [16.261, 44.178], [16.244, 44.197], [16.226, 44.21], [16.207, 44.216], [16.171, 44.211], [16.195, 44.217], [16.212, 44.217], [16.219, 44.237], [16.21, 44.25], [16.201, 44.25], [16.191, 44.27], [16.189, 44.309], [16.2, 44.33], [16.218, 44.346], [16.205, 44.361], [16.183, 44.365], [16.155, 44.38], [16.131, 44.378], [16.127, 44.395], [16.14, 44.392], [16.167, 44.404], [16.153, 44.423], [16.146, 44.419], [16.139, 44.441], [16.143, 44.448], [16.131, 44.456], [16.141, 44.48], [16.13, 44.486], [16.123, 44.51], [16.108, 44.526], [16.092, 44.533], [16.068, 44.535], [16.019, 44.563], [16.016, 44.583], [16.025, 44.589], [16.047, 44.588], [16.047, 44.609], [16.055, 44.606], [16.055, 44.626], [16.043, 44.629], [16.032, 44.654], [15.997, 44.66], [15.967, 44.679], [15.964, 44.692], [15.953, 44.699], [15.953, 44.712], [15.932, 44.708], [15.911, 44.734], [15.894, 44.749], [15.883, 44.742], [15.881, 44.729], [15.871, 44.727], [15.853, 44.736], [15.835, 44.714], [15.815, 44.726], [15.81, 44.739], [15.789, 44.746], [15.756, 44.786], [15.741, 44.801], [15.743, 44.809], [15.729, 44.825], [15.762, 44.83], [15.793, 44.847], [15.76, 44.87], [15.761, 44.887], [15.738, 44.936], [15.75, 44.952], [15.749, 44.968], [15.784, 44.973], [15.782, 45.004], [15.773, 45.006], [15.756, 45.036], [15.754, 45.054], [15.744, 45.062], [15.769, 45.075], [15.769, 45.089], [15.779, 45.095], [15.791, 45.115], [15.778, 45.131], [15.776, 45.146], [15.765, 45.166], [15.778, 45.176], [15.785, 45.192], [15.802, 45.198], [15.805, 45.208], [15.826, 45.207], [15.827, 45.219], [15.848, 45.224], [15.857, 45.217], [15.872, 45.221], [15.894, 45.217], [15.892, 45.229], [15.926, 45.224], [15.921, 45.212], [15.945, 45.213], [15.978, 45.231], [16.004, 45.217], [16.015, 45.218], [16.022, 45.202], [16.03, 45.201], [16.016, 45.18], [16.049, 45.179], [16.047, 45.172], [16.086, 45.132], [16.084, 45.111], [16.109, 45.093], [16.139, 45.091], [16.174, 45.07], [16.177, 45.051], [16.185, 45.047], [16.194, 45.031], [16.208, 45.033], [16.229, 45.025], [16.234, 45.015], [16.273, 45.015], [16.274, 45.006], [16.284, 45.008], [16.293, 44.999], [16.355, 45.003], [16.358, 45.011], [16.356, 45.032], [16.383, 45.052], [16.386, 45.08], [16.403, 45.098], [16.394, 45.112], [16.41, 45.121], [16.437, 45.127], [16.46, 45.14], [16.48, 45.166], [16.475, 45.183], [16.484, 45.19], [16.491, 45.208], [16.53, 45.227], [16.547, 45.22], [16.603, 45.23], [16.628, 45.214], [16.669, 45.202], [16.7, 45.197], [16.731, 45.207], [16.755, 45.203], [16.775, 45.193], [16.812, 45.185], [16.827, 45.186], [16.844, 45.194], [16.839, 45.221], [16.855, 45.215], [16.854, 45.205], [16.869, 45.223], [16.866, 45.232], [16.884, 45.24], [16.878, 45.247], [16.912, 45.255], [16.918, 45.271], [16.936, 45.276], [16.94, 45.265], [16.954, 45.254], [16.938, 45.247], [16.939, 45.227], [16.96, 45.232], [16.973, 45.227], [16.973, 45.239], [16.962, 45.243], [16.968, 45.251], [16.984, 45.243], [16.982, 45.23], [16.997, 45.221], [17.006, 45.226], [17.003, 45.236], [17.021, 45.236], [17.008, 45.219], [17.018, 45.213], [17.039, 45.225], [17.044, 45.207], [17.065, 45.198], [17.074, 45.189], [17.113, 45.176], [17.163, 45.152], [17.183, 45.146], [17.207, 45.149], [17.218, 45.146], [17.246, 45.146], [17.256, 45.156], [17.262, 45.173], [17.275, 45.189], [17.289, 45.175], [17.31, 45.177], [17.312, 45.165], [17.327, 45.166], [17.328, 45.157], [17.343, 45.143], [17.363, 45.138], [17.412, 45.134], [17.429, 45.142], [17.437, 45.158], [17.454, 45.155], [17.452, 45.127], [17.474, 45.127], [17.485, 45.137], [17.494, 45.128], [17.48, 45.112], [17.502, 45.115], [17.513, 45.109], [17.539, 45.114], [17.54, 45.126], [17.556, 45.125], [17.555, 45.109], [17.573, 45.116], [17.602, 45.106], [17.623, 45.113], [17.634, 45.123], [17.66, 45.134], [17.677, 45.131], [17.691, 45.118], [17.716, 45.111], [17.76, 45.085], [17.781, 45.084], [17.805, 45.064], [17.84, 45.046], [17.861, 45.044], [17.899, 45.059], [17.938, 45.084], [17.93, 45.099], [17.939, 45.111], [17.958, 45.112], [17.973, 45.121], [17.978, 45.137], [18.002, 45.152], [18.018, 45.15], [18.032, 45.128], [18.04, 45.126], [18.043, 45.138], [18.06, 45.143], [18.072, 45.14], [18.084, 45.122], [18.072, 45.11], [18.096, 45.097], [18.111, 45.083], [18.124, 45.08], [18.149, 45.085], [18.172, 45.077], [18.188, 45.077], [18.207, 45.083], [18.221, 45.097], [18.212, 45.108], [18.209, 45.121], [18.232, 45.134], [18.253, 45.139], [18.275, 45.135], [18.281, 45.115], [18.306, 45.116], [18.317, 45.103], [18.326, 45.101], [18.406, 45.11], [18.425, 45.108], [18.437, 45.1], [18.443, 45.086], [18.474, 45.064], [18.509, 45.057], [18.529, 45.059], [18.537, 45.047], [18.537, 45.063], [18.549, 45.071], [18.549, 45.079], [18.53, 45.089], [18.548, 45.093], [18.57, 45.077], [18.571, 45.068], [18.582, 45.071], [18.58, 45.082], [18.569, 45.089], [18.574, 45.095], [18.597, 45.083], [18.613, 45.08], [18.624, 45.096], [18.636, 45.092], [18.631, 45.081], [18.608, 45.071], [18.619, 45.061], [18.638, 45.062], [18.658, 45.057], [18.661, 45.064], [18.654, 45.078], [18.661, 45.09], [18.675, 45.094], [18.688, 45.08], [18.684, 45.072], [18.668, 45.062], [18.694, 45.04], [18.713, 45.038], [18.722, 45.025], [18.738, 45.016], [18.728, 44.999], [18.744, 44.993], [18.757, 45], [18.794, 44.995], [18.797, 44.99], [18.784, 44.975], [18.792, 44.954], [18.804, 44.939], [18.793, 44.935], [18.762, 44.944], [18.75, 44.941], [18.754, 44.932], [18.772, 44.921], [18.763, 44.912], [18.768, 44.902], [18.794, 44.887], [18.819, 44.878], [18.845, 44.857], [18.856, 44.853], [18.936, 44.85], [18.977, 44.85], [19.019, 44.855], [19.065, 44.861], [19.089, 44.88], [19.12, 44.887], [19.131, 44.9], [19.147, 44.903], [19.175, 44.922], [19.194, 44.92], [19.209, 44.898], [19.22, 44.896], [19.247, 44.912], [19.259, 44.913], [19.278, 44.905], [19.292, 44.909], [19.31, 44.908], [19.352, 44.886], [19.369, 44.881], [19.361, 44.869], [19.366, 44.854], [19.35, 44.858], [19.345, 44.84], [19.355, 44.835], [19.353, 44.826], [19.337, 44.829], [19.332, 44.818], [19.318, 44.822], [19.324, 44.812], [19.312, 44.811], [19.318, 44.798], [19.305, 44.794], [19.294, 44.784], [19.325, 44.783], [19.322, 44.775], [19.306, 44.773], [19.308, 44.764], [19.324, 44.764], [19.318, 44.75], [19.327, 44.742], [19.312, 44.741], [19.302, 44.731], [19.313, 44.723], [19.301, 44.713], [19.309, 44.706], [19.281, 44.678], [19.277, 44.657], [19.258, 44.656], [19.266, 44.648], [19.257, 44.635], [19.236, 44.623], [19.215, 44.619], [19.227, 44.611], [19.22, 44.595], [19.199, 44.575], [19.186, 44.576], [19.182, 44.562], [19.192, 44.555], [19.165, 44.523], [19.143, 44.527], [19.128, 44.52], [19.123, 44.501], [19.14, 44.472], [19.137, 44.455], [19.149, 44.437], [19.147, 44.415], [19.118, 44.403], [19.107, 44.393], [19.103, 44.371], [19.12, 44.365], [19.109, 44.358], [19.115, 44.344], [19.135, 44.34], [19.132, 44.318], [19.159, 44.3], [19.164, 44.285], [19.176, 44.28], [19.198, 44.291], [19.218, 44.286], [19.221, 44.271], [19.231, 44.263], [19.251, 44.263], [19.279, 44.276], [19.3, 44.269], [19.32, 44.273], [19.328, 44.269], [19.33, 44.251], [19.349, 44.232], [19.344, 44.219], [19.36, 44.207], [19.356, 44.201], [19.36, 44.183], [19.407, 44.17], [19.42, 44.144], [19.446, 44.131], [19.462, 44.147], [19.482, 44.146], [19.47, 44.121], [19.491, 44.116], [19.495, 44.102], [19.512, 44.081], [19.542, 44.076], [19.559, 44.069], [19.569, 44.051], [19.583, 44.051], [19.582, 44.067], [19.599, 44.07], [19.604, 44.051], [19.619, 44.054], [19.623, 44.047], [19.614, 44.033], [19.623, 44.02], [19.618, 44.014], [19.6, 44.011], [19.591, 44.004], [19.565, 43.999], [19.568, 43.988], [19.539, 43.974], [19.526, 43.956], [19.487, 43.955], [19.459, 43.959], [19.421, 43.959], [19.403, 43.969], [19.389, 43.96], [19.357, 43.976], [19.358, 43.98], [19.338, 43.982], [19.31, 43.996], [19.266, 44.001], [19.249, 44.014], [19.236, 44.012], [19.239, 43.983], [19.256, 43.961], [19.254, 43.951], [19.294, 43.92], [19.297, 43.91], [19.311, 43.897], [19.32, 43.88], [19.365, 43.837], [19.375, 43.834], [19.372, 43.825], [19.392, 43.808], [19.394, 43.798], [19.421, 43.797], [19.431, 43.777], [19.445, 43.776], [19.465, 43.764], [19.467, 43.754], [19.477, 43.747], [19.481, 43.733], [19.519, 43.715], [19.517, 43.69], [19.532, 43.668], [19.526, 43.649], [19.515, 43.647], [19.511, 43.631], [19.498, 43.639], [19.488, 43.632], [19.499, 43.617], [19.492, 43.596], [19.51, 43.587], [19.497, 43.577], [19.479, 43.572], [19.446, 43.582], [19.422, 43.579], [19.403, 43.57], [19.405, 43.577], [19.388, 43.577], [19.402, 43.588], [19.383, 43.594], [19.369, 43.611], [19.358, 43.606], [19.337, 43.588], [19.304, 43.59], [19.291, 43.6], [19.273, 43.597], [19.263, 43.589], [19.246, 43.593], [19.254, 43.576], [19.246, 43.548], [19.251, 43.529], [19.226, 43.528], [19.2, 43.533], [19.153, 43.537], [19.127, 43.521], [19.103, 43.522], [19.097, 43.513], [19.087, 43.517], [19.066, 43.511], [19.062, 43.505], [19.042, 43.503], [19.044, 43.524], [19.022, 43.545], [19.012, 43.543], [19.005, 43.558], [18.988, 43.555], [18.975, 43.526], [18.953, 43.523], [18.913, 43.502], [18.921, 43.49], [18.936, 43.492], [18.936, 43.503], [18.95, 43.504], [18.962, 43.47], [18.956, 43.452], [18.987, 43.453], [19, 43.439], [19.004, 43.446], [19.018, 43.431], [19.021, 43.409], [19.043, 43.397], [19.04, 43.365], [19.062, 43.352], [19.061, 43.345], [19.075, 43.336], [19.083, 43.319], [19.08, 43.3], [19.036, 43.289], [19.02, 43.26], [19.009, 43.251], [18.985, 43.263], [18.982, 43.281], [18.955, 43.288], [18.949, 43.301], [18.96, 43.318], [18.958, 43.331], [18.947, 43.331], [18.928, 43.35], [18.911, 43.361], [18.898, 43.354], [18.878, 43.356], [18.839, 43.349], [18.853, 43.324], [18.789, 43.304], [18.733, 43.281], [18.688, 43.255], [18.705, 43.236], [18.717, 43.232], [18.687, 43.221], [18.682, 43.211], [18.668, 43.204], [18.648, 43.147], [18.656, 43.102], [18.661, 43.037], [18.623, 43.029], [18.592, 43.033], [18.544, 43.032], [18.519, 43.02], [18.51, 42.999], [18.498, 42.996], [18.487, 42.966], [18.483, 42.928], [18.495, 42.915], [18.509, 42.887], [18.489, 42.88], [18.491, 42.865], [18.469, 42.854], [18.466, 42.839], [18.477, 42.832], [18.458, 42.826], [18.462, 42.82], [18.457, 42.837], [18.44, 42.84], [18.419, 42.865], [18.418, 42.854], [18.425, 42.843], [18.416, 42.842], [18.39, 42.859], [18.392, 42.837], [18.419, 42.824], [18.415, 42.806], [18.434, 42.802], [18.446, 42.804], [18.448, 42.793], [18.456, 42.796], [18.464, 42.782], [18.465, 42.761], [18.481, 42.753], [18.501, 42.743], [18.499, 42.736], [18.514, 42.735], [18.528, 42.724], [18.57, 42.72], [18.552, 42.691], [18.546, 42.692], [18.549, 42.672], [18.569, 42.656], [18.575, 42.643], [18.538, 42.637], [18.52, 42.618], [18.534, 42.603], [18.55, 42.593], [18.555, 42.58], [18.544, 42.574], [18.529, 42.583], [18.5, 42.588], [18.474, 42.568], [18.438, 42.556], [18.429, 42.567], [18.402, 42.585], [18.394, 42.587], [18.364, 42.616], [18.337, 42.619], [18.332, 42.615], [18.292, 42.615], [18.28, 42.617], [18.25, 42.604], [18.228, 42.617], [18.205, 42.64], [18.194, 42.655], [18.162, 42.658], [18.156, 42.655], [18.141, 42.68], [18.111, 42.686], [18.105, 42.692], [18.102, 42.71], [18.087, 42.715], [18.042, 42.749], [18.019, 42.752], [18, 42.761], [17.999, 42.774], [17.964, 42.787], [17.95, 42.799], [17.91, 42.811], [17.887, 42.815], [17.9, 42.833], [17.879, 42.837], [17.857, 42.869], [17.859, 42.885], [17.844, 42.902], [17.809, 42.917], [17.786, 42.892], [17.765, 42.908], [17.725, 42.919], [17.689, 42.923], [17.678, 42.921], [17.649, 42.889], [17.634, 42.902], [17.595, 42.914], [17.555, 42.931], [17.579, 42.929], [17.602, 42.917], [17.625, 42.913], [17.607, 42.929], [17.581, 42.938]]]]}}