{"type": "Feature", "properties": {"name": "Algeria", "iso1": "DZ", "admin_level": 2, "osm_id": 192756, "countrylevel_id": "iso1:DZ", "osm_data": {"localname": "الجزائر", "official_name": "الجمهورية الجزائرية الديمقراطية الشعبية", "alltags": {"flag": "http://upload.wikimedia.org/wikipedia/commons/7/77/Flag_of_Algeria.svg", "name:af": "Algerië", "name:ak": "Algeria", "name:am": "አልጄሪያ", "name:an": "Alcheria", "name:ar": "الجزائر", "name:as": "আলজেৰিয়া", "name:ay": "Alhirya", "name:az": "Əlcəzair", "name:ba": "Алжи́р", "name:be": "Алжы́р", "name:bg": "Алжѝр", "name:bh": "अल्जीरिया", "name:bm": "Algeri", "name:bn": "আলজেরিয়া", "name:bo": "ཨཱལ་ཇི་རི་ཡ།", "name:br": "Aljeria", "name:bs": "Alžir", "name:ca": "Algèria", "name:ce": "Алжи́р", "name:cs": "Alžírsko", "name:cv": "Алжир", "name:cy": "Algeria", "name:da": "Algeriet", "name:dv": "ޖަޒާއިރު", "name:dz": "ཨཱལ་ཇི་རི་ཡ", "name:ee": "Ɔldzeria", "name:el": "Αλγερία", "name:en": "Algeria", "name:eo": "Alĝerio", "name:es": "Argelia", "name:et": "Alžeeria", "name:eu": "Aljeria", "name:fa": "الجزایر", "name:ff": "Aljeri", "name:fi": "Algeria", "name:fo": "Algeria", "name:fr": "Algérie", "name:fy": "Algerije", "name:ga": "An Ailgéir", "name:gd": "Aildiria", "name:gl": "Alxeria", "name:gn": "Ayhelia", "name:gu": "અલ્જીરિયા", "name:gv": "Yn Algear", "name:ha": "Aljeriya", "name:he": "אלג'יריה", "name:hi": "अल्जीरिया", "name:hr": "Alžir", "name:ht": "Aljeri", "name:hu": "Algéria", "name:hy": "Ալժիր", "name:ia": "Algeria", "name:id": "Aljazair", "name:ie": "Algeria", "name:ig": "Algeria", "name:io": "Aljeria", "name:is": "Alsír", "name:it": "Algeria", "name:ja": "アルジェリア", "name:jv": "Aljazair", "name:ka": "ალჟირი", "name:kg": "Algeria", "name:ki": "Algeria", "name:kk": "Алжир", "name:kl": "Algeriet", "name:km": "ប្រទេសអាល់ហ្សេរី", "name:kn": "ಅಲ್ಜೀರಿಯ", "name:ko": "알제리", "name:ks": "اٮ۪لجیرِیا", "name:ku": "Cezayir", "name:kw": "Aljeri", "name:ky": "Алжир", "name:la": "Algerium", "name:lb": "Algerien", "name:lg": "Algeria", "name:li": "Algerieë", "name:ln": "Aljeria", "name:lo": "ແອລຈິເລຍ", "name:lt": "Alžyras", "name:lv": "Alžīrija", "name:mg": "Aljeria", "name:mi": "Aratiria", "name:mk": "Алжир", "name:ml": "അൾജീറിയ", "name:mn": "Алжир", "name:mr": "अल्जीरिया", "name:ms": "Algeria", "name:mt": "Alġerija", "name:my": "အယ်လ်ဂျီးရီးယားနိုင်ငံ", "name:na": "Ardjiriya", "name:ne": "अल्जेरिया", "name:nl": "Algerije", "name:nn": "Algerie", "name:no": "Algerie", "name:nv": "Aljííya", "name:ny": "Algeria", "name:oc": "Argeria", "name:om": "Aljeeriyaa", "name:or": "ଆଲଜେରିଆ", "name:os": "Алжир", "name:pa": "ਅਲਜੀਰੀਆ", "name:pi": "अल्जीरिया", "name:pl": "Algieria", "name:ps": "الجزاير", "name:pt": "Argélia", "name:qu": "Alhirya", "name:rm": "Algeria", "name:rn": "Alijeriya", "name:ro": "Algeria", "name:ru": "Алжир", "name:rw": "Aligeriya", "name:sa": "अल्जीरिया", "name:sc": "Algerìa", "name:sd": "الجزائر", "name:se": "Algeria", "name:sg": "Alazëri", "name:sh": "Alžir", "name:si": "ඇල්ජීරියාව", "name:sk": "Alžírsko", "name:sl": "Alžirija", "name:sm": "Algeria", "name:sn": "Algeria", "name:so": "Aljeeriya", "name:sq": "Algjeria", "name:sr": "Алжир", "name:ss": "i-Alijeriya", "name:st": "Algeria", "name:su": "Aljazair", "name:sv": "Algeriet", "name:sw": "Algeria", "name:ta": "அல்சீரியா", "name:te": "అల్జీరియా", "name:tg": "Алҷазоир", "name:th": "ประเทศแอลจีเรีย", "name:ti": "አልጀሪያ", "name:tk": "Alžir", "name:tl": "Arhelya", "name:to": "ʻAisilia", "name:tr": "Cezayir", "name:ts": "Algeriya", "name:tt": "Әлҗәзаи́р", "name:tw": "Algeria", "name:ug": "ئالجىرىيە", "name:uk": "Алжир", "name:ur": "الجزائر", "name:uz": "Jazoir", "name:vi": "Algérie", "name:vo": "Laljerän", "name:wa": "Aldjereye", "name:wo": "Alseeri", "name:xh": "I-Algeria", "name:yi": "אַלזשיר", "name:yo": "Àlgéríà", "name:za": "Algeria", "name:zh": "阿尔及利亚", "name:zu": "iAljiriya", "currency": "DZD", "int_name": "Algeria", "name:ace": "Aljazair", "name:ady": "Алжир", "name:als": "Algerie", "name:ang": "Algeria", "name:arc": "ܓܙܐܐܪ", "name:arz": "الجزاير", "name:ast": "Arxelia", "name:azb": "اَلجَزاییر", "name:bar": "Algerien", "name:bcl": "Algerya", "name:ber": "ⵍⵣⵣⴰⵢⴻⵔ", "name:bjn": "Aljajair", "name:bpy": "আলজেরিয়া", "name:bug": "Aljazair", "name:bxr": "Алжир", "name:cdo": "Algeria", "name:ceb": "Arhelya", "name:chr": "ᎠᎵᏥᎵᏯ", "name:ckb": "جەزائیر", "name:crh": "Cezair", "name:diq": "Cezayir", "name:dsb": "Algeriska", "name:dty": "अल्जेरिया", "name:ext": "Argélia", "name:frp": "Alg·èrie", "name:frr": "Algeerien", "name:fur": "Alzerie", "name:gag": "Aljir", "name:gom": "आल्जेरिया", "name:hak": "Algeria", "name:haw": "ʻAlekelia", "name:hif": "Algeria", "name:hsb": "Algeriska", "name:ilo": "Arhelia", "name:jam": "Aljiiria", "name:jbo": "gugdeduzu", "name:kaa": "Aljir", "name:kab": "Dzayer", "name:kbd": "Алджазаир", "name:krc": "Алжи́р", "name:ksh": "Alljeerije", "name:lad": "Arjelia", "name:lez": "Алжир", "name:lij": "Algerîa", "name:lmo": "Algeria", "name:lzh": "阿爾及利亞", "name:mdf": "Алжир", "name:mhr": "Алжи́р", "name:min": "Aljazair", "name:mrj": "Алжир", "name:mzn": "الجزایر", "name:nah": "Argelia", "name:nan": "Algeria", "name:nds": "Algerien", "name:new": "अल्जेरिया", "name:nov": "Algeria", "name:nso": "Algeria", "name:olo": "Alžir", "name:pam": "Algeria", "name:pap": "Algeria", "name:pdc": "Altschieri", "name:pih": "Algeria", "name:pms": "Algerìa", "name:pnb": "الجزائر", "name:rue": "Алжір", "name:sah": "Алжир", "name:scn": "Algirìa", "name:sco": "Algerie", "name:stq": "Algerien", "name:szl": "Algeryjŏ", "name:tok": "ma Sasali", "name:tzl": "Eschaieir", "name:udm": "Алжир", "name:vec": "Algeria", "name:vep": "Alžir", "name:vls": "Algereye", "name:war": "Alherya", "name:wuu": "阿尔及利亚", "name:xal": "Алҗирмудин Улс Орн", "name:xmf": "ალჟირი", "name:yue": "阿爾及利亞", "name:zea": "Alherije", "name:zgh": "ⴷⵥⴰⵢⴻⵔ", "alt_name:qu": "Arhilya", "alt_name:sc": "Jasìria", "alt_name:so": "Jasaa'ir", "border_type": "nation", "reg_name:ar": "الدزاير;الجازاير;لدزاير", "alt_name:ilo": "Demokrata ken Popular a Republika ti Arhelia", "alt_name:kab": "Dzayer", "name:bat-smg": "Alžīrs", "name:fiu-vro": "Alžeeriä", "name:ku-Arab": "جەزایر", "name:roa-rup": "Algheria", "name:roa-tara": "Algerie", "official_name": "الجمهورية الجزائرية الديمقراطية الشعبية", "short_name:br": "R.A.D.P.", "short_name:fr": "RADP", "short_name:ru": "АНДР", "name:be-tarask": "Альжы́р", "name:zh_pinyin": "Āěrjílìyà", "default_language": "ar", "official_name:af": "Demokratiese Volksrepubliek van Algerië", "official_name:am": "የአልጄሪያ ሕዝባዊ ዲሞክራሲያዊ ሪፐብሊክ", "official_name:ar": "الجمهورية الجزائرية الديمقراطية الشعبية", "official_name:az": "Əlcəzair Xalq Demokratik Respublikası", "official_name:ba": "Алжир Халыҡ Демократик Республикаһы", "official_name:be": "Алжы́рская Наро́дная Дэмакраты́чная Рэспу́бліка", "official_name:bg": "Алжирска народно-демократична република", "official_name:bm": "Alizeri ka Foroba Bɛjɛfanga Fasojamana", "official_name:bn": "গণপ্রজাতন্ত্রী আলজেরিয়া", "official_name:br": "Republik Aljerian Demokratel ha Poblel", "official_name:bs": "Narodna Demokratska Republika Alžir", "official_name:ca": "República Democràtica Popular d'Algèria", "official_name:ce": "Алжир Халкъа куьйгаллийца йолу Пачхьалкх", "official_name:cs": "Alžírská demokratická a lidová republika", "official_name:cy": "Gweriniaeth Ddemocrataidd Pobl Algeria", "official_name:da": "Den Demokratiske Folkerepublik Algeriet", "official_name:de": "Demokratische Volksrepublik Algerien", "official_name:el": "Λαϊκή Δημοκρατία της Αλγερίας", "official_name:en": "People's Democratic Republic of Algeria", "official_name:eo": "Demokrata Popolrespubliko Alĝerio", "official_name:es": "República Argelina Democrática y Popular", "official_name:et": "Alžeeria Demokraatlik Rahvavabariik", "official_name:eu": "Aljeriako Herri Errepublika Demokratikoa", "official_name:fa": "جمهوری دموکراتیک خلق الجزایر", "official_name:fi": "Algerian demokraattinen kansantasavalta", "official_name:fr": "République algérienne démocratique et populaire", "official_name:fy": "Demokratyske Folksrepublyk Algerije", "official_name:ga": "Daonphoblacht Dhaonlathach na hAilgéire", "official_name:gd": "Sluagh-phoblachd Dheamocratach Aildiria", "official_name:gl": "República Democrática e Popular de Alxeria", "official_name:gn": "Tavakuairetã Ahélia Tekoha ha Jekopytyjojáva", "official_name:gv": "Deynphobblaght Gheynlagh ny h-Algear", "official_name:ha": "Jamhuriyar aljeriya", "official_name:he": "הרפובליקה האלג'יראית הדמוקרטית העממית", "official_name:hi": "अल्जीरिया का जन-लोकतंत्रीय गणराज्य", "official_name:hr": "Alžirska Narodna Demokratska Republika", "official_name:hu": "Algériai Népi Demokratikus Köztársaság", "official_name:hy": "Ալժիրի Ժողովրդական Ժողովրդավարական Հանրապետություն", "official_name:id": "Republik Demokratik Rakyat Aljazair", "official_name:io": "Populala Demokratiala Republio di Aljeria", "official_name:is": "Alþýðulýðveldið Alsír", "official_name:it": "Repubblica Algerina Democratica e Popolare", "official_name:ja": "アルジェリア民主人民共和国", "official_name:jv": "Républik Démokratik Rakyat Aljazair", "official_name:ka": "ალჟირის სახალხო დემოკრატიული რესპუბლიკა", "official_name:kk": "Алжир Халық Демократиялық Республикасы", "official_name:kn": "ಅಲ್ಜೀರಿಯ ಜನ ಪ್ರಜಾತಾಂತ್ರಿಕ ಗಣರಾಜ್ಯ", "official_name:ko": "알제리 인민민주공화국", "official_name:ku": "Komara Cezayira Demokratîk a Xelk", "official_name:ky": "Алжир Эл Демократиялык Республикасы", "official_name:lb": "Demokratesch Volleksrepublik Algerien", "official_name:lt": "Alžyro Liaudies Demokratinė Respublika", "official_name:lv": "Alžīrijas Tautas Demokrātiskā Republika", "official_name:mg": "Repoblika Aljeriana demôkratika sy entim-bahoaka", "official_name:mk": "Народна Демократска Република Алжир", "official_name:ml": "പീപ്പിൾസ് ഡെമോക്രാറ്റിക്ക് റിപ്പബ്ലിക്ക് ഓഫ് അൾജീരിയ", "official_name:mn": "Бүгд Найрамдах Ардчилсан Алжир Ард Улс", "official_name:mr": "अल्जीरियाचे जनतेचे प्रजासत्ताक", "official_name:ms": "Republik Demokratik Rakyat Algeria", "official_name:mt": "Repubblika Demokratika Popolari tal-Alġerija", "official_name:my": "အယ်လ်ဂျီးရီးယား ဒီမိုကရက်တစ် ပြည်သူ့သမ္မတ နိုင်ငံ", "official_name:ne": "जनवादी प्रजातान्त्रिक गणतन्त्र अल्जेरिया", "official_name:nl": "Democratische Volksrepubliek Algerije", "official_name:nn": "Den demokratiske folkerepublikken Algerie", "official_name:no": "Den demokratiske folkerepublikk Algerie", "official_name:nv": "Ghą́ą́ʼaskʼidii Biłikahii Bikéyah Ntsaaígíí", "official_name:ny": "Jamhuri ya Muungano wa Algeriais", "official_name:oc": "Republica Argeriana Democratica e Populara", "official_name:os": "Алжиры Адæмон Демократион Республикæ", "official_name:pa": "ਅਲਜੀਰੀਆ ਦਾ ਜਨ-ਲੋਕਤੰਤਰੀ ਗਣਰਾਜ", "official_name:pl": "Algierska Republika Ludowo-Demokratyczna", "official_name:ps": "الجزاير د خلکو ډيموکراټيک جمهوريت", "official_name:pt": "República Argelina Democrática e Popular", "official_name:qu": "Runallaqtap Runakamay Kaq Alhirya Ripuwlika", "official_name:ro": "Republica Algeriană Democratică și Populară", "official_name:ru": "Алжирская Народная Демократическая Республика", "official_name:sc": "Repùbrica Populare Democràtiga Jasira", "official_name:sg": "Alazëri Ködörösêse", "official_name:sh": "Narodna Demokratska Republika Alžir", "official_name:sk": "Alžírska demokratická a ľudová republika", "official_name:sl": "Ljudska demokratična republika Alžirija", "official_name:sm": "Sha’bīyah République Algérienne Démocratique et Populaire", "official_name:sr": "Народна Демократска Република Алжир", "official_name:su": "Républik Démokratik Rahayat Aljazair", "official_name:sv": "Demokratiska folkrepubliken Algeriet", "official_name:sw": "Jamhuri ya kidemokrasia ya watu wa Algeria", "official_name:ta": "அல்ஜீரிய மக்கள் சனநாயக குடியரசு", "official_name:te": "ప్రజాస్వామ్య గణతంత్ర్య అల్జీరియా", "official_name:tg": "Ҷумҳурии Халқии Демократии Алҷазоир", "official_name:th": "สาธารณรัฐประชาธิปไตยประชาชนแอลจีเรีย", "official_name:tk": "Alžir Halk Demokratik Respublikasy", "official_name:tl": "Demokratikong Republikang Bayan ng Algeria", "official_name:tr": "Cezayir Demokratik Halk Cumhuriyeti", "official_name:tt": "Әлҗәзаи́р Халы́к Демократи́к Җөмһүрия́те", "official_name:uk": "Алжи́рська Наро́дна Демократи́чна Респу́бліка", "official_name:ur": "عوامی جمہوری جمہوریہ الجزائر", "official_name:uz": "Jazoir Demokratik va Xalq Respublikasi", "official_name:vi": "Cộng hoà Dân chủ Nhân dân Algérie", "official_name:wa": "Republike Aldjeryinne Democratike et Populaire", "official_name:wo": "Republik Popileer Demokaraatik bu Alseeri", "official_name:xh": "urhulumente olawulwa sisininzi sabantu base-Algeria", "official_name:yi": "פֿאָלקס דעמאקראטישע רעפובליק פֿון אלזשיר", "official_name:yo": "Orile-ede Olominira Toseluarailu awon Eniyan ile Algeria", "official_name:zh": "阿爾及利亞人民民主共和國", "official_name:zu": "IRiphabliki Labantu yase-Aljiriya", "official_name:ace": "Republik Demokratik Rakyat Aljazair", "official_name:ady": "Алжир Республикэ", "official_name:als": "Demokratischi Volksrepublik Algerie", "official_name:arc": "ܩܘܛܢܝܘܬܐ ܓܙܐܐܪܝܬܐ ܕܝܡܘܩܪܛܝܬܐ ܥܡܡܝܬܐ", "official_name:arz": "الجمهورية الجزائرية الديموقراطية الشعبية", "official_name:ast": "República Democrática Popular d'Arxelia", "official_name:bar": "Demokratische Volksrepublik Algerien", "official_name:ber": "ⵜⴰⴳⴷⵓⴷⴰ ⵜⴰⵎⴻⴳⴷⴰⵢⵜ ⵜⴰⵖⴻⵔⴼⴰⵏⵜ ⵜⴰⵣⵣⴰⵢⵔⵉⵜ", "official_name:bpy": "গণ-গনতান্ত্রিক প্রজাতন্ত্রি আলজেরিয়া", "official_name:bxr": "Бүгэдэ Найрамдаха Арадшалаһан Алжир Арад Улас", "official_name:chr": "ᏴᏫ ᎤᎾᏤᎵ ᏥᏈᏍᏗ ᎠᎾᏓᏅᏖᏒᎬ ᏍᎦᏚᎩ ᏀᎿ ᎠᎵᏥᎵᏯ", "official_name:ckb": "کۆماری دیموکراتیکی گەلی جەزائیر", "official_name:dsb": "Algeriska ludowa demokratiska republika", "official_name:ext": "Repúbrica Argelina Democrática i Populal", "official_name:frp": "Rèpublica alg·èrièna dèmocratica et populèra", "official_name:frr": "Demokraatisk Fulksrepubliik faan Algeerien", "official_name:haw": "Lepupalika Kemokalaka o ka Poʻe o ʻAlekelia", "official_name:hif": "People's Democratic Republic of Algeria", "official_name:hsb": "Algeriska demokratiska a ludowa republika", "official_name:ilo": "Demokratiko a Republika ti Tattao ti Arhelia", "official_name:jam": "Piipl Dimokratik Ripoblik a hAljiiria", "official_name:kab": "Tagduda tamegdayt taɣerfant tazzayrit", "official_name:kbd": "Алджазаир Джылэр Демократ Республикэ", "official_name:krc": "Алжир Халкъ Демократ Республика", "official_name:lad": "Repuvlika Popular i Demokratika de Arjelia", "official_name:lez": "Алжирдин Халкьдин Демократиядин Республика", "official_name:lzh": "阿爾及利亞民主人民共和國", "official_name:mhr": "Алжи́р Ка‘лык Демокра́тий Респу́блик", "official_name:mzn": "الجمهورية الجزائرية الديمقراطية الشّعبية", "official_name:nah": "Argeliatlācatlahtohcāyōtl Tlācatēpacholiztli īhuān Āltepēhuahcāyōtl", "official_name:nan": "Algeria Jîn-bîn Bîn-chú Kiōng-hô-kok", "official_name:new": "प्रजातान्त्रिक व लोकंह्वागु गणतन्त्र अल्जेरिया", "official_name:nso": "People's Democratic Republiki ya Algeria", "official_name:olo": "Alžiran Rahvahan Demokrattine Tazavaldu", "official_name:pam": "Ing Pangmaldang Democraticung Republica ning Algeria", "official_name:pnb": "الجمهورية الجزائرية الديمقراطية الشعبية", "official_name:rue": "Алжірска демократічна і людова републіка", "official_name:sah": "Алжир Дьон Демократ Республиката", "official_name:sco": "Fowkdemocratic Republic o Algerie", "official_name:stq": "Demokratiske Foulksrepublik Algerien", "official_name:szl": "Algerskŏ Republika Ludowo-Dymokratycznŏ", "official_name:udm": "Алжир Калык Демократи Республика", "official_name:vec": "Republica Popolare Democratica de l'Algeria", "official_name:vep": "Alžiran Rahvahaline Demokratine Tazovaldkund", "official_name:vls": "Democratische Volksrepubliek Algereye", "official_name:xmf": "ალჟირიშ ჯარალუაშ დემოკრატიული რესპუბლიკა", "official_name:yue": "阿爾及利亞人民民主共和國", "official_name:bat-smg": "Alžīra Demuokratėnė Liaudėis Respoblėka", "official_name:fiu-vro": "Alžeeriä Demokraatlinõ Rahvavabariik", "official_name:roa-rup": "Republica Popularã Democraticã Algheria", "official_name:roa-tara": "Repubbleche Democrateche Populare de Algerie", "official_name:be-tarask": "Народная Дэмакратычная Рэспубліка Альжыр"}}, "center_lat": 28.15, "center_lon": 2.68, "timezone": "Africa/Algiers", "population": 41318142, "wikidata_id": "Q262", "wikipedia_id": "ar:الجزائر"}, "geometry": {"type": "MultiPolygon", "coordinates": [[[[-2.132, 35.093], [-2.132, 35.093], [-2.132, 35.093], [-2.132, 35.093]]], [[[-1.645, 35.201], [-1.645, 35.201], [-1.645, 35.201], [-1.645, 35.201]]], [[[-1.637, 35.211], [-1.637, 35.211], [-1.637, 35.211], [-1.637, 35.211]]], [[[-1.632, 35.218], [-1.632, 35.218], [-1.632, 35.218], [-1.632, 35.218]]], [[[-1.608, 35.23], [-1.608, 35.23], [-1.608, 35.23], [-1.608, 35.23]]], [[[-1.482, 35.301], [-1.482, 35.301], [-1.482, 35.301], [-1.482, 35.301]]], [[[-1.374, 35.313], [-1.374, 35.313], [-1.374, 35.313], [-1.374, 35.313]]], [[[-1.202, 35.545], [-1.202, 35.545], [-1.202, 35.545], [-1.202, 35.545]]], [[[-1.48, 35.318], [-1.48, 35.318], [-1.48, 35.318], [-1.48, 35.318]]], [[[-1.476, 35.318], [-1.476, 35.318], [-1.476, 35.318], [-1.476, 35.318]]], [[[-1.481, 35.326], [-1.481, 35.326], [-1.481, 35.326], [-1.481, 35.326]]], [[[-1.2, 35.547], [-1.2, 35.547], [-1.2, 35.547], [-1.2, 35.547]]], [[[-1.2, 35.549], [-1.2, 35.549], [-1.2, 35.549], [-1.2, 35.549]]], [[[-1.199, 35.552], [-1.199, 35.552], [-1.199, 35.552], [-1.199, 35.552]]], [[[-1.197, 35.555], [-1.197, 35.555], [-1.197, 35.555], [-1.197, 35.555]]], [[[-1.071, 35.637], [-1.071, 35.637], [-1.071, 35.637], [-1.071, 35.637]]], [[[-1.066, 35.639], [-1.066, 35.639], [-1.066, 35.639], [-1.066, 35.639]]], [[[-1.07, 35.639], [-1.07, 35.639], [-1.07, 35.639], [-1.07, 35.639]]], [[[-1.072, 35.638], [-1.072, 35.638], [-1.072, 35.638], [-1.072, 35.638]]], [[[-1.069, 35.638], [-1.069, 35.638], [-1.069, 35.638], [-1.069, 35.638]]], [[[-1.072, 35.639], [-1.072, 35.639], [-1.072, 35.639], [-1.072, 35.639]]], [[[-1.057, 35.653], [-1.057, 35.653], [-1.057, 35.653], [-1.057, 35.653]]], [[[-1.047, 35.673], [-1.047, 35.673], [-1.047, 35.673], [-1.047, 35.673]]], [[[-1.021, 35.682], [-1.021, 35.682], [-1.021, 35.682], [-1.021, 35.682]]], [[[-1.021, 35.683], [-1.021, 35.683], [-1.021, 35.683], [-1.021, 35.683]]], [[[-1.143, 35.716], [-1.143, 35.716], [-1.143, 35.716], [-1.143, 35.716]]], [[[-1.141, 35.716], [-1.141, 35.716], [-1.141, 35.716], [-1.141, 35.716]]], [[[-1.139, 35.721], [-1.139, 35.721], [-1.139, 35.721], [-1.139, 35.721]]], [[[-1.139, 35.721], [-1.139, 35.721], [-1.139, 35.721], [-1.139, 35.721]]], [[[-1.138, 35.722], [-1.138, 35.722], [-1.138, 35.722], [-1.138, 35.722]]], [[[-1.14, 35.724], [-1.14, 35.724], [-1.14, 35.724], [-1.14, 35.724]]], [[[-1.123, 35.728], [-1.123, 35.728], [-1.123, 35.728], [-1.123, 35.728]]], [[[-1.133, 35.719], [-1.133, 35.719], [-1.133, 35.719], [-1.133, 35.719]]], [[[-1.12, 35.73], [-1.12, 35.73], [-1.12, 35.73], [-1.12, 35.73]]], [[[-1.124, 35.731], [-1.124, 35.731], [-1.124, 35.731], [-1.124, 35.731]]], [[[-0.825, 35.768], [-0.825, 35.768], [-0.825, 35.768], [-0.825, 35.768]]], [[[-0.901, 35.771], [-0.901, 35.771], [-0.901, 35.771], [-0.901, 35.771]]], [[[-0.789, 35.773], [-0.789, 35.773], [-0.789, 35.773], [-0.789, 35.773]]], [[[-1.121, 35.73], [-1.121, 35.73], [-1.121, 35.73], [-1.121, 35.73]]], [[[-1.121, 35.732], [-1.121, 35.732], [-1.121, 35.732], [-1.121, 35.732]]], [[[-1.123, 35.732], [-1.123, 35.732], [-1.123, 35.732], [-1.123, 35.732]]], [[[-0.797, 35.775], [-0.797, 35.775], [-0.797, 35.775], [-0.797, 35.775]]], [[[-0.239, 35.821], [-0.239, 35.821], [-0.239, 35.821], [-0.239, 35.821]]], [[[-0.29, 35.874], [-0.29, 35.874], [-0.29, 35.874], [-0.29, 35.874]]], [[[-0.293, 35.877], [-0.293, 35.877], [-0.293, 35.877], [-0.293, 35.877]]], [[[-0.473, 35.888], [-0.473, 35.888], [-0.473, 35.888], [-0.473, 35.888]]], [[[0.918, 36.436], [0.918, 36.436], [0.918, 36.436], [0.918, 36.436]]], [[[1.314, 36.527], [1.314, 36.527], [1.314, 36.527], [1.314, 36.527]]], [[[1.53, 36.54], [1.53, 36.54], [1.53, 36.54], [1.53, 36.54]]], [[[1.526, 36.544], [1.526, 36.544], [1.526, 36.544], [1.526, 36.544]]], [[[1.349, 36.551], [1.349, 36.551], [1.349, 36.551], [1.349, 36.551]]], [[[1.361, 36.554], [1.361, 36.554], [1.361, 36.554], [1.361, 36.554]]], [[[1.366, 36.554], [1.366, 36.554], [1.366, 36.554], [1.366, 36.554]]], [[[2.053, 36.578], [2.053, 36.578], [2.053, 36.578], [2.053, 36.578]]], [[[2.458, 36.597], [2.458, 36.597], [2.458, 36.597], [2.458, 36.597]]], [[[2.46, 36.597], [2.46, 36.597], [2.46, 36.597], [2.46, 36.597]]], [[[2.59, 36.6], [2.59, 36.6], [2.59, 36.6], [2.59, 36.6]]], [[[2.408, 36.609], [2.408, 36.609], [2.408, 36.609], [2.408, 36.609]]], [[[2.26, 36.627], [2.26, 36.627], [2.26, 36.627], [2.26, 36.627]]], [[[2.261, 36.628], [2.261, 36.628], [2.261, 36.628], [2.261, 36.628]]], [[[2.262, 36.629], [2.262, 36.629], [2.262, 36.629], [2.262, 36.629]]], [[[2.273, 36.629], [2.273, 36.629], [2.273, 36.629], [2.273, 36.629]]], [[[2.318, 36.64], [2.318, 36.64], [2.318, 36.64], [2.318, 36.64]]], [[[2.345, 36.647], [2.345, 36.647], [2.345, 36.647], [2.345, 36.647]]], [[[2.692, 36.651], [2.692, 36.651], [2.692, 36.651], [2.692, 36.651]]], [[[5.549, 36.734], [5.549, 36.734], [5.549, 36.734], [5.549, 36.734]]], [[[5.555, 36.745], [5.555, 36.745], [5.555, 36.745], [5.555, 36.745]]], [[[2.835, 36.759], [2.835, 36.759], [2.835, 36.759], [2.835, 36.759]]], [[[2.836, 36.76], [2.836, 36.76], [2.836, 36.76], [2.836, 36.76]]], [[[5.572, 36.765], [5.572, 36.765], [5.572, 36.765], [5.572, 36.765]]], [[[3.076, 36.767], [3.076, 36.767], [3.076, 36.767], [3.076, 36.767]]], [[[5.602, 36.778], [5.602, 36.778], [5.602, 36.778], [5.602, 36.778]]], [[[3.354, 36.797], [3.354, 36.797], [3.354, 36.797], [3.354, 36.797]]], [[[5.651, 36.801], [5.651, 36.801], [5.651, 36.801], [5.651, 36.801]]], [[[5.655, 36.803], [5.655, 36.803], [5.655, 36.803], [5.655, 36.803]]], [[[2.907, 36.806], [2.907, 36.806], [2.907, 36.806], [2.907, 36.806]]], [[[5.688, 36.818], [5.688, 36.818], [5.688, 36.818], [5.688, 36.818]]], [[[4.978, 36.816], [4.978, 36.816], [4.978, 36.816], [4.978, 36.816]]], [[[4.977, 36.816], [4.977, 36.816], [4.977, 36.816], [4.977, 36.816]]], [[[5.631, 36.784], [5.631, 36.784], [5.631, 36.784], [5.631, 36.784]]], [[[5.611, 36.784], [5.611, 36.784], [5.611, 36.784], [5.611, 36.784]]], [[[7.196, 37.091], [7.196, 37.091], [7.196, 37.091], [7.196, 37.091]]], [[[7.205, 37.092], [7.205, 37.092], [7.205, 37.092], [7.205, 37.092]]], [[[8.642, 36.941], [8.643, 36.93], [8.654, 36.916], [8.637, 36.909], [8.628, 36.887], [8.631, 36.856], [8.653, 36.849], [8.663, 36.851], [8.681, 36.839], [8.669, 36.817], [8.628, 36.8], [8.611, 36.791], [8.601, 36.799], [8.592, 36.793], [8.572, 36.773], [8.533, 36.774], [8.527, 36.783], [8.517, 36.778], [8.484, 36.779], [8.43, 36.759], [8.438, 36.747], [8.459, 36.751], [8.47, 36.741], [8.466, 36.724], [8.487, 36.697], [8.483, 36.682], [8.459, 36.661], [8.457, 36.646], [8.447, 36.624], [8.449, 36.618], [8.418, 36.622], [8.398, 36.61], [8.393, 36.599], [8.381, 36.598], [8.326, 36.574], [8.32, 36.557], [8.286, 36.538], [8.257, 36.537], [8.224, 36.517], [8.194, 36.507], [8.182, 36.514], [8.173, 36.504], [8.155, 36.499], [8.16, 36.488], [8.155, 36.481], [8.176, 36.46], [8.195, 36.461], [8.213, 36.447], [8.251, 36.446], [8.261, 36.439], [8.285, 36.446], [8.303, 36.443], [8.327, 36.433], [8.343, 36.435], [8.355, 36.446], [8.372, 36.428], [8.405, 36.423], [8.41, 36.412], [8.394, 36.394], [8.402, 36.378], [8.394, 36.365], [8.377, 36.353], [8.384, 36.33], [8.376, 36.322], [8.379, 36.313], [8.391, 36.305], [8.381, 36.297], [8.372, 36.298], [8.356, 36.288], [8.338, 36.265], [8.349, 36.262], [8.355, 36.251], [8.354, 36.231], [8.338, 36.213], [8.332, 36.193], [8.307, 36.173], [8.309, 36.161], [8.326, 36.144], [8.339, 36.138], [8.338, 36.119], [8.346, 36.097], [8.342, 36.09], [8.322, 36.084], [8.312, 36.07], [8.314, 36.063], [8.297, 36.041], [8.3, 36.011], [8.29, 35.953], [8.27, 35.946], [8.263, 35.938], [8.263, 35.919], [8.256, 35.908], [8.272, 35.908], [8.268, 35.898], [8.253, 35.886], [8.27, 35.88], [8.267, 35.871], [8.272, 35.816], [8.264, 35.795], [8.266, 35.783], [8.259, 35.762], [8.264, 35.731], [8.28, 35.723], [8.319, 35.685], [8.334, 35.685], [8.356, 35.67], [8.36, 35.648], [8.356, 35.619], [8.351, 35.61], [8.353, 35.582], [8.363, 35.534], [8.36, 35.526], [8.373, 35.495], [8.385, 35.488], [8.384, 35.467], [8.353, 35.463], [8.34, 35.447], [8.329, 35.422], [8.315, 35.414], [8.326, 35.413], [8.329, 35.402], [8.314, 35.377], [8.317, 35.341], [8.312, 35.313], [8.334, 35.28], [8.359, 35.276], [8.378, 35.266], [8.409, 35.245], [8.422, 35.246], [8.44, 35.237], [8.477, 35.24], [8.454, 35.22], [8.449, 35.21], [8.423, 35.179], [8.416, 35.151], [8.4, 35.128], [8.377, 35.11], [8.361, 35.103], [8.342, 35.066], [8.316, 35.009], [8.317, 34.994], [8.311, 34.954], [8.316, 34.949], [8.286, 34.945], [8.27, 34.932], [8.245, 34.921], [8.253, 34.915], [8.26, 34.896], [8.261, 34.874], [8.269, 34.866], [8.27, 34.852], [8.279, 34.835], [8.286, 34.8], [8.282, 34.787], [8.284, 34.767], [8.299, 34.742], [8.324, 34.733], [8.315, 34.728], [8.301, 34.732], [8.265, 34.692], [8.245, 34.691], [8.237, 34.677], [8.25, 34.664], [8.277, 34.661], [8.274, 34.644], [8.265, 34.644], [8.245, 34.635], [8.244, 34.621], [8.25, 34.615], [8.227, 34.614], [8.211, 34.603], [8.204, 34.589], [8.221, 34.577], [8.188, 34.572], [8.17, 34.574], [8.172, 34.564], [8.161, 34.569], [8.167, 34.553], [8.151, 34.546], [8.149, 34.534], [8.135, 34.532], [8.116, 34.52], [8.116, 34.512], [8.083, 34.516], [8.072, 34.497], [8.043, 34.493], [8.019, 34.472], [8.011, 34.458], [7.972, 34.447], [7.953, 34.447], [7.931, 34.428], [7.933, 34.42], [7.923, 34.416], [7.89, 34.416], [7.876, 34.407], [7.857, 34.405], [7.852, 34.392], [7.858, 34.382], [7.85, 34.363], [7.851, 34.35], [7.845, 34.329], [7.818, 34.266], [7.797, 34.209], [7.772, 34.198], [7.746, 34.179], [7.723, 34.171], [7.679, 34.191], [7.652, 34.201], [7.632, 34.172], [7.619, 34.14], [7.614, 34.114], [7.588, 34.105], [7.58, 34.099], [7.589, 34.092], [7.564, 34.084], [7.559, 34.078], [7.537, 34.074], [7.53, 34.061], [7.537, 34.047], [7.56, 34.015], [7.54, 33.975], [7.541, 33.938], [7.522, 33.905], [7.537, 33.869], [7.547, 33.837], [7.525, 33.798], [7.562, 33.777], [7.565, 33.727], [7.589, 33.688], [7.596, 33.648], [7.634, 33.572], [7.737, 33.425], [7.733, 33.375], [7.749, 33.327], [7.778, 33.324], [7.786, 33.291], [7.802, 33.251], [7.832, 33.188], [7.837, 33.189], [7.902, 33.186], [7.985, 33.154], [8.051, 33.126], [8.085, 33.114], [8.117, 33.1], [8.114, 33.061], [8.116, 33.05], [8.163, 33.008], [8.169, 33.005], [8.247, 32.924], [8.323, 32.823], [8.357, 32.503], [8.588, 32.365], [8.8, 32.236], [9.065, 32.087], [9.093, 32.008], [9.098, 31.999], [9.187, 31.676], [9.207, 31.593], [9.229, 31.514], [9.36, 31], [9.363, 30.996], [9.474, 30.559], [9.552, 30.256], [9.559, 30.229], [9.492, 30.212], [9.463, 30.196], [9.453, 30.187], [9.43, 30.184], [9.415, 30.188], [9.399, 30.179], [9.391, 30.167], [9.391, 30.146], [9.408, 30.066], [9.415, 30.043], [9.442, 30.01], [9.454, 30], [9.539, 29.901], [9.716, 29.552], [9.78, 29.425], [9.846, 29.142], [9.872, 29.028], [9.883, 28.925], [9.902, 28.759], [9.858, 28.463], [9.847, 28.39], [9.833, 28.286], [9.859, 28.205], [9.919, 28.019], [9.924, 28.002], [9.962, 27.886], [9.963, 27.867], [9.949, 27.855], [9.943, 27.836], [9.946, 27.8], [9.939, 27.775], [9.942, 27.732], [9.925, 27.698], [9.924, 27.68], [9.894, 27.622], [9.889, 27.609], [9.871, 27.596], [9.866, 27.586], [9.822, 27.579], [9.817, 27.566], [9.824, 27.562], [9.878, 27.562], [9.866, 27.539], [9.868, 27.518], [9.863, 27.504], [9.834, 27.492], [9.813, 27.463], [9.817, 27.45], [9.811, 27.44], [9.81, 27.42], [9.794, 27.395], [9.784, 27.354], [9.795, 27.355], [9.791, 27.324], [9.785, 27.306], [9.782, 27.257], [9.792, 27.231], [9.798, 27.174], [9.818, 27.15], [9.834, 27.086], [9.831, 27.075], [9.849, 27.004], [9.856, 26.965], [9.862, 26.942], [9.883, 26.911], [9.895, 26.899], [9.907, 26.875], [9.925, 26.862], [9.902, 26.743], [9.913, 26.647], [9.863, 26.52], [9.512, 26.385], [9.497, 26.35], [9.474, 26.303], [9.465, 26.289], [9.456, 26.253], [9.447, 26.243], [9.399, 26.196], [9.538, 26.003], [9.751, 25.725], [10.032, 25.36], [10.036, 25.154], [10.037, 25.042], [10.036, 24.992], [10.038, 24.966], [10.061, 24.938], [10.068, 24.923], [10.084, 24.904], [10.098, 24.881], [10.106, 24.846], [10.133, 24.816], [10.153, 24.784], [10.172, 24.745], [10.177, 24.726], [10.198, 24.701], [10.197, 24.682], [10.216, 24.651], [10.252, 24.63], [10.264, 24.627], [10.289, 24.6], [10.303, 24.599], [10.327, 24.57], [10.345, 24.555], [10.357, 24.537], [10.399, 24.537], [10.412, 24.532], [10.456, 24.534], [10.485, 24.544], [10.509, 24.539], [10.527, 24.538], [10.542, 24.534], [10.568, 24.541], [10.588, 24.541], [10.587, 24.552], [10.615, 24.574], [10.634, 24.566], [10.666, 24.572], [10.706, 24.573], [10.729, 24.566], [10.727, 24.563], [10.741, 24.537], [10.756, 24.528], [10.767, 24.51], [10.8, 24.528], [10.793, 24.544], [10.821, 24.567], [10.847, 24.569], [10.881, 24.555], [10.896, 24.556], [10.95, 24.533], [10.982, 24.491], [11.011, 24.47], [11.031, 24.451], [11.04, 24.434], [11.052, 24.425], [11.066, 24.423], [11.078, 24.411], [11.096, 24.408], [11.138, 24.391], [11.423, 24.201], [11.451, 24.214], [11.503, 24.227], [11.525, 24.239], [11.553, 24.249], [11.585, 24.254], [11.604, 24.265], [11.846, 23.806], [11.997, 23.517], [11.729, 23.364], [11.293, 23.116], [11.103, 22.999], [11.002, 22.933], [10.842, 22.842], [10.672, 22.746], [10.527, 22.662], [10.239, 22.496], [10.239, 22.495], [10.076, 22.402], [10.001, 22.356], [9.756, 22.211], [9.559, 22.097], [9.351, 21.976], [9.174, 21.872], [9.051, 21.8], [8.998, 21.774], [8.997, 21.779], [8.752, 21.631], [8.435, 21.44], [8.344, 21.384], [8.058, 21.211], [8.013, 21.183], [7.994, 21.167], [7.898, 21.109], [7.84, 21.074], [7.721, 21.003], [7.72, 21], [7.46, 20.842], [7.41, 20.8], [7.228, 20.649], [7.025, 20.479], [6.999, 20.455], [6.736, 20.234], [6.526, 20.055], [6.469, 20.008], [6.463, 20], [6.437, 19.975], [6.127, 19.713], [6, 19.607], [5.987, 19.599], [5.811, 19.447], [5.633, 19.411], [5.532, 19.392], [5, 19.284], [4.98, 19.28], [4.587, 19.2], [4.477, 19.179], [4.336, 19.15], [4.267, 19.144], [4.205, 19.134], [4, 19.095], [3.954, 19.086], [3.664, 19.029], [3.599, 19.017], [3.518, 19], [3.358, 18.968], [3.345, 18.979], [3.338, 18.99], [3.323, 18.998], [3.295, 19.003], [3.292, 19.012], [3.276, 19.033], [3.255, 19.044], [3.239, 19.062], [3.209, 19.075], [3.19, 19.092], [3.181, 19.095], [3.163, 19.115], [3.153, 19.114], [3.125, 19.126], [3.115, 19.156], [3.121, 19.169], [3.123, 19.185], [3.155, 19.213], [3.171, 19.245], [3.201, 19.277], [3.199, 19.287], [3.204, 19.303], [3.202, 19.311], [3.184, 19.334], [3.178, 19.359], [3.181, 19.368], [3.198, 19.394], [3.198, 19.413], [3.208, 19.431], [3.227, 19.435], [3.245, 19.434], [3.263, 19.439], [3.266, 19.455], [3.257, 19.47], [3.257, 19.477], [3.248, 19.498], [3.26, 19.508], [3.265, 19.531], [3.244, 19.557], [3.232, 19.584], [3.233, 19.605], [3.247, 19.621], [3.251, 19.632], [3.251, 19.65], [3.233, 19.677], [3.233, 19.695], [3.23, 19.714], [3.247, 19.742], [3.248, 19.754], [3.244, 19.771], [3.25, 19.798], [3.26, 19.818], [3.256, 19.833], [3.237, 19.842], [3.216, 19.844], [3.199, 19.842], [3.145, 19.859], [3.134, 19.871], [3.113, 19.881], [3.106, 19.888], [3.077, 19.905], [3.036, 19.915], [3.017, 19.932], [2.977, 19.953], [2.963, 19.951], [2.955, 19.956], [2.935, 19.953], [2.906, 19.965], [2.882, 19.965], [2.876, 19.956], [2.857, 19.973], [2.845, 19.972], [2.842, 19.965], [2.823, 19.965], [2.803, 19.978], [2.789, 19.981], [2.784, 19.975], [2.773, 19.978], [2.769, 19.99], [2.759, 19.997], [2.737, 19.994], [2.723, 20.006], [2.715, 20.033], [2.706, 20.059], [2.698, 20.065], [2.701, 20.087], [2.683, 20.101], [2.672, 20.099], [2.671, 20.077], [2.665, 20.051], [2.653, 20.05], [2.639, 20.044], [2.625, 20.054], [2.613, 20.046], [2.604, 20.045], [2.597, 20.033], [2.577, 20.035], [2.562, 20.033], [2.554, 20.039], [2.551, 20.055], [2.536, 20.065], [2.525, 20.089], [2.518, 20.095], [2.512, 20.087], [2.497, 20.092], [2.48, 20.087], [2.474, 20.098], [2.458, 20.089], [2.447, 20.088], [2.437, 20.078], [2.413, 20.076], [2.398, 20.061], [2.399, 20.041], [2.375, 20.028], [2.383, 20.052], [2.385, 20.068], [2.379, 20.087], [2.381, 20.099], [2.391, 20.101], [2.402, 20.117], [2.402, 20.129], [2.391, 20.148], [2.376, 20.145], [2.357, 20.162], [2.354, 20.179], [2.356, 20.19], [2.342, 20.203], [2.341, 20.211], [2.318, 20.218], [2.319, 20.225], [2.307, 20.239], [2.307, 20.255], [2.313, 20.27], [2.301, 20.28], [2.292, 20.28], [2.286, 20.291], [2.273, 20.299], [2.258, 20.297], [2.236, 20.302], [2.215, 20.319], [2.194, 20.316], [2.189, 20.299], [2.192, 20.28], [2.183, 20.272], [2.174, 20.272], [2.169, 20.261], [2.153, 20.259], [2.142, 20.261], [2.134, 20.245], [2.111, 20.239], [2.1, 20.247], [2.084, 20.244], [2.071, 20.25], [2.051, 20.268], [2.037, 20.269], [2.016, 20.256], [2.002, 20.242], [1.991, 20.247], [1.978, 20.267], [1.963, 20.257], [1.947, 20.26], [1.937, 20.236], [1.922, 20.224], [1.898, 20.243], [1.901, 20.257], [1.891, 20.267], [1.89, 20.278], [1.881, 20.297], [1.849, 20.298], [1.826, 20.29], [1.798, 20.298], [1.777, 20.322], [1.775, 20.337], [1.757, 20.345], [1.749, 20.355], [1.736, 20.354], [1.728, 20.366], [1.714, 20.371], [1.696, 20.39], [1.668, 20.406], [1.667, 20.427], [1.673, 20.435], [1.662, 20.453], [1.675, 20.48], [1.676, 20.488], [1.659, 20.501], [1.664, 20.51], [1.659, 20.519], [1.667, 20.527], [1.657, 20.543], [1.648, 20.547], [1.642, 20.56], [1.622, 20.576], [1.6, 20.583], [1.603, 20.59], [1.591, 20.6], [1.562, 20.606], [1.556, 20.613], [1.504, 20.622], [1.45, 20.648], [1.421, 20.655], [1.398, 20.662], [1.39, 20.656], [1.375, 20.668], [1.353, 20.677], [1.351, 20.69], [1.343, 20.698], [1.34, 20.716], [1.317, 20.74], [1.305, 20.733], [1.293, 20.733], [1.284, 20.74], [1.269, 20.735], [1.261, 20.739], [1.245, 20.734], [1.23, 20.724], [1.208, 20.726], [1.178, 20.726], [1.164, 20.739], [1.163, 20.758], [1.164, 20.79], [1.167, 20.812], [1.177, 20.838], [1.191, 20.924], [1.193, 20.952], [1.185, 20.969], [1.192, 21.003], [1.173, 21.066], [1.167, 21.116], [0.91, 21.283], [0.699, 21.419], [0.505, 21.545], [0.237, 21.718], [-0.061, 21.911], [-0.258, 22.038], [-0.52, 22.208], [-0.727, 22.342], [-0.923, 22.469], [-1.121, 22.597], [-1.304, 22.716], [-1.49, 22.836], [-1.668, 22.951], [-1.867, 23.08], [-2.054, 23.201], [-2.253, 23.33], [-2.594, 23.551], [-2.801, 23.685], [-2.987, 23.805], [-3.172, 23.924], [-3.441, 24.099], [-3.602, 24.203], [-3.815, 24.341], [-3.992, 24.456], [-4.193, 24.586], [-4.481, 24.772], [-4.833, 25], [-5.002, 25.105], [-5.092, 25.16], [-5.462, 25.388], [-5.668, 25.513], [-5.806, 25.598], [-5.993, 25.712], [-6.034, 25.736], [-6.434, 25.981], [-6.498, 26.02], [-6.651, 26.113], [-6.833, 26.223], [-7.05, 26.353], [-7.266, 26.483], [-7.694, 26.738], [-7.745, 26.769], [-7.941, 26.885], [-8.102, 26.98], [-8.176, 27.025], [-8.231, 27.057], [-8.448, 27.185], [-8.522, 27.229], [-8.668, 27.315], [-8.668, 27.667], [-8.668, 27.935], [-8.669, 28.241], [-8.668, 28.574], [-8.669, 28.667], [-8.63, 28.698], [-8.591, 28.737], [-8.573, 28.748], [-8.506, 28.774], [-8.485, 28.78], [-8.458, 28.792], [-8.428, 28.811], [-8.411, 28.832], [-8.352, 28.885], [-8.3, 28.923], [-8.249, 28.954], [-8.227, 28.971], [-8.202, 28.984], [-8.17, 28.998], [-8.114, 29.034], [-8.089, 29.049], [-8.04, 29.08], [-8.002, 29.097], [-7.973, 29.115], [-7.958, 29.122], [-7.927, 29.157], [-7.906, 29.174], [-7.874, 29.193], [-7.822, 29.211], [-7.818, 29.223], [-7.773, 29.255], [-7.732, 29.276], [-7.683, 29.292], [-7.665, 29.296], [-7.643, 29.296], [-7.634, 29.301], [-7.618, 29.339], [-7.618, 29.356], [-7.614, 29.365], [-7.597, 29.372], [-7.58, 29.372], [-7.539, 29.362], [-7.489, 29.36], [-7.461, 29.364], [-7.413, 29.378], [-7.393, 29.376], [-7.345, 29.392], [-7.257, 29.474], [-7.227, 29.491], [-7.187, 29.505], [-7.15, 29.523], [-7.129, 29.521], [-7.115, 29.523], [-7.081, 29.514], [-7.063, 29.504], [-7.035, 29.499], [-7.023, 29.494], [-7.003, 29.502], [-6.982, 29.503], [-6.972, 29.495], [-6.951, 29.498], [-6.915, 29.497], [-6.891, 29.485], [-6.856, 29.483], [-6.834, 29.468], [-6.777, 29.462], [-6.763, 29.464], [-6.747, 29.476], [-6.721, 29.506], [-6.681, 29.518], [-6.659, 29.518], [-6.624, 29.521], [-6.619, 29.53], [-6.576, 29.523], [-6.548, 29.525], [-6.541, 29.515], [-6.512, 29.534], [-6.51, 29.54], [-6.468, 29.56], [-6.44, 29.566], [-6.4, 29.562], [-6.39, 29.55], [-6.387, 29.562], [-6.374, 29.568], [-6.345, 29.567], [-6.317, 29.57], [-6.303, 29.567], [-6.29, 29.57], [-6.247, 29.565], [-6.235, 29.57], [-6.2, 29.578], [-6.186, 29.577], [-6.165, 29.582], [-6.118, 29.569], [-6.104, 29.57], [-6.07, 29.562], [-6.049, 29.566], [-6.027, 29.565], [-6.017, 29.573], [-5.964, 29.588], [-5.936, 29.593], [-5.902, 29.594], [-5.876, 29.59], [-5.861, 29.601], [-5.814, 29.608], [-5.79, 29.605], [-5.762, 29.593], [-5.728, 29.591], [-5.724, 29.574], [-5.742, 29.554], [-5.751, 29.53], [-5.743, 29.516], [-5.715, 29.52], [-5.686, 29.541], [-5.677, 29.525], [-5.651, 29.505], [-5.63, 29.501], [-5.606, 29.489], [-5.578, 29.49], [-5.565, 29.477], [-5.554, 29.483], [-5.542, 29.512], [-5.499, 29.564], [-5.445, 29.634], [-5.375, 29.712], [-5.361, 29.732], [-5.329, 29.769], [-5.318, 29.789], [-5.317, 29.803], [-5.323, 29.815], [-5.297, 29.851], [-5.289, 29.881], [-5.282, 29.885], [-5.271, 29.905], [-5.249, 29.916], [-5.239, 29.933], [-5.155, 29.986], [-5.124, 30.003], [-4.973, 30.115], [-4.937, 30.14], [-4.747, 30.222], [-4.607, 30.283], [-4.586, 30.293], [-4.56, 30.317], [-4.488, 30.372], [-4.427, 30.439], [-4.33, 30.522], [-4.296, 30.536], [-4.169, 30.578], [-4.148, 30.585], [-4.001, 30.593], [-3.927, 30.604], [-3.92, 30.599], [-3.904, 30.602], [-3.887, 30.611], [-3.866, 30.605], [-3.847, 30.595], [-3.834, 30.596], [-3.817, 30.59], [-3.792, 30.607], [-3.774, 30.613], [-3.768, 30.626], [-3.742, 30.639], [-3.722, 30.645], [-3.709, 30.655], [-3.681, 30.668], [-3.672, 30.664], [-3.657, 30.672], [-3.645, 30.69], [-3.647, 30.699], [-3.64, 30.706], [-3.63, 30.745], [-3.635, 30.764], [-3.645, 30.768], [-3.65, 30.799], [-3.652, 30.843], [-3.658, 30.852], [-3.639, 30.858], [-3.633, 30.868], [-3.636, 30.876], [-3.616, 30.866], [-3.614, 30.877], [-3.606, 30.879], [-3.605, 30.895], [-3.594, 30.895], [-3.583, 30.908], [-3.587, 30.919], [-3.575, 30.922], [-3.571, 30.935], [-3.564, 30.929], [-3.553, 30.939], [-3.557, 30.948], [-3.541, 30.955], [-3.549, 30.963], [-3.538, 30.974], [-3.543, 30.981], [-3.536, 31.014], [-3.541, 31.019], [-3.542, 31.039], [-3.548, 31.032], [-3.552, 31.043], [-3.549, 31.061], [-3.561, 31.061], [-3.564, 31.047], [-3.572, 31.052], [-3.574, 31.043], [-3.592, 31.058], [-3.594, 31.076], [-3.606, 31.076], [-3.611, 31.101], [-3.618, 31.099], [-3.615, 31.116], [-3.62, 31.12], [-3.63, 31.106], [-3.639, 31.115], [-3.635, 31.138], [-3.639, 31.17], [-3.643, 31.157], [-3.639, 31.142], [-3.652, 31.134], [-3.645, 31.13], [-3.644, 31.11], [-3.637, 31.1], [-3.649, 31.094], [-3.665, 31.103], [-3.664, 31.088], [-3.643, 31.086], [-3.658, 31.082], [-3.68, 31.087], [-3.674, 31.097], [-3.676, 31.109], [-3.67, 31.12], [-3.673, 31.132], [-3.671, 31.148], [-3.681, 31.165], [-3.694, 31.167], [-3.702, 31.176], [-3.714, 31.166], [-3.711, 31.154], [-3.724, 31.146], [-3.725, 31.128], [-3.734, 31.115], [-3.741, 31.125], [-3.756, 31.127], [-3.772, 31.12], [-3.775, 31.101], [-3.777, 31.144], [-3.759, 31.18], [-3.773, 31.211], [-3.791, 31.236], [-3.78, 31.242], [-3.783, 31.249], [-3.759, 31.263], [-3.754, 31.279], [-3.773, 31.281], [-3.775, 31.292], [-3.786, 31.293], [-3.778, 31.303], [-3.763, 31.311], [-3.765, 31.334], [-3.754, 31.34], [-3.758, 31.347], [-3.749, 31.361], [-3.739, 31.355], [-3.736, 31.344], [-3.727, 31.341], [-3.715, 31.347], [-3.712, 31.362], [-3.695, 31.363], [-3.679, 31.371], [-3.669, 31.386], [-3.661, 31.378], [-3.647, 31.394], [-3.665, 31.401], [-3.665, 31.634], [-3.661, 31.635], [-3.502, 31.666], [-3.319, 31.7], [-3.252, 31.714], [-3.158, 31.73], [-3.001, 31.759], [-2.821, 31.794], [-2.822, 31.814], [-2.828, 31.824], [-2.844, 31.832], [-2.837, 31.856], [-2.841, 31.881], [-2.855, 31.903], [-2.884, 31.94], [-2.882, 31.955], [-2.888, 31.969], [-2.897, 31.975], [-2.917, 32.012], [-2.928, 32.023], [-2.931, 32.035], [-2.919, 32.071], [-2.905, 32.086], [-2.873, 32.111], [-2.82, 32.115], [-2.799, 32.113], [-2.764, 32.113], [-2.729, 32.111], [-2.649, 32.117], [-2.6, 32.113], [-2.569, 32.126], [-2.542, 32.145], [-2.475, 32.151], [-2.449, 32.156], [-2.431, 32.152], [-2.406, 32.158], [-2.388, 32.155], [-2.351, 32.155], [-2.314, 32.158], [-2.3, 32.151], [-2.287, 32.153], [-2.286, 32.163], [-2.278, 32.169], [-2.259, 32.162], [-2.246, 32.162], [-2.18, 32.142], [-2.132, 32.146], [-2.102, 32.154], [-2.088, 32.16], [-2.015, 32.182], [-1.982, 32.17], [-1.969, 32.157], [-1.944, 32.159], [-1.927, 32.151], [-1.921, 32.162], [-1.903, 32.164], [-1.868, 32.144], [-1.856, 32.149], [-1.838, 32.143], [-1.83, 32.146], [-1.802, 32.136], [-1.788, 32.135], [-1.749, 32.121], [-1.727, 32.121], [-1.714, 32.115], [-1.697, 32.119], [-1.662, 32.109], [-1.641, 32.11], [-1.632, 32.105], [-1.577, 32.092], [-1.509, 32.104], [-1.487, 32.096], [-1.45, 32.093], [-1.377, 32.084], [-1.365, 32.091], [-1.338, 32.083], [-1.315, 32.083], [-1.273, 32.087], [-1.256, 32.077], [-1.221, 32.08], [-1.196, 32.09], [-1.182, 32.104], [-1.152, 32.112], [-1.153, 32.128], [-1.163, 32.134], [-1.172, 32.151], [-1.183, 32.164], [-1.217, 32.176], [-1.237, 32.169], [-1.276, 32.164], [-1.288, 32.159], [-1.3, 32.168], [-1.282, 32.177], [-1.277, 32.186], [-1.26, 32.192], [-1.241, 32.206], [-1.248, 32.251], [-1.241, 32.261], [-1.243, 32.269], [-1.235, 32.29], [-1.235, 32.311], [-1.249, 32.32], [-1.242, 32.329], [-1.223, 32.34], [-1.221, 32.352], [-1.207, 32.372], [-1.201, 32.387], [-1.206, 32.392], [-1.188, 32.407], [-1.17, 32.41], [-1.162, 32.416], [-1.143, 32.416], [-1.128, 32.41], [-1.104, 32.432], [-1.063, 32.453], [-1.045, 32.476], [-1.019, 32.496], [-1.016, 32.505], [-1.001, 32.506], [-1, 32.52], [-1.01, 32.532], [-1.045, 32.547], [-1.129, 32.602], [-1.175, 32.633], [-1.211, 32.653], [-1.228, 32.667], [-1.271, 32.696], [-1.312, 32.712], [-1.356, 32.732], [-1.377, 32.745], [-1.399, 32.763], [-1.498, 32.899], [-1.544, 32.958], [-1.511, 32.97], [-1.496, 32.967], [-1.486, 32.975], [-1.472, 33.004], [-1.477, 33.022], [-1.462, 33.042], [-1.475, 33.077], [-1.488, 33.086], [-1.515, 33.094], [-1.535, 33.108], [-1.539, 33.118], [-1.576, 33.149], [-1.58, 33.17], [-1.6, 33.195], [-1.607, 33.213], [-1.629, 33.224], [-1.646, 33.251], [-1.655, 33.256], [-1.67, 33.284], [-1.659, 33.301], [-1.662, 33.318], [-1.659, 33.339], [-1.664, 33.352], [-1.664, 33.378], [-1.646, 33.423], [-1.628, 33.432], [-1.621, 33.448], [-1.618, 33.475], [-1.62, 33.49], [-1.606, 33.498], [-1.595, 33.522], [-1.588, 33.529], [-1.603, 33.556], [-1.593, 33.571], [-1.601, 33.576], [-1.596, 33.586], [-1.6, 33.615], [-1.625, 33.625], [-1.631, 33.631], [-1.644, 33.661], [-1.647, 33.676], [-1.658, 33.682], [-1.69, 33.675], [-1.708, 33.678], [-1.709, 33.685], [-1.732, 33.701], [-1.721, 33.741], [-1.711, 33.748], [-1.692, 33.751], [-1.677, 33.759], [-1.671, 33.773], [-1.675, 33.786], [-1.672, 33.806], [-1.684, 33.819], [-1.699, 33.87], [-1.688, 33.914], [-1.665, 34.018], [-1.651, 34.097], [-1.646, 34.102], [-1.671, 34.155], [-1.692, 34.194], [-1.707, 34.23], [-1.706, 34.251], [-1.712, 34.262], [-1.708, 34.274], [-1.711, 34.289], [-1.705, 34.307], [-1.734, 34.345], [-1.769, 34.372], [-1.782, 34.391], [-1.758, 34.419], [-1.718, 34.46], [-1.687, 34.49], [-1.727, 34.507], [-1.741, 34.508], [-1.764, 34.531], [-1.768, 34.542], [-1.79, 34.561], [-1.789, 34.57], [-1.799, 34.584], [-1.812, 34.595], [-1.823, 34.61], [-1.839, 34.617], [-1.854, 34.616], [-1.839, 34.628], [-1.789, 34.688], [-1.775, 34.699], [-1.771, 34.725], [-1.739, 34.744], [-1.822, 34.782], [-1.842, 34.788], [-1.859, 34.802], [-1.889, 34.807], [-1.893, 34.842], [-1.942, 34.862], [-1.951, 34.87], [-1.973, 34.88], [-1.973, 34.935], [-1.993, 34.93], [-2.011, 34.932], [-2.035, 34.925], [-2.046, 34.927], [-2.058, 34.937], [-2.08, 34.948], [-2.123, 34.985], [-2.127, 34.996], [-2.144, 34.999], [-2.16, 35.008], [-2.165, 35.005], [-2.187, 35.024], [-2.184, 35.03], [-2.218, 35.049], [-2.211, 35.058], [-2.215, 35.069], [-2.212, 35.085], [-2.183, 35.086], [-2.167, 35.098], [-2.155, 35.102], [-2.146, 35.094], [-2.12, 35.091], [-2.108, 35.081], [-2.073, 35.072], [-2.037, 35.072], [-2.022, 35.079], [-2.016, 35.072], [-1.979, 35.075], [-1.959, 35.073], [-1.942, 35.078], [-1.938, 35.084], [-1.904, 35.085], [-1.902, 35.091], [-1.886, 35.091], [-1.873, 35.1], [-1.835, 35.11], [-1.805, 35.133], [-1.797, 35.121], [-1.775, 35.119], [-1.75, 35.131], [-1.732, 35.145], [-1.724, 35.159], [-1.702, 35.177], [-1.686, 35.182], [-1.658, 35.176], [-1.648, 35.186], [-1.649, 35.194], [-1.622, 35.22], [-1.612, 35.22], [-1.605, 35.232], [-1.573, 35.244], [-1.555, 35.27], [-1.519, 35.273], [-1.498, 35.288], [-1.469, 35.299], [-1.463, 35.308], [-1.418, 35.3], [-1.389, 35.305], [-1.355, 35.32], [-1.338, 35.342], [-1.322, 35.35], [-1.295, 35.351], [-1.275, 35.365], [-1.269, 35.379], [-1.252, 35.403], [-1.224, 35.481], [-1.223, 35.494], [-1.209, 35.521], [-1.207, 35.535], [-1.2, 35.542], [-1.192, 35.563], [-1.198, 35.574], [-1.182, 35.582], [-1.169, 35.574], [-1.152, 35.576], [-1.15, 35.587], [-1.102, 35.624], [-1.059, 35.64], [-1.049, 35.666], [-1.017, 35.68], [-0.999, 35.677], [-0.971, 35.694], [-0.957, 35.716], [-0.931, 35.728], [-0.915, 35.72], [-0.911, 35.711], [-0.884, 35.707], [-0.86, 35.717], [-0.843, 35.732], [-0.826, 35.758], [-0.826, 35.768], [-0.814, 35.766], [-0.808, 35.771], [-0.79, 35.759], [-0.759, 35.744], [-0.73, 35.737], [-0.703, 35.742], [-0.702, 35.723], [-0.681, 35.713], [-0.665, 35.715], [-0.652, 35.709], [-0.629, 35.713], [-0.609, 35.72], [-0.587, 35.739], [-0.566, 35.761], [-0.56, 35.772], [-0.528, 35.769], [-0.51, 35.782], [-0.494, 35.807], [-0.486, 35.83], [-0.479, 35.871], [-0.49, 35.875], [-0.47, 35.887], [-0.449, 35.877], [-0.421, 35.88], [-0.404, 35.891], [-0.394, 35.894], [-0.383, 35.909], [-0.352, 35.905], [-0.34, 35.909], [-0.337, 35.895], [-0.304, 35.881], [-0.291, 35.871], [-0.296, 35.862], [-0.308, 35.859], [-0.303, 35.839], [-0.276, 35.82], [-0.24, 35.808], [-0.197, 35.801], [-0.164, 35.8], [-0.16, 35.793], [-0.126, 35.789], [-0.105, 35.79], [-0.083, 35.802], [-0.051, 35.813], [0.008, 35.846], [0.025, 35.86], [0.036, 35.874], [0.051, 35.902], [0.058, 35.924], [0.072, 35.925], [0.082, 35.939], [0.1, 35.98], [0.114, 35.995], [0.129, 36.034], [0.181, 36.078], [0.203, 36.105], [0.221, 36.117], [0.236, 36.122], [0.256, 36.123], [0.291, 36.137], [0.303, 36.149], [0.315, 36.153], [0.334, 36.173], [0.338, 36.19], [0.383, 36.211], [0.413, 36.209], [0.452, 36.222], [0.484, 36.236], [0.49, 36.244], [0.538, 36.264], [0.557, 36.276], [0.589, 36.283], [0.613, 36.301], [0.629, 36.306], [0.649, 36.325], [0.665, 36.331], [0.679, 36.33], [0.75, 36.334], [0.775, 36.342], [0.805, 36.366], [0.823, 36.362], [0.837, 36.363], [0.871, 36.373], [0.911, 36.398], [0.923, 36.417], [0.923, 36.428], [0.935, 36.446], [0.998, 36.461], [1.035, 36.474], [1.046, 36.48], [1.096, 36.496], [1.11, 36.491], [1.137, 36.493], [1.193, 36.515], [1.225, 36.506], [1.26, 36.505], [1.283, 36.507], [1.314, 36.517], [1.343, 36.552], [1.387, 36.551], [1.397, 36.537], [1.431, 36.539], [1.445, 36.536], [1.46, 36.542], [1.472, 36.532], [1.492, 36.528], [1.511, 36.529], [1.528, 36.54], [1.553, 36.542], [1.581, 36.534], [1.606, 36.537], [1.619, 36.546], [1.624, 36.542], [1.653, 36.555], [1.702, 36.553], [1.74, 36.556], [1.758, 36.562], [1.787, 36.557], [1.855, 36.568], [1.885, 36.569], [1.911, 36.576], [1.938, 36.571], [1.992, 36.566], [2.042, 36.571], [2.052, 36.576], [2.098, 36.581], [2.128, 36.586], [2.2, 36.614], [2.208, 36.611], [2.247, 36.618], [2.286, 36.633], [2.347, 36.644], [2.377, 36.641], [2.402, 36.634], [2.408, 36.621], [2.409, 36.605], [2.435, 36.594], [2.446, 36.597], [2.473, 36.592], [2.482, 36.594], [2.555, 36.592], [2.596, 36.602], [2.603, 36.601], [2.627, 36.613], [2.647, 36.619], [2.672, 36.639], [2.709, 36.659], [2.749, 36.676], [2.776, 36.683], [2.8, 36.696], [2.824, 36.715], [2.839, 36.732], [2.846, 36.749], [2.839, 36.763], [2.852, 36.759], [2.867, 36.762], [2.894, 36.783], [2.904, 36.806], [2.932, 36.806], [2.968, 36.816], [3.004, 36.816], [3.01, 36.82], [3.037, 36.809], [3.066, 36.786], [3.062, 36.763], [3.086, 36.75], [3.116, 36.744], [3.152, 36.742], [3.186, 36.748], [3.21, 36.759], [3.231, 36.776], [3.236, 36.791], [3.235, 36.805], [3.224, 36.812], [3.231, 36.816], [3.255, 36.813], [3.264, 36.805], [3.313, 36.789], [3.353, 36.784], [3.414, 36.771], [3.469, 36.767], [3.493, 36.769], [3.512, 36.775], [3.515, 36.783], [3.544, 36.789], [3.563, 36.803], [3.62, 36.817], [3.668, 36.84], [3.689, 36.847], [3.716, 36.865], [3.714, 36.878], [3.736, 36.887], [3.803, 36.902], [3.836, 36.908], [3.844, 36.913], [3.869, 36.913], [3.877, 36.92], [3.895, 36.924], [3.916, 36.914], [3.922, 36.906], [3.946, 36.899], [3.966, 36.897], [4.012, 36.903], [4.062, 36.896], [4.072, 36.898], [4.093, 36.891], [4.112, 36.89], [4.122, 36.896], [4.143, 36.895], [4.153, 36.908], [4.186, 36.895], [4.212, 36.892], [4.238, 36.903], [4.262, 36.906], [4.273, 36.902], [4.297, 36.908], [4.308, 36.896], [4.33, 36.901], [4.352, 36.893], [4.405, 36.891], [4.418, 36.896], [4.422, 36.91], [4.44, 36.911], [4.462, 36.901], [4.469, 36.903], [4.491, 36.897], [4.506, 36.887], [4.553, 36.884], [4.633, 36.883], [4.643, 36.888], [4.657, 36.883], [4.674, 36.884], [4.702, 36.881], [4.732, 36.883], [4.743, 36.892], [4.759, 36.896], [4.776, 36.89], [4.789, 36.891], [4.807, 36.875], [4.855, 36.866], [4.878, 36.858], [4.886, 36.85], [4.908, 36.848], [4.923, 36.85], [4.938, 36.83], [4.971, 36.815], [4.986, 36.813], [4.989, 36.819], [5.005, 36.806], [5.014, 36.806], [5.015, 36.796], [5.048, 36.782], [5.107, 36.775], [5.102, 36.758], [5.094, 36.759], [5.079, 36.746], [5.077, 36.729], [5.084, 36.707], [5.094, 36.7], [5.136, 36.679], [5.179, 36.662], [5.219, 36.649], [5.254, 36.641], [5.279, 36.638], [5.307, 36.639], [5.369, 36.644], [5.405, 36.654], [5.419, 36.652], [5.445, 36.662], [5.466, 36.665], [5.508, 36.687], [5.519, 36.688], [5.536, 36.701], [5.54, 36.71], [5.557, 36.723], [5.55, 36.731], [5.555, 36.745], [5.567, 36.751], [5.572, 36.764], [5.579, 36.764], [5.6, 36.777], [5.621, 36.777], [5.648, 36.786], [5.658, 36.797], [5.678, 36.799], [5.684, 36.812], [5.694, 36.812], [5.723, 36.824], [5.738, 36.821], [5.742, 36.829], [5.769, 36.825], [5.777, 36.813], [5.791, 36.808], [5.824, 36.809], [5.88, 36.817], [5.896, 36.827], [5.912, 36.823], [5.977, 36.836], [6.033, 36.851], [6.085, 36.872], [6.146, 36.893], [6.201, 36.905], [6.237, 36.92], [6.249, 36.929], [6.263, 36.948], [6.264, 36.955], [6.255, 36.971], [6.243, 36.974], [6.239, 36.983], [6.249, 36.997], [6.26, 37.004], [6.262, 37.023], [6.279, 37.032], [6.31, 37.041], [6.335, 37.066], [6.364, 37.077], [6.416, 37.086], [6.428, 37.081], [6.465, 37.085], [6.466, 37.089], [6.49, 37.085], [6.512, 37.074], [6.512, 37.063], [6.52, 37.054], [6.544, 37.05], [6.539, 37.035], [6.549, 37.026], [6.566, 37.03], [6.57, 37.023], [6.564, 37.014], [6.571, 37.009], [6.563, 36.993], [6.573, 36.981], [6.589, 36.974], [6.615, 36.97], [6.631, 36.974], [6.624, 36.967], [6.635, 36.957], [6.661, 36.959], [6.674, 36.947], [6.679, 36.957], [6.689, 36.949], [6.709, 36.951], [6.72, 36.945], [6.745, 36.951], [6.769, 36.945], [6.782, 36.947], [6.788, 36.956], [6.802, 36.957], [6.813, 36.948], [6.85, 36.954], [6.846, 36.938], [6.857, 36.932], [6.881, 36.932], [6.886, 36.92], [6.88, 36.897], [6.893, 36.889], [6.914, 36.888], [6.931, 36.88], [6.97, 36.886], [7.015, 36.895], [7.051, 36.907], [7.061, 36.915], [7.094, 36.921], [7.111, 36.918], [7.121, 36.908], [7.134, 36.908], [7.147, 36.917], [7.161, 36.917], [7.201, 36.943], [7.227, 36.965], [7.25, 36.995], [7.256, 37.023], [7.24, 37.039], [7.221, 37.045], [7.194, 37.064], [7.181, 37.077], [7.191, 37.075], [7.212, 37.09], [7.252, 37.08], [7.273, 37.066], [7.286, 37.07], [7.291, 37.081], [7.322, 37.067], [7.337, 37.065], [7.373, 37.072], [7.369, 37.08], [7.381, 37.085], [7.393, 37.076], [7.381, 37.063], [7.396, 37.046], [7.412, 37.039], [7.467, 37.047], [7.487, 37.041], [7.512, 37.042], [7.525, 37.02], [7.553, 37.006], [7.558, 36.992], [7.568, 36.985], [7.621, 36.962], [7.643, 36.963], [7.655, 36.978], [7.665, 36.966], [7.68, 36.972], [7.694, 36.959], [7.704, 36.962], [7.702, 36.951], [7.721, 36.956], [7.769, 36.959], [7.786, 36.97], [7.792, 36.966], [7.78, 36.958], [7.782, 36.951], [7.768, 36.945], [7.76, 36.929], [7.777, 36.908], [7.765, 36.897], [7.777, 36.898], [7.761, 36.884], [7.777, 36.865], [7.795, 36.856], [7.823, 36.847], [7.845, 36.843], [7.905, 36.843], [7.955, 36.85], [7.995, 36.86], [8.084, 36.888], [8.18, 36.928], [8.2, 36.94], [8.229, 36.952], [8.242, 36.945], [8.24, 36.936], [8.264, 36.928], [8.266, 36.918], [8.285, 36.915], [8.328, 36.921], [8.338, 36.916], [8.361, 36.922], [8.383, 36.914], [8.403, 36.914], [8.425, 36.896], [8.482, 36.902], [8.492, 36.907], [8.502, 36.904], [8.556, 36.927], [8.6, 36.933], [8.613, 36.943], [8.617, 36.934], [8.642, 36.941]]], [[[3.018, 36.82], [3.018, 36.82], [3.018, 36.82], [3.018, 36.82]]], [[[5.705, 36.82], [5.705, 36.82], [5.705, 36.82], [5.705, 36.82]]], [[[5.705, 36.82], [5.705, 36.82], [5.705, 36.82], [5.705, 36.82]]], [[[3.019, 36.82], [3.019, 36.82], [3.019, 36.82], [3.019, 36.82]]], [[[5.709, 36.821], [5.709, 36.821], [5.709, 36.821], [5.709, 36.821]]], [[[5.707, 36.821], [5.707, 36.821], [5.707, 36.821], [5.707, 36.821]]], [[[5.71, 36.823], [5.71, 36.823], [5.71, 36.823], [5.71, 36.823]]], [[[5.731, 36.824], [5.731, 36.824], [5.731, 36.824], [5.731, 36.824]]], [[[4.997, 36.824], [4.997, 36.824], [4.997, 36.824], [4.997, 36.824]]], [[[5.728, 36.823], [5.728, 36.823], [5.728, 36.823], [5.728, 36.823]]], [[[4.998, 36.825], [4.998, 36.825], [4.998, 36.825], [4.998, 36.825]]], [[[4.999, 36.826], [4.999, 36.826], [4.999, 36.826], [4.999, 36.826]]], [[[4.999, 36.827], [4.999, 36.827], [4.999, 36.827], [4.999, 36.827]]], [[[5.781, 36.827], [5.781, 36.827], [5.781, 36.827], [5.781, 36.827]]], [[[6.067, 36.866], [6.067, 36.866], [6.067, 36.866], [6.067, 36.866]]], [[[4.8, 36.884], [4.8, 36.884], [4.8, 36.884], [4.8, 36.884]]], [[[4.79, 36.893], [4.79, 36.893], [4.79, 36.893], [4.79, 36.893]]], [[[4.769, 36.894], [4.769, 36.894], [4.769, 36.894], [4.769, 36.894]]], [[[8.433, 36.898], [8.433, 36.898], [8.433, 36.898], [8.433, 36.898]]], [[[4.227, 36.899], [4.227, 36.899], [4.227, 36.899], [4.227, 36.899]]], [[[4.27, 36.903], [4.27, 36.903], [4.27, 36.903], [4.27, 36.903]]], [[[8.504, 36.905], [8.504, 36.905], [8.504, 36.905], [8.504, 36.905]]], [[[8.122, 36.907], [8.122, 36.907], [8.122, 36.907], [8.122, 36.907]]], [[[8.412, 36.908], [8.412, 36.908], [8.412, 36.908], [8.412, 36.908]]], [[[8.507, 36.908], [8.507, 36.908], [8.507, 36.908], [8.507, 36.908]]], [[[8.516, 36.909], [8.516, 36.909], [8.516, 36.909], [8.516, 36.909]]], [[[8.517, 36.91], [8.517, 36.91], [8.517, 36.91], [8.517, 36.91]]], [[[6.882, 36.932], [6.882, 36.932], [6.882, 36.932], [6.882, 36.932]]], [[[6.886, 36.936], [6.886, 36.936], [6.886, 36.936], [6.886, 36.936]]], [[[6.886, 36.938], [6.886, 36.938], [6.886, 36.938], [6.886, 36.938]]], [[[6.849, 36.952], [6.849, 36.952], [6.849, 36.952], [6.849, 36.952]]], [[[6.849, 36.953], [6.849, 36.953], [6.849, 36.953], [6.849, 36.953]]], [[[6.849, 36.954], [6.849, 36.954], [6.849, 36.954], [6.849, 36.954]]], [[[6.803, 36.955], [6.803, 36.955], [6.803, 36.955], [6.803, 36.955]]], [[[6.788, 36.957], [6.788, 36.957], [6.788, 36.957], [6.788, 36.957]]], [[[6.788, 36.959], [6.788, 36.959], [6.788, 36.959], [6.788, 36.959]]], [[[6.707, 36.959], [6.707, 36.959], [6.707, 36.959], [6.707, 36.959]]], [[[6.786, 36.961], [6.786, 36.961], [6.786, 36.961], [6.786, 36.961]]], [[[6.786, 36.962], [6.786, 36.962], [6.786, 36.962], [6.786, 36.962]]], [[[7.641, 36.964], [7.641, 36.964], [7.641, 36.964], [7.641, 36.964]]], [[[6.787, 36.96], [6.787, 36.96], [6.787, 36.96], [6.787, 36.96]]], [[[6.737, 36.965], [6.737, 36.965], [6.737, 36.965], [6.737, 36.965]]], [[[6.737, 36.965], [6.737, 36.965], [6.737, 36.965], [6.737, 36.965]]], [[[7.794, 36.967], [7.794, 36.967], [7.794, 36.967], [7.794, 36.967]]], [[[7.792, 36.967], [7.792, 36.967], [7.792, 36.967], [7.792, 36.967]]], [[[6.792, 36.956], [6.792, 36.956], [6.792, 36.956], [6.792, 36.956]]], [[[6.835, 36.956], [6.835, 36.956], [6.835, 36.956], [6.835, 36.956]]], [[[6.849, 36.956], [6.849, 36.956], [6.849, 36.956], [6.849, 36.956]]], [[[6.849, 36.956], [6.849, 36.956], [6.849, 36.956], [6.849, 36.956]]], [[[6.853, 36.956], [6.853, 36.956], [6.853, 36.956], [6.853, 36.956]]], [[[6.89, 36.92], [6.89, 36.92], [6.89, 36.92], [6.89, 36.92]]], [[[6.886, 36.921], [6.886, 36.921], [6.886, 36.921], [6.886, 36.921]]], [[[7.682, 36.972], [7.682, 36.972], [7.682, 36.972], [7.682, 36.972]]], [[[6.543, 37.031], [6.543, 37.031], [6.543, 37.031], [6.543, 37.031]]], [[[7.427, 37.041], [7.427, 37.041], [7.427, 37.041], [7.427, 37.041]]], [[[6.544, 37.056], [6.544, 37.056], [6.544, 37.056], [6.544, 37.056]]], [[[6.543, 37.056], [6.543, 37.056], [6.543, 37.056], [6.543, 37.056]]], [[[7.169, 37.077], [7.169, 37.077], [7.169, 37.077], [7.169, 37.077]]], [[[7.285, 37.077], [7.285, 37.077], [7.285, 37.077], [7.285, 37.077]]], [[[7.284, 37.078], [7.284, 37.078], [7.284, 37.078], [7.284, 37.078]]], [[[7.162, 37.08], [7.162, 37.08], [7.162, 37.08], [7.162, 37.08]]], [[[7.179, 37.082], [7.179, 37.082], [7.179, 37.082], [7.179, 37.082]]], [[[7.177, 37.083], [7.177, 37.083], [7.177, 37.083], [7.177, 37.083]]], [[[7.183, 37.084], [7.183, 37.084], [7.183, 37.084], [7.183, 37.084]]], [[[7.331, 37.085], [7.331, 37.085], [7.331, 37.085], [7.331, 37.085]]], [[[7.232, 37.088], [7.232, 37.088], [7.232, 37.088], [7.232, 37.088]]], [[[7.183, 37.085], [7.183, 37.085], [7.183, 37.085], [7.183, 37.085]]], [[[7.79, 36.967], [7.79, 36.967], [7.79, 36.967], [7.79, 36.967]]], [[[7.791, 36.968], [7.791, 36.968], [7.791, 36.968], [7.791, 36.968]]], [[[7.793, 36.969], [7.793, 36.969], [7.793, 36.969], [7.793, 36.969]]]]}}