{"type": "Feature", "properties": {"name": "Georgia", "iso1": "GE", "admin_level": 2, "osm_id": 28699, "countrylevel_id": "iso1:GE", "osm_data": {"localname": "საქართველო", "official_name": "", "alltags": {"flag": "http://upload.wikimedia.org/wikipedia/commons/0/0f/Flag_of_Georgia.svg", "int_ref": "GE", "name:ab": "Қырҭтәыла", "name:af": "Georgië", "name:am": "ጂዮርጂያ", "name:an": "Cheorchia", "name:ar": "جورجيا", "name:av": "Гуржи", "name:az": "Gürcüstan", "name:be": "Грузія", "name:bg": "Грузия", "name:bn": "জর্জিয়া (রাষ্ট্র)", "name:bo": "འཇོར་ཇི་ཡ། (རྒྱལ་ཁབ།)", "name:br": "Jorjia (bro)", "name:bs": "Gruzija", "name:ca": "Geòrgia", "name:ce": "Гуьржийчоь", "name:cs": "Gruzie", "name:cu": "Гєѡргїꙗ", "name:cv": "Грузи", "name:cy": "Georgia", "name:da": "Georgien", "name:dv": "ޖޯޖިޔާ (ޤައުމު)", "name:dz": "ཇཽ་ཇཱ", "name:ee": "Georgia", "name:el": "Γεωργία", "name:en": "Georgia", "name:eo": "Kartvelujo", "name:es": "Georgia", "name:et": "Gruusia", "name:eu": "Georgia", "name:fa": "گرجستان", "name:fi": "Georgia", "name:fo": "Georgia (land)", "name:fr": "Géorgie", "name:fy": "Geörgje", "name:ga": "An tSeoirsia", "name:gd": "A' Chairtbheil", "name:gl": "Xeorxia - საქართველო", "name:gu": "જ્યોર્જીયા (દેશ)", "name:gv": "Yn Çhorshey", "name:he": "גאורגיה", "name:hi": "जॉर्जिया", "name:hr": "Gruzija", "name:ht": "Jeoji", "name:hu": "Grúzia", "name:hy": "Վրաստան", "name:ia": "Georgia", "name:id": "Georgia", "name:ie": "Georgia", "name:io": "Gruzia", "name:is": "Georgía", "name:it": "Georgia", "name:ja": "グルジア", "name:jv": "Georgia", "name:ka": "საქართველო", "name:kk": "Грузия", "name:kn": "ಜಾರ್ಜಿಯ", "name:ko": "조지아 (국가)", "name:ku": "Gurcistan", "name:kv": "Грузия", "name:kw": "Pow Grouzi", "name:ky": "Грузия", "name:la": "Georgia", "name:lb": "Georgien", "name:li": "Georgië", "name:lt": "Gruzija", "name:lv": "Gruzija", "name:mi": "Hōria", "name:mk": "Грузија", "name:ml": "ജോർജ്ജിയ", "name:mn": "Гүрж", "name:mr": "जॉर्जिया", "name:ms": "Georgia", "name:mt": "Ġeorġja", "name:my": "ဂျော်ဂျီယာနိုင်ငံ", "name:na": "Djiordjiya", "name:ne": "जर्जिया (देश)", "name:nl": "Georgië", "name:nn": "Georgia", "name:no": "Georgia", "name:nv": "Jóojah (Kéyah)", "name:oc": "Georgia (Caucàs)", "name:or": "ଜର୍ଜିଆ", "name:os": "Гуырдзыстон", "name:pl": "Gruzja", "name:ps": "ګرجستان", "name:pt": "Geórgia", "name:qu": "Kartulsuyu", "name:ro": "Georgia", "name:ru": "Грузия", "name:rw": "Geworugiya", "name:sc": "Georgia", "name:se": "Georgia", "name:sh": "Gruzija", "name:si": "ජෝර්ජියා (රට)", "name:sk": "Gruzínsko", "name:sl": "Gruzija", "name:so": "Joorjiya", "name:sq": "Gjeorgjia", "name:sr": "Грузија", "name:ss": "IJojiya", "name:su": "Géorgia", "name:sv": "Georgien", "name:sw": "Georgia (nchi)", "name:ta": "சியார்சியா (நாடு)", "name:te": "జార్జియా (దేశం)", "name:tg": "Гурҷистон", "name:th": "ประเทศจอร์เจีย", "name:tk": "Gruziýa", "name:tl": "Heorhiya", "name:tr": "Gürcistan", "name:tt": "Гөрҗистан", "name:ug": "گرۇزىيە", "name:uk": "Грузія", "name:ur": "جارجیا", "name:uz": "Gurjiston", "name:vi": "Gruzia", "name:vo": "Grusiyän", "name:wo": "Jeoorji", "name:yi": "גרוזיע", "name:yo": "Georgia", "name:zh": "格鲁吉亚", "int_name": "Georgia", "name:ace": "Georgia", "name:als": "Georgien", "name:ang": "Georgia", "name:arc": "ܓܘܪܓܝܐ", "name:arz": "جيورجيا", "name:ast": "Xeorxa", "name:bar": "Georgien", "name:bcl": "Georgya", "name:bjn": "Jorjiya", "name:bxr": "Гүрж", "name:cdo": "Gáh-lū-gék-ā", "name:ceb": "Georgia", "name:ckb": "گورجستان", "name:crh": "Gürcistan", "name:csb": "Grëzóńskô", "name:diq": "Gurcıstan", "name:dsb": "Georgiska", "name:ext": "Geólgia", "name:frp": "Jôrg·ie", "name:frr": "Georgien", "name:gag": "Gruziya", "name:hak": "Kak-lû-kit-â", "name:haw": "Keokia", "name:hif": "Georgia", "name:hsb": "Georgiska", "name:ilo": "Georgia", "name:kaa": "Gruziya", "name:kbd": "Хъырцей", "name:krc": "Гюрджю", "name:lbe": "Гуржисттан", "name:lez": "Гуржистан", "name:lij": "Geòrgia", "name:lmo": "Georgia", "name:ltg": "Gruzeja", "name:mdf": "Грузие", "name:mhr": "Грузий", "name:min": "Georgia", "name:mzn": "گرجستون", "name:nah": "Georgia", "name:nan": "Sakartvelo", "name:nds": "Georgien", "name:new": "ज्योर्जिया", "name:nov": "Georgia", "name:pam": "Georgya", "name:pih": "Jorja", "name:pms": "Geòrgia", "name:pnb": "گرجستان", "name:pnt": "Γρουζία", "name:sah": "Грузия", "name:scn": "Giorgia", "name:sco": "Georgie", "name:stq": "Georgien", "name:szl": "Gruzyjo", "name:tok": "ma Katelo", "name:tzl": "Cartavia", "name:udm": "Грузия", "name:vec": "Zorzania", "name:vep": "Gruzii", "name:war": "Georgia", "name:wuu": "格鲁吉亚", "name:xal": "Гүрҗмүдин Орн", "name:xmf": "საქორთუო", "name:yue": "格魯吉亞", "name:zea": "Georhië", "relation": "nation", "population": "3729500", "alt_name:eo": "Kartvelio", "border_type": "International", "addr:country": "GE", "name:bat-smg": "Grozėjė", "name:fiu-vro": "Gruusia", "name:be-tarask": "Грузія", "population:date": "2015", "default_language": "ka"}}, "center_lat": 42.18, "center_lon": 43.51, "timezone": "Asia/Tbilisi", "population": 3717100, "wikidata_id": "Q230", "wikipedia_id": "en:Georgia (country)"}, "geometry": {"type": "MultiPolygon", "coordinates": [[[[40.008, 43.386], [40.008, 43.405], [40.014, 43.412], [40.014, 43.429], [40.022, 43.433], [40.042, 43.454], [40.044, 43.475], [40.063, 43.505], [40.09, 43.524], [40.096, 43.532], [40.091, 43.556], [40.098, 43.566], [40.11, 43.57], [40.131, 43.565], [40.171, 43.577], [40.189, 43.573], [40.214, 43.575], [40.235, 43.584], [40.261, 43.586], [40.271, 43.578], [40.281, 43.579], [40.299, 43.57], [40.314, 43.578], [40.324, 43.569], [40.345, 43.562], [40.355, 43.564], [40.389, 43.554], [40.41, 43.552], [40.439, 43.557], [40.467, 43.546], [40.478, 43.549], [40.505, 43.525], [40.523, 43.521], [40.566, 43.519], [40.595, 43.532], [40.607, 43.547], [40.632, 43.549], [40.662, 43.563], [40.676, 43.551], [40.692, 43.548], [40.689, 43.538], [40.741, 43.526], [40.777, 43.505], [40.817, 43.495], [40.828, 43.488], [40.879, 43.485], [40.892, 43.489], [40.9, 43.467], [40.893, 43.457], [40.929, 43.444], [40.929, 43.429], [40.95, 43.42], [40.978, 43.425], [40.983, 43.43], [41.004, 43.432], [41.014, 43.42], [41.037, 43.407], [41.039, 43.399], [41.075, 43.388], [41.098, 43.385], [41.105, 43.404], [41.115, 43.399], [41.131, 43.399], [41.151, 43.405], [41.154, 43.391], [41.169, 43.383], [41.181, 43.386], [41.195, 43.381], [41.221, 43.381], [41.239, 43.362], [41.251, 43.358], [41.258, 43.365], [41.277, 43.359], [41.275, 43.348], [41.288, 43.337], [41.317, 43.339], [41.323, 43.348], [41.341, 43.347], [41.358, 43.359], [41.363, 43.368], [41.394, 43.366], [41.412, 43.357], [41.41, 43.332], [41.413, 43.324], [41.435, 43.308], [41.459, 43.31], [41.488, 43.286], [41.516, 43.274], [41.544, 43.27], [41.562, 43.249], [41.577, 43.253], [41.583, 43.237], [41.614, 43.225], [41.617, 43.221], [41.635, 43.222], [41.659, 43.238], [41.677, 43.228], [41.684, 43.217], [41.704, 43.221], [41.726, 43.244], [41.745, 43.237], [41.773, 43.218], [41.783, 43.221], [41.804, 43.202], [41.831, 43.215], [41.848, 43.211], [41.866, 43.234], [41.862, 43.241], [41.888, 43.249], [41.903, 43.229], [41.945, 43.222], [41.946, 43.214], [41.959, 43.203], [41.972, 43.212], [42.019, 43.217], [42.036, 43.2], [42.038, 43.188], [42.048, 43.187], [42.058, 43.196], [42.071, 43.197], [42.095, 43.214], [42.11, 43.208], [42.132, 43.21], [42.136, 43.216], [42.166, 43.222], [42.181, 43.215], [42.199, 43.228], [42.216, 43.231], [42.25, 43.226], [42.253, 43.212], [42.295, 43.211], [42.307, 43.222], [42.315, 43.218], [42.341, 43.22], [42.358, 43.247], [42.387, 43.244], [42.41, 43.25], [42.411, 43.256], [42.442, 43.251], [42.452, 43.238], [42.444, 43.228], [42.448, 43.22], [42.472, 43.207], [42.512, 43.198], [42.543, 43.177], [42.596, 43.171], [42.599, 43.163], [42.617, 43.164], [42.65, 43.145], [42.675, 43.136], [42.672, 43.146], [42.681, 43.159], [42.682, 43.17], [42.704, 43.172], [42.71, 43.179], [42.731, 43.182], [42.741, 43.178], [42.75, 43.188], [42.777, 43.189], [42.796, 43.181], [42.797, 43.173], [42.812, 43.167], [42.819, 43.172], [42.853, 43.179], [42.878, 43.17], [42.882, 43.156], [42.898, 43.159], [42.904, 43.153], [42.933, 43.147], [42.921, 43.136], [42.927, 43.124], [42.949, 43.125], [42.99, 43.119], [43.032, 43.093], [43.043, 43.088], [43.016, 43.071], [43.027, 43.048], [43.039, 43.039], [43.035, 43.03], [43.051, 43.019], [43.07, 43.014], [43.09, 42.999], [43.113, 43], [43.116, 42.992], [43.133, 42.985], [43.143, 42.97], [43.173, 42.963], [43.185, 42.947], [43.185, 42.939], [43.205, 42.931], [43.233, 42.931], [43.238, 42.924], [43.291, 42.918], [43.3, 42.907], [43.318, 42.915], [43.334, 42.899], [43.335, 42.89], [43.357, 42.89], [43.39, 42.899], [43.415, 42.892], [43.442, 42.894], [43.459, 42.888], [43.478, 42.89], [43.496, 42.871], [43.523, 42.866], [43.561, 42.868], [43.587, 42.851], [43.589, 42.846], [43.611, 42.834], [43.609, 42.814], [43.631, 42.813], [43.644, 42.798], [43.653, 42.795], [43.677, 42.802], [43.692, 42.801], [43.69, 42.787], [43.711, 42.776], [43.743, 42.766], [43.76, 42.765], [43.779, 42.758], [43.808, 42.738], [43.804, 42.715], [43.787, 42.698], [43.778, 42.677], [43.759, 42.655], [43.739, 42.649], [43.715, 42.637], [43.743, 42.618], [43.754, 42.616], [43.752, 42.601], [43.77, 42.589], [43.788, 42.596], [43.81, 42.599], [43.826, 42.593], [43.836, 42.599], [43.866, 42.59], [43.875, 42.58], [43.91, 42.575], [43.912, 42.569], [43.946, 42.56], [43.965, 42.547], [43.974, 42.559], [43.991, 42.567], [44.003, 42.585], [44.022, 42.597], [44.057, 42.603], [44.065, 42.6], [44.09, 42.605], [44.115, 42.617], [44.151, 42.605], [44.162, 42.606], [44.191, 42.632], [44.225, 42.631], [44.239, 42.649], [44.241, 42.667], [44.249, 42.681], [44.288, 42.699], [44.306, 42.711], [44.309, 42.719], [44.335, 42.719], [44.353, 42.711], [44.364, 42.716], [44.384, 42.715], [44.393, 42.704], [44.412, 42.711], [44.415, 42.718], [44.428, 42.717], [44.518, 42.697], [44.512, 42.722], [44.5, 42.734], [44.51, 42.753], [44.53, 42.753], [44.552, 42.766], [44.58, 42.745], [44.597, 42.749], [44.638, 42.746], [44.666, 42.749], [44.68, 42.756], [44.698, 42.743], [44.714, 42.742], [44.73, 42.729], [44.741, 42.727], [44.753, 42.714], [44.745, 42.7], [44.765, 42.655], [44.767, 42.643], [44.785, 42.633], [44.804, 42.615], [44.829, 42.619], [44.824, 42.642], [44.831, 42.648], [44.836, 42.674], [44.848, 42.673], [44.864, 42.688], [44.865, 42.704], [44.871, 42.712], [44.869, 42.724], [44.887, 42.747], [44.91, 42.751], [44.946, 42.751], [44.98, 42.745], [44.983, 42.737], [45.011, 42.713], [45.03, 42.704], [45.038, 42.693], [45.053, 42.693], [45.086, 42.711], [45.107, 42.704], [45.134, 42.71], [45.158, 42.708], [45.171, 42.687], [45.191, 42.669], [45.217, 42.66], [45.238, 42.64], [45.251, 42.62], [45.256, 42.606], [45.284, 42.606], [45.282, 42.59], [45.295, 42.575], [45.31, 42.569], [45.315, 42.574], [45.325, 42.565], [45.325, 42.547], [45.334, 42.527], [45.354, 42.522], [45.395, 42.538], [45.401, 42.547], [45.419, 42.551], [45.435, 42.541], [45.453, 42.546], [45.465, 42.539], [45.494, 42.535], [45.511, 42.537], [45.523, 42.545], [45.542, 42.538], [45.571, 42.548], [45.599, 42.533], [45.596, 42.517], [45.614, 42.505], [45.632, 42.509], [45.651, 42.499], [45.666, 42.505], [45.687, 42.502], [45.7, 42.481], [45.721, 42.476], [45.776, 42.488], [45.773, 42.46], [45.781, 42.447], [45.775, 42.429], [45.752, 42.398], [45.735, 42.378], [45.742, 42.361], [45.743, 42.333], [45.757, 42.326], [45.753, 42.309], [45.738, 42.293], [45.72, 42.289], [45.702, 42.296], [45.688, 42.284], [45.67, 42.283], [45.652, 42.292], [45.633, 42.264], [45.618, 42.251], [45.621, 42.242], [45.609, 42.234], [45.608, 42.212], [45.621, 42.21], [45.649, 42.186], [45.667, 42.187], [45.693, 42.177], [45.722, 42.163], [45.726, 42.154], [45.748, 42.146], [45.739, 42.132], [45.769, 42.127], [45.769, 42.117], [45.786, 42.102], [45.804, 42.116], [45.823, 42.106], [45.857, 42.112], [45.88, 42.104], [45.896, 42.106], [45.913, 42.095], [45.921, 42.081], [45.913, 42.072], [45.914, 42.062], [45.929, 42.056], [45.934, 42.044], [45.928, 42.031], [45.944, 42.036], [45.954, 42.024], [45.965, 42.027], [45.987, 42.045], [46.007, 42.037], [46.022, 42.041], [46.023, 42.026], [46.039, 42.02], [46.058, 42.027], [46.073, 42.041], [46.083, 42.03], [46.086, 42.005], [46.109, 41.986], [46.114, 41.996], [46.133, 42.008], [46.15, 42.008], [46.151, 41.995], [46.162, 41.99], [46.179, 41.999], [46.193, 41.999], [46.202, 42.007], [46.219, 42.009], [46.222, 42.016], [46.237, 42.016], [46.256, 42.002], [46.244, 41.979], [46.27, 41.983], [46.266, 41.975], [46.284, 41.951], [46.282, 41.945], [46.311, 41.936], [46.32, 41.929], [46.339, 41.946], [46.368, 41.934], [46.4, 41.94], [46.407, 41.919], [46.42, 41.921], [46.422, 41.908], [46.409, 41.887], [46.416, 41.871], [46.402, 41.857], [46.399, 41.844], [46.374, 41.828], [46.361, 41.825], [46.338, 41.81], [46.325, 41.797], [46.303, 41.786], [46.304, 41.776], [46.252, 41.77], [46.242, 41.756], [46.216, 41.764], [46.205, 41.773], [46.199, 41.75], [46.181, 41.734], [46.18, 41.714], [46.187, 41.688], [46.199, 41.668], [46.209, 41.661], [46.207, 41.651], [46.195, 41.649], [46.202, 41.632], [46.21, 41.626], [46.205, 41.614], [46.223, 41.611], [46.24, 41.595], [46.251, 41.601], [46.247, 41.614], [46.256, 41.61], [46.254, 41.624], [46.265, 41.62], [46.265, 41.635], [46.278, 41.621], [46.281, 41.6], [46.302, 41.597], [46.307, 41.611], [46.323, 41.61], [46.34, 41.595], [46.343, 41.569], [46.338, 41.567], [46.321, 41.581], [46.298, 41.575], [46.31, 41.541], [46.322, 41.527], [46.331, 41.501], [46.358, 41.489], [46.372, 41.487], [46.382, 41.493], [46.386, 41.483], [46.404, 41.481], [46.393, 41.477], [46.404, 41.472], [46.411, 41.482], [46.426, 41.472], [46.426, 41.456], [46.449, 41.454], [46.441, 41.449], [46.474, 41.429], [46.504, 41.42], [46.513, 41.413], [46.57, 41.404], [46.571, 41.399], [46.593, 41.398], [46.616, 41.391], [46.611, 41.382], [46.626, 41.378], [46.64, 41.381], [46.644, 41.373], [46.626, 41.364], [46.644, 41.356], [46.65, 41.37], [46.663, 41.368], [46.659, 41.352], [46.67, 41.349], [46.666, 41.341], [46.69, 41.336], [46.684, 41.329], [46.703, 41.325], [46.688, 41.319], [46.701, 41.308], [46.701, 41.295], [46.729, 41.291], [46.715, 41.278], [46.715, 41.269], [46.699, 41.264], [46.707, 41.257], [46.69, 41.232], [46.678, 41.234], [46.657, 41.201], [46.658, 41.192], [46.668, 41.19], [46.654, 41.168], [46.654, 41.137], [46.66, 41.131], [46.646, 41.119], [46.65, 41.112], [46.631, 41.098], [46.604, 41.099], [46.58, 41.111], [46.55, 41.113], [46.519, 41.078], [46.498, 41.058], [46.485, 41.057], [46.47, 41.065], [46.458, 41.098], [46.428, 41.105], [46.387, 41.102], [46.37, 41.105], [46.369, 41.119], [46.292, 41.174], [46.28, 41.19], [46.238, 41.182], [46.214, 41.189], [46.189, 41.192], [46.156, 41.192], [46.142, 41.196], [46.122, 41.193], [46.111, 41.179], [46.098, 41.172], [46.08, 41.175], [46.08, 41.183], [46.065, 41.19], [46.05, 41.186], [46.024, 41.186], [45.999, 41.18], [45.953, 41.178], [45.914, 41.191], [45.887, 41.211], [45.817, 41.222], [45.806, 41.222], [45.794, 41.232], [45.772, 41.242], [45.757, 41.253], [45.741, 41.258], [45.736, 41.268], [45.701, 41.298], [45.741, 41.344], [45.756, 41.339], [45.761, 41.351], [45.729, 41.359], [45.707, 41.361], [45.703, 41.356], [45.683, 41.355], [45.667, 41.362], [45.648, 41.379], [45.629, 41.379], [45.601, 41.374], [45.577, 41.376], [45.581, 41.389], [45.564, 41.407], [45.527, 41.42], [45.517, 41.421], [45.493, 41.436], [45.455, 41.455], [45.437, 41.444], [45.43, 41.431], [45.391, 41.427], [45.365, 41.453], [45.309, 41.473], [45.288, 41.463], [45.259, 41.467], [45.249, 41.446], [45.196, 41.417], [45.178, 41.423], [45.165, 41.406], [45.093, 41.339], [45.082, 41.346], [45.073, 41.339], [45.073, 41.328], [45.061, 41.328], [45.045, 41.319], [45.047, 41.311], [45.022, 41.306], [45.014, 41.296], [45.003, 41.296], [44.993, 41.285], [44.978, 41.281], [44.965, 41.266], [44.962, 41.256], [44.938, 41.255], [44.926, 41.26], [44.913, 41.257], [44.898, 41.274], [44.891, 41.268], [44.871, 41.277], [44.852, 41.274], [44.848, 41.285], [44.831, 41.299], [44.819, 41.301], [44.807, 41.287], [44.809, 41.272], [44.804, 41.262], [44.814, 41.238], [44.833, 41.229], [44.847, 41.23], [44.866, 41.219], [44.892, 41.221], [44.897, 41.214], [44.884, 41.204], [44.848, 41.209], [44.842, 41.216], [44.807, 41.216], [44.795, 41.23], [44.791, 41.22], [44.749, 41.22], [44.727, 41.203], [44.725, 41.225], [44.698, 41.217], [44.68, 41.226], [44.688, 41.24], [44.646, 41.233], [44.616, 41.241], [44.604, 41.232], [44.603, 41.216], [44.595, 41.193], [44.584, 41.197], [44.585, 41.207], [44.558, 41.204], [44.547, 41.197], [44.533, 41.197], [44.546, 41.226], [44.529, 41.223], [44.528, 41.214], [44.514, 41.204], [44.511, 41.195], [44.476, 41.182], [44.463, 41.181], [44.456, 41.19], [44.436, 41.193], [44.411, 41.202], [44.387, 41.221], [44.354, 41.231], [44.345, 41.226], [44.345, 41.202], [44.324, 41.205], [44.317, 41.213], [44.295, 41.214], [44.286, 41.209], [44.271, 41.213], [44.249, 41.233], [44.237, 41.239], [44.216, 41.233], [44.2, 41.237], [44.18, 41.247], [44.183, 41.233], [44.174, 41.209], [44.162, 41.189], [44.125, 41.186], [44.091, 41.189], [44.088, 41.202], [44.053, 41.19], [44.013, 41.186], [43.98, 41.174], [43.964, 41.165], [43.939, 41.176], [43.88, 41.164], [43.841, 41.161], [43.778, 41.131], [43.751, 41.109], [43.685, 41.134], [43.668, 41.136], [43.633, 41.129], [43.597, 41.129], [43.593, 41.138], [43.568, 41.145], [43.539, 41.139], [43.53, 41.134], [43.508, 41.134], [43.501, 41.128], [43.474, 41.123], [43.464, 41.149], [43.448, 41.176], [43.412, 41.187], [43.383, 41.201], [43.367, 41.203], [43.329, 41.201], [43.306, 41.19], [43.282, 41.187], [43.264, 41.18], [43.228, 41.173], [43.237, 41.183], [43.201, 41.234], [43.194, 41.254], [43.177, 41.255], [43.156, 41.246], [43.128, 41.253], [43.156, 41.268], [43.181, 41.274], [43.186, 41.281], [43.213, 41.29], [43.213, 41.306], [43.188, 41.304], [43.166, 41.309], [43.159, 41.316], [43.132, 41.321], [43.109, 41.349], [43.096, 41.357], [43.061, 41.366], [43.043, 41.377], [43.033, 41.371], [43.022, 41.379], [43.004, 41.407], [42.991, 41.411], [42.989, 41.425], [42.967, 41.434], [42.967, 41.452], [42.943, 41.458], [42.925, 41.473], [42.899, 41.479], [42.901, 41.5], [42.877, 41.503], [42.863, 41.492], [42.858, 41.473], [42.851, 41.471], [42.829, 41.48], [42.824, 41.487], [42.802, 41.497], [42.799, 41.521], [42.817, 41.54], [42.819, 41.553], [42.829, 41.558], [42.834, 41.58], [42.84, 41.589], [42.794, 41.588], [42.782, 41.578], [42.771, 41.584], [42.753, 41.585], [42.74, 41.596], [42.714, 41.596], [42.684, 41.6], [42.66, 41.593], [42.601, 41.585], [42.577, 41.566], [42.574, 41.558], [42.581, 41.543], [42.565, 41.525], [42.573, 41.51], [42.558, 41.505], [42.545, 41.493], [42.532, 41.491], [42.526, 41.48], [42.513, 41.472], [42.524, 41.444], [42.52, 41.437], [42.492, 41.445], [42.473, 41.436], [42.439, 41.442], [42.416, 41.459], [42.4, 41.467], [42.385, 41.463], [42.349, 41.472], [42.33, 41.468], [42.317, 41.479], [42.294, 41.49], [42.274, 41.494], [42.263, 41.492], [42.226, 41.499], [42.203, 41.492], [42.196, 41.507], [42.178, 41.515], [42.159, 41.507], [42.127, 41.505], [42.11, 41.511], [42.103, 41.507], [42.085, 41.51], [42.043, 41.494], [42.027, 41.5], [41.994, 41.505], [41.985, 41.522], [41.955, 41.523], [41.934, 41.508], [41.911, 41.499], [41.893, 41.48], [41.881, 41.46], [41.847, 41.449], [41.845, 41.44], [41.824, 41.431], [41.806, 41.446], [41.789, 41.45], [41.787, 41.461], [41.774, 41.461], [41.747, 41.471], [41.708, 41.474], [41.715, 41.491], [41.71, 41.496], [41.694, 41.489], [41.666, 41.483], [41.635, 41.487], [41.618, 41.502], [41.585, 41.509], [41.572, 41.52], [41.547, 41.521], [41.549, 41.535], [41.561, 41.545], [41.566, 41.582], [41.572, 41.602], [41.586, 41.618], [41.617, 41.646], [41.64, 41.658], [41.647, 41.647], [41.674, 41.656], [41.693, 41.675], [41.707, 41.695], [41.719, 41.707], [41.742, 41.758], [41.755, 41.771], [41.769, 41.805], [41.778, 41.859], [41.767, 41.917], [41.757, 42.007], [41.712, 42.074], [41.673, 42.121], [41.66, 42.133], [41.646, 42.172], [41.634, 42.187], [41.628, 42.211], [41.636, 42.225], [41.64, 42.245], [41.634, 42.276], [41.606, 42.347], [41.595, 42.367], [41.579, 42.382], [41.556, 42.395], [41.541, 42.449], [41.531, 42.52], [41.514, 42.591], [41.481, 42.673], [41.454, 42.722], [41.438, 42.74], [41.421, 42.739], [41.41, 42.752], [41.391, 42.762], [41.356, 42.767], [41.341, 42.772], [41.317, 42.773], [41.286, 42.788], [41.257, 42.793], [41.229, 42.801], [41.201, 42.801], [41.181, 42.792], [41.15, 42.797], [41.14, 42.812], [41.129, 42.819], [41.105, 42.846], [41.094, 42.899], [41.078, 42.951], [41.056, 42.984], [41.035, 42.998], [40.998, 42.996], [40.978, 42.982], [40.965, 42.984], [40.958, 42.995], [40.936, 43.008], [40.921, 43.029], [40.9, 43.043], [40.891, 43.055], [40.867, 43.074], [40.835, 43.081], [40.785, 43.084], [40.751, 43.088], [40.725, 43.086], [40.687, 43.087], [40.657, 43.098], [40.641, 43.101], [40.607, 43.092], [40.575, 43.093], [40.542, 43.127], [40.523, 43.14], [40.507, 43.144], [40.47, 43.14], [40.45, 43.153], [40.436, 43.154], [40.407, 43.171], [40.39, 43.174], [40.366, 43.167], [40.341, 43.147], [40.311, 43.171], [40.281, 43.185], [40.274, 43.205], [40.268, 43.26], [40.254, 43.304], [40.244, 43.316], [40.206, 43.331], [40.165, 43.339], [40.134, 43.356], [40.117, 43.359], [40.083, 43.376], [40.053, 43.378], [40.008, 43.386]]]]}}