{"type": "Feature", "properties": {"name": "Guinea", "iso1": "GN", "admin_level": 2, "osm_id": 192778, "countrylevel_id": "iso1:GN", "osm_data": {"localname": "Guinée", "official_name": "", "alltags": {"flag": "http://upload.wikimedia.org/wikipedia/commons/e/ed/Flag_of_Guinea.svg", "name:af": "Guinee", "name:am": "ጊኔ", "name:an": "Guinea", "name:ar": "غينيا", "name:az": "Qvineya", "name:ba": "Гвинея", "name:be": "Гвінея", "name:bg": "Гвинея", "name:bm": "Gine", "name:bn": "গিনি", "name:bo": "གི་ནེ།", "name:br": "Ginea", "name:bs": "Gvineja", "name:ca": "República de Guinea", "name:ce": "Гвине", "name:cs": "Guinea", "name:cv": "Гвиней", "name:cy": "Guinée", "name:da": "Guinea", "name:dv": "ގީނިއާ", "name:ee": "Guinea", "name:el": "Γουινέα", "name:en": "Guinea", "name:eo": "Gvineo", "name:es": "Guinea", "name:et": "Guinea", "name:eu": "Ginea", "name:fa": "گینه", "name:ff": "Gine", "name:fi": "Guinea", "name:fo": "Guinea", "name:fr": "Guinée", "name:fy": "Guinee", "name:ga": "An Ghuine", "name:gd": "Gini", "name:gl": "Guinea", "name:gv": "Yn Ghuinea", "name:ha": "Gine", "name:he": "גינאה", "name:hi": "गिनी", "name:hr": "Gvineja", "name:ht": "Gine", "name:hu": "Guinea", "name:hy": "Գվինեա", "name:ia": "Guinea", "name:id": "Guinea", "name:ie": "Guinea", "name:io": "Guinea", "name:is": "Gínea", "name:it": "Guinea", "name:ja": "ギニア", "name:jv": "Guinea", "name:ka": "გვინეა", "name:kg": "Ginea", "name:kk": "Гвинея", "name:ko": "기니", "name:ku": "Gîne", "name:kw": "Gyni", "name:ky": "Гвинея", "name:la": "Guinea", "name:lb": "Guinea", "name:li": "Guinee", "name:ln": "Gine-Konakry", "name:lt": "Gvinėja", "name:lv": "Gvineja", "name:mi": "Kini", "name:mk": "Гвинеја", "name:ml": "ഗിനി", "name:mn": "Гвиней", "name:mr": "गिनी", "name:ms": "Guinea", "name:my": "ဂီနီနိုင်ငံ", "name:na": "Gini", "name:ne": "गिनी", "name:nl": "Guinee", "name:nn": "Guinea", "name:no": "Guinea", "name:nv": "Gíní", "name:oc": "Guinèa", "name:or": "ଗିନି", "name:os": "Гвиней", "name:pa": "ਗਿਨੀ", "name:pl": "Gwinea", "name:pt": "Guiné", "name:qu": "Khiniya", "name:ro": "Guineea", "name:ru": "Гвинея", "name:rw": "Gineya", "name:sa": "गिनी", "name:sc": "Guinea", "name:se": "Guinea", "name:sg": "Ginëe", "name:sh": "Gvineja", "name:sk": "Guinea", "name:sl": "Gvineja", "name:sm": "Guinea", "name:sn": "Guinea", "name:so": "Guinea", "name:sq": "Guinea", "name:sr": "Гвинеја", "name:ss": "IGiniya", "name:st": "Guinea", "name:su": "Guinéa", "name:sv": "Guinea", "name:sw": "Guinea", "name:ta": "கினி", "name:tg": "Гвинея", "name:th": "ประเทศกินี", "name:tk": "Gwineýa", "name:tl": "Ginea", "name:tr": "Gine", "name:ts": "Gineya", "name:tt": "Гвинея", "name:ug": "ۋىنېيە", "name:uk": "Ґвінея", "name:ur": "جمہوریہ گنی", "name:uz": "Gvineya", "name:vi": "Guinée", "name:vo": "Gineyän", "name:wo": "Gine", "name:yi": "גינע", "name:yo": "Guinea", "name:zh": "几内亚", "name:zu": "IGini", "name:ace": "Guinea", "name:als": "Guinea", "name:ang": "Guinea", "name:arz": "جينيا", "name:ast": "Guinea", "name:bcl": "Guineya", "name:bjn": "Guinea", "name:bpy": "গিনি", "name:bxr": "Гвиней", "name:ceb": "Guinea", "name:ckb": "گینێ", "name:crh": "Gvineya", "name:diq": "Gineya", "name:ext": "Guinea", "name:frp": "Guinê", "name:gag": "Gvineya", "name:hif": "Guinea", "name:hsb": "Gineja", "name:ilo": "Guinea", "name:lij": "Guinea", "name:lmo": "Guinea", "name:min": "Guinea", "name:mrj": "Гвиней", "name:nah": "Guinea", "name:nan": "Guinée", "name:nds": "Guinea", "name:new": "गिनी", "name:nov": "Gini", "name:nso": "Guinea", "name:pam": "Guinea", "name:pih": "Gini", "name:pms": "Guinea", "name:pnb": "گنی", "name:sah": "Гуинея", "name:scn": "Guinia", "name:sco": "Guinea", "name:stq": "Guinea", "name:szl": "Gwinyjo", "name:tzl": "Guineia", "name:vec": "Guinea", "name:war": "Guinea", "name:xal": "Гвинмудин Орн", "name:yue": "畿內亞", "alt_name:fr": "Guinée-Conakry", "name:simple": "Guinea", "name:bat-smg": "Gvėniejė", "name:fiu-vro": "Ginea", "name:be-tarask": "Гвінэя", "default_language": "fr", "official_name:ar": "جمهورية غينيا", "official_name:cs": "Guinejská republika", "official_name:fa": "جمهوری گینه", "official_name:fr": "République de Guinée", "official_name:ur": "جمہوریہ گنی"}}, "center_lat": 10.44, "center_lon": -10.93, "timezone": "Africa/Conakry", "population": 12717176, "wikidata_id": "Q1006", "wikipedia_id": "en:Guinea"}, "geometry": {"type": "MultiPolygon", "coordinates": [[[[-13.681, 9.916], [-13.681, 9.905], [-13.694, 9.896], [-13.685, 9.924], [-13.681, 9.916]]], [[[-13.759, 9.769], [-13.754, 9.775], [-13.746, 9.806], [-13.734, 9.816], [-13.708, 9.82], [-13.699, 9.809], [-13.691, 9.821], [-13.659, 9.825], [-13.636, 9.8], [-13.634, 9.786], [-13.651, 9.764], [-13.669, 9.748], [-13.685, 9.744], [-13.714, 9.745], [-13.725, 9.748], [-13.752, 9.767], [-13.759, 9.769]]], [[[-13.781, 9.831], [-13.772, 9.838], [-13.757, 9.842], [-13.736, 9.857], [-13.715, 9.867], [-13.724, 9.854], [-13.752, 9.837], [-13.761, 9.825], [-13.765, 9.812], [-13.774, 9.81], [-13.78, 9.817], [-13.781, 9.831]]], [[[-13.682, 9.825], [-13.693, 9.822], [-13.695, 9.811], [-13.708, 9.824], [-13.739, 9.823], [-13.735, 9.833], [-13.719, 9.847], [-13.706, 9.864], [-13.7, 9.879], [-13.692, 9.89], [-13.691, 9.869], [-13.698, 9.856], [-13.682, 9.859], [-13.685, 9.849], [-13.677, 9.841], [-13.682, 9.825]]], [[[-13.665, 9.838], [-13.666, 9.854], [-13.657, 9.854], [-13.653, 9.865], [-13.641, 9.858], [-13.656, 9.84], [-13.665, 9.838]]], [[[-13.659, 9.83], [-13.677, 9.824], [-13.676, 9.843], [-13.686, 9.851], [-13.68, 9.858], [-13.694, 9.856], [-13.691, 9.88], [-13.685, 9.886], [-13.689, 9.893], [-13.678, 9.911], [-13.682, 9.923], [-13.678, 9.941], [-13.664, 9.924], [-13.667, 9.902], [-13.656, 9.901], [-13.663, 9.887], [-13.655, 9.856], [-13.668, 9.852], [-13.669, 9.838], [-13.658, 9.838], [-13.659, 9.83]]], [[[-13.769, 9.432], [-13.769, 9.432], [-13.769, 9.432], [-13.769, 9.432]]], [[[-13.815, 9.435], [-13.815, 9.435], [-13.815, 9.435], [-13.815, 9.435]]], [[[-13.762, 9.438], [-13.762, 9.438], [-13.762, 9.438], [-13.762, 9.438]]], [[[-13.829, 9.449], [-13.829, 9.449], [-13.829, 9.449], [-13.829, 9.449]]], [[[-13.787, 9.461], [-13.787, 9.461], [-13.787, 9.461], [-13.787, 9.461]]], [[[-13.793, 9.462], [-13.793, 9.462], [-13.793, 9.462], [-13.793, 9.462]]], [[[-13.795, 9.467], [-13.795, 9.467], [-13.795, 9.467], [-13.795, 9.467]]], [[[-13.746, 9.454], [-13.752, 9.442], [-13.75, 9.471], [-13.76, 9.492], [-13.769, 9.498], [-13.768, 9.505], [-13.758, 9.504], [-13.752, 9.482], [-13.746, 9.478], [-13.743, 9.461], [-13.746, 9.454]]], [[[-13.831, 9.47], [-13.829, 9.45], [-13.84, 9.468], [-13.834, 9.484], [-13.821, 9.491], [-13.812, 9.51], [-13.804, 9.516], [-13.792, 9.509], [-13.8, 9.507], [-13.814, 9.485], [-13.824, 9.482], [-13.831, 9.47]]], [[[-14.04, 10.035], [-14.04, 10.035], [-14.04, 10.035], [-14.04, 10.035]]], [[[-14.126, 10.164], [-14.137, 10.182], [-14.129, 10.195], [-14.093, 10.174], [-14.081, 10.174], [-14.08, 10.167], [-14.094, 10.164], [-14.108, 10.17], [-14.108, 10.164], [-14.126, 10.164]]], [[[-14.136, 10.053], [-14.153, 10.061], [-14.175, 10.079], [-14.188, 10.098], [-14.177, 10.11], [-14.164, 10.113], [-14.159, 10.1], [-14.152, 10.11], [-14.132, 10.098], [-14.133, 10.109], [-14.123, 10.112], [-14.117, 10.091], [-14.129, 10.074], [-14.136, 10.053]]], [[[-14.123, 10.107], [-14.123, 10.107], [-14.123, 10.107], [-14.123, 10.107]]], [[[-14.173, 10.116], [-14.151, 10.141], [-14.132, 10.147], [-14.132, 10.126], [-14.116, 10.12], [-14.108, 10.121], [-14.115, 10.111], [-14.13, 10.114], [-14.135, 10.099], [-14.149, 10.113], [-14.161, 10.102], [-14.162, 10.113], [-14.173, 10.116]]], [[[-14.241, 10.156], [-14.235, 10.145], [-14.23, 10.15], [-14.218, 10.143], [-14.213, 10.153], [-14.199, 10.151], [-14.191, 10.157], [-14.183, 10.143], [-14.169, 10.144], [-14.2, 10.103], [-14.227, 10.115], [-14.248, 10.141], [-14.241, 10.156]]], [[[-14.147, 10.156], [-14.152, 10.16], [-14.144, 10.172], [-14.151, 10.179], [-14.17, 10.188], [-14.156, 10.205], [-14.144, 10.203], [-14.147, 10.193], [-14.14, 10.19], [-14.14, 10.175], [-14.131, 10.158], [-14.147, 10.156]]], [[[-14.471, 10.276], [-14.471, 10.276], [-14.471, 10.276], [-14.471, 10.276]]], [[[-14.479, 10.278], [-14.479, 10.278], [-14.479, 10.278], [-14.479, 10.278]]], [[[-14.318, 10.202], [-14.318, 10.202], [-14.318, 10.202], [-14.318, 10.202]]], [[[-14.253, 10.187], [-14.253, 10.187], [-14.253, 10.187], [-14.253, 10.187]]], [[[-14.257, 10.186], [-14.257, 10.186], [-14.257, 10.186], [-14.257, 10.186]]], [[[-14.181, 10.189], [-14.15, 10.177], [-14.146, 10.167], [-14.154, 10.163], [-14.152, 10.155], [-14.166, 10.148], [-14.181, 10.146], [-14.191, 10.158], [-14.199, 10.151], [-14.221, 10.153], [-14.235, 10.146], [-14.24, 10.157], [-14.231, 10.179], [-14.197, 10.173], [-14.188, 10.183], [-14.194, 10.197], [-14.181, 10.189]]], [[[-14.217, 10.195], [-14.22, 10.207], [-14.202, 10.209], [-14.201, 10.226], [-14.194, 10.23], [-14.19, 10.22], [-14.203, 10.206], [-14.192, 10.185], [-14.201, 10.177], [-14.224, 10.187], [-14.217, 10.195]]], [[[-14.308, 10.194], [-14.303, 10.205], [-14.308, 10.22], [-14.304, 10.223], [-14.296, 10.211], [-14.278, 10.197], [-14.276, 10.188], [-14.263, 10.182], [-14.25, 10.184], [-14.245, 10.177], [-14.255, 10.16], [-14.276, 10.167], [-14.308, 10.189], [-14.308, 10.194]]], [[[-14.286, 10.213], [-14.28, 10.22], [-14.273, 10.214], [-14.255, 10.215], [-14.244, 10.207], [-14.244, 10.199], [-14.227, 10.191], [-14.243, 10.181], [-14.26, 10.187], [-14.263, 10.182], [-14.275, 10.188], [-14.286, 10.213]]], [[[-15.365, 10.615], [-15.365, 10.615], [-15.365, 10.615], [-15.365, 10.615]]], [[[-15.351, 10.625], [-15.351, 10.625], [-15.351, 10.625], [-15.351, 10.625]]], [[[-14.914, 11.067], [-14.883, 11.122], [-14.837, 11.203], [-14.832, 11.223], [-14.815, 11.259], [-14.772, 11.365], [-14.753, 11.399], [-14.727, 11.433], [-14.703, 11.468], [-14.69, 11.483], [-14.664, 11.505], [-14.619, 11.508], [-14.586, 11.506], [-14.512, 11.496], [-14.45, 11.537], [-14.366, 11.58], [-14.32, 11.602], [-14.267, 11.677], [-14.256, 11.666], [-14.245, 11.665], [-14.235, 11.672], [-14.222, 11.669], [-14.205, 11.672], [-14.179, 11.657], [-14.135, 11.665], [-14.128, 11.653], [-14.113, 11.644], [-14.103, 11.632], [-14.081, 11.628], [-14.06, 11.646], [-14.045, 11.645], [-14.039, 11.655], [-14.023, 11.653], [-13.988, 11.642], [-13.939, 11.655], [-13.933, 11.661], [-13.93, 11.676], [-13.922, 11.685], [-13.907, 11.671], [-13.874, 11.659], [-13.864, 11.691], [-13.859, 11.687], [-13.856, 11.705], [-13.846, 11.717], [-13.85, 11.729], [-13.855, 11.72], [-13.864, 11.73], [-13.854, 11.747], [-13.831, 11.741], [-13.823, 11.73], [-13.833, 11.725], [-13.822, 11.707], [-13.807, 11.708], [-13.795, 11.718], [-13.798, 11.694], [-13.782, 11.687], [-13.777, 11.692], [-13.772, 11.682], [-13.755, 11.69], [-13.739, 11.692], [-13.731, 11.702], [-13.708, 11.707], [-13.71, 11.759], [-13.701, 11.771], [-13.707, 11.799], [-13.705, 11.832], [-13.713, 11.88], [-13.707, 11.922], [-13.706, 11.955], [-13.696, 12.008], [-13.707, 12.018], [-13.731, 12.019], [-13.753, 12.03], [-13.768, 12.033], [-13.781, 12.045], [-13.79, 12.049], [-13.797, 12.067], [-13.807, 12.078], [-13.806, 12.088], [-13.814, 12.096], [-13.83, 12.102], [-13.84, 12.101], [-13.872, 12.11], [-13.872, 12.125], [-13.878, 12.136], [-13.897, 12.145], [-13.928, 12.149], [-13.938, 12.145], [-13.949, 12.159], [-13.949, 12.168], [-13.958, 12.181], [-13.957, 12.2], [-13.937, 12.202], [-13.928, 12.21], [-13.921, 12.233], [-13.916, 12.236], [-13.857, 12.242], [-13.853, 12.265], [-13.864, 12.274], [-13.851, 12.283], [-13.83, 12.281], [-13.827, 12.26], [-13.822, 12.258], [-13.809, 12.276], [-13.8, 12.297], [-13.796, 12.295], [-13.794, 12.273], [-13.806, 12.265], [-13.797, 12.251], [-13.777, 12.251], [-13.765, 12.275], [-13.755, 12.276], [-13.744, 12.27], [-13.733, 12.25], [-13.718, 12.249], [-13.705, 12.269], [-13.699, 12.292], [-13.69, 12.296], [-13.681, 12.313], [-13.673, 12.308], [-13.662, 12.314], [-13.657, 12.324], [-13.666, 12.343], [-13.653, 12.357], [-13.666, 12.391], [-13.665, 12.408], [-13.654, 12.423], [-13.636, 12.433], [-13.637, 12.465], [-13.642, 12.49], [-13.659, 12.52], [-13.671, 12.52], [-13.685, 12.556], [-13.71, 12.608], [-13.708, 12.676], [-13.647, 12.676], [-13.484, 12.674], [-13.345, 12.658], [-13.34, 12.652], [-13.332, 12.658], [-13.332, 12.645], [-13.319, 12.642], [-13.31, 12.647], [-13.286, 12.646], [-13.29, 12.653], [-13.282, 12.656], [-13.269, 12.65], [-13.257, 12.653], [-13.246, 12.647], [-13.239, 12.651], [-13.228, 12.64], [-13.219, 12.651], [-13.205, 12.653], [-13.206, 12.644], [-13.191, 12.639], [-13.178, 12.627], [-13.174, 12.639], [-13.159, 12.636], [-13.16, 12.643], [-13.148, 12.641], [-13.138, 12.634], [-13.138, 12.645], [-13.121, 12.636], [-13.111, 12.637], [-13.096, 12.626], [-13.092, 12.633], [-13.079, 12.636], [-13.075, 12.645], [-13.063, 12.644], [-13.067, 12.637], [-13.051, 12.625], [-13.055, 12.616], [-13.047, 12.603], [-13.047, 12.575], [-13.056, 12.566], [-13.056, 12.549], [-13.071, 12.538], [-13.065, 12.524], [-13.065, 12.504], [-13.069, 12.494], [-13.061, 12.485], [-12.999, 12.48], [-12.987, 12.468], [-12.97, 12.467], [-12.964, 12.475], [-12.945, 12.476], [-12.939, 12.508], [-12.942, 12.522], [-12.949, 12.528], [-12.942, 12.537], [-12.926, 12.545], [-12.914, 12.546], [-12.893, 12.555], [-12.88, 12.552], [-12.883, 12.54], [-12.874, 12.529], [-12.856, 12.524], [-12.846, 12.517], [-12.834, 12.517], [-12.833, 12.51], [-12.845, 12.494], [-12.83, 12.492], [-12.814, 12.478], [-12.798, 12.48], [-12.79, 12.485], [-12.775, 12.473], [-12.766, 12.475], [-12.751, 12.468], [-12.755, 12.451], [-12.765, 12.434], [-12.671, 12.44], [-12.669, 12.441], [-12.627, 12.436], [-12.612, 12.424], [-12.605, 12.409], [-12.597, 12.405], [-12.583, 12.408], [-12.586, 12.394], [-12.564, 12.366], [-12.544, 12.373], [-12.536, 12.384], [-12.516, 12.4], [-12.505, 12.401], [-12.489, 12.41], [-12.486, 12.405], [-12.452, 12.399], [-12.436, 12.387], [-12.403, 12.385], [-12.385, 12.368], [-12.373, 12.343], [-12.364, 12.335], [-12.362, 12.314], [-12.356, 12.315], [-12.302, 12.351], [-12.283, 12.335], [-12.277, 12.342], [-12.25, 12.353], [-12.242, 12.349], [-12.218, 12.358], [-12.214, 12.355], [-12.186, 12.363], [-12.178, 12.36], [-12.17, 12.369], [-12.157, 12.373], [-12.151, 12.385], [-12.135, 12.386], [-12.118, 12.413], [-12.083, 12.427], [-12.07, 12.427], [-12.062, 12.433], [-12.021, 12.411], [-12.01, 12.402], [-11.989, 12.407], [-11.968, 12.405], [-11.9, 12.449], [-11.885, 12.424], [-11.867, 12.419], [-11.867, 12.41], [-11.845, 12.393], [-11.841, 12.396], [-11.819, 12.401], [-11.812, 12.397], [-11.805, 12.403], [-11.793, 12.395], [-11.776, 12.392], [-11.77, 12.382], [-11.738, 12.388], [-11.715, 12.4], [-11.686, 12.405], [-11.686, 12.415], [-11.668, 12.426], [-11.641, 12.434], [-11.626, 12.434], [-11.623, 12.428], [-11.603, 12.428], [-11.594, 12.435], [-11.553, 12.44], [-11.506, 12.443], [-11.495, 12.441], [-11.475, 12.452], [-11.466, 12.443], [-11.451, 12.442], [-11.442, 12.435], [-11.433, 12.442], [-11.414, 12.435], [-11.404, 12.423], [-11.401, 12.408], [-11.385, 12.405], [-11.377, 12.412], [-11.366, 12.406], [-11.37, 12.391], [-11.389, 12.39], [-11.41, 12.383], [-11.405, 12.394], [-11.412, 12.399], [-11.419, 12.389], [-11.43, 12.392], [-11.436, 12.382], [-11.436, 12.361], [-11.446, 12.36], [-11.449, 12.353], [-11.436, 12.345], [-11.43, 12.327], [-11.433, 12.308], [-11.427, 12.306], [-11.43, 12.283], [-11.442, 12.282], [-11.447, 12.271], [-11.446, 12.255], [-11.456, 12.254], [-11.457, 12.246], [-11.477, 12.24], [-11.485, 12.223], [-11.495, 12.214], [-11.489, 12.205], [-11.497, 12.185], [-11.484, 12.176], [-11.479, 12.162], [-11.47, 12.158], [-11.465, 12.144], [-11.455, 12.134], [-11.423, 12.126], [-11.404, 12.113], [-11.395, 12.115], [-11.367, 12.108], [-11.356, 12.086], [-11.358, 12.066], [-11.351, 12.055], [-11.331, 12.049], [-11.311, 12.024], [-11.295, 12.023], [-11.273, 12.008], [-11.25, 12.007], [-11.237, 11.999], [-11.221, 11.999], [-11.212, 12.019], [-11.205, 12.021], [-11.189, 12.015], [-11.18, 12.019], [-11.172, 12.033], [-11.158, 12.046], [-11.151, 12.045], [-11.138, 12.066], [-11.146, 12.086], [-11.141, 12.102], [-11.121, 12.103], [-11.114, 12.099], [-11.107, 12.105], [-11.111, 12.117], [-11.099, 12.132], [-11.074, 12.137], [-11.069, 12.165], [-11.055, 12.167], [-11.062, 12.184], [-11.052, 12.195], [-11.055, 12.202], [-11.047, 12.222], [-11.037, 12.225], [-11.032, 12.212], [-11.025, 12.217], [-11.008, 12.214], [-10.985, 12.215], [-10.974, 12.229], [-10.958, 12.226], [-10.937, 12.231], [-10.922, 12.226], [-10.901, 12.206], [-10.895, 12.209], [-10.893, 12.195], [-10.881, 12.178], [-10.882, 12.17], [-10.875, 12.16], [-10.846, 12.133], [-10.827, 12.124], [-10.799, 12.119], [-10.792, 12.116], [-10.785, 12.07], [-10.794, 12.067], [-10.794, 12.051], [-10.802, 12.042], [-10.78, 12.014], [-10.781, 12], [-10.765, 11.972], [-10.765, 11.963], [-10.773, 11.948], [-10.77, 11.94], [-10.758, 11.943], [-10.747, 11.938], [-10.732, 11.924], [-10.717, 11.919], [-10.707, 11.909], [-10.694, 11.91], [-10.683, 11.904], [-10.66, 11.9], [-10.651, 11.908], [-10.634, 11.906], [-10.63, 11.916], [-10.632, 11.933], [-10.625, 11.936], [-10.609, 11.975], [-10.593, 11.977], [-10.586, 11.985], [-10.567, 11.99], [-10.568, 12.003], [-10.581, 12.017], [-10.58, 12.025], [-10.558, 12.029], [-10.534, 12.036], [-10.53, 12.033], [-10.519, 12.048], [-10.521, 12.072], [-10.52, 12.085], [-10.511, 12.082], [-10.507, 12.097], [-10.517, 12.102], [-10.518, 12.12], [-10.513, 12.126], [-10.475, 12.123], [-10.471, 12.119], [-10.453, 12.12], [-10.433, 12.139], [-10.41, 12.145], [-10.415, 12.171], [-10.409, 12.179], [-10.396, 12.182], [-10.378, 12.168], [-10.359, 12.178], [-10.364, 12.19], [-10.354, 12.198], [-10.336, 12.192], [-10.33, 12.2], [-10.342, 12.217], [-10.34, 12.227], [-10.321, 12.218], [-10.32, 12.227], [-10.309, 12.223], [-10.299, 12.204], [-10.298, 12.192], [-10.285, 12.197], [-10.288, 12.211], [-10.27, 12.214], [-10.265, 12.208], [-10.257, 12.216], [-10.248, 12.217], [-10.247, 12.205], [-10.239, 12.201], [-10.222, 12.209], [-10.21, 12.203], [-10.19, 12.204], [-10.192, 12.198], [-10.177, 12.187], [-10.167, 12.19], [-10.149, 12.176], [-10.136, 12.176], [-10.132, 12.183], [-10.113, 12.176], [-10.094, 12.179], [-10.091, 12.188], [-10.082, 12.174], [-10.091, 12.169], [-10.093, 12.151], [-10.07, 12.15], [-10.065, 12.137], [-10.063, 12.154], [-10.053, 12.144], [-10.042, 12.149], [-10.035, 12.138], [-10.021, 12.13], [-10.007, 12.134], [-9.996, 12.129], [-9.988, 12.116], [-9.981, 12.118], [-9.978, 12.106], [-9.969, 12.103], [-9.953, 12.107], [-9.934, 12.103], [-9.912, 12.103], [-9.906, 12.092], [-9.909, 12.086], [-9.884, 12.063], [-9.872, 12.058], [-9.855, 12.062], [-9.829, 12.057], [-9.818, 12.067], [-9.792, 12.054], [-9.79, 12.044], [-9.78, 12.038], [-9.767, 12.039], [-9.745, 12.031], [-9.715, 12.028], [-9.688, 12.035], [-9.697, 12.059], [-9.694, 12.067], [-9.681, 12.072], [-9.675, 12.085], [-9.683, 12.118], [-9.669, 12.144], [-9.647, 12.168], [-9.626, 12.179], [-9.616, 12.178], [-9.599, 12.188], [-9.578, 12.197], [-9.559, 12.193], [-9.533, 12.199], [-9.527, 12.213], [-9.518, 12.221], [-9.503, 12.224], [-9.493, 12.234], [-9.495, 12.246], [-9.484, 12.257], [-9.461, 12.261], [-9.444, 12.259], [-9.423, 12.265], [-9.406, 12.263], [-9.404, 12.257], [-9.392, 12.263], [-9.373, 12.251], [-9.36, 12.254], [-9.341, 12.248], [-9.348, 12.257], [-9.34, 12.273], [-9.331, 12.267], [-9.318, 12.281], [-9.324, 12.289], [-9.321, 12.301], [-9.322, 12.322], [-9.311, 12.324], [-9.304, 12.343], [-9.312, 12.345], [-9.31, 12.355], [-9.299, 12.358], [-9.302, 12.367], [-9.325, 12.372], [-9.339, 12.382], [-9.339, 12.397], [-9.343, 12.407], [-9.356, 12.411], [-9.356, 12.422], [-9.37, 12.421], [-9.379, 12.431], [-9.381, 12.453], [-9.391, 12.455], [-9.4, 12.449], [-9.407, 12.464], [-9.385, 12.477], [-9.37, 12.478], [-9.367, 12.495], [-9.356, 12.502], [-9.337, 12.495], [-9.338, 12.481], [-9.321, 12.486], [-9.315, 12.506], [-9.298, 12.499], [-9.294, 12.488], [-9.284, 12.486], [-9.273, 12.499], [-9.25, 12.506], [-9.227, 12.501], [-9.217, 12.496], [-9.164, 12.488], [-9.158, 12.49], [-9.147, 12.481], [-9.135, 12.48], [-9.127, 12.466], [-9.116, 12.465], [-9.084, 12.441], [-9.053, 12.434], [-9.033, 12.424], [-9.015, 12.42], [-9.003, 12.406], [-9.005, 12.391], [-8.993, 12.384], [-8.965, 12.359], [-8.955, 12.357], [-8.933, 12.325], [-8.955, 12.301], [-8.958, 12.292], [-8.981, 12.256], [-8.988, 12.239], [-8.992, 12.219], [-8.979, 12.224], [-8.975, 12.205], [-8.965, 12.201], [-8.971, 12.193], [-8.932, 12.191], [-8.918, 12.204], [-8.915, 12.192], [-8.902, 12.192], [-8.905, 12.182], [-8.892, 12.175], [-8.897, 12.166], [-8.884, 12.151], [-8.897, 12.127], [-8.891, 12.118], [-8.897, 12.103], [-8.907, 12.102], [-8.91, 12.074], [-8.905, 12.043], [-8.873, 12.039], [-8.872, 12.03], [-8.852, 12.04], [-8.849, 12.048], [-8.839, 12.037], [-8.827, 12.047], [-8.828, 12.04], [-8.812, 12.022], [-8.799, 12.015], [-8.801, 12.006], [-8.792, 12.002], [-8.79, 11.991], [-8.78, 11.987], [-8.772, 11.977], [-8.779, 11.963], [-8.771, 11.954], [-8.781, 11.944], [-8.783, 11.925], [-8.792, 11.896], [-8.793, 11.882], [-8.788, 11.867], [-8.794, 11.856], [-8.798, 11.829], [-8.814, 11.825], [-8.822, 11.819], [-8.831, 11.8], [-8.82, 11.781], [-8.849, 11.655], [-8.82, 11.653], [-8.814, 11.645], [-8.796, 11.64], [-8.79, 11.63], [-8.774, 11.626], [-8.764, 11.633], [-8.751, 11.627], [-8.753, 11.619], [-8.746, 11.61], [-8.701, 11.646], [-8.688, 11.633], [-8.69, 11.624], [-8.678, 11.596], [-8.661, 11.585], [-8.655, 11.572], [-8.657, 11.564], [-8.641, 11.548], [-8.656, 11.538], [-8.649, 11.529], [-8.655, 11.523], [-8.639, 11.509], [-8.617, 11.486], [-8.615, 11.476], [-8.594, 11.474], [-8.567, 11.462], [-8.559, 11.478], [-8.536, 11.479], [-8.533, 11.493], [-8.52, 11.484], [-8.513, 11.447], [-8.506, 11.438], [-8.503, 11.421], [-8.497, 11.416], [-8.461, 11.413], [-8.452, 11.415], [-8.436, 11.401], [-8.425, 11.403], [-8.409, 11.4], [-8.398, 11.392], [-8.372, 11.389], [-8.353, 11.376], [-8.381, 11.372], [-8.393, 11.367], [-8.406, 11.355], [-8.408, 11.346], [-8.404, 11.332], [-8.381, 11.325], [-8.355, 11.326], [-8.353, 11.315], [-8.362, 11.289], [-8.369, 11.281], [-8.391, 11.276], [-8.428, 11.283], [-8.443, 11.29], [-8.466, 11.29], [-8.478, 11.282], [-8.484, 11.264], [-8.474, 11.232], [-8.49, 11.224], [-8.506, 11.224], [-8.517, 11.216], [-8.54, 11.218], [-8.551, 11.212], [-8.556, 11.191], [-8.549, 11.164], [-8.559, 11.138], [-8.571, 11.134], [-8.596, 11.138], [-8.604, 11.13], [-8.605, 11.113], [-8.601, 11.096], [-8.625, 11.075], [-8.635, 11.039], [-8.657, 11.024], [-8.675, 11.004], [-8.672, 10.986], [-8.674, 10.97], [-8.665, 10.953], [-8.657, 10.952], [-8.639, 10.957], [-8.619, 10.967], [-8.603, 10.958], [-8.593, 10.971], [-8.587, 10.961], [-8.58, 10.96], [-8.566, 10.968], [-8.545, 10.987], [-8.512, 10.999], [-8.499, 11.022], [-8.501, 11.027], [-8.49, 11.039], [-8.484, 11.054], [-8.482, 11.071], [-8.471, 11.069], [-8.444, 11.072], [-8.423, 11.064], [-8.388, 11.063], [-8.378, 11.07], [-8.365, 11.072], [-8.343, 11.062], [-8.324, 11.038], [-8.309, 11.025], [-8.292, 11.021], [-8.285, 11.012], [-8.279, 10.994], [-8.277, 10.941], [-8.259, 10.906], [-8.26, 10.891], [-8.306, 10.856], [-8.308, 10.843], [-8.301, 10.833], [-8.303, 10.818], [-8.331, 10.788], [-8.329, 10.771], [-8.301, 10.77], [-8.289, 10.758], [-8.291, 10.742], [-8.302, 10.724], [-8.299, 10.71], [-8.289, 10.699], [-8.3, 10.688], [-8.299, 10.676], [-8.32, 10.674], [-8.323, 10.669], [-8.32, 10.648], [-8.328, 10.63], [-8.325, 10.59], [-8.3, 10.59], [-8.294, 10.586], [-8.287, 10.595], [-8.269, 10.575], [-8.272, 10.554], [-8.262, 10.545], [-8.259, 10.53], [-8.246, 10.513], [-8.244, 10.492], [-8.235, 10.471], [-8.23, 10.419], [-8.217, 10.424], [-8.212, 10.42], [-8.182, 10.415], [-8.161, 10.43], [-8.148, 10.429], [-8.132, 10.443], [-8.118, 10.445], [-8.113, 10.453], [-8.097, 10.445], [-8.105, 10.437], [-8.1, 10.431], [-8.105, 10.393], [-8.086, 10.361], [-8.071, 10.341], [-8.055, 10.332], [-8.043, 10.333], [-8.026, 10.347], [-7.997, 10.351], [-7.985, 10.343], [-7.972, 10.31], [-7.965, 10.284], [-7.955, 10.273], [-7.945, 10.253], [-7.946, 10.241], [-7.954, 10.233], [-7.956, 10.215], [-7.964, 10.195], [-7.973, 10.19], [-7.979, 10.17], [-7.99, 10.174], [-7.995, 10.146], [-8.014, 10.135], [-8.009, 10.13], [-8.014, 10.12], [-8.009, 10.097], [-8.032, 10.091], [-8.034, 10.083], [-8.056, 10.078], [-8.06, 10.071], [-8.075, 10.073], [-8.077, 10.062], [-8.102, 10.065], [-8.121, 10.05], [-8.124, 10.036], [-8.123, 10.019], [-8.132, 9.993], [-8.145, 9.988], [-8.145, 9.976], [-8.131, 9.971], [-8.115, 9.98], [-8.112, 9.962], [-8.118, 9.956], [-8.129, 9.959], [-8.148, 9.949], [-8.16, 9.953], [-8.163, 9.947], [-8.152, 9.945], [-8.149, 9.936], [-8.16, 9.932], [-8.151, 9.909], [-8.132, 9.918], [-8.133, 9.91], [-8.121, 9.9], [-8.124, 9.886], [-8.131, 9.879], [-8.137, 9.887], [-8.141, 9.877], [-8.131, 9.864], [-8.124, 9.87], [-8.103, 9.874], [-8.095, 9.864], [-8.097, 9.842], [-8.093, 9.829], [-8.098, 9.805], [-8.112, 9.806], [-8.098, 9.791], [-8.113, 9.789], [-8.11, 9.775], [-8.102, 9.763], [-8.121, 9.761], [-8.111, 9.752], [-8.123, 9.741], [-8.113, 9.733], [-8.117, 9.72], [-8.112, 9.706], [-8.124, 9.699], [-8.128, 9.688], [-8.118, 9.67], [-8.126, 9.666], [-8.115, 9.654], [-8.125, 9.643], [-8.125, 9.633], [-8.135, 9.622], [-8.144, 9.621], [-8.133, 9.613], [-8.14, 9.608], [-8.142, 9.585], [-8.135, 9.575], [-8.135, 9.565], [-8.143, 9.562], [-8.143, 9.549], [-8.138, 9.545], [-8.138, 9.528], [-8.124, 9.524], [-8.129, 9.508], [-8.124, 9.507], [-8.118, 9.487], [-8.105, 9.476], [-8.102, 9.462], [-8.092, 9.455], [-8.085, 9.44], [-8.078, 9.437], [-8.043, 9.408], [-8.033, 9.395], [-8.013, 9.396], [-8.006, 9.403], [-7.997, 9.398], [-7.975, 9.399], [-7.955, 9.41], [-7.925, 9.413], [-7.916, 9.422], [-7.887, 9.419], [-7.87, 9.423], [-7.849, 9.421], [-7.855, 9.416], [-7.856, 9.392], [-7.864, 9.382], [-7.86, 9.376], [-7.873, 9.365], [-7.869, 9.362], [-7.882, 9.34], [-7.877, 9.319], [-7.877, 9.293], [-7.889, 9.282], [-7.911, 9.23], [-7.92, 9.212], [-7.914, 9.189], [-7.905, 9.179], [-7.884, 9.164], [-7.87, 9.159], [-7.855, 9.169], [-7.849, 9.18], [-7.824, 9.176], [-7.824, 9.159], [-7.807, 9.143], [-7.807, 9.132], [-7.763, 9.094], [-7.754, 9.095], [-7.731, 9.082], [-7.727, 9.073], [-7.734, 9.065], [-7.751, 9.065], [-7.766, 9.073], [-7.806, 9.074], [-7.822, 9.064], [-7.84, 9.066], [-7.849, 9.058], [-7.848, 9.044], [-7.857, 9.033], [-7.884, 9.031], [-7.899, 9.025], [-7.899, 9.012], [-7.927, 8.996], [-7.935, 8.982], [-7.927, 8.964], [-7.926, 8.945], [-7.916, 8.937], [-7.94, 8.903], [-7.942, 8.891], [-7.925, 8.884], [-7.933, 8.876], [-7.938, 8.849], [-7.952, 8.849], [-7.955, 8.842], [-7.966, 8.842], [-7.975, 8.831], [-7.961, 8.815], [-7.951, 8.809], [-7.949, 8.789], [-7.939, 8.786], [-7.931, 8.776], [-7.911, 8.775], [-7.898, 8.78], [-7.895, 8.789], [-7.869, 8.789], [-7.863, 8.775], [-7.849, 8.777], [-7.831, 8.769], [-7.833, 8.761], [-7.822, 8.76], [-7.809, 8.768], [-7.793, 8.765], [-7.787, 8.759], [-7.791, 8.742], [-7.776, 8.732], [-7.761, 8.731], [-7.752, 8.714], [-7.755, 8.696], [-7.733, 8.659], [-7.692, 8.649], [-7.672, 8.618], [-7.681, 8.588], [-7.692, 8.577], [-7.696, 8.557], [-7.659, 8.499], [-7.665, 8.471], [-7.674, 8.466], [-7.671, 8.45], [-7.678, 8.441], [-7.673, 8.426], [-7.662, 8.408], [-7.649, 8.401], [-7.648, 8.387], [-7.638, 8.376], [-7.659, 8.374], [-7.665, 8.383], [-7.681, 8.375], [-7.686, 8.38], [-7.697, 8.375], [-7.709, 8.38], [-7.742, 8.378], [-7.756, 8.398], [-7.756, 8.408], [-7.768, 8.436], [-7.778, 8.45], [-7.788, 8.477], [-7.795, 8.478], [-7.801, 8.488], [-7.814, 8.485], [-7.826, 8.496], [-7.829, 8.476], [-7.835, 8.472], [-7.823, 8.443], [-7.838, 8.427], [-7.853, 8.43], [-7.865, 8.424], [-7.88, 8.426], [-7.881, 8.442], [-7.887, 8.436], [-7.899, 8.443], [-7.907, 8.441], [-7.906, 8.456], [-7.919, 8.456], [-7.918, 8.465], [-7.906, 8.471], [-7.914, 8.481], [-7.908, 8.49], [-7.927, 8.498], [-7.931, 8.51], [-7.946, 8.499], [-7.958, 8.496], [-7.964, 8.507], [-7.977, 8.5], [-7.975, 8.489], [-8.001, 8.496], [-8.006, 8.491], [-8.018, 8.5], [-8.037, 8.498], [-8.058, 8.505], [-8.063, 8.511], [-8.07, 8.501], [-8.09, 8.509], [-8.094, 8.492], [-8.111, 8.484], [-8.129, 8.489], [-8.132, 8.496], [-8.144, 8.485], [-8.151, 8.485], [-8.149, 8.496], [-8.163, 8.494], [-8.167, 8.503], [-8.175, 8.501], [-8.188, 8.507], [-8.188, 8.5], [-8.198, 8.484], [-8.218, 8.47], [-8.215, 8.464], [-8.235, 8.465], [-8.24, 8.444], [-8.238, 8.416], [-8.226, 8.403], [-8.23, 8.386], [-8.22, 8.374], [-8.215, 8.36], [-8.229, 8.322], [-8.218, 8.296], [-8.222, 8.276], [-8.238, 8.267], [-8.244, 8.25], [-8.242, 8.234], [-8.223, 8.231], [-8.206, 8.224], [-8.204, 8.212], [-8.196, 8.216], [-8.185, 8.204], [-8.174, 8.185], [-8.151, 8.185], [-8.141, 8.19], [-8.116, 8.182], [-8.11, 8.184], [-8.089, 8.177], [-8.068, 8.157], [-8.045, 8.165], [-8.039, 8.183], [-8.033, 8.181], [-8.035, 8.195], [-8.026, 8.191], [-8.02, 8.18], [-7.997, 8.198], [-7.981, 8.193], [-7.993, 8.176], [-7.998, 8.156], [-7.994, 8.152], [-7.995, 8.124], [-8.008, 8.12], [-8.012, 8.101], [-8.001, 8.095], [-7.997, 8.099], [-7.987, 8.091], [-7.976, 8.09], [-7.971, 8.07], [-7.962, 8.054], [-7.944, 8.049], [-7.95, 8.033], [-7.943, 8.017], [-7.947, 8.012], [-7.968, 8.024], [-7.98, 8.017], [-7.989, 8.028], [-7.982, 8.035], [-7.994, 8.047], [-8.01, 8.043], [-8.01, 8.034], [-8.034, 8.038], [-8.041, 8.046], [-8.05, 8.046], [-8.061, 8.039], [-8.068, 8.02], [-8.067, 8.006], [-8.078, 8], [-8.081, 7.989], [-8.091, 7.977], [-8.095, 7.95], [-8.106, 7.94], [-8.114, 7.926], [-8.111, 7.919], [-8.118, 7.909], [-8.115, 7.902], [-8.124, 7.89], [-8.135, 7.883], [-8.134, 7.86], [-8.126, 7.848], [-8.125, 7.835], [-8.111, 7.838], [-8.108, 7.815], [-8.091, 7.798], [-8.102, 7.789], [-8.101, 7.77], [-8.106, 7.753], [-8.116, 7.735], [-8.116, 7.723], [-8.144, 7.687], [-8.148, 7.675], [-8.143, 7.662], [-8.164, 7.649], [-8.172, 7.64], [-8.171, 7.627], [-8.185, 7.608], [-8.17, 7.584], [-8.183, 7.561], [-8.205, 7.549], [-8.21, 7.537], [-8.219, 7.539], [-8.229, 7.552], [-8.26, 7.574], [-8.298, 7.585], [-8.308, 7.612], [-8.33, 7.608], [-8.329, 7.602], [-8.34, 7.592], [-8.355, 7.587], [-8.384, 7.597], [-8.38, 7.617], [-8.397, 7.628], [-8.407, 7.624], [-8.432, 7.593], [-8.471, 7.557], [-8.5, 7.581], [-8.559, 7.626], [-8.57, 7.631], [-8.554, 7.657], [-8.554, 7.675], [-8.558, 7.688], [-8.554, 7.696], [-8.676, 7.696], [-8.682, 7.684], [-8.678, 7.678], [-8.698, 7.661], [-8.705, 7.646], [-8.714, 7.641], [-8.705, 7.624], [-8.711, 7.609], [-8.716, 7.585], [-8.724, 7.575], [-8.718, 7.566], [-8.724, 7.556], [-8.711, 7.546], [-8.714, 7.529], [-8.706, 7.515], [-8.73, 7.496], [-8.737, 7.483], [-8.761, 7.456], [-8.778, 7.453], [-8.772, 7.447], [-8.778, 7.436], [-8.78, 7.413], [-8.803, 7.416], [-8.801, 7.408], [-8.814, 7.408], [-8.817, 7.395], [-8.837, 7.368], [-8.843, 7.357], [-8.854, 7.349], [-8.843, 7.335], [-8.848, 7.319], [-8.837, 7.311], [-8.845, 7.307], [-8.836, 7.288], [-8.837, 7.276], [-8.848, 7.272], [-8.854, 7.263], [-8.858, 7.268], [-8.872, 7.257], [-8.896, 7.265], [-8.905, 7.256], [-8.911, 7.264], [-8.915, 7.293], [-8.931, 7.286], [-8.94, 7.29], [-8.945, 7.284], [-8.943, 7.266], [-8.958, 7.275], [-8.968, 7.266], [-8.961, 7.263], [-8.97, 7.253], [-8.991, 7.255], [-9.011, 7.244], [-9.026, 7.247], [-9.035, 7.234], [-9.044, 7.233], [-9.04, 7.224], [-9.074, 7.2], [-9.092, 7.203], [-9.096, 7.21], [-9.111, 7.203], [-9.101, 7.22], [-9.104, 7.238], [-9.113, 7.237], [-9.112, 7.25], [-9.12, 7.25], [-9.127, 7.258], [-9.126, 7.275], [-9.155, 7.271], [-9.169, 7.28], [-9.178, 7.293], [-9.203, 7.319], [-9.201, 7.338], [-9.207, 7.351], [-9.204, 7.36], [-9.203, 7.386], [-9.217, 7.386], [-9.234, 7.391], [-9.248, 7.384], [-9.261, 7.383], [-9.271, 7.377], [-9.286, 7.377], [-9.294, 7.387], [-9.289, 7.402], [-9.294, 7.426], [-9.306, 7.423], [-9.312, 7.435], [-9.322, 7.436], [-9.331, 7.43], [-9.345, 7.43], [-9.351, 7.436], [-9.361, 7.433], [-9.368, 7.423], [-9.363, 7.416], [-9.383, 7.406], [-9.384, 7.395], [-9.407, 7.391], [-9.403, 7.41], [-9.412, 7.418], [-9.414, 7.428], [-9.423, 7.425], [-9.426, 7.416], [-9.434, 7.418], [-9.44, 7.41], [-9.467, 7.396], [-9.467, 7.387], [-9.476, 7.367], [-9.484, 7.376], [-9.477, 7.386], [-9.47, 7.406], [-9.468, 7.43], [-9.456, 7.451], [-9.447, 7.451], [-9.425, 7.473], [-9.412, 7.509], [-9.41, 7.509], [-9.4, 7.542], [-9.396, 7.542], [-9.383, 7.565], [-9.384, 7.577], [-9.376, 7.592], [-9.359, 7.613], [-9.359, 7.628], [-9.37, 7.628], [-9.379, 7.647], [-9.375, 7.691], [-9.363, 7.717], [-9.357, 7.721], [-9.357, 7.735], [-9.349, 7.746], [-9.362, 7.765], [-9.361, 7.779], [-9.368, 7.778], [-9.367, 7.79], [-9.379, 7.809], [-9.394, 7.802], [-9.401, 7.821], [-9.416, 7.831], [-9.417, 7.841], [-9.432, 7.86], [-9.432, 7.877], [-9.44, 7.892], [-9.434, 7.914], [-9.443, 7.933], [-9.436, 7.95], [-9.442, 7.962], [-9.443, 7.975], [-9.438, 7.988], [-9.405, 8.02], [-9.409, 8.029], [-9.406, 8.05], [-9.409, 8.061], [-9.42, 8.065], [-9.453, 8.05], [-9.462, 8.05], [-9.445, 8.072], [-9.441, 8.084], [-9.454, 8.104], [-9.456, 8.121], [-9.449, 8.133], [-9.462, 8.136], [-9.459, 8.162], [-9.462, 8.177], [-9.48, 8.181], [-9.494, 8.176], [-9.495, 8.187], [-9.507, 8.184], [-9.516, 8.194], [-9.505, 8.208], [-9.506, 8.226], [-9.5, 8.238], [-9.51, 8.242], [-9.489, 8.266], [-9.491, 8.275], [-9.501, 8.278], [-9.502, 8.288], [-9.497, 8.305], [-9.51, 8.307], [-9.519, 8.319], [-9.495, 8.339], [-9.478, 8.349], [-9.497, 8.373], [-9.515, 8.379], [-9.545, 8.379], [-9.561, 8.392], [-9.568, 8.409], [-9.593, 8.424], [-9.594, 8.412], [-9.609, 8.404], [-9.631, 8.406], [-9.646, 8.401], [-9.659, 8.408], [-9.649, 8.427], [-9.644, 8.427], [-9.629, 8.44], [-9.62, 8.453], [-9.63, 8.473], [-9.654, 8.474], [-9.647, 8.491], [-9.655, 8.492], [-9.663, 8.502], [-9.697, 8.485], [-9.701, 8.462], [-9.712, 8.439], [-9.718, 8.44], [-9.717, 8.459], [-9.734, 8.472], [-9.744, 8.504], [-9.74, 8.512], [-9.726, 8.515], [-9.725, 8.525], [-9.742, 8.536], [-9.75, 8.545], [-9.77, 8.552], [-9.776, 8.55], [-9.787, 8.533], [-9.795, 8.536], [-9.801, 8.526], [-9.79, 8.516], [-9.791, 8.508], [-9.806, 8.501], [-9.833, 8.5], [-9.84, 8.485], [-9.854, 8.501], [-9.883, 8.498], [-9.885, 8.494], [-9.907, 8.501], [-9.923, 8.496], [-9.941, 8.487], [-9.987, 8.452], [-9.99, 8.446], [-10.013, 8.441], [-10.038, 8.429], [-10.059, 8.428], [-10.059, 8.449], [-10.056, 8.465], [-10.043, 8.489], [-10.046, 8.499], [-10.062, 8.511], [-10.072, 8.509], [-10.082, 8.519], [-10.102, 8.513], [-10.12, 8.535], [-10.126, 8.524], [-10.136, 8.522], [-10.159, 8.527], [-10.163, 8.515], [-10.173, 8.512], [-10.198, 8.495], [-10.201, 8.484], [-10.227, 8.481], [-10.227, 8.494], [-10.235, 8.486], [-10.245, 8.492], [-10.264, 8.487], [-10.277, 8.491], [-10.28, 8.485], [-10.322, 8.506], [-10.355, 8.488], [-10.369, 8.486], [-10.375, 8.48], [-10.383, 8.491], [-10.393, 8.471], [-10.399, 8.45], [-10.413, 8.441], [-10.423, 8.428], [-10.431, 8.412], [-10.455, 8.391], [-10.478, 8.377], [-10.48, 8.363], [-10.498, 8.342], [-10.503, 8.341], [-10.542, 8.309], [-10.556, 8.306], [-10.568, 8.307], [-10.577, 8.334], [-10.606, 8.341], [-10.617, 8.338], [-10.625, 8.352], [-10.636, 8.342], [-10.639, 8.354], [-10.663, 8.349], [-10.673, 8.332], [-10.677, 8.315], [-10.683, 8.315], [-10.685, 8.287], [-10.701, 8.28], [-10.698, 8.313], [-10.689, 8.325], [-10.679, 8.348], [-10.678, 8.369], [-10.674, 8.378], [-10.664, 8.384], [-10.649, 8.383], [-10.639, 8.394], [-10.645, 8.411], [-10.647, 8.426], [-10.641, 8.441], [-10.641, 8.475], [-10.635, 8.476], [-10.633, 8.491], [-10.626, 8.487], [-10.621, 8.496], [-10.628, 8.504], [-10.616, 8.542], [-10.593, 8.551], [-10.59, 8.563], [-10.583, 8.572], [-10.574, 8.573], [-10.576, 8.596], [-10.568, 8.602], [-10.558, 8.6], [-10.542, 8.614], [-10.531, 8.614], [-10.52, 8.62], [-10.493, 8.626], [-10.493, 8.632], [-10.48, 8.64], [-10.47, 8.651], [-10.477, 8.657], [-10.464, 8.678], [-10.488, 8.708], [-10.5, 8.713], [-10.495, 8.724], [-10.504, 8.731], [-10.51, 8.743], [-10.52, 8.783], [-10.533, 8.792], [-10.543, 8.805], [-10.55, 8.798], [-10.561, 8.805], [-10.558, 8.819], [-10.559, 8.845], [-10.569, 8.881], [-10.576, 8.894], [-10.573, 8.909], [-10.575, 8.922], [-10.583, 8.934], [-10.591, 8.992], [-10.589, 9.012], [-10.58, 9.017], [-10.582, 9.023], [-10.574, 9.051], [-10.585, 9.051], [-10.594, 9.061], [-10.62, 9.074], [-10.625, 9.072], [-10.648, 9.082], [-10.668, 9.086], [-10.701, 9.079], [-10.722, 9.077], [-10.731, 9.082], [-10.726, 9.107], [-10.72, 9.122], [-10.717, 9.15], [-10.708, 9.158], [-10.716, 9.169], [-10.714, 9.175], [-10.723, 9.179], [-10.714, 9.201], [-10.706, 9.187], [-10.699, 9.191], [-10.667, 9.2], [-10.657, 9.211], [-10.658, 9.231], [-10.667, 9.232], [-10.671, 9.245], [-10.667, 9.273], [-10.654, 9.289], [-10.662, 9.295], [-10.663, 9.311], [-10.681, 9.318], [-10.684, 9.324], [-10.709, 9.332], [-10.703, 9.342], [-10.719, 9.351], [-10.717, 9.363], [-10.732, 9.38], [-10.761, 9.386], [-10.77, 9.378], [-10.779, 9.386], [-10.798, 9.389], [-10.811, 9.378], [-10.815, 9.39], [-10.804, 9.4], [-10.804, 9.415], [-10.816, 9.422], [-10.837, 9.439], [-10.843, 9.451], [-10.852, 9.455], [-10.838, 9.467], [-10.841, 9.486], [-10.848, 9.5], [-10.831, 9.504], [-10.822, 9.513], [-10.836, 9.516], [-10.86, 9.529], [-10.868, 9.542], [-10.863, 9.545], [-10.868, 9.564], [-10.876, 9.579], [-10.886, 9.585], [-10.881, 9.592], [-10.89, 9.6], [-10.898, 9.594], [-10.911, 9.602], [-10.915, 9.635], [-10.924, 9.639], [-10.918, 9.655], [-10.945, 9.657], [-10.951, 9.652], [-10.964, 9.664], [-10.967, 9.688], [-10.973, 9.703], [-10.979, 9.709], [-10.977, 9.722], [-10.992, 9.736], [-10.991, 9.751], [-11.011, 9.764], [-11.016, 9.778], [-11.028, 9.788], [-11.039, 9.787], [-11.046, 9.801], [-11.043, 9.818], [-11.061, 9.814], [-11.064, 9.828], [-11.081, 9.844], [-11.09, 9.844], [-11.096, 9.858], [-11.103, 9.861], [-11.111, 9.853], [-11.124, 9.858], [-11.132, 9.855], [-11.143, 9.867], [-11.157, 9.868], [-11.155, 9.875], [-11.161, 9.891], [-11.162, 9.909], [-11.169, 9.917], [-11.171, 9.933], [-11.165, 9.935], [-11.174, 9.953], [-11.173, 9.961], [-11.185, 9.971], [-11.213, 9.975], [-11.208, 10], [-11.64, 10], [-11.895, 10], [-11.909, 9.957], [-11.907, 9.94], [-11.98, 9.917], [-12.12, 9.872], [-12.145, 9.872], [-12.163, 9.885], [-12.185, 9.89], [-12.198, 9.901], [-12.217, 9.909], [-12.222, 9.933], [-12.339, 9.904], [-12.345, 9.894], [-12.418, 9.884], [-12.435, 9.881], [-12.449, 9.872], [-12.471, 9.85], [-12.488, 9.848], [-12.497, 9.832], [-12.487, 9.83], [-12.489, 9.813], [-12.497, 9.811], [-12.499, 9.793], [-12.506, 9.782], [-12.515, 9.753], [-12.507, 9.754], [-12.507, 9.742], [-12.522, 9.743], [-12.526, 9.734], [-12.517, 9.714], [-12.519, 9.706], [-12.528, 9.709], [-12.531, 9.722], [-12.547, 9.708], [-12.565, 9.702], [-12.566, 9.678], [-12.572, 9.67], [-12.571, 9.658], [-12.585, 9.663], [-12.587, 9.653], [-12.581, 9.636], [-12.588, 9.602], [-12.596, 9.6], [-12.612, 9.607], [-12.623, 9.59], [-12.626, 9.572], [-12.634, 9.566], [-12.629, 9.548], [-12.641, 9.549], [-12.654, 9.54], [-12.655, 9.533], [-12.645, 9.521], [-12.646, 9.511], [-12.67, 9.476], [-12.667, 9.468], [-12.677, 9.462], [-12.681, 9.444], [-12.675, 9.436], [-12.683, 9.429], [-12.679, 9.424], [-12.685, 9.408], [-12.692, 9.417], [-12.707, 9.408], [-12.707, 9.389], [-12.718, 9.397], [-12.732, 9.395], [-12.749, 9.4], [-12.755, 9.392], [-12.753, 9.364], [-12.748, 9.359], [-12.748, 9.345], [-12.775, 9.344], [-12.772, 9.335], [-12.778, 9.321], [-12.787, 9.316], [-12.785, 9.304], [-12.801, 9.299], [-12.807, 9.29], [-12.825, 9.295], [-12.843, 9.289], [-12.848, 9.281], [-12.856, 9.292], [-12.868, 9.289], [-12.88, 9.294], [-12.888, 9.283], [-12.884, 9.276], [-12.896, 9.273], [-12.907, 9.262], [-12.921, 9.283], [-12.942, 9.291], [-12.955, 9.281], [-12.949, 9.265], [-12.96, 9.237], [-12.971, 9.227], [-12.962, 9.205], [-12.953, 9.196], [-12.951, 9.181], [-12.978, 9.17], [-12.982, 9.158], [-12.993, 9.144], [-13.001, 9.116], [-13.024, 9.096], [-13.03, 9.102], [-13.04, 9.097], [-13.042, 9.086], [-13.074, 9.08], [-13.076, 9.065], [-13.082, 9.049], [-13.099, 9.047], [-13.111, 9.053], [-13.125, 9.05], [-13.141, 9.056], [-13.166, 9.08], [-13.173, 9.091], [-13.198, 9.096], [-13.202, 9.083], [-13.243, 9.069], [-13.275, 9.063], [-13.289, 9.05], [-13.299, 9.05], [-13.301, 9.036], [-13.318, 9.063], [-13.317, 9.074], [-13.298, 9.079], [-13.29, 9.095], [-13.289, 9.108], [-13.272, 9.121], [-13.263, 9.139], [-13.241, 9.153], [-13.241, 9.158], [-13.258, 9.169], [-13.27, 9.168], [-13.276, 9.156], [-13.303, 9.159], [-13.315, 9.157], [-13.326, 9.183], [-13.31, 9.189], [-13.313, 9.205], [-13.307, 9.221], [-13.308, 9.242], [-13.323, 9.279], [-13.349, 9.281], [-13.362, 9.276], [-13.381, 9.28], [-13.412, 9.277], [-13.417, 9.268], [-13.43, 9.267], [-13.429, 9.278], [-13.417, 9.276], [-13.41, 9.281], [-13.408, 9.294], [-13.422, 9.333], [-13.424, 9.359], [-13.42, 9.397], [-13.426, 9.411], [-13.463, 9.406], [-13.481, 9.418], [-13.504, 9.446], [-13.516, 9.481], [-13.526, 9.496], [-13.556, 9.507], [-13.584, 9.546], [-13.587, 9.559], [-13.596, 9.571], [-13.609, 9.573], [-13.614, 9.567], [-13.658, 9.545], [-13.702, 9.511], [-13.708, 9.503], [-13.724, 9.509], [-13.713, 9.522], [-13.711, 9.517], [-13.699, 9.521], [-13.678, 9.552], [-13.666, 9.561], [-13.666, 9.584], [-13.658, 9.591], [-13.657, 9.604], [-13.639, 9.625], [-13.624, 9.639], [-13.627, 9.651], [-13.622, 9.702], [-13.617, 9.729], [-13.608, 9.753], [-13.618, 9.774], [-13.62, 9.798], [-13.627, 9.811], [-13.649, 9.824], [-13.654, 9.831], [-13.638, 9.854], [-13.638, 9.863], [-13.654, 9.869], [-13.66, 9.881], [-13.653, 9.901], [-13.663, 9.9], [-13.661, 9.913], [-13.669, 9.917], [-13.662, 9.925], [-13.672, 9.931], [-13.677, 9.947], [-13.682, 9.942], [-13.69, 9.953], [-13.69, 9.962], [-13.672, 9.97], [-13.675, 9.973], [-13.694, 9.96], [-13.689, 9.942], [-13.696, 9.925], [-13.698, 9.908], [-13.712, 9.877], [-13.727, 9.866], [-13.795, 9.837], [-13.814, 9.842], [-13.831, 9.855], [-13.851, 9.888], [-13.867, 9.904], [-13.906, 9.933], [-13.947, 9.961], [-13.945, 9.976], [-13.975, 9.975], [-14.011, 9.996], [-14.017, 10.004], [-14.01, 10.011], [-14.012, 10.025], [-14.019, 10.034], [-14.016, 10.05], [-14.004, 10.05], [-14.008, 10.057], [-14.019, 10.056], [-14.017, 10.07], [-14.025, 10.063], [-14.033, 10.068], [-14.048, 10.069], [-14.052, 10.062], [-14.033, 10.066], [-14.026, 10.06], [-14.009, 10.056], [-14.016, 10.051], [-14.02, 10.03], [-14.013, 10.02], [-14.027, 10.002], [-14.052, 10.023], [-14.061, 10.034], [-14.059, 10.051], [-14.079, 10.064], [-14.109, 10.055], [-14.115, 10.048], [-14.133, 10.051], [-14.126, 10.082], [-14.116, 10.088], [-14.103, 10.08], [-14.092, 10.086], [-14.074, 10.07], [-14.074, 10.08], [-14.094, 10.089], [-14.108, 10.083], [-14.122, 10.106], [-14.119, 10.114], [-14.11, 10.112], [-14.107, 10.123], [-14.115, 10.121], [-14.132, 10.129], [-14.13, 10.146], [-14.122, 10.162], [-14.103, 10.166], [-14.09, 10.162], [-14.079, 10.166], [-14.068, 10.149], [-14.08, 10.176], [-14.092, 10.175], [-14.124, 10.197], [-14.146, 10.193], [-14.143, 10.204], [-14.157, 10.206], [-14.166, 10.192], [-14.18, 10.19], [-14.201, 10.205], [-14.187, 10.219], [-14.191, 10.231], [-14.202, 10.227], [-14.204, 10.208], [-14.218, 10.21], [-14.218, 10.199], [-14.225, 10.193], [-14.243, 10.202], [-14.243, 10.209], [-14.256, 10.216], [-14.277, 10.216], [-14.281, 10.222], [-14.29, 10.213], [-14.308, 10.224], [-14.307, 10.203], [-14.316, 10.199], [-14.324, 10.207], [-14.349, 10.222], [-14.373, 10.233], [-14.389, 10.237], [-14.401, 10.234], [-14.41, 10.223], [-14.43, 10.225], [-14.442, 10.209], [-14.453, 10.206], [-14.455, 10.219], [-14.462, 10.229], [-14.461, 10.245], [-14.468, 10.255], [-14.458, 10.278], [-14.453, 10.299], [-14.463, 10.34], [-14.494, 10.374], [-14.532, 10.411], [-14.542, 10.425], [-14.579, 10.451], [-14.608, 10.465], [-14.629, 10.458], [-14.638, 10.47], [-14.622, 10.47], [-14.61, 10.481], [-14.616, 10.486], [-14.623, 10.474], [-14.646, 10.477], [-14.647, 10.459], [-14.655, 10.455], [-14.662, 10.465], [-14.658, 10.478], [-14.667, 10.515], [-14.653, 10.526], [-14.647, 10.537], [-14.658, 10.554], [-14.65, 10.564], [-14.645, 10.555], [-14.632, 10.564], [-14.625, 10.562], [-14.6, 10.587], [-14.577, 10.596], [-14.57, 10.603], [-14.557, 10.597], [-14.539, 10.605], [-14.56, 10.6], [-14.571, 10.606], [-14.586, 10.598], [-14.59, 10.617], [-14.582, 10.624], [-14.587, 10.637], [-14.598, 10.634], [-14.608, 10.642], [-14.616, 10.642], [-14.611, 10.66], [-14.608, 10.705], [-14.59, 10.711], [-14.592, 10.716], [-14.567, 10.744], [-14.556, 10.769], [-14.542, 10.814], [-14.523, 10.823], [-14.508, 10.836], [-14.511, 10.848], [-14.516, 10.837], [-14.543, 10.828], [-14.563, 10.842], [-14.552, 10.849], [-14.558, 10.861], [-14.569, 10.864], [-14.578, 10.851], [-14.588, 10.868], [-14.611, 10.881], [-14.625, 10.872], [-14.633, 10.872], [-14.638, 10.862], [-14.637, 10.845], [-14.615, 10.835], [-14.614, 10.813], [-14.627, 10.807], [-14.648, 10.814], [-14.664, 10.803], [-14.674, 10.783], [-14.71, 10.766], [-14.732, 10.742], [-14.738, 10.72], [-14.735, 10.7], [-14.745, 10.696], [-14.761, 10.706], [-14.775, 10.72], [-14.79, 10.761], [-14.78, 10.759], [-14.761, 10.778], [-14.752, 10.833], [-14.745, 10.833], [-14.735, 10.821], [-14.738, 10.837], [-14.746, 10.842], [-14.744, 10.853], [-14.716, 10.851], [-14.703, 10.843], [-14.696, 10.844], [-14.688, 10.865], [-14.69, 10.871], [-14.703, 10.879], [-14.698, 10.871], [-14.709, 10.867], [-14.716, 10.854], [-14.745, 10.859], [-14.735, 10.876], [-14.725, 10.915], [-14.732, 10.904], [-14.746, 10.907], [-14.731, 10.898], [-14.739, 10.877], [-14.749, 10.866], [-14.76, 10.835], [-14.77, 10.826], [-14.784, 10.828], [-14.803, 10.82], [-14.807, 10.824], [-14.801, 10.852], [-14.805, 10.876], [-14.78, 10.902], [-14.797, 10.888], [-14.813, 10.884], [-14.812, 10.907], [-14.816, 10.93], [-14.801, 10.934], [-14.795, 10.942], [-14.785, 10.945], [-14.765, 10.961], [-14.746, 10.958], [-14.734, 10.964], [-14.719, 10.986], [-14.708, 10.994], [-14.69, 10.998], [-14.689, 11.026], [-14.658, 11.03], [-14.649, 11.018], [-14.652, 11.031], [-14.666, 11.036], [-14.665, 11.05], [-14.673, 11.058], [-14.692, 11.066], [-14.699, 11.083], [-14.68, 11.101], [-14.685, 11.107], [-14.704, 11.092], [-14.707, 11.083], [-14.699, 11.066], [-14.679, 11.048], [-14.679, 11.042], [-14.693, 11.04], [-14.726, 11.02], [-14.747, 11.026], [-14.758, 11.04], [-14.785, 11.051], [-14.784, 11.042], [-14.815, 11.039], [-14.823, 11.03], [-14.822, 11.021], [-14.809, 11.005], [-14.81, 10.991], [-14.824, 10.986], [-14.848, 10.967], [-14.869, 10.961], [-14.883, 10.98], [-14.883, 11.011], [-14.893, 11.03], [-14.889, 11.037], [-14.874, 11.042], [-14.865, 11.055], [-14.86, 11.087], [-14.851, 11.103], [-14.86, 11.107], [-14.866, 11.099], [-14.859, 11.095], [-14.864, 11.086], [-14.868, 11.06], [-14.879, 11.044], [-14.894, 11.039], [-14.9, 11.03], [-14.919, 11.052], [-14.914, 11.067]]], [[[-14.605, 10.594], [-14.612, 10.594], [-14.621, 10.606], [-14.624, 10.623], [-14.617, 10.642], [-14.598, 10.634], [-14.591, 10.637], [-14.584, 10.625], [-14.595, 10.607], [-14.59, 10.596], [-14.605, 10.594]]], [[[-14.616, 10.721], [-14.63, 10.699], [-14.631, 10.682], [-14.644, 10.679], [-14.663, 10.666], [-14.669, 10.656], [-14.684, 10.641], [-14.698, 10.633], [-14.705, 10.651], [-14.707, 10.673], [-14.704, 10.678], [-14.691, 10.681], [-14.676, 10.691], [-14.658, 10.682], [-14.648, 10.685], [-14.646, 10.696], [-14.658, 10.714], [-14.647, 10.727], [-14.64, 10.75], [-14.626, 10.76], [-14.615, 10.756], [-14.623, 10.743], [-14.608, 10.733], [-14.616, 10.721]]], [[[-14.788, 10.745], [-14.788, 10.745], [-14.788, 10.745], [-14.788, 10.745]]], [[[-14.577, 10.85], [-14.575, 10.859], [-14.559, 10.86], [-14.552, 10.85], [-14.565, 10.842], [-14.577, 10.85]]], [[[-14.714, 10.854], [-14.709, 10.866], [-14.697, 10.871], [-14.69, 10.867], [-14.696, 10.849], [-14.703, 10.846], [-14.714, 10.854]]], [[[-14.572, 10.761], [-14.565, 10.766], [-14.57, 10.751], [-14.579, 10.745], [-14.572, 10.761]]], [[[-14.717, 10.699], [-14.705, 10.735], [-14.701, 10.758], [-14.67, 10.77], [-14.663, 10.778], [-14.65, 10.806], [-14.619, 10.804], [-14.61, 10.811], [-14.605, 10.807], [-14.61, 10.795], [-14.619, 10.795], [-14.634, 10.769], [-14.63, 10.761], [-14.645, 10.748], [-14.649, 10.731], [-14.66, 10.719], [-14.661, 10.711], [-14.652, 10.694], [-14.655, 10.686], [-14.668, 10.696], [-14.681, 10.697], [-14.701, 10.685], [-14.717, 10.699]]], [[[-14.607, 10.736], [-14.621, 10.744], [-14.613, 10.756], [-14.626, 10.762], [-14.632, 10.771], [-14.621, 10.786], [-14.613, 10.779], [-14.6, 10.777], [-14.589, 10.766], [-14.607, 10.736]]], [[[-14.574, 10.761], [-14.572, 10.771], [-14.557, 10.788], [-14.562, 10.772], [-14.574, 10.761]]], [[[-14.588, 10.77], [-14.6, 10.778], [-14.615, 10.781], [-14.62, 10.794], [-14.61, 10.794], [-14.604, 10.806], [-14.568, 10.803], [-14.58, 10.788], [-14.588, 10.77]]], [[[-14.562, 10.807], [-14.577, 10.802], [-14.582, 10.807], [-14.601, 10.808], [-14.609, 10.813], [-14.611, 10.832], [-14.62, 10.842], [-14.633, 10.844], [-14.634, 10.868], [-14.623, 10.87], [-14.611, 10.88], [-14.589, 10.867], [-14.582, 10.854], [-14.57, 10.842], [-14.547, 10.828], [-14.547, 10.822], [-14.562, 10.807]]], [[[-14.923, 11.056], [-14.917, 11.064], [-14.923, 11.056], [-14.923, 11.056]]], [[[-14.859, 11.1], [-14.859, 11.1], [-14.859, 11.1], [-14.859, 11.1]]], [[[-14.856, 11.1], [-14.856, 11.1], [-14.856, 11.1], [-14.856, 11.1]]], [[[-14.712, 11.012], [-14.704, 11.017], [-14.7, 11.006], [-14.711, 11.005], [-14.712, 11.012]]], [[[-14.716, 11.018], [-14.716, 11.018], [-14.716, 11.018], [-14.716, 11.018]]], [[[-14.801, 11], [-14.797, 11.009], [-14.789, 11.009], [-14.785, 10.992], [-14.799, 10.992], [-14.801, 11]]], [[[-14.717, 11.02], [-14.717, 11.02], [-14.717, 11.02], [-14.717, 11.02]]], [[[-14.715, 11.021], [-14.715, 11.021], [-14.715, 11.021], [-14.715, 11.021]]], [[[-14.807, 11.006], [-14.822, 11.024], [-14.815, 11.038], [-14.802, 11.039], [-14.798, 11.014], [-14.807, 11.006]]], [[[-14.794, 11.016], [-14.801, 11.029], [-14.796, 11.038], [-14.768, 11.045], [-14.748, 11.026], [-14.765, 11.012], [-14.783, 11.007], [-14.794, 11.016]]], [[[-14.87, 10.855], [-14.876, 10.858], [-14.882, 10.873], [-14.896, 10.884], [-14.883, 10.899], [-14.871, 10.892], [-14.868, 10.875], [-14.874, 10.866], [-14.87, 10.855]]], [[[-14.889, 10.818], [-14.902, 10.809], [-14.916, 10.813], [-14.928, 10.83], [-14.936, 10.865], [-14.917, 10.883], [-14.901, 10.914], [-14.895, 10.919], [-14.886, 10.915], [-14.885, 10.904], [-14.896, 10.893], [-14.897, 10.88], [-14.883, 10.869], [-14.883, 10.846], [-14.879, 10.841], [-14.889, 10.832], [-14.889, 10.818]]], [[[-14.999, 10.953], [-14.973, 10.964], [-14.957, 10.975], [-14.942, 10.968], [-14.91, 10.94], [-14.902, 10.927], [-14.904, 10.918], [-14.921, 10.894], [-14.938, 10.876], [-14.947, 10.859], [-14.947, 10.842], [-14.94, 10.809], [-14.939, 10.792], [-14.955, 10.77], [-14.963, 10.769], [-15.002, 10.775], [-15.017, 10.782], [-15.041, 10.811], [-15.069, 10.849], [-15.076, 10.871], [-15.074, 10.884], [-15.059, 10.896], [-15.05, 10.909], [-15.035, 10.921], [-15.015, 10.927], [-15.007, 10.948], [-14.999, 10.953]]], [[[-14.868, 10.897], [-14.878, 10.903], [-14.873, 10.912], [-14.887, 10.928], [-14.887, 10.937], [-14.873, 10.943], [-14.859, 10.932], [-14.852, 10.914], [-14.852, 10.899], [-14.868, 10.897]]], [[[-14.813, 10.936], [-14.798, 10.943], [-14.805, 10.934], [-14.813, 10.936]]], [[[-14.913, 10.951], [-14.903, 10.962], [-14.896, 10.954], [-14.895, 10.943], [-14.913, 10.951]]], [[[-14.784, 11.001], [-14.778, 11.007], [-14.763, 11.01], [-14.748, 11.022], [-14.723, 11.017], [-14.718, 11.004], [-14.735, 10.987], [-14.748, 10.969], [-14.766, 10.976], [-14.784, 10.973], [-14.798, 10.977], [-14.795, 10.986], [-14.783, 10.993], [-14.784, 11.001]]], [[[-14.957, 10.98], [-14.954, 11.012], [-14.936, 11.026], [-14.936, 11.033], [-14.925, 11.052], [-14.904, 11.02], [-14.896, 10.999], [-14.898, 10.965], [-14.916, 10.953], [-14.928, 10.959], [-14.944, 10.975], [-14.957, 10.98]]]]}}