{"type": "Feature", "properties": {"name": "Ireland", "iso1": "IE", "admin_level": 2, "osm_id": 62273, "countrylevel_id": "iso1:IE", "osm_data": {"localname": "Ireland", "official_name": "Éire", "alltags": {"flag": "http://upload.wikimedia.org/wikipedia/commons/4/45/Flag_of_Ireland.svg", "name:af": "Ierland", "name:ak": "Aereland", "name:am": "አየርላንድ", "name:an": "Irlanda", "name:ar": "أيرلندا", "name:ay": "Irlandiya", "name:az": "İrlandiya", "name:ba": "Ирландия", "name:be": "Ірландыя", "name:bg": "Ирландия", "name:bi": "Ireland", "name:bm": "Irilandi", "name:bn": "আয়ারল্যান্ড", "name:bo": "ཨ་ཡར་ལནཌ།", "name:br": "Iwerzhon", "name:bs": "Irska", "name:ca": "Irlanda", "name:ce": "Ирланди", "name:co": "Irlanda", "name:cs": "Irsko", "name:cu": "Єирь", "name:cv": "Ирланди Республики", "name:cy": "Iwerddon", "name:da": "Irland", "name:dv": "އަޔަލޭންޑުގެ ޖުމްހޫރިއްޔާ", "name:dz": "ཨཱ་ཡ་ལེནཌ", "name:ee": "Ireland nutome", "name:el": "Ιρλανδία", "name:en": "Ireland", "name:eo": "Irlando", "name:es": "Irlanda", "name:et": "Iirimaa", "name:eu": "Irlanda", "name:fa": "ایرلند", "name:ff": "Irlannda", "name:fi": "Irlanti", "name:fo": "Írland", "name:fr": "Irlande", "name:fy": "Ierlân", "name:ga": "Éire", "name:gd": "Èirinn", "name:gl": "Irlanda", "name:gn": "Ilandia", "name:gu": "આયર્લેંડ", "name:gv": "Nerin", "name:ha": "Ayalan", "name:he": "אירלנד", "name:hi": "आयरलैंड", "name:hr": "Irska", "name:ht": "Ilann", "name:hu": "Írország", "name:hy": "Իռլանդիա", "name:ia": "Irlanda", "name:id": "Irlandia", "name:ie": "Irland", "name:io": "Irlando", "name:is": "Írland", "name:it": "Irlanda", "name:ja": "アイルランド", "name:jv": "Republik Irlandia", "name:ka": "ირლანდია", "name:ki": "Ayalandi", "name:kk": "Ирландия", "name:kl": "Irlandi", "name:km": "អៀរឡង់", "name:kn": "ಐರ್ಲೆಂಡ್", "name:ko": "아일랜드", "name:ks": "اَیَرلینٛڑ", "name:ku": "Îrland", "name:kv": "Ирландия", "name:kw": "Repoblek Wordhen", "name:ky": "Ирландия", "name:la": "Hibernia", "name:lb": "Irland", "name:lg": "Ayalandi", "name:li": "Ierland", "name:ln": "Irelandɛ", "name:lo": "ໄອແລນ", "name:lt": "Airija", "name:lv": "Īrija", "name:mg": "Irlandy", "name:mi": "Airangi", "name:mk": "Ирска", "name:ml": "അയർലാൻഡ്", "name:mn": "Ирланд", "name:mr": "आयर्लंड", "name:ms": "Ireland", "name:mt": "Irlanda", "name:my": "အိုင်ယာလန်", "name:na": "Ripubrikit Airerand", "name:ne": "आइरल्याण्ड", "name:nl": "Ierland", "name:nn": "Irland", "name:no": "Irland", "name:nv": "Bitsiighaʼ Łichííʼí Bikéyah", "name:oc": "Republica d'Irlanda", "name:or": "ଆୟରଲ୍ୟାଣ୍ଡ", "name:os": "Ирланди", "name:pl": "Irlandia", "name:ps": "د آيرلېنډ جمهوريت", "name:pt": "Irlanda", "name:qu": "Ilanda", "name:rm": "Irlanda", "name:rn": "Irilandi", "name:ro": "Irlanda", "name:ru": "Ирландия", "name:rw": "Irilande", "name:sc": "Irlanda", "name:se": "Irlánda", "name:sg": "Irlânde", "name:sh": "Irska", "name:si": "අයර්ලන්තය", "name:sk": "Írsko", "name:sl": "Irska", "name:sn": "Ireland", "name:so": "Ayrlaand", "name:sq": "Irlandë", "name:sr": "Ирска", "name:ss": "IYalendi", "name:sv": "Irland", "name:sw": "Ayalandi", "name:ta": "அயர்லாந்து", "name:te": "ఐర్ లాండ్", "name:tg": "Ҷумҳурии Ирландия", "name:th": "สาธารณรัฐไอร์แลนด์", "name:ti": "አየርላንድ", "name:tk": "Irlandiýa", "name:tl": "Irlanda", "name:to": "ʻAealani", "name:tr": "İrlanda", "name:ts": "Ireland", "name:tt": "Ирландия", "name:uk": "Ірландія", "name:ur": "آئرلینڈ", "name:uz": "Irlandiya", "name:vi": "Ireland", "name:vo": "Lireyän", "name:wa": "Irlande", "name:yi": "אירלאנד", "name:yo": "Orílẹ́ède Ailandi", "name:za": "Aiwjlanz Gunghozgoz", "name:zh": "愛爾蘭", "name:zu": "i-Ireland", "alt_name": "Republic of Ireland", "currency": "EUR", "int_name": "Ireland", "name:ace": "Irlandia", "name:als": "Irland", "name:ang": "Īrland Cynewīse", "name:arc": "ܩܘܛܢܝܘܬܐ ܕܐܝܪܠܢܕ", "name:arz": "جمهورية ايرلاندا", "name:ast": "República d'Irlanda", "name:bar": "Irland", "name:bug": "Irlandia", "name:bxr": "Ирланд", "name:cdo": "Ái-ī-làng", "name:ceb": "Irlanda", "name:chr": "ᎠᎢᎴᏂᏗ", "name:ckb": "ئیرلەند", "name:csb": "Irlandëjô", "name:diq": "Cumhuriyetê İrlanda", "name:dsb": "Irska", "name:ext": "Irlanda", "name:frp": "Irlande", "name:frr": "Irlönj", "name:fur": "Irlande", "name:gag": "İrlandiya", "name:gan": "愛爾蘭", "name:haw": "‘Ilelani", "name:hif": "Republic of Ireland", "name:hsb": "Irska", "name:ilo": "Republika iti Irlánda", "name:jbo": "airland", "name:kaa": "İrlandiya", "name:kab": "Lirlund", "name:kbd": "Ирлэнд", "name:koi": "Ирму", "name:krc": "Ирландия", "name:ksh": "Irrland", "name:lad": "Irlanda", "name:lez": "Ирландия", "name:lij": "Éire", "name:lmo": "Irlanda", "name:ltg": "Eireja", "name:mwl": "Irlanda", "name:nah": "Irtlālpan", "name:nan": "Éire", "name:nds": "Irland", "name:new": "गणतन्त्र आयरल्यान्द", "name:nov": "Republike de Irlande", "name:nrm": "Républyique d'Irlande", "name:pag": "Irlanda", "name:pam": "Irlanda", "name:pap": "Irlandia", "name:pcd": "Irlinde", "name:pih": "Repablik o' Airiland", "name:pms": "Irlanda", "name:pnb": "لوکراج آئرلینڈ", "name:pnt": "Ιρλανδία", "name:rmy": "Republika Irland", "name:rue": "Ірьско", "name:sah": "Ирландия Республиката", "name:scn": "Irlanda", "name:sco": "Republic o Ireland", "name:stq": "Irlound", "name:szl": "Irlandyjo", "name:tet": "Irlanda", "name:tok": "ma Alan", "name:tpi": "Ripablik bilong Aialan", "name:tzl": "Oira", "name:udm": "Ирландия", "name:vec": "Irlanda", "name:vep": "Irlandii", "name:vls": "Republiek Ierland", "name:war": "Republika han Irlanda", "name:xal": "Гәәлгүдин Орн", "name:xmf": "ირლანდია", "name:yue": "愛爾蘭共和國", "name:zea": "Ierland", "population": "4635400", "alt_name:vi": "Ai-len", "description": "Republic of Ireland", "geonames:id": "2963597", "is_in:ocean": "Atlantic", "name:nds-nl": "Ierlaand", "old_name:ku": "Komara Îrlandê", "old_name:vi": "Ái Nhĩ Lan", "capital_city": "Dublin", "driving_side": "left", "name:bat-smg": "Airėjė", "name:fiu-vro": "Iirimaa", "name:roa-rup": "Irlanda", "name:roa-tara": "Irlanne", "official_name": "Éire", "name:be-tarask": "Ірляндыя", "name:zh_pinyin": "Àiěrlán", "is_in:continent": "Europe", "population:date": "2015", "official_name:cs": "Irská republika", "official_name:en": "Ireland", "official_name:eo": "Respubliko de Irlando", "official_name:fi": "Irlannin tasavalta", "official_name:ga": "Éire", "official_name:io": "Republiko di Irlando", "official_name:la": "Hibernia", "official_name:pt": "República da Irlanda", "country_code_fips": "EI"}}, "center_lat": 53.18, "center_lon": -8.15, "timezone": "Europe/Dublin", "population": 4813608, "wikidata_id": "Q27", "wikipedia_id": "en:Republic of Ireland"}, "geometry": {"type": "MultiPolygon", "coordinates": [[[[-9.603, 51.389], [-9.603, 51.389], [-9.603, 51.389], [-9.603, 51.389]]], [[[-10.54, 51.769], [-10.54, 51.769], [-10.54, 51.769], [-10.54, 51.769]]], [[[-10.537, 51.771], [-10.537, 51.771], [-10.537, 51.771], [-10.537, 51.771]]], [[[-10.509, 51.78], [-10.509, 51.78], [-10.509, 51.78], [-10.509, 51.78]]], [[[-10.688, 52.024], [-10.688, 52.024], [-10.688, 52.024], [-10.688, 52.024]]], [[[-10.606, 52.041], [-10.606, 52.041], [-10.606, 52.041], [-10.606, 52.041]]], [[[-10.657, 52.074], [-10.657, 52.074], [-10.657, 52.074], [-10.657, 52.074]]], [[[-10.614, 52.053], [-10.614, 52.053], [-10.614, 52.053], [-10.614, 52.053]]], [[[-10.484, 52.106], [-10.484, 52.106], [-10.484, 52.106], [-10.484, 52.106]]], [[[-10.523, 52.116], [-10.523, 52.116], [-10.523, 52.116], [-10.523, 52.116]]], [[[-10.506, 52.114], [-10.506, 52.114], [-10.506, 52.114], [-10.506, 52.114]]], [[[-10.504, 52.12], [-10.504, 52.12], [-10.504, 52.12], [-10.504, 52.12]]], [[[-10.572, 52.135], [-10.579, 52.124], [-10.592, 52.126], [-10.572, 52.135]]], [[[-10.523, 52.111], [-10.523, 52.111], [-10.523, 52.111], [-10.523, 52.111]]], [[[-10.508, 52.104], [-10.516, 52.095], [-10.542, 52.089], [-10.579, 52.072], [-10.568, 52.086], [-10.521, 52.104], [-10.508, 52.104]]], [[[-9.818, 53.417], [-9.818, 53.417], [-9.818, 53.417], [-9.818, 53.417]]], [[[-10.068, 53.418], [-10.068, 53.418], [-10.068, 53.418], [-10.068, 53.418]]], [[[-10.204, 53.42], [-10.204, 53.42], [-10.204, 53.42], [-10.204, 53.42]]], [[[-10.202, 53.42], [-10.202, 53.42], [-10.202, 53.42], [-10.202, 53.42]]], [[[-10.174, 53.422], [-10.174, 53.422], [-10.174, 53.422], [-10.174, 53.422]]], [[[-10.184, 53.423], [-10.184, 53.423], [-10.184, 53.423], [-10.184, 53.423]]], [[[-10.176, 53.422], [-10.176, 53.422], [-10.176, 53.422], [-10.176, 53.422]]], [[[-10.179, 53.424], [-10.179, 53.424], [-10.179, 53.424], [-10.179, 53.424]]], [[[-10.176, 53.424], [-10.176, 53.424], [-10.176, 53.424], [-10.176, 53.424]]], [[[-10.17, 53.427], [-10.17, 53.427], [-10.17, 53.427], [-10.17, 53.427]]], [[[-10.171, 53.429], [-10.171, 53.429], [-10.171, 53.429], [-10.171, 53.429]]], [[[-10.161, 53.437], [-10.161, 53.437], [-10.161, 53.437], [-10.161, 53.437]]], [[[-10.177, 53.432], [-10.177, 53.432], [-10.177, 53.432], [-10.177, 53.432]]], [[[-10.163, 53.437], [-10.163, 53.437], [-10.163, 53.437], [-10.163, 53.437]]], [[[-10.17, 53.438], [-10.17, 53.438], [-10.17, 53.438], [-10.17, 53.438]]], [[[-10.167, 53.437], [-10.167, 53.437], [-10.167, 53.437], [-10.167, 53.437]]], [[[-10.169, 53.437], [-10.169, 53.437], [-10.169, 53.437], [-10.169, 53.437]]], [[[-10.175, 53.427], [-10.175, 53.427], [-10.175, 53.427], [-10.175, 53.427]]], [[[-10.178, 53.427], [-10.178, 53.427], [-10.178, 53.427], [-10.178, 53.427]]], [[[-10.155, 53.44], [-10.155, 53.44], [-10.155, 53.44], [-10.155, 53.44]]], [[[-10.165, 53.44], [-10.165, 53.44], [-10.165, 53.44], [-10.165, 53.44]]], [[[-10.185, 53.444], [-10.185, 53.444], [-10.185, 53.444], [-10.185, 53.444]]], [[[-10.156, 53.443], [-10.156, 53.443], [-10.156, 53.443], [-10.156, 53.443]]], [[[-10.066, 53.457], [-10.066, 53.457], [-10.066, 53.457], [-10.066, 53.457]]], [[[-10.127, 53.458], [-10.127, 53.458], [-10.127, 53.458], [-10.127, 53.458]]], [[[-10.074, 53.467], [-10.074, 53.467], [-10.074, 53.467], [-10.074, 53.467]]], [[[-10.021, 53.47], [-10.021, 53.47], [-10.021, 53.47], [-10.021, 53.47]]], [[[-10.028, 53.473], [-10.028, 53.473], [-10.028, 53.473], [-10.028, 53.473]]], [[[-10.021, 53.474], [-10.021, 53.474], [-10.021, 53.474], [-10.021, 53.474]]], [[[-10.108, 53.479], [-10.108, 53.479], [-10.108, 53.479], [-10.108, 53.479]]], [[[-10.16, 53.492], [-10.16, 53.492], [-10.16, 53.492], [-10.16, 53.492]]], [[[-10.141, 53.492], [-10.141, 53.492], [-10.141, 53.492], [-10.141, 53.492]]], [[[-10.123, 53.499], [-10.123, 53.499], [-10.123, 53.499], [-10.123, 53.499]]], [[[-5.998, 53.496], [-5.998, 53.496], [-5.998, 53.496], [-5.998, 53.496]]], [[[-10.137, 53.502], [-10.137, 53.502], [-10.137, 53.502], [-10.137, 53.502]]], [[[-10.068, 53.509], [-10.068, 53.509], [-10.068, 53.509], [-10.068, 53.509]]], [[[-10.138, 53.52], [-10.138, 53.52], [-10.138, 53.52], [-10.138, 53.52]]], [[[-10.215, 53.522], [-10.215, 53.522], [-10.215, 53.522], [-10.215, 53.522]]], [[[-10.169, 53.507], [-10.169, 53.507], [-10.169, 53.507], [-10.169, 53.507]]], [[[-10.07, 53.508], [-10.07, 53.508], [-10.07, 53.508], [-10.07, 53.508]]], [[[-10.151, 53.508], [-10.151, 53.508], [-10.151, 53.508], [-10.151, 53.508]]], [[[-10.047, 53.481], [-10.047, 53.481], [-10.047, 53.481], [-10.047, 53.481]]], [[[-6.01, 53.483], [-6.01, 53.483], [-6.01, 53.483], [-6.01, 53.483]]], [[[-10.097, 53.483], [-10.097, 53.483], [-10.097, 53.483], [-10.097, 53.483]]], [[[-10.159, 53.485], [-10.159, 53.485], [-10.159, 53.485], [-10.159, 53.485]]], [[[-10.158, 53.49], [-10.158, 53.49], [-10.158, 53.49], [-10.158, 53.49]]], [[[-10.153, 53.489], [-10.153, 53.489], [-10.153, 53.489], [-10.153, 53.489]]], [[[-5.999, 53.496], [-6.012, 53.482], [-6.036, 53.489], [-6.028, 53.498], [-5.999, 53.496]]], [[[-10.179, 53.535], [-10.154, 53.537], [-10.147, 53.526], [-10.166, 53.522], [-10.179, 53.535]]], [[[-10.183, 53.536], [-10.183, 53.536], [-10.183, 53.536], [-10.183, 53.536]]], [[[-10.151, 53.54], [-10.151, 53.54], [-10.151, 53.54], [-10.151, 53.54]]], [[[-10.266, 53.54], [-10.266, 53.54], [-10.266, 53.54], [-10.266, 53.54]]], [[[-10.186, 53.557], [-10.186, 53.557], [-10.186, 53.557], [-10.186, 53.557]]], [[[-10.229, 53.548], [-10.229, 53.548], [-10.229, 53.548], [-10.229, 53.548]]], [[[-10.226, 53.551], [-10.226, 53.551], [-10.226, 53.551], [-10.226, 53.551]]], [[[-10.213, 53.544], [-10.213, 53.544], [-10.213, 53.544], [-10.213, 53.544]]], [[[-10.258, 53.542], [-10.258, 53.542], [-10.258, 53.542], [-10.258, 53.542]]], [[[-10.19, 53.562], [-10.19, 53.562], [-10.19, 53.562], [-10.19, 53.562]]], [[[-10.168, 53.562], [-10.168, 53.562], [-10.168, 53.562], [-10.168, 53.562]]], [[[-9.99, 53.564], [-9.99, 53.564], [-9.99, 53.564], [-9.99, 53.564]]], [[[-10.161, 53.563], [-10.161, 53.563], [-10.161, 53.563], [-10.161, 53.563]]], [[[-10.165, 53.564], [-10.165, 53.564], [-10.165, 53.564], [-10.165, 53.564]]], [[[-10.186, 53.564], [-10.186, 53.564], [-10.186, 53.564], [-10.186, 53.564]]], [[[-9.977, 53.569], [-9.977, 53.569], [-9.977, 53.569], [-9.977, 53.569]]], [[[-10.039, 53.572], [-10.039, 53.572], [-10.039, 53.572], [-10.039, 53.572]]], [[[-10.032, 53.571], [-10.032, 53.571], [-10.032, 53.571], [-10.032, 53.571]]], [[[-9.967, 53.57], [-9.967, 53.57], [-9.967, 53.57], [-9.967, 53.57]]], [[[-10.128, 53.577], [-10.128, 53.577], [-10.128, 53.577], [-10.128, 53.577]]], [[[-10.04, 53.575], [-10.04, 53.575], [-10.04, 53.575], [-10.04, 53.575]]], [[[-6.09, 53.585], [-6.09, 53.585], [-6.09, 53.585], [-6.09, 53.585]]], [[[-6.073, 53.587], [-6.073, 53.587], [-6.073, 53.587], [-6.073, 53.587]]], [[[-10.038, 53.588], [-10.038, 53.588], [-10.038, 53.588], [-10.038, 53.588]]], [[[-6.086, 53.574], [-6.086, 53.574], [-6.086, 53.574], [-6.086, 53.574]]], [[[-10.093, 53.574], [-10.093, 53.574], [-10.093, 53.574], [-10.093, 53.574]]], [[[-10.093, 53.574], [-10.093, 53.574], [-10.093, 53.574], [-10.093, 53.574]]], [[[-10.049, 53.575], [-10.049, 53.575], [-10.049, 53.575], [-10.049, 53.575]]], [[[-10.153, 53.567], [-10.153, 53.567], [-10.153, 53.567], [-10.153, 53.567]]], [[[-10.17, 53.566], [-10.17, 53.566], [-10.17, 53.566], [-10.17, 53.566]]], [[[-10.2, 53.569], [-10.2, 53.569], [-10.2, 53.569], [-10.2, 53.569]]], [[[-10.156, 53.57], [-10.156, 53.57], [-10.156, 53.57], [-10.156, 53.57]]], [[[-10.278, 53.593], [-10.278, 53.593], [-10.278, 53.593], [-10.278, 53.593]]], [[[-10.271, 53.594], [-10.271, 53.594], [-10.271, 53.594], [-10.271, 53.594]]], [[[-10.312, 53.602], [-10.312, 53.602], [-10.312, 53.602], [-10.312, 53.602]]], [[[-6.004, 53.598], [-6.004, 53.598], [-6.004, 53.598], [-6.004, 53.598]]], [[[-10.269, 53.597], [-10.269, 53.597], [-10.269, 53.597], [-10.269, 53.597]]], [[[-6.004, 53.599], [-6.004, 53.599], [-6.004, 53.599], [-6.004, 53.599]]], [[[-10.311, 53.602], [-10.311, 53.602], [-10.311, 53.602], [-10.311, 53.602]]], [[[-10.049, 53.601], [-10.049, 53.601], [-10.049, 53.601], [-10.049, 53.601]]], [[[-10.299, 53.606], [-10.299, 53.606], [-10.299, 53.606], [-10.299, 53.606]]], [[[-10.3, 53.608], [-10.3, 53.608], [-10.3, 53.608], [-10.3, 53.608]]], [[[-10.299, 53.607], [-10.299, 53.607], [-10.299, 53.607], [-10.299, 53.607]]], [[[-10.26, 53.592], [-10.26, 53.592], [-10.26, 53.592], [-10.26, 53.592]]], [[[-10.265, 53.594], [-10.265, 53.594], [-10.265, 53.594], [-10.265, 53.594]]], [[[-10.02, 53.609], [-10.02, 53.609], [-10.02, 53.609], [-10.02, 53.609]]], [[[-10.062, 53.607], [-10.062, 53.607], [-10.062, 53.607], [-10.062, 53.607]]], [[[-10.211, 53.609], [-10.211, 53.609], [-10.211, 53.609], [-10.211, 53.609]]], [[[-10.246, 53.607], [-10.246, 53.607], [-10.246, 53.607], [-10.246, 53.607]]], [[[-10.285, 53.607], [-10.303, 53.602], [-10.287, 53.619], [-10.262, 53.609], [-10.285, 53.607]]], [[[-9.674, 53.61], [-9.674, 53.61], [-9.674, 53.61], [-9.674, 53.61]]], [[[-10.22, 53.61], [-10.22, 53.61], [-10.22, 53.61], [-10.22, 53.61]]], [[[-10.249, 53.609], [-10.249, 53.609], [-10.249, 53.609], [-10.249, 53.609]]], [[[-9.678, 53.611], [-9.678, 53.611], [-9.678, 53.611], [-9.678, 53.611]]], [[[-9.674, 53.612], [-9.674, 53.612], [-9.674, 53.612], [-9.674, 53.612]]], [[[-10.292, 53.615], [-10.292, 53.615], [-10.292, 53.615], [-10.292, 53.615]]], [[[-10.236, 53.622], [-10.236, 53.622], [-10.236, 53.622], [-10.236, 53.622]]], [[[-10.235, 53.623], [-10.235, 53.623], [-10.235, 53.623], [-10.235, 53.623]]], [[[-10.053, 53.623], [-10.053, 53.623], [-10.053, 53.623], [-10.053, 53.623]]], [[[-9.884, 53.625], [-9.884, 53.625], [-9.884, 53.625], [-9.884, 53.625]]], [[[-10.144, 53.628], [-10.144, 53.628], [-10.144, 53.628], [-10.144, 53.628]]], [[[-9.873, 53.627], [-9.873, 53.627], [-9.873, 53.627], [-9.873, 53.627]]], [[[-10.145, 53.628], [-10.145, 53.628], [-10.145, 53.628], [-10.145, 53.628]]], [[[-9.889, 53.629], [-9.889, 53.629], [-9.889, 53.629], [-9.889, 53.629]]], [[[-10.259, 53.63], [-10.259, 53.63], [-10.259, 53.63], [-10.259, 53.63]]], [[[-10.226, 53.631], [-10.226, 53.631], [-10.226, 53.631], [-10.226, 53.631]]], [[[-10.244, 53.629], [-10.244, 53.629], [-10.244, 53.629], [-10.244, 53.629]]], [[[-9.885, 53.64], [-9.885, 53.64], [-9.885, 53.64], [-9.885, 53.64]]], [[[-9.912, 53.642], [-9.912, 53.642], [-9.912, 53.642], [-9.912, 53.642]]], [[[-9.889, 53.646], [-9.889, 53.646], [-9.889, 53.646], [-9.889, 53.646]]], [[[-9.939, 53.654], [-9.939, 53.654], [-9.939, 53.654], [-9.939, 53.654]]], [[[-9.94, 53.655], [-9.94, 53.655], [-9.94, 53.655], [-9.94, 53.655]]], [[[-9.953, 53.661], [-9.953, 53.661], [-9.953, 53.661], [-9.953, 53.661]]], [[[-9.908, 53.641], [-9.908, 53.641], [-9.908, 53.641], [-9.908, 53.641]]], [[[-9.921, 53.64], [-9.921, 53.64], [-9.921, 53.64], [-9.921, 53.64]]], [[[-9.907, 53.64], [-9.907, 53.64], [-9.907, 53.64], [-9.907, 53.64]]], [[[-9.91, 53.641], [-9.91, 53.641], [-9.91, 53.641], [-9.91, 53.641]]], [[[-10.258, 53.631], [-10.258, 53.631], [-10.258, 53.631], [-10.258, 53.631]]], [[[-10.224, 53.632], [-10.224, 53.632], [-10.224, 53.632], [-10.224, 53.632]]], [[[-10.261, 53.633], [-10.261, 53.633], [-10.261, 53.633], [-10.261, 53.633]]], [[[-9.88, 53.634], [-9.88, 53.634], [-9.88, 53.634], [-9.88, 53.634]]], [[[-10.226, 53.633], [-10.226, 53.633], [-10.226, 53.633], [-10.226, 53.633]]], [[[-10.26, 53.634], [-10.26, 53.634], [-10.26, 53.634], [-10.26, 53.634]]], [[[-10.195, 53.635], [-10.195, 53.635], [-10.195, 53.635], [-10.195, 53.635]]], [[[-9.913, 53.637], [-9.913, 53.637], [-9.913, 53.637], [-9.913, 53.637]]], [[[-10.231, 53.612], [-10.231, 53.612], [-10.231, 53.612], [-10.231, 53.612]]], [[[-10.174, 53.61], [-10.174, 53.61], [-10.174, 53.61], [-10.174, 53.61]]], [[[-10.206, 53.612], [-10.206, 53.612], [-10.206, 53.612], [-10.206, 53.612]]], [[[-10.05, 53.61], [-10.05, 53.61], [-10.05, 53.61], [-10.05, 53.61]]], [[[-9.907, 53.611], [-9.907, 53.611], [-9.907, 53.611], [-9.907, 53.611]]], [[[-9.907, 53.61], [-9.907, 53.61], [-9.907, 53.61], [-9.907, 53.61]]], [[[-9.923, 53.611], [-9.923, 53.611], [-9.923, 53.611], [-9.923, 53.611]]], [[[-9.927, 53.614], [-9.927, 53.614], [-9.927, 53.614], [-9.927, 53.614]]], [[[-9.905, 53.614], [-9.905, 53.614], [-9.905, 53.614], [-9.905, 53.614]]], [[[-9.92, 53.613], [-9.92, 53.613], [-9.92, 53.613], [-9.92, 53.613]]], [[[-9.923, 53.614], [-9.923, 53.614], [-9.923, 53.614], [-9.923, 53.614]]], [[[-9.876, 53.619], [-9.876, 53.619], [-9.876, 53.619], [-9.876, 53.619]]], [[[-9.99, 53.619], [-9.99, 53.619], [-9.99, 53.619], [-9.99, 53.619]]], [[[-9.885, 53.618], [-9.885, 53.618], [-9.885, 53.618], [-9.885, 53.618]]], [[[-10.257, 53.616], [-10.257, 53.616], [-10.257, 53.616], [-10.257, 53.616]]], [[[-9.891, 53.618], [-9.891, 53.618], [-9.891, 53.618], [-9.891, 53.618]]], [[[-9.927, 53.618], [-9.927, 53.618], [-9.927, 53.618], [-9.927, 53.618]]], [[[-9.987, 53.618], [-9.987, 53.618], [-9.987, 53.618], [-9.987, 53.618]]], [[[-9.888, 53.616], [-9.888, 53.616], [-9.888, 53.616], [-9.888, 53.616]]], [[[-10.01, 53.615], [-10.01, 53.615], [-10.01, 53.615], [-10.01, 53.615]]], [[[-10.122, 53.614], [-10.122, 53.614], [-10.122, 53.614], [-10.122, 53.614]]], [[[-9.891, 53.616], [-9.891, 53.616], [-9.891, 53.616], [-9.891, 53.616]]], [[[-10.121, 53.617], [-10.121, 53.617], [-10.121, 53.617], [-10.121, 53.617]]], [[[-10.016, 53.615], [-10.016, 53.615], [-10.016, 53.615], [-10.016, 53.615]]], [[[-10.118, 53.617], [-10.118, 53.617], [-10.118, 53.617], [-10.118, 53.617]]], [[[-9.904, 53.616], [-9.904, 53.616], [-9.904, 53.616], [-9.904, 53.616]]], [[[-10.119, 53.617], [-10.119, 53.617], [-10.119, 53.617], [-10.119, 53.617]]], [[[-9.881, 53.62], [-9.881, 53.62], [-9.881, 53.62], [-9.881, 53.62]]], [[[-9.999, 53.626], [-9.999, 53.626], [-9.999, 53.626], [-9.999, 53.626]]], [[[-10.196, 53.636], [-10.177, 53.629], [-10.189, 53.625], [-10.177, 53.618], [-10.195, 53.606], [-10.204, 53.613], [-10.234, 53.612], [-10.261, 53.622], [-10.247, 53.632], [-10.233, 53.62], [-10.225, 53.632], [-10.208, 53.628], [-10.196, 53.636]]], [[[-10.069, 53.679], [-10.069, 53.679], [-10.069, 53.679], [-10.069, 53.679]]], [[[-10.135, 53.69], [-10.135, 53.69], [-10.135, 53.69], [-10.135, 53.69]]], [[[-10.138, 53.694], [-10.138, 53.694], [-10.138, 53.694], [-10.138, 53.694]]], [[[-10.11, 53.695], [-10.135, 53.69], [-10.138, 53.701], [-10.12, 53.713], [-10.107, 53.71], [-10.091, 53.715], [-10.081, 53.711], [-10.087, 53.699], [-10.11, 53.695]]], [[[-10.042, 53.71], [-10.042, 53.71], [-10.042, 53.71], [-10.042, 53.71]]], [[[-10.026, 53.713], [-10.026, 53.713], [-10.026, 53.713], [-10.026, 53.713]]], [[[-9.997, 53.761], [-9.997, 53.761], [-9.997, 53.761], [-9.997, 53.761]]], [[[-10.054, 53.789], [-10.054, 53.789], [-10.054, 53.789], [-10.054, 53.789]]], [[[-9.588, 53.787], [-9.588, 53.787], [-9.588, 53.787], [-9.588, 53.787]]], [[[-9.586, 53.784], [-9.586, 53.784], [-9.586, 53.784], [-9.586, 53.784]]], [[[-9.603, 53.783], [-9.603, 53.783], [-9.603, 53.783], [-9.603, 53.783]]], [[[-9.569, 53.798], [-9.569, 53.798], [-9.569, 53.798], [-9.569, 53.798]]], [[[-9.603, 53.801], [-9.603, 53.801], [-9.603, 53.801], [-9.603, 53.801]]], [[[-9.666, 53.808], [-9.666, 53.808], [-9.666, 53.808], [-9.666, 53.808]]], [[[-9.657, 53.809], [-9.657, 53.809], [-9.657, 53.809], [-9.657, 53.809]]], [[[-9.62, 53.811], [-9.62, 53.811], [-9.62, 53.811], [-9.62, 53.811]]], [[[-9.635, 53.799], [-9.635, 53.799], [-9.635, 53.799], [-9.635, 53.799]]], [[[-10.048, 53.803], [-10.048, 53.803], [-10.048, 53.803], [-10.048, 53.803]]], [[[-9.632, 53.804], [-9.632, 53.804], [-9.632, 53.804], [-9.632, 53.804]]], [[[-9.653, 53.804], [-9.653, 53.804], [-9.653, 53.804], [-9.653, 53.804]]], [[[-10.045, 53.805], [-10.045, 53.805], [-10.045, 53.805], [-10.045, 53.805]]], [[[-9.648, 53.803], [-9.648, 53.803], [-9.648, 53.803], [-9.648, 53.803]]], [[[-9.574, 53.795], [-9.574, 53.795], [-9.574, 53.795], [-9.574, 53.795]]], [[[-10.049, 53.795], [-10.049, 53.795], [-10.049, 53.795], [-10.049, 53.795]]], [[[-9.642, 53.788], [-9.642, 53.788], [-9.642, 53.788], [-9.642, 53.788]]], [[[-9.64, 53.789], [-9.64, 53.789], [-9.64, 53.789], [-9.64, 53.789]]], [[[-9.598, 53.788], [-9.598, 53.788], [-9.598, 53.788], [-9.598, 53.788]]], [[[-9.999, 53.815], [-9.98, 53.829], [-9.966, 53.815], [-9.944, 53.812], [-9.949, 53.799], [-9.985, 53.79], [-10.049, 53.79], [-10.05, 53.802], [-10.022, 53.812], [-9.999, 53.815]]], [[[-9.652, 53.832], [-9.652, 53.832], [-9.652, 53.832], [-9.652, 53.832]]], [[[-9.588, 53.847], [-9.588, 53.847], [-9.588, 53.847], [-9.588, 53.847]]], [[[-9.67, 53.839], [-9.67, 53.839], [-9.67, 53.839], [-9.67, 53.839]]], [[[-9.653, 53.84], [-9.653, 53.84], [-9.653, 53.84], [-9.653, 53.84]]], [[[-9.631, 53.842], [-9.631, 53.842], [-9.631, 53.842], [-9.631, 53.842]]], [[[-9.64, 53.84], [-9.64, 53.84], [-9.64, 53.84], [-9.64, 53.84]]], [[[-9.666, 53.846], [-9.666, 53.846], [-9.666, 53.846], [-9.666, 53.846]]], [[[-9.616, 53.847], [-9.616, 53.847], [-9.616, 53.847], [-9.616, 53.847]]], [[[-9.641, 53.846], [-9.641, 53.846], [-9.641, 53.846], [-9.641, 53.846]]], [[[-9.628, 53.847], [-9.628, 53.847], [-9.628, 53.847], [-9.628, 53.847]]], [[[-9.618, 53.847], [-9.618, 53.847], [-9.618, 53.847], [-9.618, 53.847]]], [[[-9.625, 53.848], [-9.625, 53.848], [-9.625, 53.848], [-9.625, 53.848]]], [[[-9.657, 53.848], [-9.657, 53.848], [-9.657, 53.848], [-9.657, 53.848]]], [[[-9.627, 53.838], [-9.627, 53.838], [-9.627, 53.838], [-9.627, 53.838]]], [[[-9.661, 53.843], [-9.661, 53.843], [-9.661, 53.843], [-9.661, 53.843]]], [[[-9.624, 53.812], [-9.624, 53.812], [-9.624, 53.812], [-9.624, 53.812]]], [[[-9.629, 53.812], [-9.629, 53.812], [-9.629, 53.812], [-9.629, 53.812]]], [[[-9.627, 53.812], [-9.627, 53.812], [-9.627, 53.812], [-9.627, 53.812]]], [[[-9.627, 53.812], [-9.627, 53.812], [-9.627, 53.812], [-9.627, 53.812]]], [[[-9.67, 53.812], [-9.67, 53.812], [-9.67, 53.812], [-9.67, 53.812]]], [[[-9.657, 53.812], [-9.657, 53.812], [-9.657, 53.812], [-9.657, 53.812]]], [[[-9.608, 53.815], [-9.608, 53.815], [-9.608, 53.815], [-9.608, 53.815]]], [[[-9.625, 53.815], [-9.625, 53.815], [-9.625, 53.815], [-9.625, 53.815]]], [[[-9.627, 53.817], [-9.627, 53.817], [-9.627, 53.817], [-9.627, 53.817]]], [[[-9.616, 53.818], [-9.616, 53.818], [-9.616, 53.818], [-9.616, 53.818]]], [[[-9.669, 53.828], [-9.669, 53.828], [-9.669, 53.828], [-9.669, 53.828]]], [[[-9.626, 53.818], [-9.626, 53.818], [-9.626, 53.818], [-9.626, 53.818]]], [[[-9.649, 53.821], [-9.649, 53.821], [-9.649, 53.821], [-9.649, 53.821]]], [[[-9.628, 53.816], [-9.628, 53.816], [-9.628, 53.816], [-9.628, 53.816]]], [[[-9.625, 53.816], [-9.625, 53.816], [-9.625, 53.816], [-9.625, 53.816]]], [[[-9.635, 53.816], [-9.635, 53.816], [-9.635, 53.816], [-9.635, 53.816]]], [[[-9.632, 53.829], [-9.632, 53.829], [-9.632, 53.829], [-9.632, 53.829]]], [[[-9.619, 53.849], [-9.619, 53.849], [-9.619, 53.849], [-9.619, 53.849]]], [[[-9.671, 53.85], [-9.671, 53.85], [-9.671, 53.85], [-9.671, 53.85]]], [[[-9.655, 53.852], [-9.655, 53.852], [-9.655, 53.852], [-9.655, 53.852]]], [[[-9.625, 53.852], [-9.625, 53.852], [-9.625, 53.852], [-9.625, 53.852]]], [[[-9.625, 53.855], [-9.625, 53.855], [-9.625, 53.855], [-9.625, 53.855]]], [[[-9.586, 53.861], [-9.586, 53.861], [-9.586, 53.861], [-9.586, 53.861]]], [[[-9.621, 53.865], [-9.621, 53.865], [-9.621, 53.865], [-9.621, 53.865]]], [[[-9.654, 53.866], [-9.654, 53.866], [-9.654, 53.866], [-9.654, 53.866]]], [[[-9.967, 53.867], [-9.967, 53.867], [-9.967, 53.867], [-9.967, 53.867]]], [[[-9.629, 53.866], [-9.629, 53.866], [-9.629, 53.866], [-9.629, 53.866]]], [[[-9.611, 53.859], [-9.611, 53.859], [-9.611, 53.859], [-9.611, 53.859]]], [[[-9.668, 53.855], [-9.668, 53.855], [-9.668, 53.855], [-9.668, 53.855]]], [[[-9.62, 53.861], [-9.62, 53.861], [-9.62, 53.861], [-9.62, 53.861]]], [[[-9.654, 53.856], [-9.654, 53.856], [-9.654, 53.856], [-9.654, 53.856]]], [[[-9.631, 53.859], [-9.631, 53.859], [-9.631, 53.859], [-9.631, 53.859]]], [[[-9.596, 53.86], [-9.596, 53.86], [-9.596, 53.86], [-9.596, 53.86]]], [[[-9.628, 53.87], [-9.628, 53.87], [-9.628, 53.87], [-9.628, 53.87]]], [[[-9.615, 53.871], [-9.615, 53.871], [-9.615, 53.871], [-9.615, 53.871]]], [[[-10.208, 53.872], [-10.208, 53.872], [-10.208, 53.872], [-10.208, 53.872]]], [[[-9.944, 53.862], [-9.96, 53.862], [-9.969, 53.871], [-9.95, 53.872], [-9.944, 53.862]]], [[[-9.637, 53.872], [-9.637, 53.872], [-9.637, 53.872], [-9.637, 53.872]]], [[[-10.204, 53.872], [-10.204, 53.872], [-10.204, 53.872], [-10.204, 53.872]]], [[[-9.652, 53.874], [-9.652, 53.874], [-9.652, 53.874], [-9.652, 53.874]]], [[[-7.314, 55.383], [-7.314, 55.383], [-7.314, 55.383], [-7.314, 55.383]]], [[[-7.312, 55.386], [-7.312, 55.386], [-7.312, 55.386], [-7.312, 55.386]]], [[[-7.311, 55.387], [-7.311, 55.387], [-7.311, 55.387], [-7.311, 55.387]]], [[[-7.245, 55.43], [-7.245, 55.43], [-7.245, 55.43], [-7.245, 55.43]]], [[[-9.565, 53.875], [-9.565, 53.875], [-9.565, 53.875], [-9.565, 53.875]]], [[[-9.694, 53.88], [-9.694, 53.88], [-9.694, 53.88], [-9.694, 53.88]]], [[[-9.692, 53.88], [-9.692, 53.88], [-9.692, 53.88], [-9.692, 53.88]]], [[[-9.673, 53.879], [-9.673, 53.879], [-9.673, 53.879], [-9.673, 53.879]]], [[[-9.684, 53.877], [-9.684, 53.877], [-9.684, 53.877], [-9.684, 53.877]]], [[[-9.595, 53.876], [-9.595, 53.876], [-9.595, 53.876], [-9.595, 53.876]]], [[[-9.625, 53.876], [-9.625, 53.876], [-9.625, 53.876], [-9.625, 53.876]]], [[[-9.585, 53.877], [-9.585, 53.877], [-9.585, 53.877], [-9.585, 53.877]]], [[[-9.651, 53.877], [-9.651, 53.877], [-9.651, 53.877], [-9.651, 53.877]]], [[[-9.63, 53.887], [-9.63, 53.887], [-9.63, 53.887], [-9.63, 53.887]]], [[[-9.615, 53.888], [-9.615, 53.888], [-9.615, 53.888], [-9.615, 53.888]]], [[[-9.61, 53.883], [-9.61, 53.883], [-9.61, 53.883], [-9.61, 53.883]]], [[[-9.686, 53.884], [-9.686, 53.884], [-9.686, 53.884], [-9.686, 53.884]]], [[[-9.678, 53.882], [-9.678, 53.882], [-9.678, 53.882], [-9.678, 53.882]]], [[[-9.652, 53.883], [-9.652, 53.883], [-9.652, 53.883], [-9.652, 53.883]]], [[[-9.568, 53.89], [-9.568, 53.89], [-9.568, 53.89], [-9.568, 53.89]]], [[[-9.725, 53.884], [-9.725, 53.884], [-9.725, 53.884], [-9.725, 53.884]]], [[[-9.641, 53.885], [-9.641, 53.885], [-9.641, 53.885], [-9.641, 53.885]]], [[[-9.662, 53.887], [-9.662, 53.887], [-9.662, 53.887], [-9.662, 53.887]]], [[[-9.593, 53.88], [-9.593, 53.88], [-9.593, 53.88], [-9.593, 53.88]]], [[[-9.621, 53.88], [-9.621, 53.88], [-9.621, 53.88], [-9.621, 53.88]]], [[[-9.592, 53.881], [-9.592, 53.881], [-9.592, 53.881], [-9.592, 53.881]]], [[[-9.645, 53.881], [-9.645, 53.881], [-9.645, 53.881], [-9.645, 53.881]]], [[[-9.728, 53.881], [-9.728, 53.881], [-9.728, 53.881], [-9.728, 53.881]]], [[[-9.706, 53.881], [-9.706, 53.881], [-9.706, 53.881], [-9.706, 53.881]]], [[[-9.59, 53.874], [-9.59, 53.874], [-9.59, 53.874], [-9.59, 53.874]]], [[[-9.671, 53.874], [-9.671, 53.874], [-9.671, 53.874], [-9.671, 53.874]]], [[[-9.703, 53.876], [-9.703, 53.876], [-9.703, 53.876], [-9.703, 53.876]]], [[[-9.641, 53.875], [-9.641, 53.875], [-9.641, 53.875], [-9.641, 53.875]]], [[[-9.599, 53.891], [-9.599, 53.891], [-9.599, 53.891], [-9.599, 53.891]]], [[[-9.578, 53.891], [-9.578, 53.891], [-9.578, 53.891], [-9.578, 53.891]]], [[[-9.598, 53.892], [-9.598, 53.892], [-9.598, 53.892], [-9.598, 53.892]]], [[[-9.683, 53.897], [-9.683, 53.897], [-9.683, 53.897], [-9.683, 53.897]]], [[[-9.692, 53.895], [-9.692, 53.895], [-9.692, 53.895], [-9.692, 53.895]]], [[[-9.685, 53.897], [-9.685, 53.897], [-9.685, 53.897], [-9.685, 53.897]]], [[[-9.771, 53.9], [-9.771, 53.9], [-9.771, 53.9], [-9.771, 53.9]]], [[[-9.705, 53.886], [-9.705, 53.886], [-9.705, 53.886], [-9.705, 53.886]]], [[[-9.701, 53.89], [-9.701, 53.89], [-9.701, 53.89], [-9.701, 53.89]]], [[[-9.679, 53.893], [-9.679, 53.893], [-9.679, 53.893], [-9.679, 53.893]]], [[[-9.671, 53.888], [-9.671, 53.888], [-9.671, 53.888], [-9.671, 53.888]]], [[[-9.697, 53.891], [-9.697, 53.891], [-9.697, 53.891], [-9.697, 53.891]]], [[[-9.708, 53.894], [-9.708, 53.894], [-9.708, 53.894], [-9.708, 53.894]]], [[[-10.272, 53.972], [-10.272, 53.972], [-10.272, 53.972], [-10.272, 53.972]]], [[[-10.098, 53.959], [-10.098, 53.959], [-10.098, 53.959], [-10.098, 53.959]]], [[[-9.801, 53.961], [-9.801, 53.961], [-9.801, 53.961], [-9.801, 53.961]]], [[[-10.164, 53.959], [-10.164, 53.959], [-10.164, 53.959], [-10.164, 53.959]]], [[[-9.843, 53.959], [-9.843, 53.959], [-9.843, 53.959], [-9.843, 53.959]]], [[[-10.155, 53.963], [-10.155, 53.963], [-10.155, 53.963], [-10.155, 53.963]]], [[[-9.85, 53.961], [-9.85, 53.961], [-9.85, 53.961], [-9.85, 53.961]]], [[[-9.806, 53.972], [-9.806, 53.972], [-9.806, 53.972], [-9.806, 53.972]]], [[[-9.806, 53.972], [-9.806, 53.972], [-9.806, 53.972], [-9.806, 53.972]]], [[[-9.946, 53.981], [-9.946, 53.981], [-9.946, 53.981], [-9.946, 53.981]]], [[[-6.385, 54.009], [-6.385, 54.009], [-6.385, 54.009], [-6.385, 54.009]]], [[[-10.32, 54.068], [-10.32, 54.068], [-10.32, 54.068], [-10.32, 54.068]]], [[[-9.842, 54.07], [-9.842, 54.07], [-9.842, 54.07], [-9.842, 54.07]]], [[[-10.314, 54.067], [-10.314, 54.067], [-10.314, 54.067], [-10.314, 54.067]]], [[[-10.188, 54.074], [-10.188, 54.074], [-10.188, 54.074], [-10.188, 54.074]]], [[[-10.18, 54.075], [-10.18, 54.075], [-10.18, 54.075], [-10.18, 54.075]]], [[[-10.138, 54.087], [-10.138, 54.087], [-10.138, 54.087], [-10.138, 54.087]]], [[[-10.129, 54.088], [-10.129, 54.088], [-10.129, 54.088], [-10.129, 54.088]]], [[[-10.057, 54.109], [-10.057, 54.109], [-10.057, 54.109], [-10.057, 54.109]]], [[[-10.204, 54.119], [-10.204, 54.119], [-10.204, 54.119], [-10.204, 54.119]]], [[[-10.193, 54.13], [-10.193, 54.13], [-10.193, 54.13], [-10.193, 54.13]]], [[[-10.207, 54.122], [-10.207, 54.113], [-10.231, 54.109], [-10.221, 54.122], [-10.207, 54.122]]], [[[-10.195, 54.153], [-10.195, 54.153], [-10.195, 54.153], [-10.195, 54.153]]], [[[-10.042, 54.166], [-10.042, 54.166], [-10.042, 54.166], [-10.042, 54.166]]], [[[-9.141, 54.172], [-9.141, 54.172], [-9.141, 54.172], [-9.141, 54.172]]], [[[-9.145, 54.175], [-9.145, 54.175], [-9.145, 54.175], [-9.145, 54.175]]], [[[-9.143, 54.177], [-9.143, 54.177], [-9.143, 54.177], [-9.143, 54.177]]], [[[-9.143, 54.187], [-9.143, 54.187], [-9.143, 54.187], [-9.143, 54.187]]], [[[-9.149, 54.192], [-9.149, 54.192], [-9.149, 54.192], [-9.149, 54.192]]], [[[-10.194, 54.14], [-10.187, 54.129], [-10.203, 54.125], [-10.208, 54.139], [-10.194, 54.14]]], [[[-10.206, 54.141], [-10.206, 54.141], [-10.206, 54.141], [-10.206, 54.141]]], [[[-10.139, 54.077], [-10.139, 54.077], [-10.139, 54.077], [-10.139, 54.077]]], [[[-10.177, 54.071], [-10.177, 54.071], [-10.177, 54.071], [-10.177, 54.071]]], [[[-10.146, 54.079], [-10.146, 54.079], [-10.146, 54.079], [-10.146, 54.079]]], [[[-10.19, 54.001], [-10.189, 54.016], [-10.177, 54.008], [-10.145, 54.009], [-10.145, 54.003], [-10.1, 54.001], [-10.098, 54.009], [-10.064, 54.025], [-10.042, 54.024], [-10.027, 54.012], [-9.998, 54.014], [-9.98, 54.022], [-9.974, 54.031], [-9.96, 54.019], [-9.936, 54.007], [-9.928, 53.995], [-9.956, 53.989], [-9.951, 53.965], [-9.959, 53.956], [-9.914, 53.964], [-9.923, 53.954], [-9.924, 53.94], [-9.941, 53.931], [-9.925, 53.928], [-9.957, 53.91], [-9.944, 53.91], [-9.937, 53.899], [-9.949, 53.877], [-9.966, 53.876], [-9.99, 53.887], [-10.002, 53.898], [-9.993, 53.903], [-10.026, 53.922], [-10.049, 53.913], [-10.059, 53.922], [-10.054, 53.954], [-10.044, 53.958], [-10.072, 53.973], [-10.086, 53.972], [-10.116, 53.959], [-10.131, 53.973], [-10.154, 53.966], [-10.189, 53.97], [-10.195, 53.96], [-10.215, 53.965], [-10.237, 53.978], [-10.187, 53.997], [-10.19, 54.001]]], [[[-10.214, 53.986], [-10.214, 53.986], [-10.214, 53.986], [-10.214, 53.986]]], [[[-9.833, 53.987], [-9.833, 53.987], [-9.833, 53.987], [-9.833, 53.987]]], [[[-9.826, 53.99], [-9.826, 53.99], [-9.826, 53.99], [-9.826, 53.99]]], [[[-9.829, 53.99], [-9.829, 53.99], [-9.829, 53.99], [-9.829, 53.99]]], [[[-9.831, 53.988], [-9.831, 53.988], [-9.831, 53.988], [-9.831, 53.988]]], [[[-9.833, 53.988], [-9.833, 53.988], [-9.833, 53.988], [-9.833, 53.988]]], [[[-9.833, 53.988], [-9.833, 53.988], [-9.833, 53.988], [-9.833, 53.988]]], [[[-9.854, 53.986], [-9.855, 53.974], [-9.874, 53.984], [-9.865, 53.996], [-9.854, 53.986]]], [[[-9.834, 53.993], [-9.834, 53.993], [-9.834, 53.993], [-9.834, 53.993]]], [[[-9.872, 53.994], [-9.872, 53.994], [-9.872, 53.994], [-9.872, 53.994]]], [[[-9.848, 53.999], [-9.848, 53.999], [-9.848, 53.999], [-9.848, 53.999]]], [[[-9.88, 54.005], [-9.88, 54.005], [-9.88, 54.005], [-9.88, 54.005]]], [[[-9.876, 54.006], [-9.876, 54.006], [-9.876, 54.006], [-9.876, 54.006]]], [[[-9.915, 54], [-9.89, 53.999], [-9.892, 53.985], [-9.918, 53.985], [-9.924, 53.996], [-9.915, 54]]], [[[-9.85, 54], [-9.85, 54], [-9.85, 54], [-9.85, 54]]], [[[-10.165, 54.009], [-10.165, 54.009], [-10.165, 54.009], [-10.165, 54.009]]], [[[-9.152, 54.195], [-9.152, 54.195], [-9.152, 54.195], [-9.152, 54.195]]], [[[-9.149, 54.196], [-9.149, 54.196], [-9.149, 54.196], [-9.149, 54.196]]], [[[-9.147, 54.197], [-9.147, 54.197], [-9.147, 54.197], [-9.147, 54.197]]], [[[-9.146, 54.196], [-9.146, 54.196], [-9.146, 54.196], [-9.146, 54.196]]], [[[-10.119, 54.21], [-10.119, 54.21], [-10.119, 54.21], [-10.119, 54.21]]], [[[-9.213, 54.217], [-9.213, 54.217], [-9.213, 54.217], [-9.213, 54.217]]], [[[-9.902, 54.219], [-9.902, 54.219], [-9.902, 54.219], [-9.902, 54.219]]], [[[-8.556, 54.229], [-8.556, 54.229], [-8.556, 54.229], [-8.556, 54.229]]], [[[-10.075, 54.23], [-10.075, 54.23], [-10.075, 54.23], [-10.075, 54.23]]], [[[-8.612, 54.231], [-8.612, 54.231], [-8.612, 54.231], [-8.612, 54.231]]], [[[-9.235, 54.234], [-9.235, 54.234], [-9.235, 54.234], [-9.235, 54.234]]], [[[-10.141, 54.202], [-10.141, 54.202], [-10.141, 54.202], [-10.141, 54.202]]], [[[-9.156, 54.203], [-9.156, 54.203], [-9.156, 54.203], [-9.156, 54.203]]], [[[-9.14, 54.202], [-9.195, 54.222], [-9.156, 54.215], [-9.14, 54.202]]], [[[-10.104, 54.24], [-10.104, 54.24], [-10.104, 54.24], [-10.104, 54.24]]], [[[-8.632, 54.243], [-8.632, 54.243], [-8.632, 54.243], [-8.632, 54.243]]], [[[-10.076, 54.261], [-10.076, 54.261], [-10.076, 54.261], [-10.076, 54.261]]], [[[-10.071, 54.276], [-10.071, 54.276], [-10.071, 54.276], [-10.071, 54.276]]], [[[-10.09, 54.281], [-10.09, 54.281], [-10.09, 54.281], [-10.09, 54.281]]], [[[-8.591, 54.285], [-8.591, 54.285], [-8.591, 54.285], [-8.591, 54.285]]], [[[-9.81, 54.285], [-9.81, 54.285], [-9.81, 54.285], [-9.81, 54.285]]], [[[-8.574, 54.301], [-8.574, 54.301], [-8.574, 54.301], [-8.574, 54.301]]], [[[-9.863, 54.303], [-9.863, 54.303], [-9.863, 54.303], [-9.863, 54.303]]], [[[-10.006, 54.303], [-10.006, 54.303], [-10.006, 54.303], [-10.006, 54.303]]], [[[-9.999, 54.308], [-9.999, 54.308], [-9.999, 54.308], [-9.999, 54.308]]], [[[-9.51, 54.311], [-9.51, 54.311], [-9.51, 54.311], [-9.51, 54.311]]], [[[-9.476, 54.316], [-9.476, 54.316], [-9.476, 54.316], [-9.476, 54.316]]], [[[-8.603, 54.285], [-8.603, 54.285], [-8.603, 54.285], [-8.603, 54.285]]], [[[-8.594, 54.291], [-8.593, 54.306], [-8.579, 54.302], [-8.588, 54.287], [-8.594, 54.291]]], [[[-9.349, 54.328], [-9.349, 54.328], [-9.349, 54.328], [-9.349, 54.328]]], [[[-9.624, 54.327], [-9.624, 54.327], [-9.624, 54.327], [-9.624, 54.327]]], [[[-9.72, 54.33], [-9.72, 54.33], [-9.72, 54.33], [-9.72, 54.33]]], [[[-9.861, 54.325], [-9.861, 54.325], [-9.861, 54.325], [-9.861, 54.325]]], [[[-9.639, 54.327], [-9.639, 54.327], [-9.639, 54.327], [-9.639, 54.327]]], [[[-9.641, 54.328], [-9.641, 54.328], [-9.641, 54.328], [-9.641, 54.328]]], [[[-9.861, 54.326], [-9.861, 54.326], [-9.861, 54.326], [-9.861, 54.326]]], [[[-8.677, 54.342], [-8.677, 54.342], [-8.677, 54.342], [-8.677, 54.342]]], [[[-8.678, 54.343], [-8.678, 54.343], [-8.678, 54.343], [-8.678, 54.343]]], [[[-9.807, 54.343], [-9.807, 54.343], [-9.807, 54.343], [-9.807, 54.343]]], [[[-8.678, 54.359], [-8.678, 54.359], [-8.678, 54.359], [-8.678, 54.359]]], [[[-9.786, 54.364], [-9.786, 54.364], [-9.786, 54.364], [-9.786, 54.364]]], [[[-9.786, 54.347], [-9.786, 54.347], [-9.786, 54.347], [-9.786, 54.347]]], [[[-8.694, 54.346], [-8.694, 54.346], [-8.694, 54.346], [-8.694, 54.346]]], [[[-8.529, 54.404], [-8.529, 54.404], [-8.529, 54.404], [-8.529, 54.404]]], [[[-9.785, 54.366], [-9.785, 54.366], [-9.785, 54.366], [-9.785, 54.366]]], [[[-9.79, 54.366], [-9.79, 54.366], [-9.79, 54.366], [-9.79, 54.366]]], [[[-9.791, 54.368], [-9.791, 54.368], [-9.791, 54.368], [-9.791, 54.368]]], [[[-9.696, 54.322], [-9.696, 54.322], [-9.696, 54.322], [-9.696, 54.322]]], [[[-9.709, 54.323], [-9.709, 54.323], [-9.709, 54.323], [-9.709, 54.323]]], [[[-8.662, 54.43], [-8.662, 54.43], [-8.662, 54.43], [-8.662, 54.43]]], [[[-8.201, 54.501], [-8.201, 54.501], [-8.201, 54.501], [-8.201, 54.501]]], [[[-8.462, 54.567], [-8.462, 54.567], [-8.462, 54.567], [-8.462, 54.567]]], [[[-8.546, 54.599], [-8.546, 54.599], [-8.546, 54.599], [-8.546, 54.599]]], [[[-8.139, 54.608], [-8.139, 54.608], [-8.139, 54.608], [-8.139, 54.608]]], [[[-8.459, 54.611], [-8.459, 54.611], [-8.459, 54.611], [-8.459, 54.611]]], [[[-8.44, 54.615], [-8.44, 54.615], [-8.44, 54.615], [-8.44, 54.615]]], [[[-8.425, 54.617], [-8.425, 54.617], [-8.425, 54.617], [-8.425, 54.617]]], [[[-8.421, 54.617], [-8.421, 54.617], [-8.421, 54.617], [-8.421, 54.617]]], [[[-8.124, 54.617], [-8.124, 54.617], [-8.124, 54.617], [-8.124, 54.617]]], [[[-8.617, 54.619], [-8.617, 54.619], [-8.617, 54.619], [-8.617, 54.619]]], [[[-8.543, 54.618], [-8.543, 54.618], [-8.543, 54.618], [-8.543, 54.618]]], [[[-8.14, 54.616], [-8.14, 54.616], [-8.14, 54.616], [-8.14, 54.616]]], [[[-8.437, 54.618], [-8.437, 54.618], [-8.437, 54.618], [-8.437, 54.618]]], [[[-8.436, 54.619], [-8.436, 54.619], [-8.436, 54.619], [-8.436, 54.619]]], [[[-8.656, 54.621], [-8.656, 54.621], [-8.656, 54.621], [-8.656, 54.621]]], [[[-8.145, 54.622], [-8.145, 54.622], [-8.145, 54.622], [-8.145, 54.622]]], [[[-8.687, 54.629], [-8.687, 54.629], [-8.687, 54.629], [-8.687, 54.629]]], [[[-8.687, 54.629], [-8.687, 54.629], [-8.687, 54.629], [-8.687, 54.629]]], [[[-8.687, 54.627], [-8.687, 54.627], [-8.687, 54.627], [-8.687, 54.627]]], [[[-8.482, 54.627], [-8.482, 54.627], [-8.482, 54.627], [-8.482, 54.627]]], [[[-8.48, 54.627], [-8.48, 54.627], [-8.48, 54.627], [-8.48, 54.627]]], [[[-8.399, 54.629], [-8.399, 54.629], [-8.399, 54.629], [-8.399, 54.629]]], [[[-8.484, 54.631], [-8.484, 54.631], [-8.484, 54.631], [-8.484, 54.631]]], [[[-8.682, 54.632], [-8.682, 54.632], [-8.682, 54.632], [-8.682, 54.632]]], [[[-8.488, 54.635], [-8.488, 54.635], [-8.488, 54.635], [-8.488, 54.635]]], [[[-8.14, 54.636], [-8.14, 54.636], [-8.14, 54.636], [-8.14, 54.636]]], [[[-8.422, 54.648], [-8.422, 54.648], [-8.422, 54.648], [-8.422, 54.648]]], [[[-8.421, 54.649], [-8.421, 54.649], [-8.421, 54.649], [-8.421, 54.649]]], [[[-8.746, 54.65], [-8.746, 54.65], [-8.746, 54.65], [-8.746, 54.65]]], [[[-8.75, 54.651], [-8.75, 54.651], [-8.75, 54.651], [-8.75, 54.651]]], [[[-8.751, 54.653], [-8.751, 54.653], [-8.751, 54.653], [-8.751, 54.653]]], [[[-8.771, 54.656], [-8.771, 54.656], [-8.771, 54.656], [-8.771, 54.656]]], [[[-8.779, 54.661], [-8.779, 54.661], [-8.779, 54.661], [-8.779, 54.661]]], [[[-8.794, 54.663], [-8.794, 54.663], [-8.794, 54.663], [-8.794, 54.663]]], [[[-8.792, 54.661], [-8.792, 54.661], [-8.792, 54.661], [-8.792, 54.661]]], [[[-8.837, 54.664], [-8.837, 54.664], [-8.837, 54.664], [-8.837, 54.664]]], [[[-8.8, 54.666], [-8.8, 54.666], [-8.8, 54.666], [-8.8, 54.666]]], [[[-8.801, 54.667], [-8.801, 54.667], [-8.801, 54.667], [-8.801, 54.667]]], [[[-8.802, 54.667], [-8.802, 54.667], [-8.802, 54.667], [-8.802, 54.667]]], [[[-8.838, 54.662], [-8.838, 54.662], [-8.838, 54.662], [-8.838, 54.662]]], [[[-8.837, 54.664], [-8.837, 54.664], [-8.837, 54.664], [-8.837, 54.664]]], [[[-8.834, 54.664], [-8.834, 54.664], [-8.834, 54.664], [-8.834, 54.664]]], [[[-8.792, 54.676], [-8.792, 54.676], [-8.792, 54.676], [-8.792, 54.676]]], [[[-8.794, 54.674], [-8.794, 54.674], [-8.794, 54.674], [-8.794, 54.674]]], [[[-8.796, 54.671], [-8.796, 54.671], [-8.796, 54.671], [-8.796, 54.671]]], [[[-8.798, 54.67], [-8.798, 54.67], [-8.798, 54.67], [-8.798, 54.67]]], [[[-8.792, 54.678], [-8.792, 54.678], [-8.792, 54.678], [-8.792, 54.678]]], [[[-8.793, 54.679], [-8.793, 54.679], [-8.793, 54.679], [-8.793, 54.679]]], [[[-8.798, 54.691], [-8.798, 54.691], [-8.798, 54.691], [-8.798, 54.691]]], [[[-8.801, 54.693], [-8.801, 54.693], [-8.801, 54.693], [-8.801, 54.693]]], [[[-8.801, 54.691], [-8.801, 54.691], [-8.801, 54.691], [-8.801, 54.691]]], [[[-8.8, 54.691], [-8.8, 54.691], [-8.8, 54.691], [-8.8, 54.691]]], [[[-8.797, 54.69], [-8.797, 54.69], [-8.797, 54.69], [-8.797, 54.69]]], [[[-8.795, 54.674], [-8.795, 54.674], [-8.795, 54.674], [-8.795, 54.674]]], [[[-8.795, 54.676], [-8.795, 54.676], [-8.795, 54.676], [-8.795, 54.676]]], [[[-8.794, 54.667], [-8.794, 54.667], [-8.794, 54.667], [-8.794, 54.667]]], [[[-8.83, 54.665], [-8.83, 54.665], [-8.83, 54.665], [-8.83, 54.665]]], [[[-8.829, 54.669], [-8.829, 54.669], [-8.829, 54.669], [-8.829, 54.669]]], [[[-8.798, 54.667], [-8.798, 54.667], [-8.798, 54.667], [-8.798, 54.667]]], [[[-8.795, 54.67], [-8.795, 54.67], [-8.795, 54.67], [-8.795, 54.67]]], [[[-8.801, 54.694], [-8.801, 54.694], [-8.801, 54.694], [-8.801, 54.694]]], [[[-8.803, 54.697], [-8.803, 54.697], [-8.803, 54.697], [-8.803, 54.697]]], [[[-8.806, 54.699], [-8.806, 54.699], [-8.806, 54.699], [-8.806, 54.699]]], [[[-8.799, 54.705], [-8.799, 54.705], [-8.799, 54.705], [-8.799, 54.705]]], [[[-8.791, 54.707], [-8.791, 54.707], [-8.791, 54.707], [-8.791, 54.707]]], [[[-8.754, 54.718], [-8.754, 54.718], [-8.754, 54.718], [-8.754, 54.718]]], [[[-8.764, 54.709], [-8.764, 54.709], [-8.764, 54.709], [-8.764, 54.709]]], [[[-8.764, 54.709], [-8.764, 54.709], [-8.764, 54.709], [-8.764, 54.709]]], [[[-8.751, 54.722], [-8.751, 54.722], [-8.751, 54.722], [-8.751, 54.722]]], [[[-8.743, 54.734], [-8.743, 54.734], [-8.743, 54.734], [-8.743, 54.734]]], [[[-8.752, 54.728], [-8.752, 54.728], [-8.752, 54.728], [-8.752, 54.728]]], [[[-8.75, 54.729], [-8.75, 54.729], [-8.75, 54.729], [-8.75, 54.729]]], [[[-8.75, 54.739], [-8.75, 54.739], [-8.75, 54.739], [-8.75, 54.739]]], [[[-8.744, 54.739], [-8.744, 54.739], [-8.744, 54.739], [-8.744, 54.739]]], [[[-8.733, 54.743], [-8.733, 54.743], [-8.733, 54.743], [-8.733, 54.743]]], [[[-8.724, 54.743], [-8.724, 54.743], [-8.724, 54.743], [-8.724, 54.743]]], [[[-8.725, 54.743], [-8.725, 54.743], [-8.725, 54.743], [-8.725, 54.743]]], [[[-8.713, 54.745], [-8.713, 54.745], [-8.713, 54.745], [-8.713, 54.745]]], [[[-8.707, 54.753], [-8.707, 54.753], [-8.707, 54.753], [-8.707, 54.753]]], [[[-8.494, 54.761], [-8.494, 54.761], [-8.494, 54.761], [-8.494, 54.761]]], [[[-8.692, 54.763], [-8.692, 54.763], [-8.692, 54.763], [-8.692, 54.763]]], [[[-8.496, 54.767], [-8.496, 54.767], [-8.496, 54.767], [-8.496, 54.767]]], [[[-8.597, 54.779], [-8.597, 54.779], [-8.597, 54.779], [-8.597, 54.779]]], [[[-8.448, 54.782], [-8.448, 54.782], [-8.448, 54.782], [-8.448, 54.782]]], [[[-8.557, 54.812], [-8.557, 54.812], [-8.557, 54.812], [-8.557, 54.812]]], [[[-8.555, 54.778], [-8.555, 54.778], [-8.555, 54.778], [-8.555, 54.778]]], [[[-8.602, 54.777], [-8.602, 54.777], [-8.602, 54.777], [-8.602, 54.777]]], [[[-8.489, 54.761], [-8.489, 54.761], [-8.489, 54.761], [-8.489, 54.761]]], [[[-8.506, 54.762], [-8.506, 54.762], [-8.506, 54.762], [-8.506, 54.762]]], [[[-8.748, 54.742], [-8.748, 54.742], [-8.748, 54.742], [-8.748, 54.742]]], [[[-8.748, 54.74], [-8.748, 54.74], [-8.748, 54.74], [-8.748, 54.74]]], [[[-8.746, 54.74], [-8.746, 54.74], [-8.746, 54.74], [-8.746, 54.74]]], [[[-8.551, 54.819], [-8.551, 54.819], [-8.551, 54.819], [-8.551, 54.819]]], [[[-8.566, 54.826], [-8.566, 54.826], [-8.566, 54.826], [-8.566, 54.826]]], [[[-8.558, 54.83], [-8.558, 54.83], [-8.558, 54.83], [-8.558, 54.83]]], [[[-8.519, 54.831], [-8.519, 54.831], [-8.519, 54.831], [-8.519, 54.831]]], [[[-8.357, 54.838], [-8.357, 54.838], [-8.357, 54.838], [-8.357, 54.838]]], [[[-8.451, 54.845], [-8.451, 54.845], [-8.451, 54.845], [-8.451, 54.845]]], [[[-8.331, 54.877], [-8.331, 54.877], [-8.331, 54.877], [-8.331, 54.877]]], [[[-8.475, 54.937], [-8.475, 54.937], [-8.475, 54.937], [-8.475, 54.937]]], [[[-8.437, 54.939], [-8.437, 54.939], [-8.437, 54.939], [-8.437, 54.939]]], [[[-8.436, 54.939], [-8.436, 54.939], [-8.436, 54.939], [-8.436, 54.939]]], [[[-8.538, 54.87], [-8.538, 54.87], [-8.538, 54.87], [-8.538, 54.87]]], [[[-8.535, 54.869], [-8.535, 54.869], [-8.535, 54.869], [-8.535, 54.869]]], [[[-8.54, 54.872], [-8.54, 54.872], [-8.54, 54.872], [-8.54, 54.872]]], [[[-8.538, 54.871], [-8.538, 54.871], [-8.538, 54.871], [-8.538, 54.871]]], [[[-8.478, 54.941], [-8.478, 54.941], [-8.478, 54.941], [-8.478, 54.941]]], [[[-8.395, 54.945], [-8.395, 54.945], [-8.395, 54.945], [-8.395, 54.945]]], [[[-8.434, 54.953], [-8.434, 54.953], [-8.434, 54.953], [-8.434, 54.953]]], [[[-8.426, 54.946], [-8.426, 54.946], [-8.426, 54.946], [-8.426, 54.946]]], [[[-8.492, 54.954], [-8.492, 54.954], [-8.492, 54.954], [-8.492, 54.954]]], [[[-8.452, 54.959], [-8.452, 54.959], [-8.452, 54.959], [-8.452, 54.959]]], [[[-8.498, 54.961], [-8.498, 54.961], [-8.498, 54.961], [-8.498, 54.961]]], [[[-8.449, 54.959], [-8.438, 54.962], [-8.434, 54.952], [-8.457, 54.952], [-8.449, 54.959]]], [[[-8.443, 54.964], [-8.443, 54.964], [-8.443, 54.964], [-8.443, 54.964]]], [[[-8.422, 54.967], [-8.422, 54.967], [-8.422, 54.967], [-8.422, 54.967]]], [[[-8.494, 54.425], [-8.494, 54.425], [-8.494, 54.425], [-8.494, 54.425]]], [[[-8.53, 54.425], [-8.53, 54.425], [-8.53, 54.425], [-8.53, 54.425]]], [[[-8.467, 54.984], [-8.467, 54.984], [-8.467, 54.984], [-8.467, 54.984]]], [[[-8.44, 54.988], [-8.44, 54.988], [-8.44, 54.988], [-8.44, 54.988]]], [[[-8.461, 54.993], [-8.461, 54.993], [-8.461, 54.993], [-8.461, 54.993]]], [[[-8.449, 54.995], [-8.449, 54.995], [-8.449, 54.995], [-8.449, 54.995]]], [[[-8.442, 54.988], [-8.442, 54.988], [-8.442, 54.988], [-8.442, 54.988]]], [[[-8.442, 54.988], [-8.442, 54.988], [-8.442, 54.988], [-8.442, 54.988]]], [[[-8.466, 54.988], [-8.466, 54.988], [-8.466, 54.988], [-8.466, 54.988]]], [[[-8.447, 54.99], [-8.447, 54.99], [-8.447, 54.99], [-8.447, 54.99]]], [[[-8.46, 54.992], [-8.46, 54.992], [-8.46, 54.992], [-8.46, 54.992]]], [[[-8.463, 54.992], [-8.463, 54.992], [-8.463, 54.992], [-8.463, 54.992]]], [[[-8.474, 54.991], [-8.474, 54.991], [-8.474, 54.991], [-8.474, 54.991]]], [[[-8.469, 54.989], [-8.469, 54.989], [-8.469, 54.989], [-8.469, 54.989]]], [[[-8.429, 55.008], [-8.429, 55.008], [-8.429, 55.008], [-8.429, 55.008]]], [[[-8.41, 55.038], [-8.41, 55.038], [-8.41, 55.038], [-8.41, 55.038]]], [[[-8.412, 55.04], [-8.412, 55.04], [-8.412, 55.04], [-8.412, 55.04]]], [[[-8.425, 55.022], [-8.425, 55.022], [-8.425, 55.022], [-8.425, 55.022]]], [[[-8.54, 55.023], [-8.54, 55.023], [-8.54, 55.023], [-8.54, 55.023]]], [[[-8.387, 55.041], [-8.387, 55.041], [-8.387, 55.041], [-8.387, 55.041]]], [[[-8.389, 55.041], [-8.389, 55.041], [-8.389, 55.041], [-8.389, 55.041]]], [[[-7.599, 55.048], [-7.599, 55.048], [-7.599, 55.048], [-7.599, 55.048]]], [[[-7.623, 55.05], [-7.623, 55.05], [-7.623, 55.05], [-7.623, 55.05]]], [[[-7.619, 55.049], [-7.619, 55.049], [-7.619, 55.049], [-7.619, 55.049]]], [[[-7.621, 55.048], [-7.621, 55.048], [-7.621, 55.048], [-7.621, 55.048]]], [[[-8.378, 55.061], [-8.378, 55.061], [-8.378, 55.061], [-8.378, 55.061]]], [[[-8.382, 55.067], [-8.382, 55.067], [-8.382, 55.067], [-8.382, 55.067]]], [[[-8.335, 55.069], [-8.335, 55.069], [-8.335, 55.069], [-8.335, 55.069]]], [[[-8.341, 55.072], [-8.341, 55.072], [-8.341, 55.072], [-8.341, 55.072]]], [[[-8.345, 55.054], [-8.345, 55.054], [-8.345, 55.054], [-8.345, 55.054]]], [[[-8.43, 55.053], [-8.43, 55.053], [-8.43, 55.053], [-8.43, 55.053]]], [[[-8.422, 55.024], [-8.437, 55.026], [-8.421, 55.034], [-8.433, 55.049], [-8.422, 55.05], [-8.416, 55.031], [-8.407, 55.022], [-8.41, 55.013], [-8.422, 55.024]]], [[[-8.411, 55.042], [-8.411, 55.042], [-8.411, 55.042], [-8.411, 55.042]]], [[[-8.44, 55.053], [-8.458, 55.048], [-8.462, 55.058], [-8.446, 55.061], [-8.44, 55.053]]], [[[-8.434, 55.051], [-8.434, 55.051], [-8.434, 55.051], [-8.434, 55.051]]], [[[-8.454, 54.997], [-8.454, 54.997], [-8.454, 54.997], [-8.454, 54.997]]], [[[-8.472, 54.994], [-8.472, 54.994], [-8.472, 54.994], [-8.472, 54.994]]], [[[-8.476, 54.995], [-8.476, 54.995], [-8.476, 54.995], [-8.476, 54.995]]], [[[-8.495, 54.995], [-8.495, 54.995], [-8.495, 54.995], [-8.495, 54.995]]], [[[-8.45, 54.996], [-8.45, 54.996], [-8.45, 54.996], [-8.45, 54.996]]], [[[-8.481, 55], [-8.481, 55], [-8.481, 55], [-8.481, 55]]], [[[-8.465, 55], [-8.465, 55], [-8.465, 55], [-8.465, 55]]], [[[-8.463, 55], [-8.463, 55], [-8.463, 55], [-8.463, 55]]], [[[-8.454, 55.004], [-8.454, 55.004], [-8.454, 55.004], [-8.454, 55.004]]], [[[-8.451, 55.007], [-8.451, 55.007], [-8.451, 55.007], [-8.451, 55.007]]], [[[-8.446, 55.008], [-8.446, 55.008], [-8.446, 55.008], [-8.446, 55.008]]], [[[-8.447, 55.012], [-8.447, 55.012], [-8.447, 55.012], [-8.447, 55.012]]], [[[-8.544, 55.023], [-8.544, 55.023], [-8.544, 55.023], [-8.544, 55.023]]], [[[-8.45, 55.012], [-8.45, 55.012], [-8.45, 55.012], [-8.45, 55.012]]], [[[-8.382, 55.086], [-8.382, 55.086], [-8.382, 55.086], [-8.382, 55.086]]], [[[-8.337, 55.079], [-8.337, 55.079], [-8.337, 55.079], [-8.337, 55.079]]], [[[-8.335, 55.101], [-8.335, 55.101], [-8.335, 55.101], [-8.335, 55.101]]], [[[-7.698, 55.109], [-7.698, 55.109], [-7.698, 55.109], [-7.698, 55.109]]], [[[-8.365, 55.098], [-8.365, 55.098], [-8.365, 55.098], [-8.365, 55.098]]], [[[-8.361, 55.101], [-8.361, 55.101], [-8.361, 55.101], [-8.361, 55.101]]], [[[-8.36, 55.099], [-8.36, 55.099], [-8.36, 55.099], [-8.36, 55.099]]], [[[-8.364, 55.101], [-8.364, 55.101], [-8.364, 55.101], [-8.364, 55.101]]], [[[-8.363, 55.102], [-8.363, 55.102], [-8.363, 55.102], [-8.363, 55.102]]], [[[-8.369, 55.079], [-8.369, 55.079], [-8.369, 55.079], [-8.369, 55.079]]], [[[-8.356, 55.08], [-8.356, 55.08], [-8.356, 55.08], [-8.356, 55.08]]], [[[-8.337, 55.079], [-8.337, 55.079], [-8.337, 55.079], [-8.337, 55.079]]], [[[-8.351, 55.086], [-8.36, 55.081], [-8.381, 55.087], [-8.38, 55.093], [-8.358, 55.094], [-8.351, 55.086]]], [[[-7.704, 55.11], [-7.704, 55.11], [-7.704, 55.11], [-7.704, 55.11]]], [[[-7.697, 55.118], [-7.697, 55.118], [-7.697, 55.118], [-7.697, 55.118]]], [[[-7.701, 55.119], [-7.701, 55.119], [-7.701, 55.119], [-7.701, 55.119]]], [[[-7.691, 55.119], [-7.691, 55.119], [-7.691, 55.119], [-7.691, 55.119]]], [[[-7.688, 55.121], [-7.688, 55.121], [-7.688, 55.121], [-7.688, 55.121]]], [[[-7.693, 55.122], [-7.693, 55.122], [-7.693, 55.122], [-7.693, 55.122]]], [[[-7.698, 55.127], [-7.698, 55.127], [-7.698, 55.127], [-7.698, 55.127]]], [[[-7.698, 55.125], [-7.698, 55.125], [-7.698, 55.125], [-7.698, 55.125]]], [[[-7.699, 55.126], [-7.699, 55.126], [-7.699, 55.126], [-7.699, 55.126]]], [[[-7.459, 55.129], [-7.459, 55.129], [-7.459, 55.129], [-7.459, 55.129]]], [[[-7.693, 55.134], [-7.693, 55.134], [-7.693, 55.134], [-7.693, 55.134]]], [[[-7.682, 55.129], [-7.682, 55.129], [-7.682, 55.129], [-7.682, 55.129]]], [[[-7.682, 55.129], [-7.682, 55.129], [-7.682, 55.129], [-7.682, 55.129]]], [[[-8.328, 55.114], [-8.328, 55.114], [-8.328, 55.114], [-8.328, 55.114]]], [[[-7.69, 55.123], [-7.69, 55.123], [-7.69, 55.123], [-7.69, 55.123]]], [[[-8.34, 55.124], [-8.34, 55.124], [-8.34, 55.124], [-8.34, 55.124]]], [[[-7.695, 55.136], [-7.695, 55.136], [-7.695, 55.136], [-7.695, 55.136]]], [[[-7.864, 55.138], [-7.864, 55.138], [-7.864, 55.138], [-7.864, 55.138]]], [[[-7.891, 55.141], [-7.891, 55.141], [-7.891, 55.141], [-7.891, 55.141]]], [[[-7.886, 55.14], [-7.886, 55.14], [-7.886, 55.14], [-7.886, 55.14]]], [[[-7.71, 55.174], [-7.71, 55.174], [-7.71, 55.174], [-7.71, 55.174]]], [[[-7.87, 55.174], [-7.87, 55.174], [-7.87, 55.174], [-7.87, 55.174]]], [[[-7.875, 55.173], [-7.875, 55.173], [-7.875, 55.173], [-7.875, 55.173]]], [[[-7.904, 55.191], [-7.904, 55.191], [-7.904, 55.191], [-7.904, 55.191]]], [[[-7.907, 55.192], [-7.907, 55.192], [-7.907, 55.192], [-7.907, 55.192]]], [[[-7.8, 55.188], [-7.8, 55.188], [-7.8, 55.188], [-7.8, 55.188]]], [[[-7.896, 55.188], [-7.896, 55.188], [-7.896, 55.188], [-7.896, 55.188]]], [[[-8.171, 55.168], [-8.177, 55.179], [-8.162, 55.175], [-8.171, 55.168]]], [[[-7.944, 55.183], [-7.944, 55.183], [-7.944, 55.183], [-7.944, 55.183]]], [[[-7.927, 55.184], [-7.927, 55.184], [-7.927, 55.184], [-7.927, 55.184]]], [[[-7.554, 55.197], [-7.554, 55.197], [-7.554, 55.197], [-7.554, 55.197]]], [[[-7.79, 55.198], [-7.79, 55.198], [-7.79, 55.198], [-7.79, 55.198]]], [[[-8.164, 55.202], [-8.164, 55.202], [-8.164, 55.202], [-8.164, 55.202]]], [[[-7.709, 55.215], [-7.709, 55.215], [-7.709, 55.215], [-7.709, 55.215]]], [[[-7.607, 55.218], [-7.607, 55.218], [-7.607, 55.218], [-7.607, 55.218]]], [[[-7.72, 55.22], [-7.72, 55.22], [-7.72, 55.22], [-7.72, 55.22]]], [[[-7.706, 55.222], [-7.706, 55.222], [-7.706, 55.222], [-7.706, 55.222]]], [[[-7.703, 55.223], [-7.703, 55.223], [-7.703, 55.223], [-7.703, 55.223]]], [[[-7.702, 55.223], [-7.702, 55.223], [-7.702, 55.223], [-7.702, 55.223]]], [[[-7.76, 55.245], [-7.76, 55.245], [-7.76, 55.245], [-7.76, 55.245]]], [[[-8.198, 55.261], [-8.198, 55.261], [-8.198, 55.261], [-8.198, 55.261]]], [[[-8.192, 55.256], [-8.192, 55.256], [-8.192, 55.256], [-8.192, 55.256]]], [[[-8.222, 55.268], [-8.195, 55.258], [-8.21, 55.253], [-8.225, 55.265], [-8.247, 55.264], [-8.254, 55.273], [-8.242, 55.275], [-8.222, 55.268]]], [[[-8.166, 55.191], [-8.166, 55.191], [-8.166, 55.191], [-8.166, 55.191]]], [[[-7.793, 55.187], [-7.793, 55.187], [-7.793, 55.187], [-7.793, 55.187]]], [[[-7.792, 55.193], [-7.792, 55.193], [-7.792, 55.193], [-7.792, 55.193]]], [[[-7.719, 55.195], [-7.719, 55.195], [-7.719, 55.195], [-7.719, 55.195]]], [[[-7.796, 55.196], [-7.796, 55.196], [-7.796, 55.196], [-7.796, 55.196]]], [[[-7.486, 55.287], [-7.486, 55.287], [-7.486, 55.287], [-7.486, 55.287]]], [[[-7.161, 55.29], [-7.161, 55.29], [-7.161, 55.29], [-7.161, 55.29]]], [[[-7.161, 55.291], [-7.161, 55.291], [-7.161, 55.291], [-7.161, 55.291]]], [[[-7.397, 55.318], [-7.397, 55.318], [-7.397, 55.318], [-7.397, 55.318]]], [[[-7.283, 55.368], [-7.283, 55.368], [-7.283, 55.368], [-7.283, 55.368]]], [[[-7.326, 55.376], [-7.326, 55.376], [-7.326, 55.376], [-7.326, 55.376]]], [[[-7.395, 55.378], [-7.395, 55.378], [-7.395, 55.378], [-7.395, 55.378]]], [[[-7.395, 55.379], [-7.395, 55.379], [-7.395, 55.379], [-7.395, 55.379]]], [[[-7.375, 55.383], [-7.375, 55.383], [-7.375, 55.383], [-7.375, 55.383]]], [[[-8.337, 55.072], [-8.337, 55.072], [-8.337, 55.072], [-8.337, 55.072]]], [[[-8.363, 55.077], [-8.363, 55.077], [-8.363, 55.077], [-8.363, 55.077]]], [[[-8.436, 54.975], [-8.436, 54.975], [-8.436, 54.975], [-8.436, 54.975]]], [[[-8.447, 54.97], [-8.467, 54.974], [-8.463, 54.983], [-8.447, 54.97]]], [[[-8.432, 54.968], [-8.432, 54.968], [-8.432, 54.968], [-8.432, 54.968]]], [[[-8.438, 54.972], [-8.438, 54.972], [-8.438, 54.972], [-8.438, 54.972]]], [[[-8.429, 54.973], [-8.429, 54.973], [-8.429, 54.973], [-8.429, 54.973]]], [[[-8.438, 54.973], [-8.438, 54.973], [-8.438, 54.973], [-8.438, 54.973]]], [[[-8.442, 54.977], [-8.442, 54.977], [-8.442, 54.977], [-8.442, 54.977]]], [[[-8.574, 54.979], [-8.574, 54.979], [-8.574, 54.979], [-8.574, 54.979]]], [[[-8.454, 54.981], [-8.454, 54.981], [-8.454, 54.981], [-8.454, 54.981]]], [[[-8.553, 55], [-8.563, 55.014], [-8.542, 55.014], [-8.542, 55.023], [-8.495, 55.002], [-8.498, 54.988], [-8.486, 54.983], [-8.488, 54.973], [-8.545, 54.973], [-8.567, 54.975], [-8.563, 54.994], [-8.553, 55]]], [[[-9.818, 51.455], [-9.818, 51.455], [-9.818, 51.455], [-9.818, 51.455]]], [[[-9.739, 51.461], [-9.739, 51.461], [-9.739, 51.461], [-9.739, 51.461]]], [[[-9.821, 51.46], [-9.821, 51.46], [-9.821, 51.46], [-9.821, 51.46]]], [[[-9.224, 51.467], [-9.224, 51.467], [-9.224, 51.467], [-9.224, 51.467]]], [[[-9.223, 51.468], [-9.223, 51.468], [-9.223, 51.468], [-9.223, 51.468]]], [[[-9.701, 51.47], [-9.701, 51.47], [-9.701, 51.47], [-9.701, 51.47]]], [[[-9.733, 51.47], [-9.733, 51.47], [-9.733, 51.47], [-9.733, 51.47]]], [[[-9.521, 51.471], [-9.521, 51.471], [-9.521, 51.471], [-9.521, 51.471]]], [[[-9.443, 51.452], [-9.443, 51.452], [-9.443, 51.452], [-9.443, 51.452]]], [[[-9.528, 51.427], [-9.509, 51.442], [-9.479, 51.453], [-9.46, 51.449], [-9.479, 51.434], [-9.513, 51.42], [-9.528, 51.427]]], [[[-9.729, 51.462], [-9.729, 51.462], [-9.729, 51.462], [-9.729, 51.462]]], [[[-9.348, 51.462], [-9.348, 51.462], [-9.348, 51.462], [-9.348, 51.462]]], [[[-9.832, 51.481], [-9.832, 51.481], [-9.832, 51.481], [-9.832, 51.481]]], [[[-9.504, 51.475], [-9.504, 51.475], [-9.504, 51.475], [-9.504, 51.475]]], [[[-9.487, 51.48], [-9.487, 51.48], [-9.487, 51.48], [-9.487, 51.48]]], [[[-9.243, 51.483], [-9.243, 51.483], [-9.243, 51.483], [-9.243, 51.483]]], [[[-9.416, 51.48], [-9.416, 51.48], [-9.416, 51.48], [-9.416, 51.48]]], [[[-9.51, 51.482], [-9.51, 51.482], [-9.51, 51.482], [-9.51, 51.482]]], [[[-9.423, 51.48], [-9.423, 51.48], [-9.423, 51.48], [-9.423, 51.48]]], [[[-9.615, 51.483], [-9.615, 51.483], [-9.615, 51.483], [-9.615, 51.483]]], [[[-9.603, 51.485], [-9.603, 51.485], [-9.603, 51.485], [-9.603, 51.485]]], [[[-9.489, 51.48], [-9.489, 51.48], [-9.489, 51.48], [-9.489, 51.48]]], [[[-9.493, 51.484], [-9.493, 51.484], [-9.493, 51.484], [-9.493, 51.484]]], [[[-9.805, 51.494], [-9.805, 51.494], [-9.805, 51.494], [-9.805, 51.494]]], [[[-9.638, 51.496], [-9.638, 51.496], [-9.638, 51.496], [-9.638, 51.496]]], [[[-9.267, 51.5], [-9.267, 51.5], [-9.267, 51.5], [-9.267, 51.5]]], [[[-9.505, 51.494], [-9.505, 51.494], [-9.505, 51.494], [-9.505, 51.494]]], [[[-9.404, 51.495], [-9.404, 51.495], [-9.404, 51.495], [-9.404, 51.495]]], [[[-9.398, 51.495], [-9.398, 51.495], [-9.398, 51.495], [-9.398, 51.495]]], [[[-9.502, 51.498], [-9.502, 51.498], [-9.502, 51.498], [-9.502, 51.498]]], [[[-9.506, 51.495], [-9.506, 51.495], [-9.506, 51.495], [-9.506, 51.495]]], [[[-9.505, 51.497], [-9.505, 51.497], [-9.505, 51.497], [-9.505, 51.497]]], [[[-9.501, 51.497], [-9.501, 51.497], [-9.501, 51.497], [-9.501, 51.497]]], [[[-9.499, 51.497], [-9.499, 51.497], [-9.499, 51.497], [-9.499, 51.497]]], [[[-9.449, 51.498], [-9.449, 51.498], [-9.449, 51.498], [-9.449, 51.498]]], [[[-9.588, 51.501], [-9.588, 51.501], [-9.588, 51.501], [-9.588, 51.501]]], [[[-9.572, 51.501], [-9.572, 51.501], [-9.572, 51.501], [-9.572, 51.501]]], [[[-9.463, 51.5], [-9.463, 51.5], [-9.463, 51.5], [-9.463, 51.5]]], [[[-9.389, 51.498], [-9.389, 51.498], [-9.389, 51.498], [-9.389, 51.498]]], [[[-9.447, 51.499], [-9.447, 51.499], [-9.447, 51.499], [-9.447, 51.499]]], [[[-9.44, 51.5], [-9.44, 51.5], [-9.44, 51.5], [-9.44, 51.5]]], [[[-9.409, 51.491], [-9.409, 51.491], [-9.409, 51.491], [-9.409, 51.491]]], [[[-9.41, 51.492], [-9.41, 51.492], [-9.41, 51.492], [-9.41, 51.492]]], [[[-9.414, 51.462], [-9.437, 51.454], [-9.435, 51.464], [-9.418, 51.472], [-9.413, 51.489], [-9.4, 51.49], [-9.394, 51.472], [-9.414, 51.462]]], [[[-9.582, 51.488], [-9.582, 51.488], [-9.582, 51.488], [-9.582, 51.488]]], [[[-9.631, 51.491], [-9.631, 51.491], [-9.631, 51.491], [-9.631, 51.491]]], [[[-9.416, 51.491], [-9.416, 51.491], [-9.416, 51.491], [-9.416, 51.491]]], [[[-9.415, 51.491], [-9.415, 51.491], [-9.415, 51.491], [-9.415, 51.491]]], [[[-9.603, 51.485], [-9.603, 51.485], [-9.603, 51.485], [-9.603, 51.485]]], [[[-9.29, 51.492], [-9.29, 51.492], [-9.29, 51.492], [-9.29, 51.492]]], [[[-9.393, 51.497], [-9.393, 51.497], [-9.393, 51.497], [-9.393, 51.497]]], [[[-9.439, 51.499], [-9.426, 51.502], [-9.429, 51.487], [-9.455, 51.493], [-9.439, 51.499]]], [[[-9.415, 51.493], [-9.415, 51.493], [-9.415, 51.493], [-9.415, 51.493]]], [[[-9.408, 51.493], [-9.408, 51.493], [-9.408, 51.493], [-9.408, 51.493]]], [[[-9.133, 51.515], [-9.133, 51.515], [-9.133, 51.515], [-9.133, 51.515]]], [[[-9.186, 51.51], [-9.186, 51.51], [-9.186, 51.51], [-9.186, 51.51]]], [[[-9.448, 51.528], [-9.448, 51.528], [-9.448, 51.528], [-9.448, 51.528]]], [[[-9.123, 51.529], [-9.123, 51.529], [-9.123, 51.529], [-9.123, 51.529]]], [[[-9.423, 51.534], [-9.423, 51.534], [-9.423, 51.534], [-9.423, 51.534]]], [[[-9.423, 51.536], [-9.423, 51.536], [-9.423, 51.536], [-9.423, 51.536]]], [[[-9.42, 51.536], [-9.42, 51.536], [-9.42, 51.536], [-9.42, 51.536]]], [[[-8.923, 51.54], [-8.923, 51.54], [-8.923, 51.54], [-8.923, 51.54]]], [[[-9.414, 51.54], [-9.414, 51.54], [-9.414, 51.54], [-9.414, 51.54]]], [[[-9.099, 51.541], [-9.099, 51.541], [-9.099, 51.541], [-9.099, 51.541]]], [[[-9.11, 51.55], [-9.11, 51.55], [-9.11, 51.55], [-9.11, 51.55]]], [[[-9.423, 51.549], [-9.423, 51.549], [-9.423, 51.549], [-9.423, 51.549]]], [[[-9.066, 51.549], [-9.066, 51.549], [-9.066, 51.549], [-9.066, 51.549]]], [[[-9.123, 51.515], [-9.123, 51.515], [-9.123, 51.515], [-9.123, 51.515]]], [[[-9.171, 51.514], [-9.171, 51.514], [-9.171, 51.514], [-9.171, 51.514]]], [[[-9.137, 51.516], [-9.137, 51.516], [-9.137, 51.516], [-9.137, 51.516]]], [[[-9.139, 51.515], [-9.139, 51.515], [-9.139, 51.515], [-9.139, 51.515]]], [[[-9.171, 51.516], [-9.171, 51.516], [-9.171, 51.516], [-9.171, 51.516]]], [[[-9.13, 51.515], [-9.13, 51.515], [-9.13, 51.515], [-9.13, 51.515]]], [[[-9.343, 51.52], [-9.343, 51.52], [-9.343, 51.52], [-9.343, 51.52]]], [[[-9.649, 51.558], [-9.649, 51.558], [-9.649, 51.558], [-9.649, 51.558]]], [[[-9.655, 51.558], [-9.655, 51.558], [-9.655, 51.558], [-9.655, 51.558]]], [[[-9.673, 51.563], [-9.673, 51.563], [-9.673, 51.563], [-9.673, 51.563]]], [[[-9.665, 51.564], [-9.665, 51.564], [-9.665, 51.564], [-9.665, 51.564]]], [[[-9.656, 51.565], [-9.656, 51.565], [-9.656, 51.565], [-9.656, 51.565]]], [[[-9.67, 51.561], [-9.67, 51.561], [-9.67, 51.561], [-9.67, 51.561]]], [[[-9.666, 51.561], [-9.666, 51.561], [-9.666, 51.561], [-9.666, 51.561]]], [[[-10.248, 51.571], [-10.248, 51.571], [-10.248, 51.571], [-10.248, 51.571]]], [[[-8.758, 51.572], [-8.758, 51.572], [-8.758, 51.572], [-8.758, 51.572]]], [[[-8.7, 51.578], [-8.7, 51.578], [-8.7, 51.578], [-8.7, 51.578]]], [[[-8.779, 51.583], [-8.779, 51.583], [-8.779, 51.583], [-8.779, 51.583]]], [[[-10.3, 51.592], [-10.3, 51.592], [-10.3, 51.592], [-10.3, 51.592]]], [[[-9.631, 51.593], [-9.631, 51.593], [-9.631, 51.593], [-9.631, 51.593]]], [[[-10.088, 51.6], [-10.088, 51.6], [-10.088, 51.6], [-10.088, 51.6]]], [[[-9.558, 51.608], [-9.558, 51.608], [-9.558, 51.608], [-9.558, 51.608]]], [[[-10.161, 51.602], [-10.161, 51.602], [-10.161, 51.602], [-10.161, 51.602]]], [[[-10.068, 51.604], [-10.068, 51.604], [-10.068, 51.604], [-10.068, 51.604]]], [[[-9.927, 51.628], [-9.927, 51.628], [-9.927, 51.628], [-9.927, 51.628]]], [[[-9.851, 51.618], [-9.851, 51.618], [-9.851, 51.618], [-9.851, 51.618]]], [[[-9.86, 51.62], [-9.86, 51.62], [-9.86, 51.62], [-9.86, 51.62]]], [[[-10.131, 51.621], [-10.131, 51.621], [-10.131, 51.621], [-10.131, 51.621]]], [[[-10.134, 51.62], [-10.134, 51.62], [-10.134, 51.62], [-10.134, 51.62]]], [[[-10.134, 51.621], [-10.134, 51.621], [-10.134, 51.621], [-10.134, 51.621]]], [[[-9.902, 51.616], [-9.902, 51.616], [-9.902, 51.616], [-9.902, 51.616]]], [[[-10.275, 51.587], [-10.275, 51.587], [-10.275, 51.587], [-10.275, 51.587]]], [[[-10.043, 51.589], [-10.043, 51.589], [-10.043, 51.589], [-10.043, 51.589]]], [[[-9.66, 51.581], [-9.66, 51.581], [-9.66, 51.581], [-9.66, 51.581]]], [[[-10.165, 51.583], [-10.165, 51.583], [-10.165, 51.583], [-10.165, 51.583]]], [[[-10.238, 51.583], [-10.208, 51.603], [-10.163, 51.612], [-10.157, 51.608], [-10.179, 51.596], [-10.208, 51.59], [-10.235, 51.58], [-10.238, 51.583]]], [[[-9.793, 51.551], [-9.793, 51.551], [-9.793, 51.551], [-9.793, 51.551]]], [[[-9.421, 51.551], [-9.421, 51.551], [-9.421, 51.551], [-9.421, 51.551]]], [[[-9.049, 51.551], [-9.049, 51.551], [-9.049, 51.551], [-9.049, 51.551]]], [[[-9.434, 51.506], [-9.434, 51.506], [-9.434, 51.506], [-9.434, 51.506]]], [[[-9.361, 51.498], [-9.361, 51.498], [-9.361, 51.498], [-9.361, 51.498]]], [[[-9.467, 51.501], [-9.467, 51.501], [-9.467, 51.501], [-9.467, 51.501]]], [[[-9.357, 51.504], [-9.357, 51.504], [-9.357, 51.504], [-9.357, 51.504]]], [[[-9.398, 51.5], [-9.398, 51.5], [-9.398, 51.5], [-9.398, 51.5]]], [[[-9.442, 51.503], [-9.442, 51.503], [-9.442, 51.503], [-9.442, 51.503]]], [[[-9.444, 51.504], [-9.444, 51.504], [-9.444, 51.504], [-9.444, 51.504]]], [[[-9.564, 51.498], [-9.535, 51.504], [-9.555, 51.494], [-9.585, 51.491], [-9.564, 51.498]]], [[[-9.377, 51.49], [-9.392, 51.502], [-9.358, 51.515], [-9.362, 51.495], [-9.377, 51.49]]], [[[-9.355, 51.507], [-9.355, 51.507], [-9.355, 51.507], [-9.355, 51.507]]], [[[-9.431, 51.506], [-9.431, 51.506], [-9.431, 51.506], [-9.431, 51.506]]], [[[-9.774, 51.513], [-9.774, 51.513], [-9.774, 51.513], [-9.774, 51.513]]], [[[-9.507, 51.503], [-9.507, 51.503], [-9.507, 51.503], [-9.507, 51.503]]], [[[-9.426, 51.515], [-9.426, 51.515], [-9.426, 51.515], [-9.426, 51.515]]], [[[-9.478, 51.511], [-9.478, 51.511], [-9.478, 51.511], [-9.478, 51.511]]], [[[-9.356, 51.515], [-9.356, 51.515], [-9.356, 51.515], [-9.356, 51.515]]], [[[-9.353, 51.519], [-9.368, 51.519], [-9.343, 51.527], [-9.353, 51.519]]], [[[-10.066, 51.652], [-10.066, 51.652], [-10.066, 51.652], [-10.066, 51.652]]], [[[-9.746, 51.653], [-9.746, 51.653], [-9.746, 51.653], [-9.746, 51.653]]], [[[-10.08, 51.655], [-10.08, 51.655], [-10.08, 51.655], [-10.08, 51.655]]], [[[-10.087, 51.658], [-10.087, 51.658], [-10.087, 51.658], [-10.087, 51.658]]], [[[-10.069, 51.652], [-10.069, 51.652], [-10.069, 51.652], [-10.069, 51.652]]], [[[-9.887, 51.649], [-9.887, 51.649], [-9.887, 51.649], [-9.887, 51.649]]], [[[-10.063, 51.651], [-10.063, 51.651], [-10.063, 51.651], [-10.063, 51.651]]], [[[-10.085, 51.66], [-10.085, 51.66], [-10.085, 51.66], [-10.085, 51.66]]], [[[-10.084, 51.658], [-10.084, 51.658], [-10.084, 51.658], [-10.084, 51.658]]], [[[-9.753, 51.657], [-9.753, 51.657], [-9.753, 51.657], [-9.753, 51.657]]], [[[-10.084, 51.659], [-10.084, 51.659], [-10.084, 51.659], [-10.084, 51.659]]], [[[-9.749, 51.659], [-9.749, 51.659], [-9.749, 51.659], [-9.749, 51.659]]], [[[-9.751, 51.666], [-9.751, 51.666], [-9.751, 51.666], [-9.751, 51.666]]], [[[-10.07, 51.674], [-10.07, 51.674], [-10.07, 51.674], [-10.07, 51.674]]], [[[-8.451, 51.675], [-8.451, 51.675], [-8.451, 51.675], [-8.451, 51.675]]], [[[-8.45, 51.675], [-8.45, 51.675], [-8.45, 51.675], [-8.45, 51.675]]], [[[-8.522, 51.675], [-8.522, 51.675], [-8.522, 51.675], [-8.522, 51.675]]], [[[-10.039, 51.676], [-10.039, 51.676], [-10.039, 51.676], [-10.039, 51.676]]], [[[-8.423, 51.693], [-8.423, 51.693], [-8.423, 51.693], [-8.423, 51.693]]], [[[-9.474, 51.691], [-9.474, 51.691], [-9.474, 51.691], [-9.474, 51.691]]], [[[-9.973, 51.695], [-9.973, 51.695], [-9.973, 51.695], [-9.973, 51.695]]], [[[-9.59, 51.695], [-9.59, 51.695], [-9.59, 51.695], [-9.59, 51.695]]], [[[-9.478, 51.695], [-9.478, 51.695], [-9.478, 51.695], [-9.478, 51.695]]], [[[-9.583, 51.7], [-9.583, 51.7], [-9.583, 51.7], [-9.583, 51.7]]], [[[-9.47, 51.7], [-9.47, 51.7], [-9.47, 51.7], [-9.47, 51.7]]], [[[-9.975, 51.703], [-9.975, 51.703], [-9.975, 51.703], [-9.975, 51.703]]], [[[-10.011, 51.714], [-10.011, 51.714], [-10.011, 51.714], [-10.011, 51.714]]], [[[-8.385, 51.713], [-8.385, 51.713], [-8.385, 51.713], [-8.385, 51.713]]], [[[-10.005, 51.719], [-10.005, 51.719], [-10.005, 51.719], [-10.005, 51.719]]], [[[-9.996, 51.724], [-9.996, 51.724], [-9.996, 51.724], [-9.996, 51.724]]], [[[-9.526, 51.727], [-9.526, 51.727], [-9.526, 51.727], [-9.526, 51.727]]], [[[-9.959, 51.713], [-9.959, 51.713], [-9.959, 51.713], [-9.959, 51.713]]], [[[-9.582, 51.703], [-9.582, 51.703], [-9.582, 51.703], [-9.582, 51.703]]], [[[-8.437, 51.683], [-8.437, 51.683], [-8.437, 51.683], [-8.437, 51.683]]], [[[-9.999, 51.685], [-9.999, 51.685], [-9.999, 51.685], [-9.999, 51.685]]], [[[-9.722, 51.681], [-9.722, 51.681], [-9.722, 51.681], [-9.722, 51.681]]], [[[-9.726, 51.688], [-9.726, 51.688], [-9.726, 51.688], [-9.726, 51.688]]], [[[-9.591, 51.689], [-9.591, 51.689], [-9.591, 51.689], [-9.591, 51.689]]], [[[-9.474, 51.691], [-9.474, 51.691], [-9.474, 51.691], [-9.474, 51.691]]], [[[-9.491, 51.685], [-9.491, 51.685], [-9.491, 51.685], [-9.491, 51.685]]], [[[-9.487, 51.692], [-9.502, 51.679], [-9.506, 51.685], [-9.533, 51.683], [-9.491, 51.699], [-9.479, 51.707], [-9.487, 51.692]]], [[[-10.084, 51.66], [-10.084, 51.66], [-10.084, 51.66], [-10.084, 51.66]]], [[[-10.236, 51.734], [-10.246, 51.726], [-10.263, 51.726], [-10.257, 51.734], [-10.236, 51.734]]], [[[-10.217, 51.742], [-10.217, 51.742], [-10.217, 51.742], [-10.217, 51.742]]], [[[-9.536, 51.738], [-9.536, 51.738], [-9.536, 51.738], [-9.536, 51.738]]], [[[-9.538, 51.738], [-9.538, 51.738], [-9.538, 51.738], [-9.538, 51.738]]], [[[-9.542, 51.738], [-9.542, 51.738], [-9.542, 51.738], [-9.542, 51.738]]], [[[-9.553, 51.736], [-9.553, 51.736], [-9.553, 51.736], [-9.553, 51.736]]], [[[-10.156, 51.735], [-10.156, 51.735], [-10.156, 51.735], [-10.156, 51.735]]], [[[-10.126, 51.739], [-10.126, 51.739], [-10.126, 51.739], [-10.126, 51.739]]], [[[-10.175, 51.737], [-10.175, 51.737], [-10.175, 51.737], [-10.175, 51.737]]], [[[-10.14, 51.741], [-10.14, 51.741], [-10.14, 51.741], [-10.14, 51.741]]], [[[-9.936, 51.742], [-9.936, 51.742], [-9.936, 51.742], [-9.936, 51.742]]], [[[-9.531, 51.744], [-9.531, 51.744], [-9.531, 51.744], [-9.531, 51.744]]], [[[-9.54, 51.746], [-9.54, 51.746], [-9.54, 51.746], [-9.54, 51.746]]], [[[-10.101, 51.747], [-10.101, 51.747], [-10.101, 51.747], [-10.101, 51.747]]], [[[-9.921, 51.747], [-9.921, 51.747], [-9.921, 51.747], [-9.921, 51.747]]], [[[-9.855, 51.754], [-9.855, 51.754], [-9.855, 51.754], [-9.855, 51.754]]], [[[-9.871, 51.755], [-9.871, 51.755], [-9.871, 51.755], [-9.871, 51.755]]], [[[-10.131, 51.751], [-10.131, 51.751], [-10.131, 51.751], [-10.131, 51.751]]], [[[-9.857, 51.753], [-9.857, 51.753], [-9.857, 51.753], [-9.857, 51.753]]], [[[-9.541, 51.748], [-9.541, 51.748], [-9.541, 51.748], [-9.541, 51.748]]], [[[-9.922, 51.748], [-9.922, 51.748], [-9.922, 51.748], [-9.922, 51.748]]], [[[-9.535, 51.748], [-9.535, 51.748], [-9.535, 51.748], [-9.535, 51.748]]], [[[-10.1, 51.749], [-10.1, 51.749], [-10.1, 51.749], [-10.1, 51.749]]], [[[-9.546, 51.743], [-9.546, 51.743], [-9.546, 51.743], [-9.546, 51.743]]], [[[-9.548, 51.743], [-9.548, 51.743], [-9.548, 51.743], [-9.548, 51.743]]], [[[-9.887, 51.743], [-9.887, 51.743], [-9.887, 51.743], [-9.887, 51.743]]], [[[-9.935, 51.742], [-9.935, 51.742], [-9.935, 51.742], [-9.935, 51.742]]], [[[-9.888, 51.743], [-9.888, 51.743], [-9.888, 51.743], [-9.888, 51.743]]], [[[-9.937, 51.743], [-9.937, 51.743], [-9.937, 51.743], [-9.937, 51.743]]], [[[-9.888, 51.744], [-9.888, 51.744], [-9.888, 51.744], [-9.888, 51.744]]], [[[-10.149, 51.759], [-10.149, 51.759], [-10.149, 51.759], [-10.149, 51.759]]], [[[-9.892, 51.761], [-9.892, 51.761], [-9.892, 51.761], [-9.892, 51.761]]], [[[-10.152, 51.761], [-10.152, 51.761], [-10.152, 51.761], [-10.152, 51.761]]], [[[-9.858, 51.764], [-9.858, 51.764], [-9.858, 51.764], [-9.858, 51.764]]], [[[-10.017, 51.768], [-10.017, 51.768], [-10.017, 51.768], [-10.017, 51.768]]], [[[-9.989, 51.781], [-9.989, 51.781], [-9.989, 51.781], [-9.989, 51.781]]], [[[-10.224, 51.783], [-10.224, 51.783], [-10.224, 51.783], [-10.224, 51.783]]], [[[-10.051, 51.771], [-10.051, 51.771], [-10.051, 51.771], [-10.051, 51.771]]], [[[-9.999, 51.776], [-9.999, 51.776], [-9.999, 51.776], [-9.999, 51.776]]], [[[-10.343, 51.788], [-10.343, 51.788], [-10.343, 51.788], [-10.343, 51.788]]], [[[-9.895, 51.793], [-9.895, 51.793], [-9.895, 51.793], [-9.895, 51.793]]], [[[-10.453, 51.8], [-10.453, 51.8], [-10.453, 51.8], [-10.453, 51.8]]], [[[-9.899, 51.802], [-9.899, 51.802], [-9.899, 51.802], [-9.899, 51.802]]], [[[-9.861, 51.806], [-9.861, 51.806], [-9.861, 51.806], [-9.861, 51.806]]], [[[-9.858, 51.806], [-9.858, 51.806], [-9.858, 51.806], [-9.858, 51.806]]], [[[-9.856, 51.807], [-9.856, 51.807], [-9.856, 51.807], [-9.856, 51.807]]], [[[-9.909, 51.797], [-9.909, 51.797], [-9.909, 51.797], [-9.909, 51.797]]], [[[-9.904, 51.8], [-9.904, 51.8], [-9.904, 51.8], [-9.904, 51.8]]], [[[-9.941, 51.796], [-9.941, 51.796], [-9.941, 51.796], [-9.941, 51.796]]], [[[-9.893, 51.799], [-9.893, 51.799], [-9.893, 51.799], [-9.893, 51.799]]], [[[-10.333, 51.787], [-10.333, 51.787], [-10.333, 51.787], [-10.333, 51.787]]], [[[-9.908, 51.789], [-9.908, 51.789], [-9.908, 51.789], [-9.908, 51.789]]], [[[-10.148, 51.758], [-10.148, 51.758], [-10.148, 51.758], [-10.148, 51.758]]], [[[-9.854, 51.755], [-9.854, 51.755], [-9.854, 51.755], [-9.854, 51.755]]], [[[-10.136, 51.758], [-10.136, 51.758], [-10.136, 51.758], [-10.136, 51.758]]], [[[-10.07, 51.635], [-10.07, 51.635], [-10.07, 51.635], [-10.07, 51.635]]], [[[-9.889, 51.612], [-9.886, 51.618], [-9.918, 51.618], [-9.9, 51.639], [-9.83, 51.643], [-9.822, 51.633], [-9.808, 51.643], [-9.783, 51.644], [-9.796, 51.635], [-9.82, 51.629], [-9.837, 51.62], [-9.849, 51.622], [-9.889, 51.612]]], [[[-10.069, 51.635], [-10.069, 51.635], [-10.069, 51.635], [-10.069, 51.635]]], [[[-9.905, 51.637], [-9.905, 51.637], [-9.905, 51.637], [-9.905, 51.637]]], [[[-9.819, 51.639], [-9.819, 51.639], [-9.819, 51.639], [-9.819, 51.639]]], [[[-9.901, 51.639], [-9.901, 51.639], [-9.901, 51.639], [-9.901, 51.639]]], [[[-9.784, 51.641], [-9.784, 51.641], [-9.784, 51.641], [-9.784, 51.641]]], [[[-9.888, 51.641], [-9.888, 51.641], [-9.888, 51.641], [-9.888, 51.641]]], [[[-9.882, 51.642], [-9.882, 51.642], [-9.882, 51.642], [-9.882, 51.642]]], [[[-9.9, 51.647], [-9.9, 51.647], [-9.9, 51.647], [-9.9, 51.647]]], [[[-9.881, 51.814], [-9.881, 51.814], [-9.881, 51.814], [-9.881, 51.814]]], [[[-10.269, 51.821], [-10.269, 51.821], [-10.269, 51.821], [-10.269, 51.821]]], [[[-9.754, 51.821], [-9.754, 51.821], [-9.754, 51.821], [-9.754, 51.821]]], [[[-9.88, 51.818], [-9.88, 51.818], [-9.88, 51.818], [-9.88, 51.818]]], [[[-9.883, 51.817], [-9.883, 51.817], [-9.883, 51.817], [-9.883, 51.817]]], [[[-9.881, 51.814], [-9.881, 51.814], [-9.881, 51.814], [-9.881, 51.814]]], [[[-9.892, 51.815], [-9.892, 51.815], [-9.892, 51.815], [-9.892, 51.815]]], [[[-9.883, 51.814], [-9.883, 51.814], [-9.883, 51.814], [-9.883, 51.814]]], [[[-9.883, 51.817], [-9.883, 51.817], [-9.883, 51.817], [-9.883, 51.817]]], [[[-9.88, 51.817], [-9.88, 51.817], [-9.88, 51.817], [-9.88, 51.817]]], [[[-7.983, 51.825], [-7.983, 51.825], [-7.983, 51.825], [-7.983, 51.825]]], [[[-7.994, 51.827], [-7.994, 51.827], [-7.994, 51.827], [-7.994, 51.827]]], [[[-8.288, 51.836], [-8.288, 51.836], [-8.288, 51.836], [-8.288, 51.836]]], [[[-8.3, 51.837], [-8.3, 51.837], [-8.3, 51.837], [-8.3, 51.837]]], [[[-9.79, 51.832], [-9.791, 51.826], [-9.812, 51.817], [-9.809, 51.828], [-9.79, 51.832]]], [[[-9.9, 51.825], [-9.9, 51.825], [-9.9, 51.825], [-9.9, 51.825]]], [[[-9.902, 51.825], [-9.902, 51.825], [-9.902, 51.825], [-9.902, 51.825]]], [[[-9.908, 51.83], [-9.908, 51.83], [-9.908, 51.83], [-9.908, 51.83]]], [[[-9.756, 51.824], [-9.756, 51.824], [-9.756, 51.824], [-9.756, 51.824]]], [[[-9.906, 51.832], [-9.906, 51.832], [-9.906, 51.832], [-9.906, 51.832]]], [[[-9.609, 51.869], [-9.609, 51.869], [-9.609, 51.869], [-9.609, 51.869]]], [[[-10.4, 51.878], [-10.4, 51.878], [-10.4, 51.878], [-10.4, 51.878]]], [[[-9.647, 51.864], [-9.647, 51.864], [-9.647, 51.864], [-9.647, 51.864]]], [[[-9.664, 51.865], [-9.664, 51.865], [-9.664, 51.865], [-9.664, 51.865]]], [[[-9.662, 51.864], [-9.662, 51.864], [-9.662, 51.864], [-9.662, 51.864]]], [[[-9.661, 51.866], [-9.661, 51.866], [-9.661, 51.866], [-9.661, 51.866]]], [[[-10.414, 51.831], [-10.414, 51.831], [-10.414, 51.831], [-10.414, 51.831]]], [[[-9.683, 51.846], [-9.683, 51.846], [-9.683, 51.846], [-9.683, 51.846]]], [[[-9.654, 51.846], [-9.654, 51.846], [-9.654, 51.846], [-9.654, 51.846]]], [[[-9.672, 51.861], [-9.672, 51.861], [-9.672, 51.861], [-9.672, 51.861]]], [[[-9.66, 51.862], [-9.66, 51.862], [-9.66, 51.862], [-9.66, 51.862]]], [[[-9.664, 51.86], [-9.664, 51.86], [-9.664, 51.86], [-9.664, 51.86]]], [[[-9.661, 51.86], [-9.661, 51.86], [-9.661, 51.86], [-9.661, 51.86]]], [[[-9.668, 51.86], [-9.668, 51.86], [-9.668, 51.86], [-9.668, 51.86]]], [[[-8.302, 51.843], [-8.302, 51.843], [-8.302, 51.843], [-8.302, 51.843]]], [[[-9.636, 51.862], [-9.636, 51.862], [-9.636, 51.862], [-9.636, 51.862]]], [[[-9.671, 51.863], [-9.671, 51.863], [-9.671, 51.863], [-9.671, 51.863]]], [[[-9.636, 51.863], [-9.636, 51.863], [-9.636, 51.863], [-9.636, 51.863]]], [[[-9.669, 51.862], [-9.669, 51.862], [-9.669, 51.862], [-9.669, 51.862]]], [[[-9.651, 51.863], [-9.651, 51.863], [-9.651, 51.863], [-9.651, 51.863]]], [[[-9.666, 51.864], [-9.666, 51.864], [-9.666, 51.864], [-9.666, 51.864]]], [[[-9.649, 51.863], [-9.649, 51.863], [-9.649, 51.863], [-9.649, 51.863]]], [[[-9.637, 51.864], [-9.637, 51.864], [-9.637, 51.864], [-9.637, 51.864]]], [[[-7.91, 51.908], [-7.91, 51.908], [-7.91, 51.908], [-7.91, 51.908]]], [[[-10.284, 51.937], [-10.284, 51.937], [-10.284, 51.937], [-10.284, 51.937]]], [[[-10.298, 51.944], [-10.298, 51.944], [-10.298, 51.944], [-10.298, 51.944]]], [[[-10.249, 51.944], [-10.249, 51.944], [-10.249, 51.944], [-10.249, 51.944]]], [[[-10.313, 51.939], [-10.296, 51.938], [-10.303, 51.932], [-10.313, 51.939]]], [[[-10.279, 51.939], [-10.279, 51.939], [-10.279, 51.939], [-10.279, 51.939]]], [[[-10.298, 51.942], [-10.298, 51.942], [-10.298, 51.942], [-10.298, 51.942]]], [[[-8.306, 51.905], [-8.306, 51.905], [-8.306, 51.905], [-8.306, 51.905]]], [[[-8.305, 51.905], [-8.305, 51.905], [-8.305, 51.905], [-8.305, 51.905]]], [[[-8.317, 51.9], [-8.317, 51.9], [-8.317, 51.9], [-8.317, 51.9]]], [[[-8.308, 51.906], [-8.308, 51.906], [-8.308, 51.906], [-8.308, 51.906]]], [[[-8.306, 51.907], [-8.306, 51.907], [-8.306, 51.907], [-8.306, 51.907]]], [[[-10.321, 51.956], [-10.321, 51.956], [-10.321, 51.956], [-10.321, 51.956]]], [[[-10.186, 51.965], [-10.186, 51.965], [-10.186, 51.965], [-10.186, 51.965]]], [[[-10.185, 51.966], [-10.185, 51.966], [-10.185, 51.966], [-10.185, 51.966]]], [[[-7.536, 52.054], [-7.536, 52.054], [-7.536, 52.054], [-7.536, 52.054]]], [[[-9.964, 52.089], [-9.964, 52.089], [-9.964, 52.089], [-9.964, 52.089]]], [[[-7.636, 52.102], [-7.636, 52.102], [-7.636, 52.102], [-7.636, 52.102]]], [[[-10.348, 52.108], [-10.348, 52.108], [-10.348, 52.108], [-10.348, 52.108]]], [[[-6.607, 52.116], [-6.607, 52.116], [-6.607, 52.116], [-6.607, 52.116]]], [[[-9.776, 52.116], [-9.776, 52.116], [-9.776, 52.116], [-9.776, 52.116]]], [[[-6.587, 52.132], [-6.587, 52.132], [-6.587, 52.132], [-6.587, 52.132]]], [[[-6.896, 52.148], [-6.896, 52.148], [-6.896, 52.148], [-6.896, 52.148]]], [[[-9.775, 52.153], [-9.775, 52.153], [-9.775, 52.153], [-9.775, 52.153]]], [[[-6.824, 52.175], [-6.824, 52.175], [-6.824, 52.175], [-6.824, 52.175]]], [[[-10.474, 52.177], [-10.474, 52.177], [-10.474, 52.177], [-10.474, 52.177]]], [[[-6.739, 52.196], [-6.739, 52.196], [-6.739, 52.196], [-6.739, 52.196]]], [[[-10.463, 52.126], [-10.463, 52.126], [-10.463, 52.126], [-10.463, 52.126]]], [[[-9.765, 52.123], [-9.765, 52.123], [-9.765, 52.123], [-9.765, 52.123]]], [[[-6.207, 52.203], [-6.207, 52.203], [-6.207, 52.203], [-6.207, 52.203]]], [[[-10.424, 52.204], [-10.424, 52.204], [-10.424, 52.204], [-10.424, 52.204]]], [[[-6.335, 52.205], [-6.335, 52.205], [-6.335, 52.205], [-6.335, 52.205]]], [[[-6.642, 52.207], [-6.642, 52.207], [-6.642, 52.207], [-6.642, 52.207]]], [[[-10.411, 52.209], [-10.411, 52.209], [-10.411, 52.209], [-10.411, 52.209]]], [[[-10.381, 52.22], [-10.381, 52.22], [-10.381, 52.22], [-10.381, 52.22]]], [[[-6.814, 52.222], [-6.814, 52.222], [-6.814, 52.222], [-6.814, 52.222]]], [[[-10.372, 52.226], [-10.372, 52.226], [-10.372, 52.226], [-10.372, 52.226]]], [[[-9.864, 52.272], [-9.864, 52.272], [-9.864, 52.272], [-9.864, 52.272]]], [[[-9.873, 52.303], [-9.873, 52.303], [-9.873, 52.303], [-9.873, 52.303]]], [[[-9.882, 52.271], [-9.882, 52.271], [-9.882, 52.271], [-9.882, 52.271]]], [[[-10.046, 52.312], [-10.046, 52.312], [-10.046, 52.312], [-10.046, 52.312]]], [[[-10.032, 52.315], [-10.032, 52.315], [-10.032, 52.315], [-10.032, 52.315]]], [[[-10.072, 52.325], [-10.072, 52.325], [-10.072, 52.325], [-10.072, 52.325]]], [[[-6.735, 52.198], [-6.735, 52.198], [-6.735, 52.198], [-6.735, 52.198]]], [[[-6.79, 52.201], [-6.79, 52.201], [-6.79, 52.201], [-6.79, 52.201]]], [[[-6.619, 52.11], [-6.619, 52.11], [-6.619, 52.11], [-6.619, 52.11]]], [[[-6.614, 52.113], [-6.614, 52.113], [-6.614, 52.113], [-6.614, 52.113]]], [[[-6.613, 52.116], [-6.613, 52.116], [-6.613, 52.116], [-6.613, 52.116]]], [[[-7.855, 51.881], [-7.855, 51.881], [-7.855, 51.881], [-7.855, 51.881]]], [[[-10.399, 51.881], [-10.399, 51.881], [-10.399, 51.881], [-10.399, 51.881]]], [[[-10.399, 51.88], [-10.399, 51.88], [-10.399, 51.88], [-10.399, 51.88]]], [[[-8.241, 51.885], [-8.241, 51.885], [-8.241, 51.885], [-8.241, 51.885]]], [[[-10.4, 51.882], [-10.4, 51.882], [-10.4, 51.882], [-10.4, 51.882]]], [[[-8.327, 51.851], [-8.329, 51.881], [-8.306, 51.889], [-8.289, 51.882], [-8.242, 51.877], [-8.207, 51.88], [-8.214, 51.859], [-8.266, 51.858], [-8.277, 51.852], [-8.319, 51.843], [-8.327, 51.851]]], [[[-10.374, 51.887], [-10.374, 51.887], [-10.374, 51.887], [-10.374, 51.887]]], [[[-10.382, 51.913], [-10.35, 51.926], [-10.354, 51.934], [-10.332, 51.928], [-10.321, 51.934], [-10.318, 51.924], [-10.288, 51.927], [-10.289, 51.916], [-10.307, 51.906], [-10.347, 51.897], [-10.356, 51.89], [-10.381, 51.887], [-10.394, 51.892], [-10.421, 51.882], [-10.423, 51.898], [-10.396, 51.914], [-10.382, 51.913]]], [[[-6.456, 52.338], [-6.456, 52.338], [-6.456, 52.338], [-6.456, 52.338]]], [[[-10.047, 52.332], [-10.047, 52.332], [-10.047, 52.332], [-10.047, 52.332]]], [[[-10.056, 52.335], [-10.056, 52.335], [-10.056, 52.335], [-10.056, 52.335]]], [[[-10.017, 52.329], [-10.017, 52.329], [-10.017, 52.329], [-10.017, 52.329]]], [[[-10.027, 52.33], [-10.027, 52.33], [-10.027, 52.33], [-10.027, 52.33]]], [[[-9.93, 52.339], [-9.93, 52.339], [-9.93, 52.339], [-9.93, 52.339]]], [[[-9.91, 52.34], [-9.91, 52.34], [-9.91, 52.34], [-9.91, 52.34]]], [[[-6.517, 52.352], [-6.517, 52.352], [-6.517, 52.352], [-6.517, 52.352]]], [[[-6.55, 52.412], [-6.55, 52.412], [-6.55, 52.412], [-6.55, 52.412]]], [[[-6.554, 52.414], [-6.554, 52.414], [-6.554, 52.414], [-6.554, 52.414]]], [[[-6.557, 52.415], [-6.557, 52.415], [-6.557, 52.415], [-6.557, 52.415]]], [[[-6.554, 52.417], [-6.554, 52.417], [-6.554, 52.417], [-6.554, 52.417]]], [[[-6.551, 52.412], [-6.551, 52.412], [-6.551, 52.412], [-6.551, 52.412]]], [[[-6.566, 52.426], [-6.566, 52.426], [-6.566, 52.426], [-6.566, 52.426]]], [[[-9.758, 52.456], [-9.758, 52.456], [-9.758, 52.456], [-9.758, 52.456]]], [[[-9.684, 52.509], [-9.684, 52.509], [-9.684, 52.509], [-9.684, 52.509]]], [[[-9.684, 52.523], [-9.684, 52.523], [-9.684, 52.523], [-9.684, 52.523]]], [[[-9.938, 52.56], [-9.938, 52.56], [-9.938, 52.56], [-9.938, 52.56]]], [[[-9.495, 52.622], [-9.495, 52.622], [-9.495, 52.622], [-9.495, 52.622]]], [[[-9.082, 52.623], [-9.082, 52.623], [-9.082, 52.623], [-9.082, 52.623]]], [[[-9.019, 52.626], [-9.019, 52.626], [-9.019, 52.626], [-9.019, 52.626]]], [[[-9.512, 52.618], [-9.519, 52.605], [-9.524, 52.616], [-9.512, 52.618]]], [[[-9.007, 52.618], [-9.007, 52.618], [-9.007, 52.618], [-9.007, 52.618]]], [[[-9.002, 52.631], [-9.002, 52.631], [-9.002, 52.631], [-9.002, 52.631]]], [[[-9.043, 52.636], [-9.043, 52.636], [-9.043, 52.636], [-9.043, 52.636]]], [[[-9.029, 52.631], [-9.029, 52.631], [-9.029, 52.631], [-9.029, 52.631]]], [[[-9.549, 52.65], [-9.549, 52.65], [-9.549, 52.65], [-9.549, 52.65]]], [[[-9.734, 52.651], [-9.734, 52.651], [-9.734, 52.651], [-9.734, 52.651]]], [[[-9.548, 52.661], [-9.548, 52.661], [-9.548, 52.661], [-9.548, 52.661]]], [[[-8.912, 52.663], [-8.912, 52.663], [-8.912, 52.663], [-8.912, 52.663]]], [[[-9.018, 52.664], [-9.018, 52.664], [-9.018, 52.664], [-9.018, 52.664]]], [[[-8.808, 52.674], [-8.808, 52.674], [-8.808, 52.674], [-8.808, 52.674]]], [[[-9.688, 52.674], [-9.688, 52.674], [-9.688, 52.674], [-9.688, 52.674]]], [[[-9.01, 52.668], [-9.01, 52.668], [-9.01, 52.668], [-9.01, 52.668]]], [[[-9.068, 52.665], [-9.068, 52.665], [-9.068, 52.665], [-9.068, 52.665]]], [[[-9.666, 52.685], [-9.666, 52.685], [-9.666, 52.685], [-9.666, 52.685]]], [[[-8.873, 52.687], [-8.873, 52.687], [-8.873, 52.687], [-8.873, 52.687]]], [[[-8.814, 52.689], [-8.814, 52.689], [-8.814, 52.689], [-8.814, 52.689]]], [[[-8.898, 52.692], [-8.898, 52.692], [-8.898, 52.692], [-8.898, 52.692]]], [[[-8.848, 52.687], [-8.848, 52.687], [-8.848, 52.687], [-8.848, 52.687]]], [[[-8.822, 52.674], [-8.822, 52.674], [-8.822, 52.674], [-8.822, 52.674]]], [[[-9.088, 52.664], [-9.088, 52.664], [-9.088, 52.664], [-9.088, 52.664]]], [[[-9.037, 52.681], [-9.047, 52.668], [-9.048, 52.679], [-9.037, 52.681]]], [[[-9.681, 52.676], [-9.681, 52.676], [-9.681, 52.676], [-9.681, 52.676]]], [[[-9.05, 52.674], [-9.05, 52.674], [-9.05, 52.674], [-9.05, 52.674]]], [[[-9.016, 52.675], [-9.016, 52.675], [-9.016, 52.675], [-9.016, 52.675]]], [[[-9.064, 52.677], [-9.064, 52.677], [-9.064, 52.677], [-9.064, 52.677]]], [[[-9.059, 52.676], [-9.045, 52.69], [-9.044, 52.682], [-9.059, 52.676]]], [[[-9.588, 52.624], [-9.588, 52.624], [-9.588, 52.624], [-9.588, 52.624]]], [[[-9.1, 52.629], [-9.1, 52.629], [-9.1, 52.629], [-9.1, 52.629]]], [[[-9.031, 52.629], [-9.031, 52.629], [-9.031, 52.629], [-9.031, 52.629]]], [[[-9.108, 52.616], [-9.124, 52.622], [-9.105, 52.627], [-9.108, 52.616]]], [[[-9.01, 52.627], [-9.01, 52.627], [-9.01, 52.627], [-9.01, 52.627]]], [[[-9.023, 52.727], [-9.023, 52.727], [-9.023, 52.727], [-9.023, 52.727]]], [[[-9.027, 52.731], [-9.027, 52.731], [-9.027, 52.731], [-9.027, 52.731]]], [[[-9.629, 52.732], [-9.629, 52.732], [-9.629, 52.732], [-9.629, 52.732]]], [[[-9.023, 52.727], [-9.023, 52.727], [-9.023, 52.727], [-9.023, 52.727]]], [[[-9.025, 52.727], [-9.025, 52.727], [-9.025, 52.727], [-9.025, 52.727]]], [[[-8.965, 52.739], [-8.965, 52.739], [-8.965, 52.739], [-8.965, 52.739]]], [[[-9.609, 52.742], [-9.609, 52.742], [-9.609, 52.742], [-9.609, 52.742]]], [[[-8.962, 52.745], [-8.962, 52.745], [-8.962, 52.745], [-8.962, 52.745]]], [[[-8.951, 52.774], [-8.951, 52.774], [-8.951, 52.774], [-8.951, 52.774]]], [[[-9.525, 52.79], [-9.525, 52.79], [-9.525, 52.79], [-9.525, 52.79]]], [[[-9.508, 52.815], [-9.532, 52.807], [-9.536, 52.815], [-9.508, 52.815]]], [[[-9.522, 52.822], [-9.522, 52.822], [-9.522, 52.822], [-9.522, 52.822]]], [[[-9.508, 52.824], [-9.508, 52.824], [-9.508, 52.824], [-9.508, 52.824]]], [[[-9.438, 52.876], [-9.438, 52.876], [-9.438, 52.876], [-9.438, 52.876]]], [[[-9.416, 52.891], [-9.416, 52.891], [-9.416, 52.891], [-9.416, 52.891]]], [[[-9.432, 52.972], [-9.432, 52.972], [-9.432, 52.972], [-9.432, 52.972]]], [[[-9.433, 52.974], [-9.433, 52.974], [-9.433, 52.974], [-9.433, 52.974]]], [[[-9.502, 53.06], [-9.526, 53.045], [-9.556, 53.049], [-9.542, 53.066], [-9.513, 53.067], [-9.502, 53.06]]], [[[-9.629, 53.115], [-9.629, 53.115], [-9.629, 53.115], [-9.629, 53.115]]], [[[-9.144, 53.123], [-9.144, 53.123], [-9.144, 53.123], [-9.144, 53.123]]], [[[-9.607, 53.065], [-9.62, 53.068], [-9.613, 53.084], [-9.593, 53.1], [-9.563, 53.1], [-9.562, 53.086], [-9.578, 53.072], [-9.607, 53.065]]], [[[-9.684, 53.102], [-9.684, 53.102], [-9.684, 53.102], [-9.684, 53.102]]], [[[-9.712, 53.108], [-9.712, 53.108], [-9.712, 53.108], [-9.712, 53.108]]], [[[-9.135, 53.129], [-9.135, 53.129], [-9.135, 53.129], [-9.135, 53.129]]], [[[-9.142, 53.128], [-9.142, 53.128], [-9.142, 53.128], [-9.142, 53.128]]], [[[-9.177, 53.132], [-9.177, 53.132], [-9.177, 53.132], [-9.177, 53.132]]], [[[-9.176, 53.132], [-9.176, 53.132], [-9.176, 53.132], [-9.176, 53.132]]], [[[-9.165, 53.13], [-9.165, 53.13], [-9.165, 53.13], [-9.165, 53.13]]], [[[-9.833, 53.137], [-9.833, 53.137], [-9.833, 53.137], [-9.833, 53.137]]], [[[-8.928, 53.141], [-8.928, 53.141], [-8.928, 53.141], [-8.928, 53.141]]], [[[-9.009, 53.144], [-9.009, 53.144], [-9.009, 53.144], [-9.009, 53.144]]], [[[-9.832, 53.14], [-9.832, 53.14], [-9.832, 53.14], [-9.832, 53.14]]], [[[-8.931, 53.141], [-8.931, 53.141], [-8.931, 53.141], [-8.931, 53.141]]], [[[-9.09, 53.14], [-9.09, 53.14], [-9.09, 53.14], [-9.09, 53.14]]], [[[-8.946, 53.151], [-8.946, 53.151], [-8.946, 53.151], [-8.946, 53.151]]], [[[-9.001, 53.15], [-9.001, 53.15], [-9.001, 53.15], [-9.001, 53.15]]], [[[-9.844, 53.143], [-9.844, 53.143], [-9.844, 53.143], [-9.844, 53.143]]], [[[-8.942, 53.148], [-8.942, 53.148], [-8.942, 53.148], [-8.942, 53.148]]], [[[-9.029, 53.146], [-9.029, 53.146], [-9.029, 53.146], [-9.029, 53.146]]], [[[-8.945, 53.148], [-8.945, 53.148], [-8.945, 53.148], [-8.945, 53.148]]], [[[-9.177, 53.133], [-9.177, 53.133], [-9.177, 53.133], [-9.177, 53.133]]], [[[-9.158, 53.133], [-9.158, 53.133], [-9.158, 53.133], [-9.158, 53.133]]], [[[-9.176, 53.134], [-9.176, 53.134], [-9.176, 53.134], [-9.176, 53.134]]], [[[-9.162, 53.15], [-9.162, 53.15], [-9.162, 53.15], [-9.162, 53.15]]], [[[-9.652, 52.709], [-9.652, 52.709], [-9.652, 52.709], [-9.652, 52.709]]], [[[-9.642, 52.713], [-9.642, 52.713], [-9.642, 52.713], [-9.642, 52.713]]], [[[-8.969, 52.704], [-8.969, 52.704], [-8.969, 52.704], [-8.969, 52.704]]], [[[-9.033, 52.705], [-9.033, 52.705], [-9.033, 52.705], [-9.033, 52.705]]], [[[-8.959, 52.707], [-8.942, 52.715], [-8.936, 52.711], [-8.95, 52.702], [-8.959, 52.707]]], [[[-8.999, 52.715], [-8.999, 52.715], [-8.999, 52.715], [-8.999, 52.715]]], [[[-8.963, 52.715], [-8.963, 52.715], [-8.963, 52.715], [-8.963, 52.715]]], [[[-9.049, 52.707], [-9.054, 52.711], [-9.035, 52.719], [-9.016, 52.719], [-9.023, 52.712], [-9.049, 52.707]]], [[[-8.987, 52.716], [-8.987, 52.716], [-8.987, 52.716], [-8.987, 52.716]]], [[[-10.013, 52.325], [-10.013, 52.325], [-10.013, 52.325], [-10.013, 52.325]]], [[[-9.999, 52.328], [-9.999, 52.328], [-9.999, 52.328], [-9.999, 52.328]]], [[[-10.025, 52.324], [-10.025, 52.324], [-10.025, 52.324], [-10.025, 52.324]]], [[[-10.012, 52.327], [-10.012, 52.327], [-10.012, 52.327], [-10.012, 52.327]]], [[[-9.778, 51.81], [-9.778, 51.81], [-9.778, 51.81], [-9.778, 51.81]]], [[[-10.267, 51.807], [-10.267, 51.807], [-10.267, 51.807], [-10.267, 51.807]]], [[[-9.862, 51.81], [-9.862, 51.81], [-9.862, 51.81], [-9.862, 51.81]]], [[[-9.907, 51.804], [-9.907, 51.804], [-9.907, 51.804], [-9.907, 51.804]]], [[[-9.9, 51.809], [-9.9, 51.809], [-9.9, 51.809], [-9.9, 51.809]]], [[[-9.891, 51.811], [-9.891, 51.811], [-9.891, 51.811], [-9.891, 51.811]]], [[[-9.89, 51.811], [-9.89, 51.811], [-9.89, 51.811], [-9.89, 51.811]]], [[[-8.956, 53.156], [-8.956, 53.156], [-8.956, 53.156], [-8.956, 53.156]]], [[[-9.065, 53.158], [-9.065, 53.158], [-9.065, 53.158], [-9.065, 53.158]]], [[[-8.961, 53.161], [-8.961, 53.161], [-8.961, 53.161], [-8.961, 53.161]]], [[[-8.981, 53.162], [-8.981, 53.162], [-8.981, 53.162], [-8.981, 53.162]]], [[[-8.975, 53.165], [-8.975, 53.165], [-8.975, 53.165], [-8.975, 53.165]]], [[[-8.957, 53.173], [-8.957, 53.173], [-8.957, 53.173], [-8.957, 53.173]]], [[[-8.969, 53.159], [-8.969, 53.159], [-8.969, 53.159], [-8.969, 53.159]]], [[[-8.976, 53.16], [-8.976, 53.16], [-8.976, 53.16], [-8.976, 53.16]]], [[[-8.965, 53.159], [-8.965, 53.159], [-8.965, 53.159], [-8.965, 53.159]]], [[[-8.972, 53.159], [-8.972, 53.159], [-8.972, 53.159], [-8.972, 53.159]]], [[[-8.96, 53.16], [-8.96, 53.16], [-8.96, 53.16], [-8.96, 53.16]]], [[[-9.074, 53.183], [-9.074, 53.183], [-9.074, 53.183], [-9.074, 53.183]]], [[[-8.965, 53.189], [-8.965, 53.189], [-8.965, 53.189], [-8.965, 53.189]]], [[[-9, 53.191], [-9, 53.191], [-9, 53.191], [-9, 53.191]]], [[[-8.94, 53.2], [-8.94, 53.2], [-8.94, 53.2], [-8.94, 53.2]]], [[[-8.935, 53.201], [-8.935, 53.201], [-8.935, 53.201], [-8.935, 53.201]]], [[[-8.973, 53.203], [-8.973, 53.203], [-8.973, 53.203], [-8.973, 53.203]]], [[[-8.979, 53.206], [-8.979, 53.206], [-8.979, 53.206], [-8.979, 53.206]]], [[[-9.018, 53.215], [-9.018, 53.215], [-9.018, 53.215], [-9.018, 53.215]]], [[[-9.001, 53.213], [-9.001, 53.213], [-9.001, 53.213], [-9.001, 53.213]]], [[[-9.011, 53.215], [-9.011, 53.215], [-9.011, 53.215], [-9.011, 53.215]]], [[[-9.001, 53.215], [-9.001, 53.215], [-9.001, 53.215], [-9.001, 53.215]]], [[[-8.998, 53.217], [-8.998, 53.217], [-8.998, 53.217], [-8.998, 53.217]]], [[[-8.954, 53.175], [-8.954, 53.175], [-8.954, 53.175], [-8.954, 53.175]]], [[[-8.956, 53.174], [-8.956, 53.174], [-8.956, 53.174], [-8.956, 53.174]]], [[[-9.693, 53.221], [-9.693, 53.221], [-9.693, 53.221], [-9.693, 53.221]]], [[[-8.998, 53.218], [-8.998, 53.218], [-8.998, 53.218], [-8.998, 53.218]]], [[[-9.001, 53.218], [-9.001, 53.218], [-9.001, 53.218], [-9.001, 53.218]]], [[[-9.991, 53.253], [-9.991, 53.253], [-9.991, 53.253], [-9.991, 53.253]]], [[[-10.002, 53.257], [-10.002, 53.257], [-10.002, 53.257], [-10.002, 53.257]]], [[[-8.958, 53.264], [-8.958, 53.264], [-8.958, 53.264], [-8.958, 53.264]]], [[[-9.023, 53.259], [-9.023, 53.259], [-9.023, 53.259], [-9.023, 53.259]]], [[[-9.009, 53.263], [-9.009, 53.263], [-9.009, 53.263], [-9.009, 53.263]]], [[[-8.955, 53.265], [-8.955, 53.265], [-8.955, 53.265], [-8.955, 53.265]]], [[[-9.624, 53.267], [-9.624, 53.267], [-9.624, 53.267], [-9.624, 53.267]]], [[[-9.738, 53.256], [-9.738, 53.256], [-9.738, 53.256], [-9.738, 53.256]]], [[[-10.007, 53.257], [-10.007, 53.257], [-10.007, 53.257], [-10.007, 53.257]]], [[[-10.005, 53.257], [-10.005, 53.257], [-10.005, 53.257], [-10.005, 53.257]]], [[[-10.007, 53.257], [-10.007, 53.257], [-10.007, 53.257], [-10.007, 53.257]]], [[[-9.752, 53.262], [-9.752, 53.262], [-9.752, 53.262], [-9.752, 53.262]]], [[[-9.84, 53.241], [-9.84, 53.241], [-9.84, 53.241], [-9.84, 53.241]]], [[[-9.83, 53.244], [-9.83, 53.244], [-9.83, 53.244], [-9.83, 53.244]]], [[[-9.849, 53.249], [-9.849, 53.249], [-9.849, 53.249], [-9.849, 53.249]]], [[[-9.837, 53.248], [-9.837, 53.248], [-9.837, 53.248], [-9.837, 53.248]]], [[[-9.714, 53.251], [-9.714, 53.251], [-9.714, 53.251], [-9.714, 53.251]]], [[[-9.733, 53.252], [-9.733, 53.252], [-9.733, 53.252], [-9.733, 53.252]]], [[[-9.837, 53.251], [-9.837, 53.251], [-9.837, 53.251], [-9.837, 53.251]]], [[[-10.015, 53.271], [-10.015, 53.271], [-10.015, 53.271], [-10.015, 53.271]]], [[[-6.076, 53.276], [-6.076, 53.276], [-6.076, 53.276], [-6.076, 53.276]]], [[[-6.087, 53.273], [-6.087, 53.273], [-6.087, 53.273], [-6.087, 53.273]]], [[[-6.088, 53.275], [-6.088, 53.275], [-6.088, 53.275], [-6.088, 53.275]]], [[[-10.011, 53.27], [-10.011, 53.27], [-10.011, 53.27], [-10.011, 53.27]]], [[[-10.008, 53.27], [-10.008, 53.27], [-10.008, 53.27], [-10.008, 53.27]]], [[[-9.558, 53.271], [-9.558, 53.271], [-9.558, 53.271], [-9.558, 53.271]]], [[[-9.698, 53.272], [-9.698, 53.272], [-9.698, 53.272], [-9.698, 53.272]]], [[[-9.702, 53.271], [-9.702, 53.271], [-9.702, 53.271], [-9.702, 53.271]]], [[[-9.978, 53.277], [-9.978, 53.277], [-9.978, 53.277], [-9.978, 53.277]]], [[[-9.699, 53.277], [-9.699, 53.277], [-9.699, 53.277], [-9.699, 53.277]]], [[[-9.693, 53.271], [-9.693, 53.271], [-9.693, 53.271], [-9.693, 53.271]]], [[[-9.825, 53.273], [-9.825, 53.273], [-9.825, 53.273], [-9.825, 53.273]]], [[[-9.792, 53.271], [-9.792, 53.271], [-9.792, 53.271], [-9.792, 53.271]]], [[[-9.624, 53.274], [-9.624, 53.274], [-9.624, 53.274], [-9.624, 53.274]]], [[[-9.797, 53.275], [-9.797, 53.275], [-9.797, 53.275], [-9.797, 53.275]]], [[[-9.63, 53.273], [-9.63, 53.273], [-9.63, 53.273], [-9.63, 53.273]]], [[[-9.557, 53.286], [-9.557, 53.286], [-9.557, 53.286], [-9.557, 53.286]]], [[[-9.88, 53.298], [-9.88, 53.298], [-9.88, 53.298], [-9.88, 53.298]]], [[[-9.852, 53.295], [-9.852, 53.295], [-9.852, 53.295], [-9.852, 53.295]]], [[[-9.813, 53.299], [-9.801, 53.3], [-9.817, 53.288], [-9.813, 53.299]]], [[[-9.732, 53.296], [-9.732, 53.296], [-9.732, 53.296], [-9.732, 53.296]]], [[[-9.724, 53.296], [-9.724, 53.296], [-9.724, 53.296], [-9.724, 53.296]]], [[[-9.722, 53.297], [-9.722, 53.297], [-9.722, 53.297], [-9.722, 53.297]]], [[[-9.722, 53.288], [-9.722, 53.288], [-9.722, 53.288], [-9.722, 53.288]]], [[[-9.677, 53.286], [-9.677, 53.286], [-9.677, 53.286], [-9.677, 53.286]]], [[[-9.638, 53.288], [-9.638, 53.288], [-9.638, 53.288], [-9.638, 53.288]]], [[[-9.611, 53.293], [-9.611, 53.293], [-9.611, 53.293], [-9.611, 53.293]]], [[[-9.74, 53.294], [-9.74, 53.294], [-9.74, 53.294], [-9.74, 53.294]]], [[[-9.63, 53.292], [-9.63, 53.292], [-9.63, 53.292], [-9.63, 53.292]]], [[[-9.612, 53.293], [-9.612, 53.293], [-9.612, 53.293], [-9.612, 53.293]]], [[[-9.618, 53.293], [-9.618, 53.293], [-9.618, 53.293], [-9.618, 53.293]]], [[[-9.614, 53.294], [-9.614, 53.294], [-9.614, 53.294], [-9.614, 53.294]]], [[[-9.612, 53.294], [-9.612, 53.294], [-9.612, 53.294], [-9.612, 53.294]]], [[[-9.736, 53.295], [-9.736, 53.295], [-9.736, 53.295], [-9.736, 53.295]]], [[[-9.734, 53.295], [-9.734, 53.295], [-9.734, 53.295], [-9.734, 53.295]]], [[[-9.72, 53.292], [-9.72, 53.292], [-9.72, 53.292], [-9.72, 53.292]]], [[[-9.615, 53.295], [-9.615, 53.295], [-9.615, 53.295], [-9.615, 53.295]]], [[[-9.923, 53.303], [-9.923, 53.303], [-9.923, 53.303], [-9.923, 53.303]]], [[[-9.972, 53.32], [-9.979, 53.329], [-9.963, 53.329], [-9.972, 53.32]]], [[[-9.664, 53.325], [-9.664, 53.325], [-9.664, 53.325], [-9.664, 53.325]]], [[[-9.688, 53.327], [-9.688, 53.327], [-9.688, 53.327], [-9.688, 53.327]]], [[[-9.662, 53.329], [-9.662, 53.329], [-9.662, 53.329], [-9.662, 53.329]]], [[[-9.639, 53.321], [-9.639, 53.321], [-9.639, 53.321], [-9.639, 53.321]]], [[[-9.709, 53.322], [-9.709, 53.322], [-9.709, 53.322], [-9.709, 53.322]]], [[[-9.66, 53.315], [-9.66, 53.315], [-9.66, 53.315], [-9.66, 53.315]]], [[[-9.698, 53.317], [-9.698, 53.317], [-9.698, 53.317], [-9.698, 53.317]]], [[[-9.63, 53.317], [-9.63, 53.317], [-9.63, 53.317], [-9.63, 53.317]]], [[[-9.846, 53.318], [-9.846, 53.318], [-9.846, 53.318], [-9.846, 53.318]]], [[[-9.697, 53.316], [-9.697, 53.316], [-9.697, 53.316], [-9.697, 53.316]]], [[[-9.713, 53.318], [-9.713, 53.318], [-9.713, 53.318], [-9.713, 53.318]]], [[[-9.814, 53.318], [-9.814, 53.318], [-9.814, 53.318], [-9.814, 53.318]]], [[[-9.711, 53.32], [-9.711, 53.32], [-9.711, 53.32], [-9.711, 53.32]]], [[[-9.712, 53.319], [-9.712, 53.319], [-9.712, 53.319], [-9.712, 53.319]]], [[[-9.914, 53.302], [-9.914, 53.302], [-9.914, 53.302], [-9.914, 53.302]]], [[[-9.887, 53.297], [-9.887, 53.297], [-9.887, 53.297], [-9.887, 53.297]]], [[[-9.635, 53.302], [-9.635, 53.302], [-9.635, 53.302], [-9.635, 53.302]]], [[[-9.848, 53.311], [-9.84, 53.293], [-9.87, 53.305], [-9.854, 53.314], [-9.848, 53.311]]], [[[-9.638, 53.303], [-9.638, 53.303], [-9.638, 53.303], [-9.638, 53.303]]], [[[-9.639, 53.304], [-9.639, 53.304], [-9.639, 53.304], [-9.639, 53.304]]], [[[-9.904, 53.305], [-9.904, 53.305], [-9.904, 53.305], [-9.904, 53.305]]], [[[-9.895, 53.303], [-9.895, 53.303], [-9.895, 53.303], [-9.895, 53.303]]], [[[-9.753, 53.305], [-9.753, 53.305], [-9.753, 53.305], [-9.753, 53.305]]], [[[-9.846, 53.31], [-9.846, 53.31], [-9.846, 53.31], [-9.846, 53.31]]], [[[-9.748, 53.305], [-9.748, 53.305], [-9.748, 53.305], [-9.748, 53.305]]], [[[-9.85, 53.314], [-9.85, 53.314], [-9.85, 53.314], [-9.85, 53.314]]], [[[-9.844, 53.314], [-9.844, 53.314], [-9.844, 53.314], [-9.844, 53.314]]], [[[-9.679, 53.314], [-9.679, 53.314], [-9.679, 53.314], [-9.679, 53.314]]], [[[-9.65, 53.316], [-9.641, 53.32], [-9.625, 53.313], [-9.652, 53.311], [-9.65, 53.316]]], [[[-9.654, 53.309], [-9.654, 53.309], [-9.654, 53.309], [-9.654, 53.309]]], [[[-9.835, 53.307], [-9.835, 53.307], [-9.835, 53.307], [-9.835, 53.307]]], [[[-9.674, 53.319], [-9.674, 53.319], [-9.674, 53.319], [-9.674, 53.319]]], [[[-9.71, 53.28], [-9.717, 53.272], [-9.722, 53.283], [-9.71, 53.28]]], [[[-9.845, 53.279], [-9.845, 53.279], [-9.845, 53.279], [-9.845, 53.279]]], [[[-9.625, 53.282], [-9.625, 53.282], [-9.625, 53.282], [-9.625, 53.282]]], [[[-9.732, 53.28], [-9.732, 53.28], [-9.732, 53.28], [-9.732, 53.28]]], [[[-9.79, 53.281], [-9.79, 53.281], [-9.79, 53.281], [-9.79, 53.281]]], [[[-9.757, 53.285], [-9.757, 53.285], [-9.757, 53.285], [-9.757, 53.285]]], [[[-9.65, 53.285], [-9.65, 53.285], [-9.65, 53.285], [-9.65, 53.285]]], [[[-9.611, 53.284], [-9.611, 53.284], [-9.611, 53.284], [-9.611, 53.284]]], [[[-9.711, 53.289], [-9.711, 53.289], [-9.711, 53.289], [-9.711, 53.289]]], [[[-9.676, 53.288], [-9.685, 53.281], [-9.707, 53.285], [-9.691, 53.291], [-9.712, 53.297], [-9.705, 53.305], [-9.684, 53.31], [-9.629, 53.297], [-9.649, 53.288], [-9.676, 53.288]]], [[[-9.596, 53.335], [-9.596, 53.335], [-9.596, 53.335], [-9.596, 53.335]]], [[[-9.959, 53.344], [-9.959, 53.344], [-9.959, 53.344], [-9.959, 53.344]]], [[[-9.607, 53.347], [-9.607, 53.347], [-9.607, 53.347], [-9.607, 53.347]]], [[[-9.645, 53.347], [-9.645, 53.347], [-9.645, 53.347], [-9.645, 53.347]]], [[[-9.646, 53.347], [-9.646, 53.347], [-9.646, 53.347], [-9.646, 53.347]]], [[[-9.585, 53.336], [-9.585, 53.336], [-9.585, 53.336], [-9.585, 53.336]]], [[[-9.956, 53.337], [-9.956, 53.337], [-9.956, 53.337], [-9.956, 53.337]]], [[[-9.667, 53.34], [-9.667, 53.34], [-9.667, 53.34], [-9.667, 53.34]]], [[[-9.675, 53.336], [-9.675, 53.336], [-9.675, 53.336], [-9.675, 53.336]]], [[[-9.586, 53.338], [-9.586, 53.338], [-9.586, 53.338], [-9.586, 53.338]]], [[[-9.589, 53.339], [-9.589, 53.339], [-9.589, 53.339], [-9.589, 53.339]]], [[[-9.656, 53.358], [-9.656, 53.358], [-9.656, 53.358], [-9.656, 53.358]]], [[[-9.602, 53.363], [-9.602, 53.363], [-9.602, 53.363], [-9.602, 53.363]]], [[[-9.673, 53.355], [-9.673, 53.355], [-9.673, 53.355], [-9.673, 53.355]]], [[[-9.599, 53.356], [-9.599, 53.356], [-9.599, 53.356], [-9.599, 53.356]]], [[[-9.599, 53.364], [-9.599, 53.364], [-9.599, 53.364], [-9.599, 53.364]]], [[[-9.647, 53.349], [-9.647, 53.349], [-9.647, 53.349], [-9.647, 53.349]]], [[[-9.899, 53.35], [-9.899, 53.35], [-9.899, 53.35], [-9.899, 53.35]]], [[[-9.893, 53.346], [-9.893, 53.346], [-9.893, 53.346], [-9.893, 53.346]]], [[[-9.906, 53.349], [-9.906, 53.349], [-9.906, 53.349], [-9.906, 53.349]]], [[[-9.672, 53.354], [-9.672, 53.354], [-9.672, 53.354], [-9.672, 53.354]]], [[[-9.593, 53.349], [-9.593, 53.349], [-9.593, 53.349], [-9.593, 53.349]]], [[[-9.663, 53.351], [-9.663, 53.351], [-9.663, 53.351], [-9.663, 53.351]]], [[[-10.026, 53.37], [-10.026, 53.37], [-10.026, 53.37], [-10.026, 53.37]]], [[[-9.978, 53.373], [-9.978, 53.373], [-9.978, 53.373], [-9.978, 53.373]]], [[[-9.973, 53.366], [-9.973, 53.366], [-9.973, 53.366], [-9.973, 53.366]]], [[[-9.921, 53.369], [-9.921, 53.369], [-9.921, 53.369], [-9.921, 53.369]]], [[[-9.595, 53.369], [-9.595, 53.369], [-9.595, 53.369], [-9.595, 53.369]]], [[[-9.605, 53.37], [-9.605, 53.37], [-9.605, 53.37], [-9.605, 53.37]]], [[[-9.895, 53.368], [-9.895, 53.368], [-9.895, 53.368], [-9.895, 53.368]]], [[[-9.973, 53.37], [-9.973, 53.37], [-9.973, 53.37], [-9.973, 53.37]]], [[[-10.238, 53.4], [-10.238, 53.4], [-10.238, 53.4], [-10.238, 53.4]]], [[[-10.229, 53.4], [-10.229, 53.4], [-10.229, 53.4], [-10.229, 53.4]]], [[[-10.222, 53.399], [-10.222, 53.399], [-10.222, 53.399], [-10.222, 53.399]]], [[[-10.214, 53.399], [-10.214, 53.399], [-10.214, 53.399], [-10.214, 53.399]]], [[[-6.059, 53.4], [-6.059, 53.4], [-6.059, 53.4], [-6.059, 53.4]]], [[[-10.097, 53.399], [-10.097, 53.399], [-10.097, 53.399], [-10.097, 53.399]]], [[[-10.107, 53.399], [-10.107, 53.399], [-10.107, 53.399], [-10.107, 53.399]]], [[[-10.217, 53.401], [-10.217, 53.401], [-10.217, 53.401], [-10.217, 53.401]]], [[[-10.213, 53.402], [-10.213, 53.402], [-10.213, 53.402], [-10.213, 53.402]]], [[[-9.798, 53.401], [-9.798, 53.401], [-9.798, 53.401], [-9.798, 53.401]]], [[[-10.097, 53.402], [-10.097, 53.402], [-10.097, 53.402], [-10.097, 53.402]]], [[[-10.102, 53.402], [-10.102, 53.402], [-10.102, 53.402], [-10.102, 53.402]]], [[[-10.206, 53.402], [-10.206, 53.402], [-10.206, 53.402], [-10.206, 53.402]]], [[[-9.805, 53.402], [-9.805, 53.402], [-9.805, 53.402], [-9.805, 53.402]]], [[[-9.798, 53.402], [-9.798, 53.402], [-9.798, 53.402], [-9.798, 53.402]]], [[[-10.209, 53.403], [-10.209, 53.403], [-10.209, 53.403], [-10.209, 53.403]]], [[[-6.064, 53.408], [-6.064, 53.408], [-6.064, 53.408], [-6.064, 53.408]]], [[[-10.174, 53.406], [-10.174, 53.406], [-10.174, 53.406], [-10.174, 53.406]]], [[[-10.19, 53.406], [-10.19, 53.406], [-10.19, 53.406], [-10.19, 53.406]]], [[[-10.191, 53.407], [-10.191, 53.407], [-10.191, 53.407], [-10.191, 53.407]]], [[[-10.158, 53.406], [-10.158, 53.406], [-10.158, 53.406], [-10.158, 53.406]]], [[[-10.185, 53.406], [-10.185, 53.406], [-10.185, 53.406], [-10.185, 53.406]]], [[[-10.044, 53.404], [-10.044, 53.404], [-10.044, 53.404], [-10.044, 53.404]]], [[[-9.789, 53.407], [-9.789, 53.407], [-9.789, 53.407], [-9.789, 53.407]]], [[[-10.102, 53.406], [-10.102, 53.406], [-10.102, 53.406], [-10.102, 53.406]]], [[[-10.136, 53.404], [-10.136, 53.404], [-10.136, 53.404], [-10.136, 53.404]]], [[[-10.096, 53.403], [-10.096, 53.403], [-10.096, 53.403], [-10.096, 53.403]]], [[[-10.049, 53.403], [-10.049, 53.403], [-10.049, 53.403], [-10.049, 53.403]]], [[[-10.129, 53.401], [-10.129, 53.401], [-10.129, 53.401], [-10.129, 53.401]]], [[[-10.083, 53.402], [-10.083, 53.402], [-10.083, 53.402], [-10.083, 53.402]]], [[[-9.838, 53.404], [-9.838, 53.404], [-9.838, 53.404], [-9.838, 53.404]]], [[[-10.139, 53.404], [-10.139, 53.404], [-10.139, 53.404], [-10.139, 53.404]]], [[[-10.047, 53.403], [-10.047, 53.403], [-10.047, 53.403], [-10.047, 53.403]]], [[[-9.913, 53.404], [-9.913, 53.404], [-9.913, 53.404], [-9.913, 53.404]]], [[[-10.059, 53.404], [-10.059, 53.404], [-10.059, 53.404], [-10.059, 53.404]]], [[[-9.648, 53.377], [-9.648, 53.377], [-9.648, 53.377], [-9.648, 53.377]]], [[[-9.566, 53.379], [-9.566, 53.379], [-9.566, 53.379], [-9.566, 53.379]]], [[[-9.595, 53.378], [-9.595, 53.378], [-9.595, 53.378], [-9.595, 53.378]]], [[[-9.56, 53.38], [-9.56, 53.38], [-9.56, 53.38], [-9.56, 53.38]]], [[[-10.094, 53.381], [-10.094, 53.381], [-10.094, 53.381], [-10.094, 53.381]]], [[[-9.561, 53.383], [-9.561, 53.383], [-9.561, 53.383], [-9.561, 53.383]]], [[[-10.046, 53.382], [-10.046, 53.382], [-10.046, 53.382], [-10.046, 53.382]]], [[[-9.835, 53.381], [-9.835, 53.381], [-9.835, 53.381], [-9.835, 53.381]]], [[[-9.563, 53.381], [-9.563, 53.381], [-9.563, 53.381], [-9.563, 53.381]]], [[[-9.922, 53.382], [-9.922, 53.382], [-9.922, 53.382], [-9.922, 53.382]]], [[[-10.043, 53.379], [-10.043, 53.379], [-10.043, 53.379], [-10.043, 53.379]]], [[[-9.642, 53.38], [-9.642, 53.38], [-9.642, 53.38], [-9.642, 53.38]]], [[[-9.882, 53.385], [-9.882, 53.385], [-9.882, 53.385], [-9.882, 53.385]]], [[[-9.893, 53.387], [-9.893, 53.387], [-9.893, 53.387], [-9.893, 53.387]]], [[[-9.811, 53.387], [-9.811, 53.387], [-9.811, 53.387], [-9.811, 53.387]]], [[[-9.8, 53.388], [-9.8, 53.388], [-9.8, 53.388], [-9.8, 53.388]]], [[[-9.813, 53.394], [-9.813, 53.394], [-9.813, 53.394], [-9.813, 53.394]]], [[[-10.214, 53.395], [-10.214, 53.395], [-10.214, 53.395], [-10.214, 53.395]]], [[[-10.136, 53.392], [-10.136, 53.392], [-10.136, 53.392], [-10.136, 53.392]]], [[[-10.133, 53.394], [-10.133, 53.394], [-10.133, 53.394], [-10.133, 53.394]]], [[[-10.068, 53.394], [-10.068, 53.394], [-10.068, 53.394], [-10.068, 53.394]]], [[[-10.122, 53.389], [-10.122, 53.389], [-10.122, 53.389], [-10.122, 53.389]]], [[[-9.821, 53.389], [-9.821, 53.389], [-9.821, 53.389], [-9.821, 53.389]]], [[[-10.123, 53.392], [-10.123, 53.392], [-10.123, 53.392], [-10.123, 53.392]]], [[[-9.824, 53.393], [-9.824, 53.393], [-9.824, 53.393], [-9.824, 53.393]]], [[[-10.094, 53.392], [-10.094, 53.392], [-10.094, 53.392], [-10.094, 53.392]]], [[[-10.051, 53.393], [-10.051, 53.393], [-10.051, 53.393], [-10.051, 53.393]]], [[[-10.126, 53.392], [-10.126, 53.392], [-10.126, 53.392], [-10.126, 53.392]]], [[[-9.922, 53.375], [-9.922, 53.375], [-9.922, 53.375], [-9.922, 53.375]]], [[[-10.211, 53.397], [-10.211, 53.397], [-10.211, 53.397], [-10.211, 53.397]]], [[[-10.048, 53.395], [-10.048, 53.395], [-10.048, 53.395], [-10.048, 53.395]]], [[[-10.107, 53.396], [-10.107, 53.396], [-10.107, 53.396], [-10.107, 53.396]]], [[[-10.044, 53.397], [-10.044, 53.397], [-10.044, 53.397], [-10.044, 53.397]]], [[[-9.831, 53.397], [-9.831, 53.397], [-9.831, 53.397], [-9.831, 53.397]]], [[[-10.132, 53.397], [-10.132, 53.397], [-10.132, 53.397], [-10.132, 53.397]]], [[[-10.051, 53.397], [-10.051, 53.397], [-10.051, 53.397], [-10.051, 53.397]]], [[[-10.045, 53.398], [-10.045, 53.398], [-10.045, 53.398], [-10.045, 53.398]]], [[[-9.811, 53.394], [-9.811, 53.394], [-9.811, 53.394], [-9.811, 53.394]]], [[[-9.907, 53.397], [-9.897, 53.415], [-9.887, 53.393], [-9.902, 53.39], [-9.89, 53.378], [-9.908, 53.38], [-9.907, 53.397]]], [[[-10.04, 53.398], [-10.04, 53.398], [-10.04, 53.398], [-10.04, 53.398]]], [[[-10.141, 53.398], [-10.141, 53.398], [-10.141, 53.398], [-10.141, 53.398]]], [[[-10.212, 53.398], [-10.212, 53.398], [-10.212, 53.398], [-10.212, 53.398]]], [[[-10.207, 53.398], [-10.207, 53.398], [-10.207, 53.398], [-10.207, 53.398]]], [[[-10.042, 53.398], [-10.042, 53.398], [-10.042, 53.398], [-10.042, 53.398]]], [[[-9.586, 53.329], [-9.586, 53.329], [-9.586, 53.329], [-9.586, 53.329]]], [[[-9.693, 53.329], [-9.693, 53.329], [-9.693, 53.329], [-9.693, 53.329]]], [[[-9.662, 53.331], [-9.662, 53.331], [-9.662, 53.331], [-9.662, 53.331]]], [[[-9.599, 53.334], [-9.599, 53.334], [-9.599, 53.334], [-9.599, 53.334]]], [[[-9.724, 53.224], [-9.724, 53.224], [-9.724, 53.224], [-9.724, 53.224]]], [[[-9.694, 53.221], [-9.694, 53.221], [-9.694, 53.221], [-9.694, 53.221]]], [[[-9.719, 53.224], [-9.719, 53.224], [-9.719, 53.224], [-9.719, 53.224]]], [[[-9.697, 53.224], [-9.697, 53.224], [-9.697, 53.224], [-9.697, 53.224]]], [[[-9.803, 53.235], [-9.803, 53.235], [-9.803, 53.235], [-9.803, 53.235]]], [[[-9.718, 53.226], [-9.718, 53.226], [-9.718, 53.226], [-9.718, 53.226]]], [[[-9.721, 53.226], [-9.721, 53.226], [-9.721, 53.226], [-9.721, 53.226]]], [[[-9.687, 53.225], [-9.687, 53.225], [-9.687, 53.225], [-9.687, 53.225]]], [[[-8.956, 53.236], [-8.956, 53.236], [-8.956, 53.236], [-8.956, 53.236]]], [[[-9.796, 53.236], [-9.796, 53.236], [-9.796, 53.236], [-9.796, 53.236]]], [[[-8.965, 53.238], [-8.965, 53.238], [-8.965, 53.238], [-8.965, 53.238]]], [[[-9.34, 53.238], [-9.34, 53.238], [-9.34, 53.238], [-9.34, 53.238]]], [[[-9.331, 53.238], [-9.331, 53.238], [-9.331, 53.238], [-9.331, 53.238]]], [[[-9.721, 53.239], [-9.721, 53.239], [-9.721, 53.239], [-9.721, 53.239]]], [[[-9.722, 53.237], [-9.722, 53.237], [-9.722, 53.237], [-9.722, 53.237]]], [[[-9.015, 53.236], [-9.015, 53.236], [-9.015, 53.236], [-9.015, 53.236]]], [[[-9.718, 53.236], [-9.718, 53.236], [-9.718, 53.236], [-9.718, 53.236]]], [[[-9.792, 53.226], [-9.792, 53.226], [-9.792, 53.226], [-9.792, 53.226]]], [[[-9.405, 53.232], [-9.405, 53.232], [-9.405, 53.232], [-9.405, 53.232]]], [[[-9.728, 53.227], [-9.728, 53.227], [-9.728, 53.227], [-9.728, 53.227]]], [[[-9.587, 53.235], [-9.587, 53.235], [-9.587, 53.235], [-9.587, 53.235]]], [[[-9.766, 53.229], [-9.766, 53.229], [-9.766, 53.229], [-9.766, 53.229]]], [[[-9.413, 53.233], [-9.413, 53.233], [-9.413, 53.233], [-9.413, 53.233]]], [[[-9.795, 53.232], [-9.795, 53.232], [-9.795, 53.232], [-9.795, 53.232]]], [[[-9.767, 53.235], [-9.767, 53.235], [-9.767, 53.235], [-9.767, 53.235]]], [[[-9.558, 53.235], [-9.558, 53.235], [-9.558, 53.235], [-9.558, 53.235]]], [[[-9.554, 53.235], [-9.554, 53.235], [-9.554, 53.235], [-9.554, 53.235]]], [[[-9.554, 53.236], [-9.554, 53.236], [-9.554, 53.236], [-9.554, 53.236]]], [[[-9.742, 53.244], [-9.732, 53.25], [-9.719, 53.247], [-9.719, 53.228], [-9.761, 53.23], [-9.746, 53.233], [-9.742, 53.244]]], [[[-9.027, 53.214], [-9.049, 53.22], [-9.028, 53.224], [-9.005, 53.222], [-9.027, 53.214]]], [[[-9.355, 53.24], [-9.355, 53.24], [-9.355, 53.24], [-9.355, 53.24]]], [[[-8.982, 53.241], [-8.982, 53.241], [-8.982, 53.241], [-8.982, 53.241]]], [[[-9.76, 53.242], [-9.76, 53.242], [-9.76, 53.242], [-9.76, 53.242]]], [[[-9.72, 53.248], [-9.72, 53.248], [-9.72, 53.248], [-9.72, 53.248]]], [[[-9.753, 53.246], [-9.753, 53.246], [-9.753, 53.246], [-9.753, 53.246]]], [[[-9.749, 53.239], [-9.749, 53.239], [-9.749, 53.239], [-9.749, 53.239]]], [[[-9.554, 53.243], [-9.554, 53.243], [-9.554, 53.243], [-9.554, 53.243]]], [[[-9.743, 53.245], [-9.743, 53.245], [-9.743, 53.245], [-9.743, 53.245]]], [[[-9.12, 53.245], [-9.12, 53.245], [-9.12, 53.245], [-9.12, 53.245]]], [[[-9.74, 53.256], [-9.747, 53.248], [-9.748, 53.263], [-9.74, 53.256]]], [[[-9.648, 53.273], [-9.642, 53.242], [-9.646, 53.23], [-9.667, 53.224], [-9.702, 53.226], [-9.717, 53.245], [-9.703, 53.25], [-9.719, 53.254], [-9.722, 53.265], [-9.682, 53.271], [-9.682, 53.282], [-9.655, 53.284], [-9.648, 53.273]]], [[[-9.855, 53.145], [-9.855, 53.145], [-9.855, 53.145], [-9.855, 53.145]]], [[[-9.003, 53.151], [-9.003, 53.151], [-9.003, 53.151], [-9.003, 53.151]]], [[[-9.73, 53.138], [-9.703, 53.142], [-9.683, 53.133], [-9.653, 53.132], [-9.674, 53.115], [-9.663, 53.105], [-9.655, 53.11], [-9.646, 53.1], [-9.632, 53.11], [-9.639, 53.089], [-9.653, 53.089], [-9.691, 53.108], [-9.755, 53.121], [-9.76, 53.125], [-9.817, 53.137], [-9.829, 53.142], [-9.807, 53.152], [-9.759, 53.149], [-9.752, 53.132], [-9.73, 53.138]]], [[[-9.007, 53.151], [-9.007, 53.151], [-9.007, 53.151], [-9.007, 53.151]]], [[[-8.996, 53.151], [-8.996, 53.151], [-8.996, 53.151], [-8.996, 53.151]]], [[[-9.011, 53.152], [-9.011, 53.152], [-9.011, 53.152], [-9.011, 53.152]]], [[[-8.947, 53.153], [-8.947, 53.153], [-8.947, 53.153], [-8.947, 53.153]]], [[[-10.185, 53.411], [-10.185, 53.411], [-10.185, 53.411], [-10.185, 53.411]]], [[[-9.812, 53.416], [-9.812, 53.416], [-9.812, 53.416], [-9.812, 53.416]]], [[[-10.154, 53.415], [-10.154, 53.415], [-10.154, 53.415], [-10.154, 53.415]]], [[[-9.861, 53.416], [-9.861, 53.416], [-9.861, 53.416], [-9.861, 53.416]]], [[[-10.056, 53.407], [-10.056, 53.407], [-10.056, 53.407], [-10.056, 53.407]]], [[[-10.194, 53.407], [-10.194, 53.407], [-10.194, 53.407], [-10.194, 53.407]]], [[[-6.07, 53.409], [-6.07, 53.409], [-6.07, 53.409], [-6.07, 53.409]]], [[[-10.187, 53.41], [-10.187, 53.41], [-10.187, 53.41], [-10.187, 53.41]]], [[[-10.172, 53.408], [-10.172, 53.408], [-10.172, 53.408], [-10.172, 53.408]]], [[[-10.141, 53.408], [-10.141, 53.408], [-10.141, 53.408], [-10.141, 53.408]]], [[[-10.099, 53.408], [-10.099, 53.408], [-10.099, 53.408], [-10.099, 53.408]]], [[[-10.106, 53.409], [-10.106, 53.409], [-10.106, 53.409], [-10.106, 53.409]]], [[[-7.257, 55.067], [-7.273, 55.063], [-7.289, 55.047], [-7.299, 55.056], [-7.322, 55.045], [-7.333, 55.05], [-7.356, 55.046], [-7.376, 55.029], [-7.391, 55.022], [-7.406, 55.003], [-7.392, 54.995], [-7.407, 54.983], [-7.4, 54.972], [-7.407, 54.955], [-7.397, 54.946], [-7.425, 54.943], [-7.445, 54.937], [-7.445, 54.913], [-7.451, 54.893], [-7.442, 54.876], [-7.456, 54.855], [-7.484, 54.824], [-7.518, 54.808], [-7.528, 54.808], [-7.549, 54.789], [-7.543, 54.78], [-7.548, 54.755], [-7.538, 54.747], [-7.578, 54.742], [-7.617, 54.743], [-7.637, 54.752], [-7.676, 54.733], [-7.712, 54.726], [-7.736, 54.717], [-7.746, 54.704], [-7.778, 54.711], [-7.78, 54.717], [-7.801, 54.718], [-7.818, 54.734], [-7.837, 54.736], [-7.855, 54.727], [-7.88, 54.703], [-7.918, 54.703], [-7.921, 54.696], [-7.898, 54.687], [-7.913, 54.676], [-7.893, 54.657], [-7.857, 54.651], [-7.851, 54.631], [-7.829, 54.633], [-7.817, 54.642], [-7.805, 54.635], [-7.784, 54.633], [-7.771, 54.621], [-7.754, 54.618], [-7.712, 54.631], [-7.706, 54.62], [-7.693, 54.619], [-7.698, 54.61], [-7.759, 54.595], [-7.767, 54.586], [-7.8, 54.576], [-7.797, 54.572], [-7.833, 54.552], [-7.824, 54.546], [-7.851, 54.533], [-7.906, 54.537], [-7.938, 54.533], [-7.953, 54.534], [-7.973, 54.547], [-7.991, 54.543], [-8.006, 54.546], [-8.042, 54.506], [-8.043, 54.489], [-8.086, 54.487], [-8.115, 54.469], [-8.165, 54.469], [-8.178, 54.465], [-8.143, 54.451], [-8.16, 54.44], [-8.098, 54.407], [-8.084, 54.397], [-8.057, 54.366], [-8.031, 54.357], [-8.008, 54.361], [-7.999, 54.347], [-7.986, 54.344], [-7.973, 54.331], [-7.962, 54.312], [-7.946, 54.304], [-7.919, 54.303], [-7.915, 54.297], [-7.888, 54.301], [-7.871, 54.288], [-7.872, 54.266], [-7.861, 54.26], [-7.862, 54.219], [-7.812, 54.201], [-7.804, 54.207], [-7.748, 54.209], [-7.745, 54.204], [-7.71, 54.203], [-7.702, 54.208], [-7.679, 54.192], [-7.676, 54.182], [-7.664, 54.188], [-7.625, 54.165], [-7.625, 54.153], [-7.61, 54.144], [-7.574, 54.141], [-7.566, 54.127], [-7.548, 54.122], [-7.529, 54.136], [-7.52, 54.13], [-7.481, 54.122], [-7.469, 54.14], [-7.442, 54.154], [-7.409, 54.156], [-7.425, 54.142], [-7.418, 54.137], [-7.4, 54.141], [-7.373, 54.138], [-7.393, 54.126], [-7.392, 54.12], [-7.363, 54.132], [-7.335, 54.117], [-7.327, 54.125], [-7.32, 54.114], [-7.305, 54.123], [-7.322, 54.138], [-7.34, 54.147], [-7.327, 54.151], [-7.31, 54.167], [-7.291, 54.172], [-7.28, 54.168], [-7.29, 54.149], [-7.301, 54.144], [-7.284, 54.14], [-7.293, 54.131], [-7.309, 54.132], [-7.292, 54.119], [-7.278, 54.123], [-7.263, 54.137], [-7.253, 54.158], [-7.26, 54.163], [-7.241, 54.169], [-7.257, 54.176], [-7.259, 54.192], [-7.236, 54.193], [-7.248, 54.204], [-7.232, 54.205], [-7.219, 54.216], [-7.21, 54.213], [-7.19, 54.224], [-7.171, 54.218], [-7.147, 54.226], [-7.146, 54.24], [-7.159, 54.244], [-7.142, 54.253], [-7.162, 54.274], [-7.18, 54.273], [-7.173, 54.286], [-7.212, 54.3], [-7.192, 54.312], [-7.179, 54.309], [-7.184, 54.34], [-7.152, 54.335], [-7.125, 54.35], [-7.104, 54.356], [-7.109, 54.366], [-7.084, 54.379], [-7.054, 54.412], [-7.029, 54.421], [-7.001, 54.413], [-6.994, 54.405], [-6.982, 54.41], [-6.975, 54.4], [-6.924, 54.383], [-6.907, 54.37], [-6.906, 54.35], [-6.877, 54.347], [-6.866, 54.33], [-6.859, 54.304], [-6.851, 54.292], [-6.859, 54.283], [-6.872, 54.288], [-6.877, 54.278], [-6.866, 54.27], [-6.839, 54.268], [-6.828, 54.261], [-6.829, 54.247], [-6.819, 54.238], [-6.816, 54.223], [-6.774, 54.199], [-6.756, 54.199], [-6.739, 54.182], [-6.721, 54.182], [-6.707, 54.2], [-6.665, 54.193], [-6.644, 54.18], [-6.63, 54.154], [-6.641, 54.142], [-6.64, 54.132], [-6.661, 54.123], [-6.645, 54.101], [-6.659, 54.096], [-6.658, 54.076], [-6.669, 54.074], [-6.651, 54.062], [-6.624, 54.036], [-6.616, 54.043], [-6.593, 54.046], [-6.587, 54.058], [-6.558, 54.049], [-6.532, 54.06], [-6.516, 54.052], [-6.484, 54.067], [-6.471, 54.066], [-6.48, 54.077], [-6.45, 54.068], [-6.443, 54.056], [-6.433, 54.061], [-6.396, 54.062], [-6.367, 54.07], [-6.362, 54.096], [-6.368, 54.111], [-6.346, 54.114], [-6.334, 54.105], [-6.336, 54.095], [-6.318, 54.091], [-6.309, 54.107], [-6.292, 54.112], [-6.28, 54.11], [-6.246, 54.078], [-6.213, 54.066], [-6.195, 54.056], [-6.185, 54.041], [-6.143, 54.028], [-6.133, 54.035], [-6.126, 54.017], [-6.103, 54], [-6.135, 53.986], [-6.165, 53.977], [-6.201, 53.98], [-6.229, 53.987], [-6.238, 53.985], [-6.269, 53.995], [-6.3, 54.01], [-6.322, 54.014], [-6.347, 54.011], [-6.371, 54.029], [-6.36, 54.015], [-6.389, 54.011], [-6.385, 54.008], [-6.349, 54.008], [-6.339, 53.996], [-6.366, 53.978], [-6.36, 53.973], [-6.367, 53.957], [-6.377, 53.957], [-6.376, 53.922], [-6.37, 53.905], [-6.349, 53.884], [-6.334, 53.877], [-6.304, 53.879], [-6.29, 53.871], [-6.268, 53.871], [-6.238, 53.86], [-6.249, 53.852], [-6.261, 53.826], [-6.259, 53.806], [-6.245, 53.8], [-6.216, 53.796], [-6.233, 53.789], [-6.247, 53.76], [-6.251, 53.733], [-6.247, 53.723], [-6.274, 53.737], [-6.287, 53.725], [-6.324, 53.718], [-6.27, 53.724], [-6.259, 53.73], [-6.244, 53.721], [-6.244, 53.7], [-6.233, 53.668], [-6.213, 53.634], [-6.188, 53.63], [-6.183, 53.613], [-6.164, 53.607], [-6.149, 53.586], [-6.13, 53.586], [-6.104, 53.579], [-6.099, 53.566], [-6.084, 53.56], [-6.08, 53.547], [-6.086, 53.527], [-6.076, 53.52], [-6.111, 53.51], [-6.125, 53.514], [-6.147, 53.509], [-6.164, 53.5], [-6.121, 53.499], [-6.13, 53.51], [-6.114, 53.508], [-6.108, 53.493], [-6.097, 53.49], [-6.118, 53.476], [-6.133, 53.452], [-6.145, 53.454], [-6.133, 53.468], [-6.153, 53.476], [-6.154, 53.469], [-6.17, 53.47], [-6.201, 53.464], [-6.159, 53.453], [-6.135, 53.451], [-6.124, 53.444], [-6.116, 53.415], [-6.104, 53.4], [-6.117, 53.398], [-6.134, 53.417], [-6.136, 53.41], [-6.122, 53.394], [-6.094, 53.393], [-6.045, 53.385], [-6.046, 53.374], [-6.057, 53.364], [-6.082, 53.361], [-6.099, 53.371], [-6.102, 53.385], [-6.116, 53.389], [-6.143, 53.385], [-6.162, 53.373], [-6.119, 53.38], [-6.14, 53.371], [-6.165, 53.353], [-6.178, 53.359], [-6.165, 53.373], [-6.193, 53.358], [-6.221, 53.363], [-6.227, 53.359], [-6.189, 53.351], [-6.183, 53.338], [-6.213, 53.334], [-6.204, 53.316], [-6.174, 53.302], [-6.151, 53.296], [-6.141, 53.298], [-6.105, 53.285], [-6.093, 53.275], [-6.107, 53.266], [-6.113, 53.246], [-6.103, 53.209], [-6.08, 53.192], [-6.071, 53.155], [-6.06, 53.148], [-6.043, 53.121], [-6.035, 53.072], [-6.047, 53.037], [-6.049, 52.998], [-6.041, 52.983], [-5.998, 52.965], [-6.015, 52.952], [-6.023, 52.924], [-6.039, 52.916], [-6.039, 52.898], [-6.05, 52.893], [-6.065, 52.871], [-6.057, 52.858], [-6.09, 52.847], [-6.109, 52.836], [-6.12, 52.816], [-6.141, 52.801], [-6.147, 52.765], [-6.138, 52.759], [-6.148, 52.744], [-6.141, 52.734], [-6.157, 52.725], [-6.159, 52.715], [-6.183, 52.702], [-6.226, 52.648], [-6.23, 52.625], [-6.211, 52.604], [-6.213, 52.589], [-6.196, 52.567], [-6.213, 52.532], [-6.24, 52.513], [-6.251, 52.498], [-6.294, 52.465], [-6.326, 52.431], [-6.354, 52.408], [-6.362, 52.388], [-6.364, 52.362], [-6.358, 52.346], [-6.371, 52.344], [-6.385, 52.355], [-6.436, 52.356], [-6.456, 52.34], [-6.467, 52.35], [-6.471, 52.367], [-6.467, 52.378], [-6.485, 52.373], [-6.483, 52.366], [-6.51, 52.351], [-6.54, 52.355], [-6.567, 52.385], [-6.569, 52.381], [-6.545, 52.355], [-6.519, 52.348], [-6.494, 52.354], [-6.476, 52.352], [-6.448, 52.33], [-6.446, 52.307], [-6.431, 52.307], [-6.4, 52.289], [-6.398, 52.303], [-6.388, 52.31], [-6.388, 52.278], [-6.374, 52.258], [-6.358, 52.251], [-6.334, 52.255], [-6.314, 52.24], [-6.326, 52.225], [-6.34, 52.216], [-6.351, 52.201], [-6.346, 52.19], [-6.36, 52.174], [-6.388, 52.178], [-6.42, 52.188], [-6.473, 52.191], [-6.54, 52.185], [-6.596, 52.17], [-6.596, 52.177], [-6.612, 52.187], [-6.655, 52.205], [-6.715, 52.216], [-6.687, 52.217], [-6.665, 52.213], [-6.646, 52.205], [-6.652, 52.22], [-6.658, 52.214], [-6.682, 52.219], [-6.743, 52.212], [-6.755, 52.214], [-6.786, 52.204], [-6.817, 52.216], [-6.797, 52.224], [-6.789, 52.215], [-6.786, 52.229], [-6.753, 52.248], [-6.76, 52.263], [-6.777, 52.245], [-6.796, 52.24], [-6.83, 52.226], [-6.839, 52.212], [-6.822, 52.215], [-6.823, 52.205], [-6.835, 52.19], [-6.829, 52.175], [-6.88, 52.162], [-6.903, 52.145], [-6.909, 52.13], [-6.925, 52.123], [-6.935, 52.131], [-6.913, 52.15], [-6.901, 52.156], [-6.898, 52.173], [-6.913, 52.192], [-6.903, 52.196], [-6.921, 52.218], [-6.937, 52.22], [-6.943, 52.234], [-6.956, 52.243], [-6.97, 52.239], [-6.968, 52.226], [-6.976, 52.213], [-6.983, 52.186], [-6.969, 52.177], [-6.975, 52.163], [-6.995, 52.154], [-6.996, 52.142], [-7.034, 52.133], [-7.051, 52.139], [-7.108, 52.128], [-7.106, 52.135], [-7.076, 52.159], [-7.107, 52.17], [-7.131, 52.169], [-7.131, 52.159], [-7.088, 52.152], [-7.098, 52.145], [-7.134, 52.157], [-7.157, 52.156], [-7.171, 52.137], [-7.206, 52.136], [-7.217, 52.131], [-7.291, 52.141], [-7.309, 52.136], [-7.37, 52.138], [-7.387, 52.129], [-7.424, 52.13], [-7.462, 52.122], [-7.471, 52.112], [-7.499, 52.103], [-7.519, 52.106], [-7.544, 52.096], [-7.552, 52.078], [-7.57, 52.082], [-7.586, 52.105], [-7.597, 52.092], [-7.621, 52.08], [-7.632, 52.084], [-7.632, 52.064], [-7.605, 52.064], [-7.586, 52.051], [-7.537, 52.054], [-7.54, 52.049], [-7.566, 52.041], [-7.585, 52.016], [-7.577, 52.009], [-7.583, 51.994], [-7.615, 51.981], [-7.638, 51.977], [-7.695, 51.975], [-7.711, 51.967], [-7.723, 51.952], [-7.708, 51.942], [-7.746, 51.938], [-7.774, 51.952], [-7.794, 51.949], [-7.794, 51.942], [-7.819, 51.939], [-7.833, 51.943], [-7.832, 51.953], [-7.818, 51.971], [-7.833, 51.972], [-7.854, 51.981], [-7.876, 51.971], [-7.855, 51.975], [-7.841, 51.941], [-7.868, 51.929], [-7.884, 51.913], [-7.9, 51.907], [-7.909, 51.913], [-7.922, 51.906], [-7.903, 51.894], [-7.889, 51.895], [-7.864, 51.884], [-7.871, 51.878], [-7.896, 51.877], [-7.935, 51.87], [-7.964, 51.87], [-7.999, 51.859], [-8.021, 51.845], [-8.021, 51.833], [-8, 51.826], [-8.039, 51.815], [-8.049, 51.818], [-8.061, 51.809], [-8.116, 51.808], [-8.136, 51.804], [-8.156, 51.791], [-8.174, 51.785], [-8.178, 51.794], [-8.254, 51.793], [-8.249, 51.803], [-8.263, 51.817], [-8.25, 51.825], [-8.234, 51.824], [-8.243, 51.835], [-8.215, 51.844], [-8.199, 51.844], [-8.189, 51.857], [-8.206, 51.858], [-8.21, 51.865], [-8.2, 51.878], [-8.171, 51.882], [-8.184, 51.894], [-8.19, 51.886], [-8.223, 51.889], [-8.236, 51.884], [-8.286, 51.894], [-8.309, 51.889], [-8.322, 51.896], [-8.297, 51.905], [-8.312, 51.91], [-8.344, 51.91], [-8.318, 51.905], [-8.334, 51.886], [-8.34, 51.891], [-8.369, 51.891], [-8.398, 51.903], [-8.392, 51.881], [-8.4, 51.877], [-8.351, 51.879], [-8.332, 51.87], [-8.331, 51.851], [-8.339, 51.842], [-8.325, 51.831], [-8.299, 51.835], [-8.31, 51.813], [-8.294, 51.809], [-8.338, 51.805], [-8.359, 51.818], [-8.375, 51.812], [-8.35, 51.81], [-8.326, 51.802], [-8.322, 51.805], [-8.275, 51.809], [-8.274, 51.798], [-8.293, 51.779], [-8.311, 51.775], [-8.334, 51.763], [-8.308, 51.772], [-8.296, 51.767], [-8.296, 51.755], [-8.311, 51.741], [-8.311, 51.731], [-8.326, 51.735], [-8.344, 51.715], [-8.385, 51.714], [-8.39, 51.702], [-8.423, 51.702], [-8.424, 51.693], [-8.443, 51.686], [-8.444, 51.704], [-8.455, 51.697], [-8.459, 51.709], [-8.476, 51.715], [-8.462, 51.698], [-8.451, 51.694], [-8.457, 51.683], [-8.479, 51.674], [-8.493, 51.674], [-8.5, 51.7], [-8.519, 51.704], [-8.528, 51.694], [-8.554, 51.704], [-8.571, 51.697], [-8.597, 51.699], [-8.614, 51.727], [-8.617, 51.72], [-8.599, 51.695], [-8.572, 51.693], [-8.551, 51.7], [-8.539, 51.691], [-8.513, 51.695], [-8.503, 51.687], [-8.51, 51.678], [-8.524, 51.677], [-8.53, 51.659], [-8.55, 51.646], [-8.53, 51.606], [-8.546, 51.61], [-8.542, 51.617], [-8.559, 51.626], [-8.562, 51.637], [-8.58, 51.644], [-8.627, 51.635], [-8.659, 51.635], [-8.672, 51.652], [-8.681, 51.644], [-8.697, 51.65], [-8.71, 51.64], [-8.729, 51.647], [-8.764, 51.644], [-8.735, 51.636], [-8.702, 51.633], [-8.683, 51.637], [-8.692, 51.622], [-8.7, 51.621], [-8.691, 51.606], [-8.706, 51.59], [-8.697, 51.583], [-8.713, 51.569], [-8.727, 51.573], [-8.75, 51.569], [-8.755, 51.591], [-8.776, 51.582], [-8.805, 51.595], [-8.848, 51.593], [-8.846, 51.605], [-8.868, 51.613], [-8.879, 51.622], [-8.873, 51.604], [-8.857, 51.608], [-8.853, 51.6], [-8.871, 51.597], [-8.892, 51.604], [-8.895, 51.597], [-8.867, 51.592], [-8.869, 51.576], [-8.893, 51.57], [-8.889, 51.551], [-8.925, 51.54], [-8.939, 51.546], [-8.953, 51.529], [-8.957, 51.552], [-9.002, 51.567], [-9.021, 51.567], [-9.014, 51.559], [-9.034, 51.553], [-9.058, 51.553], [-9.084, 51.546], [-9.106, 51.553], [-9.114, 51.564], [-9.132, 51.562], [-9.139, 51.575], [-9.14, 51.559], [-9.123, 51.559], [-9.111, 51.537], [-9.136, 51.532], [-9.13, 51.527], [-9.175, 51.516], [-9.163, 51.535], [-9.168, 51.543], [-9.173, 51.526], [-9.189, 51.518], [-9.188, 51.508], [-9.206, 51.507], [-9.216, 51.497], [-9.209, 51.488], [-9.229, 51.481], [-9.243, 51.484], [-9.231, 51.491], [-9.266, 51.49], [-9.265, 51.503], [-9.297, 51.494], [-9.296, 51.49], [-9.348, 51.468], [-9.382, 51.47], [-9.372, 51.488], [-9.358, 51.485], [-9.358, 51.496], [-9.347, 51.518], [-9.329, 51.532], [-9.357, 51.531], [-9.373, 51.522], [-9.373, 51.513], [-9.403, 51.503], [-9.413, 51.496], [-9.414, 51.507], [-9.427, 51.504], [-9.42, 51.517], [-9.407, 51.522], [-9.395, 51.536], [-9.396, 51.55], [-9.404, 51.542], [-9.419, 51.543], [-9.414, 51.552], [-9.436, 51.553], [-9.438, 51.535], [-9.455, 51.525], [-9.489, 51.524], [-9.53, 51.513], [-9.525, 51.529], [-9.544, 51.525], [-9.547, 51.509], [-9.573, 51.503], [-9.591, 51.504], [-9.586, 51.497], [-9.633, 51.492], [-9.636, 51.513], [-9.647, 51.518], [-9.659, 51.514], [-9.664, 51.499], [-9.68, 51.504], [-9.704, 51.494], [-9.708, 51.48], [-9.739, 51.471], [-9.748, 51.462], [-9.704, 51.472], [-9.73, 51.462], [-9.744, 51.462], [-9.772, 51.448], [-9.76, 51.461], [-9.777, 51.472], [-9.787, 51.457], [-9.8, 51.449], [-9.822, 51.449], [-9.816, 51.478], [-9.84, 51.481], [-9.814, 51.492], [-9.795, 51.495], [-9.773, 51.512], [-9.736, 51.527], [-9.71, 51.526], [-9.692, 51.53], [-9.652, 51.552], [-9.644, 51.566], [-9.615, 51.574], [-9.622, 51.578], [-9.583, 51.589], [-9.585, 51.595], [-9.56, 51.605], [-9.56, 51.6], [-9.533, 51.61], [-9.552, 51.616], [-9.605, 51.606], [-9.604, 51.601], [-9.631, 51.6], [-9.653, 51.584], [-9.676, 51.583], [-9.696, 51.573], [-9.726, 51.569], [-9.733, 51.563], [-9.757, 51.56], [-9.775, 51.55], [-9.792, 51.551], [-9.806, 51.544], [-9.851, 51.541], [-9.806, 51.564], [-9.791, 51.568], [-9.785, 51.58], [-9.75, 51.593], [-9.719, 51.602], [-9.658, 51.627], [-9.643, 51.628], [-9.584, 51.645], [-9.563, 51.653], [-9.508, 51.664], [-9.488, 51.678], [-9.471, 51.677], [-9.444, 51.692], [-9.46, 51.699], [-9.44, 51.723], [-9.46, 51.715], [-9.454, 51.731], [-9.477, 51.717], [-9.502, 51.716], [-9.503, 51.724], [-9.532, 51.73], [-9.527, 51.745], [-9.538, 51.75], [-9.551, 51.734], [-9.543, 51.722], [-9.55, 51.713], [-9.568, 51.706], [-9.58, 51.71], [-9.597, 51.693], [-9.624, 51.681], [-9.676, 51.67], [-9.677, 51.678], [-9.718, 51.676], [-9.727, 51.692], [-9.736, 51.685], [-9.726, 51.681], [-9.732, 51.667], [-9.747, 51.671], [-9.765, 51.662], [-9.791, 51.661], [-9.814, 51.654], [-9.837, 51.659], [-9.849, 51.653], [-9.864, 51.656], [-9.881, 51.649], [-9.904, 51.655], [-9.914, 51.638], [-9.926, 51.64], [-9.924, 51.624], [-9.934, 51.615], [-9.964, 51.615], [-9.986, 51.611], [-10.005, 51.599], [-10.028, 51.596], [-10.038, 51.589], [-10.054, 51.593], [-10.042, 51.601], [-10.077, 51.604], [-10.105, 51.597], [-10.121, 51.602], [-10.162, 51.584], [-10.142, 51.606], [-10.158, 51.613], [-10.136, 51.621], [-10.127, 51.613], [-10.089, 51.624], [-10.065, 51.623], [-10.058, 51.631], [-10.058, 51.654], [-10.1, 51.66], [-10.106, 51.664], [-10.09, 51.675], [-10.072, 51.677], [-10.056, 51.668], [-10.031, 51.678], [-10.018, 51.672], [-9.999, 51.684], [-9.972, 51.685], [-9.964, 51.705], [-9.949, 51.71], [-9.956, 51.716], [-9.983, 51.711], [-10.006, 51.716], [-9.981, 51.73], [-9.951, 51.74], [-9.906, 51.75], [-9.887, 51.763], [-9.878, 51.758], [-9.893, 51.74], [-9.854, 51.753], [-9.854, 51.771], [-9.841, 51.778], [-9.838, 51.766], [-9.812, 51.77], [-9.779, 51.764], [-9.795, 51.777], [-9.821, 51.78], [-9.824, 51.786], [-9.788, 51.799], [-9.778, 51.797], [-9.779, 51.809], [-9.74, 51.824], [-9.743, 51.828], [-9.717, 51.84], [-9.645, 51.845], [-9.644, 51.849], [-9.603, 51.866], [-9.562, 51.876], [-9.563, 51.883], [-9.583, 51.872], [-9.598, 51.874], [-9.631, 51.866], [-9.655, 51.87], [-9.731, 51.853], [-9.776, 51.84], [-9.791, 51.833], [-9.829, 51.826], [-9.831, 51.815], [-9.856, 51.808], [-9.859, 51.816], [-9.896, 51.812], [-9.903, 51.807], [-9.952, 51.8], [-9.97, 51.789], [-9.99, 51.784], [-10.01, 51.772], [-10.051, 51.774], [-10.064, 51.759], [-10.096, 51.757], [-10.126, 51.743], [-10.141, 51.743], [-10.122, 51.756], [-10.152, 51.766], [-10.167, 51.761], [-10.199, 51.778], [-10.224, 51.779], [-10.18, 51.788], [-10.178, 51.809], [-10.172, 51.823], [-10.177, 51.831], [-10.206, 51.843], [-10.194, 51.846], [-10.189, 51.857], [-10.212, 51.844], [-10.244, 51.844], [-10.254, 51.832], [-10.273, 51.822], [-10.271, 51.81], [-10.285, 51.809], [-10.308, 51.795], [-10.344, 51.784], [-10.354, 51.798], [-10.334, 51.805], [-10.339, 51.814], [-10.336, 51.846], [-10.358, 51.847], [-10.375, 51.842], [-10.398, 51.845], [-10.385, 51.859], [-10.393, 51.884], [-10.351, 51.885], [-10.307, 51.898], [-10.298, 51.895], [-10.279, 51.912], [-10.266, 51.914], [-10.25, 51.899], [-10.256, 51.924], [-10.277, 51.929], [-10.247, 51.94], [-10.239, 51.947], [-10.211, 51.956], [-10.185, 51.961], [-10.193, 51.966], [-10.226, 51.951], [-10.259, 51.947], [-10.275, 51.939], [-10.28, 51.952], [-10.301, 51.95], [-10.321, 51.953], [-10.312, 51.961], [-10.28, 51.971], [-10.274, 51.965], [-10.259, 51.99], [-10.224, 51.996], [-10.211, 51.992], [-10.208, 52.002], [-10.182, 52.012], [-10.162, 52.015], [-10.15, 52.024], [-10.13, 52.025], [-10.056, 52.041], [-10.038, 52.037], [-9.978, 52.053], [-9.974, 52.075], [-9.968, 52.059], [-9.934, 52.078], [-9.931, 52.067], [-9.916, 52.069], [-9.935, 52.085], [-9.909, 52.102], [-9.903, 52.113], [-9.899, 52.139], [-9.89, 52.133], [-9.895, 52.122], [-9.889, 52.111], [-9.863, 52.115], [-9.813, 52.132], [-9.795, 52.131], [-9.796, 52.146], [-9.771, 52.149], [-9.76, 52.16], [-9.78, 52.152], [-9.792, 52.152], [-9.798, 52.162], [-9.811, 52.154], [-9.825, 52.16], [-9.84, 52.157], [-9.867, 52.159], [-9.922, 52.148], [-9.953, 52.146], [-9.965, 52.141], [-9.944, 52.128], [-9.946, 52.12], [-9.929, 52.108], [-9.946, 52.108], [-9.963, 52.118], [-9.981, 52.142], [-10.05, 52.136], [-10.096, 52.123], [-10.109, 52.126], [-10.116, 52.118], [-10.134, 52.113], [-10.159, 52.121], [-10.194, 52.108], [-10.205, 52.12], [-10.248, 52.116], [-10.259, 52.121], [-10.272, 52.138], [-10.287, 52.141], [-10.312, 52.129], [-10.267, 52.124], [-10.264, 52.115], [-10.291, 52.111], [-10.323, 52.114], [-10.337, 52.125], [-10.362, 52.133], [-10.378, 52.118], [-10.347, 52.109], [-10.356, 52.105], [-10.396, 52.106], [-10.424, 52.099], [-10.456, 52.097], [-10.456, 52.106], [-10.48, 52.109], [-10.46, 52.121], [-10.47, 52.137], [-10.466, 52.144], [-10.478, 52.151], [-10.465, 52.152], [-10.462, 52.162], [-10.446, 52.176], [-10.472, 52.181], [-10.432, 52.199], [-10.404, 52.204], [-10.415, 52.195], [-10.407, 52.18], [-10.371, 52.176], [-10.364, 52.184], [-10.378, 52.197], [-10.356, 52.212], [-10.373, 52.216], [-10.373, 52.225], [-10.357, 52.237], [-10.348, 52.232], [-10.31, 52.241], [-10.295, 52.257], [-10.27, 52.259], [-10.261, 52.269], [-10.228, 52.277], [-10.215, 52.272], [-10.21, 52.281], [-10.176, 52.292], [-10.157, 52.288], [-10.162, 52.265], [-10.146, 52.262], [-10.16, 52.247], [-10.183, 52.231], [-10.139, 52.244], [-10.097, 52.245], [-10.075, 52.253], [-10.04, 52.274], [-10.032, 52.295], [-10.058, 52.31], [-10.03, 52.304], [-10.005, 52.31], [-10.018, 52.301], [-10.013, 52.284], [-10.027, 52.273], [-9.996, 52.249], [-9.982, 52.246], [-9.957, 52.233], [-9.923, 52.234], [-9.897, 52.229], [-9.856, 52.238], [-9.835, 52.258], [-9.811, 52.259], [-9.839, 52.25], [-9.825, 52.243], [-9.805, 52.244], [-9.782, 52.253], [-9.764, 52.25], [-9.735, 52.258], [-9.753, 52.268], [-9.779, 52.275], [-9.793, 52.272], [-9.835, 52.276], [-9.851, 52.28], [-9.876, 52.274], [-9.873, 52.281], [-9.885, 52.302], [-9.864, 52.295], [-9.874, 52.286], [-9.838, 52.291], [-9.834, 52.302], [-9.865, 52.297], [-9.87, 52.302], [-9.845, 52.313], [-9.826, 52.311], [-9.828, 52.324], [-9.847, 52.319], [-9.836, 52.337], [-9.837, 52.359], [-9.832, 52.38], [-9.838, 52.389], [-9.914, 52.396], [-9.948, 52.41], [-9.943, 52.422], [-9.923, 52.43], [-9.899, 52.433], [-9.863, 52.427], [-9.825, 52.435], [-9.796, 52.446], [-9.782, 52.446], [-9.751, 52.457], [-9.745, 52.469], [-9.71, 52.481], [-9.687, 52.484], [-9.676, 52.514], [-9.682, 52.525], [-9.668, 52.539], [-9.678, 52.548], [-9.663, 52.562], [-9.617, 52.581], [-9.565, 52.571], [-9.533, 52.567], [-9.509, 52.576], [-9.491, 52.579], [-9.487, 52.561], [-9.452, 52.582], [-9.431, 52.585], [-9.407, 52.579], [-9.363, 52.592], [-9.365, 52.572], [-9.342, 52.574], [-9.304, 52.571], [-9.287, 52.573], [-9.231, 52.594], [-9.207, 52.593], [-9.191, 52.602], [-9.148, 52.607], [-9.122, 52.616], [-9.104, 52.613], [-9.089, 52.616], [-9.07, 52.6], [-9.057, 52.597], [-9.085, 52.619], [-9.065, 52.629], [-9.058, 52.637], [-9.045, 52.625], [-9.001, 52.616], [-8.996, 52.625], [-8.981, 52.611], [-8.998, 52.638], [-8.972, 52.654], [-8.95, 52.661], [-8.936, 52.655], [-8.886, 52.668], [-8.854, 52.67], [-8.814, 52.669], [-8.803, 52.658], [-8.748, 52.674], [-8.711, 52.67], [-8.706, 52.656], [-8.696, 52.652], [-8.66, 52.656], [-8.634, 52.663], [-8.699, 52.655], [-8.705, 52.671], [-8.715, 52.675], [-8.764, 52.681], [-8.79, 52.679], [-8.809, 52.686], [-8.809, 52.692], [-8.836, 52.685], [-8.847, 52.695], [-8.865, 52.7], [-8.896, 52.697], [-8.925, 52.687], [-8.967, 52.686], [-8.957, 52.691], [-8.964, 52.703], [-8.952, 52.7], [-8.933, 52.713], [-8.949, 52.719], [-8.957, 52.73], [-8.941, 52.74], [-8.959, 52.752], [-8.976, 52.753], [-8.975, 52.76], [-8.945, 52.768], [-8.947, 52.784], [-8.961, 52.771], [-8.989, 52.763], [-9.028, 52.758], [-9.036, 52.748], [-9.034, 52.727], [-9.046, 52.717], [-9.065, 52.712], [-9.063, 52.693], [-9.086, 52.675], [-9.1, 52.669], [-9.112, 52.65], [-9.13, 52.644], [-9.161, 52.62], [-9.204, 52.62], [-9.222, 52.622], [-9.258, 52.619], [-9.261, 52.603], [-9.29, 52.589], [-9.321, 52.589], [-9.339, 52.6], [-9.279, 52.631], [-9.275, 52.64], [-9.294, 52.64], [-9.314, 52.628], [-9.333, 52.628], [-9.351, 52.614], [-9.379, 52.615], [-9.404, 52.603], [-9.435, 52.606], [-9.443, 52.615], [-9.463, 52.612], [-9.479, 52.617], [-9.503, 52.633], [-9.531, 52.632], [-9.543, 52.644], [-9.546, 52.664], [-9.59, 52.668], [-9.588, 52.659], [-9.561, 52.653], [-9.546, 52.641], [-9.552, 52.637], [-9.593, 52.627], [-9.603, 52.618], [-9.635, 52.62], [-9.668, 52.613], [-9.701, 52.612], [-9.707, 52.602], [-9.697, 52.582], [-9.709, 52.58], [-9.723, 52.587], [-9.745, 52.586], [-9.747, 52.579], [-9.812, 52.565], [-9.836, 52.572], [-9.861, 52.571], [-9.869, 52.561], [-9.89, 52.555], [-9.939, 52.56], [-9.92, 52.565], [-9.913, 52.576], [-9.898, 52.581], [-9.882, 52.579], [-9.881, 52.59], [-9.822, 52.599], [-9.805, 52.606], [-9.798, 52.622], [-9.773, 52.634], [-9.746, 52.639], [-9.708, 52.659], [-9.666, 52.682], [-9.647, 52.683], [-9.659, 52.693], [-9.647, 52.706], [-9.616, 52.716], [-9.629, 52.732], [-9.61, 52.733], [-9.606, 52.745], [-9.57, 52.752], [-9.547, 52.752], [-9.532, 52.735], [-9.527, 52.746], [-9.5, 52.748], [-9.492, 52.759], [-9.503, 52.77], [-9.483, 52.775], [-9.489, 52.806], [-9.455, 52.818], [-9.457, 52.832], [-9.435, 52.833], [-9.435, 52.845], [-9.451, 52.848], [-9.428, 52.869], [-9.444, 52.866], [-9.436, 52.884], [-9.39, 52.897], [-9.37, 52.914], [-9.352, 52.918], [-9.347, 52.931], [-9.358, 52.944], [-9.374, 52.943], [-9.398, 52.933], [-9.425, 52.931], [-9.429, 52.938], [-9.464, 52.931], [-9.477, 52.941], [-9.428, 52.97], [-9.428, 52.986], [-9.392, 53.008], [-9.409, 53.019], [-9.383, 53.043], [-9.365, 53.051], [-9.366, 53.063], [-9.355, 53.075], [-9.318, 53.087], [-9.288, 53.119], [-9.293, 53.131], [-9.283, 53.145], [-9.264, 53.154], [-9.239, 53.149], [-9.22, 53.139], [-9.191, 53.136], [-9.16, 53.12], [-9.139, 53.121], [-9.111, 53.14], [-9.086, 53.137], [-9.072, 53.122], [-9.073, 53.136], [-9.089, 53.148], [-9.117, 53.14], [-9.122, 53.151], [-9.1, 53.159], [-9.071, 53.156], [-9.051, 53.159], [-9.029, 53.145], [-9.012, 53.142], [-8.998, 53.156], [-9.043, 53.16], [-9.046, 53.166], [-9.072, 53.158], [-9.088, 53.164], [-9.067, 53.169], [-9.052, 53.166], [-9.02, 53.171], [-9.002, 53.169], [-8.967, 53.176], [-8.968, 53.167], [-8.987, 53.163], [-8.959, 53.157], [-8.939, 53.141], [-8.935, 53.146], [-8.956, 53.177], [-8.948, 53.193], [-8.927, 53.208], [-8.899, 53.219], [-8.962, 53.208], [-8.99, 53.219], [-8.978, 53.226], [-9.004, 53.222], [-8.985, 53.233], [-8.961, 53.237], [-8.989, 53.247], [-8.977, 53.256], [-8.943, 53.258], [-8.933, 53.271], [-8.969, 53.271], [-8.994, 53.262], [-8.998, 53.269], [-9.022, 53.27], [-9.099, 53.255], [-9.13, 53.256], [-9.124, 53.251], [-9.163, 53.246], [-9.223, 53.249], [-9.272, 53.243], [-9.309, 53.243], [-9.313, 53.239], [-9.364, 53.241], [-9.393, 53.234], [-9.457, 53.232], [-9.465, 53.226], [-9.489, 53.229], [-9.51, 53.221], [-9.531, 53.222], [-9.533, 53.23], [-9.555, 53.237], [-9.548, 53.262], [-9.559, 53.25], [-9.568, 53.264], [-9.553, 53.277], [-9.54, 53.279], [-9.559, 53.289], [-9.583, 53.271], [-9.574, 53.263], [-9.577, 53.247], [-9.592, 53.234], [-9.594, 53.24], [-9.616, 53.234], [-9.628, 53.238], [-9.63, 53.25], [-9.62, 53.268], [-9.6, 53.278], [-9.599, 53.295], [-9.626, 53.318], [-9.622, 53.326], [-9.569, 53.334], [-9.562, 53.332], [-9.549, 53.343], [-9.56, 53.344], [-9.597, 53.359], [-9.595, 53.373], [-9.557, 53.377], [-9.554, 53.383], [-9.577, 53.383], [-9.57, 53.394], [-9.587, 53.386], [-9.576, 53.379], [-9.605, 53.383], [-9.614, 53.379], [-9.603, 53.364], [-9.596, 53.335], [-9.629, 53.33], [-9.666, 53.339], [-9.624, 53.347], [-9.644, 53.347], [-9.635, 53.365], [-9.639, 53.39], [-9.657, 53.385], [-9.66, 53.372], [-9.694, 53.361], [-9.712, 53.342], [-9.708, 53.335], [-9.734, 53.325], [-9.731, 53.311], [-9.775, 53.301], [-9.775, 53.292], [-9.792, 53.304], [-9.817, 53.312], [-9.834, 53.312], [-9.838, 53.324], [-9.862, 53.322], [-9.871, 53.312], [-9.897, 53.318], [-9.909, 53.328], [-9.9, 53.337], [-9.881, 53.342], [-9.895, 53.355], [-9.889, 53.369], [-9.867, 53.368], [-9.839, 53.379], [-9.823, 53.379], [-9.788, 53.391], [-9.802, 53.393], [-9.789, 53.408], [-9.816, 53.401], [-9.822, 53.411], [-9.799, 53.413], [-9.81, 53.419], [-9.829, 53.416], [-9.844, 53.396], [-9.861, 53.39], [-9.882, 53.393], [-9.886, 53.413], [-9.827, 53.426], [-9.852, 53.434], [-9.863, 53.423], [-9.891, 53.415], [-9.899, 53.425], [-9.92, 53.406], [-9.917, 53.387], [-9.936, 53.378], [-9.952, 53.381], [-9.961, 53.373], [-10.036, 53.389], [-10.035, 53.408], [-10.064, 53.416], [-10.073, 53.422], [-10.084, 53.408], [-10.087, 53.415], [-10.111, 53.414], [-10.122, 53.401], [-10.152, 53.419], [-10.183, 53.409], [-10.183, 53.414], [-10.155, 53.435], [-10.154, 53.442], [-10.139, 53.444], [-10.136, 53.456], [-10.097, 53.45], [-10.076, 53.439], [-10.065, 53.442], [-10.058, 53.458], [-10.034, 53.461], [-10.088, 53.466], [-10.08, 53.472], [-10.1, 53.48], [-10.077, 53.488], [-10.051, 53.475], [-10.024, 53.469], [-10.011, 53.481], [-10.034, 53.473], [-10.05, 53.486], [-10.088, 53.496], [-10.108, 53.496], [-10.124, 53.51], [-10.106, 53.511], [-10.138, 53.52], [-10.094, 53.517], [-10.055, 53.503], [-10.041, 53.509], [-10.081, 53.513], [-10.102, 53.52], [-10.138, 53.523], [-10.145, 53.542], [-10.185, 53.541], [-10.2, 53.546], [-10.193, 53.555], [-10.15, 53.566], [-10.133, 53.557], [-10.128, 53.562], [-10.097, 53.554], [-10.093, 53.557], [-10.131, 53.574], [-10.099, 53.577], [-10.062, 53.57], [-10.046, 53.573], [-10.011, 53.567], [-10.019, 53.562], [-10.003, 53.549], [-9.981, 53.557], [-9.972, 53.55], [-9.954, 53.552], [-9.979, 53.56], [-9.973, 53.571], [-10.017, 53.577], [-10.037, 53.587], [-10.052, 53.604], [-10.049, 53.61], [-10.015, 53.607], [-9.992, 53.61], [-9.965, 53.6], [-9.928, 53.598], [-9.91, 53.601], [-9.902, 53.613], [-9.868, 53.618], [-9.88, 53.625], [-9.843, 53.618], [-9.81, 53.606], [-9.785, 53.593], [-9.731, 53.6], [-9.703, 53.595], [-9.671, 53.616], [-9.698, 53.605], [-9.742, 53.602], [-9.751, 53.606], [-9.773, 53.601], [-9.789, 53.604], [-9.815, 53.616], [-9.879, 53.634], [-9.887, 53.645], [-9.879, 53.648], [-9.914, 53.653], [-9.906, 53.675], [-9.92, 53.69], [-9.894, 53.738], [-9.9, 53.751], [-9.91, 53.752], [-9.902, 53.764], [-9.824, 53.77], [-9.803, 53.779], [-9.77, 53.782], [-9.763, 53.774], [-9.74, 53.774], [-9.663, 53.787], [-9.641, 53.782], [-9.637, 53.788], [-9.615, 53.781], [-9.583, 53.781], [-9.584, 53.785], [-9.554, 53.797], [-9.548, 53.805], [-9.566, 53.804], [-9.604, 53.809], [-9.623, 53.815], [-9.627, 53.823], [-9.605, 53.823], [-9.621, 53.833], [-9.617, 53.845], [-9.599, 53.848], [-9.594, 53.858], [-9.554, 53.857], [-9.576, 53.862], [-9.577, 53.885], [-9.553, 53.886], [-9.587, 53.897], [-9.631, 53.889], [-9.64, 53.894], [-9.666, 53.894], [-9.712, 53.9], [-9.748, 53.901], [-9.754, 53.897], [-9.784, 53.905], [-9.778, 53.897], [-9.794, 53.896], [-9.82, 53.876], [-9.881, 53.864], [-9.906, 53.862], [-9.923, 53.87], [-9.944, 53.871], [-9.929, 53.879], [-9.922, 53.892], [-9.93, 53.913], [-9.916, 53.917], [-9.901, 53.934], [-9.921, 53.934], [-9.902, 53.953], [-9.871, 53.958], [-9.834, 53.957], [-9.83, 53.947], [-9.802, 53.951], [-9.795, 53.931], [-9.815, 53.931], [-9.805, 53.914], [-9.794, 53.914], [-9.79, 53.927], [-9.793, 53.956], [-9.807, 53.972], [-9.817, 53.949], [-9.828, 53.966], [-9.852, 53.968], [-9.847, 53.974], [-9.848, 53.995], [-9.828, 53.992], [-9.855, 54.011], [-9.852, 54.002], [-9.883, 54.012], [-9.871, 54.02], [-9.894, 54.026], [-9.908, 54.047], [-9.892, 54.05], [-9.887, 54.07], [-9.874, 54.056], [-9.862, 54.056], [-9.855, 54.072], [-9.869, 54.074], [-9.865, 54.086], [-9.848, 54.087], [-9.851, 54.112], [-9.872, 54.105], [-9.882, 54.088], [-9.901, 54.097], [-9.893, 54.072], [-9.968, 54.062], [-9.963, 54.071], [-9.976, 54.096], [-9.991, 54.103], [-9.936, 54.113], [-9.932, 54.119], [-9.898, 54.117], [-9.924, 54.133], [-9.933, 54.126], [-9.949, 54.141], [-9.96, 54.143], [-9.958, 54.154], [-9.928, 54.147], [-9.923, 54.154], [-9.941, 54.154], [-9.958, 54.174], [-9.985, 54.183], [-9.97, 54.182], [-9.955, 54.173], [-9.934, 54.181], [-9.922, 54.196], [-9.95, 54.195], [-9.988, 54.214], [-9.992, 54.227], [-10.014, 54.226], [-10.003, 54.217], [-10.026, 54.215], [-10.009, 54.206], [-10.003, 54.195], [-10.011, 54.182], [-10.025, 54.191], [-10.05, 54.19], [-10.036, 54.177], [-10.043, 54.168], [-10.07, 54.169], [-10.093, 54.155], [-10.058, 54.149], [-10.076, 54.137], [-10.066, 54.125], [-10.088, 54.126], [-10.092, 54.113], [-10.067, 54.11], [-10.06, 54.099], [-10.081, 54.087], [-10.113, 54.097], [-10.123, 54.095], [-10.132, 54.108], [-10.122, 54.112], [-10.125, 54.122], [-10.118, 54.146], [-10.107, 54.148], [-10.086, 54.181], [-10.096, 54.199], [-10.083, 54.21], [-10.063, 54.209], [-10.055, 54.227], [-10.11, 54.241], [-10.087, 54.243], [-10.069, 54.237], [-10.084, 54.249], [-10.083, 54.26], [-10.07, 54.276], [-10.035, 54.282], [-10.022, 54.293], [-10.008, 54.292], [-10.002, 54.306], [-9.984, 54.298], [-9.987, 54.289], [-9.974, 54.289], [-9.962, 54.273], [-9.93, 54.271], [-9.939, 54.248], [-9.931, 54.249], [-9.924, 54.274], [-9.918, 54.263], [-9.888, 54.269], [-9.902, 54.239], [-9.919, 54.236], [-9.914, 54.229], [-9.947, 54.227], [-9.953, 54.22], [-9.977, 54.244], [-9.964, 54.226], [-9.986, 54.225], [-9.948, 54.213], [-9.891, 54.214], [-9.876, 54.218], [-9.878, 54.233], [-9.861, 54.227], [-9.881, 54.246], [-9.873, 54.251], [-9.869, 54.273], [-9.812, 54.286], [-9.804, 54.27], [-9.765, 54.256], [-9.747, 54.253], [-9.764, 54.265], [-9.804, 54.278], [-9.808, 54.287], [-9.791, 54.297], [-9.819, 54.291], [-9.832, 54.299], [-9.857, 54.305], [-9.855, 54.326], [-9.839, 54.325], [-9.803, 54.344], [-9.784, 54.332], [-9.753, 54.341], [-9.744, 54.329], [-9.725, 54.33], [-9.709, 54.32], [-9.697, 54.322], [-9.664, 54.314], [-9.648, 54.316], [-9.644, 54.325], [-9.592, 54.325], [-9.589, 54.32], [-9.561, 54.323], [-9.551, 54.311], [-9.534, 54.318], [-9.53, 54.31], [-9.509, 54.31], [-9.498, 54.321], [-9.451, 54.308], [-9.432, 54.313], [-9.39, 54.306], [-9.377, 54.296], [-9.372, 54.306], [-9.347, 54.319], [-9.349, 54.327], [-9.312, 54.315], [-9.264, 54.31], [-9.248, 54.296], [-9.254, 54.27], [-9.245, 54.28], [-9.227, 54.279], [-9.213, 54.287], [-9.207, 54.276], [-9.22, 54.246], [-9.242, 54.236], [-9.229, 54.235], [-9.217, 54.247], [-9.197, 54.247], [-9.198, 54.229], [-9.21, 54.232], [-9.219, 54.213], [-9.163, 54.202], [-9.166, 54.191], [-9.143, 54.183], [-9.146, 54.177], [-9.133, 54.162], [-9.137, 54.178], [-9.124, 54.182], [-9.128, 54.195], [-9.114, 54.2], [-9.132, 54.208], [-9.095, 54.214], [-9.097, 54.225], [-9.084, 54.236], [-9.054, 54.274], [-9.055, 54.294], [-9.017, 54.296], [-9, 54.292], [-8.932, 54.293], [-8.905, 54.283], [-8.897, 54.274], [-8.865, 54.262], [-8.857, 54.264], [-8.827, 54.253], [-8.804, 54.257], [-8.785, 54.271], [-8.761, 54.279], [-8.757, 54.269], [-8.725, 54.263], [-8.682, 54.273], [-8.66, 54.272], [-8.632, 54.25], [-8.635, 54.24], [-8.613, 54.234], [-8.604, 54.223], [-8.592, 54.223], [-8.588, 54.209], [-8.578, 54.217], [-8.537, 54.215], [-8.506, 54.218], [-8.546, 54.224], [-8.545, 54.23], [-8.573, 54.233], [-8.573, 54.241], [-8.602, 54.26], [-8.621, 54.262], [-8.606, 54.276], [-8.611, 54.284], [-8.592, 54.284], [-8.584, 54.276], [-8.552, 54.28], [-8.517, 54.276], [-8.506, 54.283], [-8.477, 54.283], [-8.492, 54.292], [-8.527, 54.303], [-8.573, 54.305], [-8.576, 54.32], [-8.566, 54.325], [-8.53, 54.315], [-8.509, 54.315], [-8.501, 54.323], [-8.559, 54.342], [-8.595, 54.343], [-8.647, 54.331], [-8.642, 54.321], [-8.658, 54.325], [-8.649, 54.336], [-8.67, 54.35], [-8.675, 54.362], [-8.641, 54.371], [-8.626, 54.368], [-8.619, 54.379], [-8.592, 54.385], [-8.569, 54.394], [-8.573, 54.404], [-8.542, 54.407], [-8.521, 54.424], [-8.509, 54.425], [-8.534, 54.407], [-8.554, 54.403], [-8.551, 54.397], [-8.528, 54.403], [-8.52, 54.411], [-8.49, 54.418], [-8.482, 54.432], [-8.466, 54.44], [-8.475, 54.452], [-8.469, 54.47], [-8.447, 54.469], [-8.451, 54.46], [-8.44, 54.455], [-8.416, 54.456], [-8.402, 54.463], [-8.336, 54.47], [-8.312, 54.479], [-8.288, 54.477], [-8.283, 54.488], [-8.264, 54.491], [-8.254, 54.499], [-8.204, 54.507], [-8.24, 54.508], [-8.266, 54.522], [-8.264, 54.529], [-8.212, 54.548], [-8.223, 54.572], [-8.208, 54.573], [-8.195, 54.583], [-8.166, 54.595], [-8.165, 54.625], [-8.135, 54.603], [-8.133, 54.619], [-8.113, 54.615], [-8.106, 54.619], [-8.132, 54.624], [-8.114, 54.633], [-8.124, 54.636], [-8.116, 54.651], [-8.13, 54.653], [-8.133, 54.644], [-8.153, 54.635], [-8.174, 54.644], [-8.172, 54.636], [-8.192, 54.636], [-8.231, 54.623], [-8.234, 54.618], [-8.297, 54.603], [-8.301, 54.609], [-8.272, 54.636], [-8.283, 54.647], [-8.302, 54.639], [-8.342, 54.631], [-8.354, 54.615], [-8.379, 54.604], [-8.393, 54.593], [-8.429, 54.587], [-8.437, 54.575], [-8.464, 54.569], [-8.444, 54.583], [-8.448, 54.588], [-8.399, 54.598], [-8.377, 54.614], [-8.38, 54.625], [-8.397, 54.635], [-8.423, 54.617], [-8.438, 54.621], [-8.42, 54.65], [-8.428, 54.651], [-8.438, 54.63], [-8.465, 54.605], [-8.484, 54.604], [-8.487, 54.617], [-8.476, 54.626], [-8.487, 54.635], [-8.546, 54.618], [-8.557, 54.62], [-8.589, 54.607], [-8.584, 54.616], [-8.617, 54.619], [-8.627, 54.625], [-8.65, 54.62], [-8.682, 54.619], [-8.688, 54.627], [-8.678, 54.632], [-8.69, 54.641], [-8.726, 54.646], [-8.723, 54.649], [-8.769, 54.655], [-8.774, 54.665], [-8.79, 54.66], [-8.795, 54.669], [-8.784, 54.674], [-8.783, 54.689], [-8.797, 54.689], [-8.805, 54.701], [-8.795, 54.706], [-8.779, 54.702], [-8.756, 54.71], [-8.746, 54.707], [-8.751, 54.728], [-8.729, 54.742], [-8.706, 54.744], [-8.689, 54.762], [-8.674, 54.761], [-8.647, 54.773], [-8.637, 54.771], [-8.595, 54.779], [-8.57, 54.776], [-8.536, 54.765], [-8.518, 54.768], [-8.471, 54.756], [-8.439, 54.755], [-8.469, 54.761], [-8.469, 54.766], [-8.505, 54.775], [-8.528, 54.775], [-8.552, 54.786], [-8.529, 54.79], [-8.514, 54.785], [-8.475, 54.791], [-8.455, 54.772], [-8.422, 54.763], [-8.413, 54.775], [-8.436, 54.775], [-8.451, 54.796], [-8.476, 54.803], [-8.494, 54.798], [-8.499, 54.807], [-8.529, 54.813], [-8.525, 54.823], [-8.565, 54.826], [-8.536, 54.835], [-8.511, 54.828], [-8.511, 54.837], [-8.49, 54.848], [-8.459, 54.84], [-8.434, 54.843], [-8.426, 54.851], [-8.378, 54.838], [-8.335, 54.834], [-8.327, 54.839], [-8.271, 54.86], [-8.248, 54.88], [-8.272, 54.865], [-8.312, 54.846], [-8.347, 54.844], [-8.351, 54.852], [-8.382, 54.851], [-8.384, 54.875], [-8.363, 54.883], [-8.344, 54.882], [-8.323, 54.875], [-8.315, 54.89], [-8.343, 54.893], [-8.342, 54.906], [-8.362, 54.902], [-8.38, 54.905], [-8.376, 54.884], [-8.411, 54.898], [-8.443, 54.904], [-8.456, 54.911], [-8.459, 54.923], [-8.444, 54.932], [-8.457, 54.936], [-8.453, 54.945], [-8.435, 54.945], [-8.44, 54.935], [-8.41, 54.937], [-8.366, 54.951], [-8.414, 54.959], [-8.418, 54.969], [-8.442, 54.98], [-8.438, 54.99], [-8.454, 54.999], [-8.451, 55.006], [-8.419, 55.008], [-8.4, 55.003], [-8.407, 55.013], [-8.394, 55.026], [-8.407, 55.034], [-8.392, 55.043], [-8.383, 55.034], [-8.365, 55.043], [-8.348, 55.04], [-8.342, 55.048], [-8.349, 55.063], [-8.317, 55.068], [-8.326, 55.09], [-8.315, 55.093], [-8.317, 55.113], [-8.294, 55.131], [-8.297, 55.151], [-8.285, 55.159], [-8.274, 55.154], [-8.212, 55.147], [-8.162, 55.146], [-8.147, 55.163], [-8.135, 55.157], [-8.15, 55.147], [-8.171, 55.143], [-8.156, 55.138], [-8.164, 55.127], [-8.147, 55.132], [-8.132, 55.124], [-8.133, 55.141], [-8.122, 55.136], [-8.122, 55.158], [-8.069, 55.162], [-8.056, 55.172], [-8.021, 55.178], [-8.026, 55.199], [-8.017, 55.214], [-8, 55.215], [-7.985, 55.228], [-7.969, 55.213], [-7.95, 55.215], [-7.939, 55.209], [-7.945, 55.197], [-7.983, 55.186], [-7.957, 55.188], [-7.946, 55.181], [-7.906, 55.191], [-7.897, 55.189], [-7.899, 55.174], [-7.882, 55.176], [-7.885, 55.165], [-7.853, 55.164], [-7.864, 55.151], [-7.897, 55.144], [-7.907, 55.134], [-7.869, 55.14], [-7.869, 55.131], [-7.856, 55.129], [-7.858, 55.142], [-7.837, 55.151], [-7.851, 55.155], [-7.831, 55.163], [-7.825, 55.181], [-7.833, 55.193], [-7.85, 55.189], [-7.874, 55.203], [-7.866, 55.216], [-7.866, 55.229], [-7.846, 55.232], [-7.828, 55.224], [-7.808, 55.237], [-7.809, 55.246], [-7.789, 55.248], [-7.791, 55.226], [-7.809, 55.216], [-7.817, 55.199], [-7.797, 55.177], [-7.794, 55.184], [-7.771, 55.183], [-7.765, 55.189], [-7.743, 55.175], [-7.737, 55.178], [-7.709, 55.165], [-7.693, 55.143], [-7.707, 55.106], [-7.692, 55.111], [-7.669, 55.143], [-7.665, 55.159], [-7.68, 55.165], [-7.681, 55.18], [-7.701, 55.18], [-7.693, 55.187], [-7.712, 55.191], [-7.707, 55.202], [-7.696, 55.196], [-7.707, 55.215], [-7.709, 55.23], [-7.723, 55.22], [-7.722, 55.2], [-7.704, 55.181], [-7.717, 55.175], [-7.746, 55.187], [-7.734, 55.193], [-7.772, 55.192], [-7.78, 55.204], [-7.795, 55.206], [-7.795, 55.22], [-7.768, 55.228], [-7.753, 55.238], [-7.76, 55.242], [-7.733, 55.252], [-7.714, 55.246], [-7.693, 55.251], [-7.694, 55.264], [-7.68, 55.262], [-7.66, 55.278], [-7.631, 55.276], [-7.617, 55.254], [-7.616, 55.238], [-7.603, 55.231], [-7.607, 55.218], [-7.625, 55.204], [-7.618, 55.191], [-7.593, 55.189], [-7.571, 55.18], [-7.577, 55.171], [-7.52, 55.132], [-7.518, 55.123], [-7.532, 55.115], [-7.524, 55.103], [-7.533, 55.094], [-7.584, 55.082], [-7.597, 55.075], [-7.595, 55.063], [-7.627, 55.056], [-7.635, 55.043], [-7.588, 55.048], [-7.568, 55.054], [-7.56, 55.045], [-7.563, 55.032], [-7.599, 55.01], [-7.635, 54.997], [-7.66, 54.969], [-7.643, 54.964], [-7.636, 54.972], [-7.626, 54.962], [-7.597, 54.994], [-7.554, 55.013], [-7.539, 55.024], [-7.516, 55.025], [-7.515, 55.039], [-7.493, 55.041], [-7.47, 55.05], [-7.496, 55.048], [-7.523, 55.058], [-7.533, 55.072], [-7.52, 55.082], [-7.49, 55.085], [-7.462, 55.062], [-7.455, 55.063], [-7.458, 55.079], [-7.484, 55.094], [-7.473, 55.111], [-7.458, 55.122], [-7.461, 55.137], [-7.475, 55.14], [-7.518, 55.184], [-7.555, 55.197], [-7.54, 55.202], [-7.545, 55.208], [-7.535, 55.229], [-7.518, 55.239], [-7.533, 55.246], [-7.516, 55.255], [-7.508, 55.272], [-7.526, 55.28], [-7.522, 55.286], [-7.499, 55.29], [-7.478, 55.281], [-7.466, 55.283], [-7.468, 55.296], [-7.45, 55.29], [-7.45, 55.284], [-7.38, 55.296], [-7.378, 55.315], [-7.363, 55.319], [-7.334, 55.312], [-7.325, 55.303], [-7.313, 55.305], [-7.304, 55.291], [-7.335, 55.291], [-7.349, 55.286], [-7.312, 55.285], [-7.298, 55.277], [-7.274, 55.282], [-7.247, 55.279], [-7.266, 55.289], [-7.252, 55.295], [-7.277, 55.293], [-7.323, 55.313], [-7.346, 55.328], [-7.352, 55.348], [-7.348, 55.357], [-7.375, 55.361], [-7.398, 55.377], [-7.369, 55.383], [-7.333, 55.373], [-7.337, 55.37], [-7.277, 55.367], [-7.27, 55.36], [-7.243, 55.359], [-7.222, 55.35], [-7.195, 55.347], [-7.176, 55.34], [-7.169, 55.325], [-7.177, 55.32], [-7.158, 55.31], [-7.159, 55.297], [-7.119, 55.288], [-7.063, 55.271], [-7.04, 55.275], [-7.028, 55.267], [-7.01, 55.265], [-7.012, 55.258], [-6.996, 55.254], [-6.957, 55.255], [-6.923, 55.237], [-6.927, 55.227], [-6.967, 55.206], [-6.983, 55.203], [-7.023, 55.189], [-7.046, 55.187], [-7.071, 55.176], [-7.12, 55.158], [-7.147, 55.153], [-7.166, 55.145], [-7.188, 55.126], [-7.202, 55.12], [-7.213, 55.104], [-7.246, 55.081], [-7.257, 55.067]]]]}}