{"type": "Feature", "properties": {"name": "North Macedonia", "iso1": "MK", "admin_level": 2, "osm_id": 53293, "countrylevel_id": "iso1:MK", "osm_data": {"localname": "Северна Македонија", "official_name": "Република Северна Македонија", "alltags": {"flag": "https://upload.wikimedia.org/wikipedia/commons/7/79/Flag_of_North_Macedonia.svg", "name:ar": "شمال مقدونيا", "name:bg": "Северна Македония", "name:bs": "Sjeverna Makedonija", "name:ca": "Macedònia del Nord", "name:cs": "Severní Makedonie", "name:cy": "Gogledd Macedonia", "name:da": "Nordmakedonien", "name:el": "Βόρεια Μακεδονία", "name:en": "North Macedonia", "name:eo": "Nord-Makedonio", "name:es": "Macedonia del Norte", "name:et": "Põhja-Makedoonia", "name:eu": "Ipar Mazedonia", "name:fa": "مقدونیه شمالی", "name:fr": "Macédoine du Nord", "name:fy": "Noard-Masedoanje", "name:gd": "Masadoinia a Tuath", "name:gl": "Macedonia do Norte", "name:gv": "Massadoan Hwoaie", "name:he": "מקדוניה הצפונית", "name:hr": "Sjeverna Makedonija", "name:hu": "Észak-Macedónia", "name:hy": "Մակեդոնիայի Հանրապետություն", "name:it": "Macedonia del Nord", "name:ja": "北マケドニア", "name:ku": "Komara Makedonyayê", "name:kv": "Македония Республика", "name:kw": "Repoblek Makedoni", "name:la": "Macedonia Septentrionalis", "name:lb": "Nordmazedonien", "name:li": "Noord-Macedonië", "name:lt": "Šiaurės Makedonija", "name:lv": "Ziemeļmaķedonija", "name:mi": "Makerōnia", "name:mk": "Македонија", "name:ml": "റിപ്പബ്ലിക് ഓഫ് മാസിഡോണിയ", "name:mn": "Бүгд Найрамдах Македон Улс", "name:mr": "मॅसिडोनिया", "name:ms": "Republik Macedonia", "name:mt": "Repubblika tal-Maċedonja", "name:my": "မက်စီဒိုးနီးယားနိုင်ငံ", "name:na": "Matedoniya", "name:ne": "म्यासेडोनिया", "name:nl": "Noord-Macedonië", "name:nn": "Nord-Makedonia", "name:no": "Nord-Makedonia", "name:oc": "Republica de Macedònia", "name:or": "ମାସିଡୋନିଆ", "name:os": "Республикæ Македони", "name:pa": "ਮਕਦੂਨੀਆ ਗਣਰਾਜ", "name:pl": "Macedonia Północna", "name:ps": "د مقدونيې ولسمشريزه", "name:pt": "Macedónia do Norte", "name:qu": "Makidunya", "name:ro": "Macedonia", "name:ru": "Северная Македония", "name:rw": "Masedoniya", "name:sa": "मेसेडोनिया", "name:sc": "Matzedònia", "name:se": "Davvi-Makedonia", "name:sh": "Severna Makedonija", "name:sk": "Severné Macedónsko", "name:sl": "Makedonija", "name:so": "Makedonia", "name:sq": "Maqedonia e Veriut", "name:sr": "Северна Македонија", "name:ss": "IMakhedoniya", "name:su": "Makédonia", "name:sv": "Nordmakedonien", "name:sw": "Jamhuri ya Masedonia", "name:ta": "மாக்கடோனியக் குடியரசு", "name:te": "మేసిడోనియా", "name:tg": "Ҷумҳурии Мақдуния", "name:th": "ประเทศมาซิโดเนีย", "name:tk": "Makedoniýa Respublikasy", "name:tl": "Republika ng Masedonya", "name:tr": "Kuzey Makedonya", "name:tt": "Македония Җөмһүрияте", "name:ug": "ماكېدونىيە", "name:uk": "Північна Македонія", "name:ur": "شمالی مقدونیہ", "name:uz": "Makedoniya Respublikasi", "name:vi": "Bắc Macedonia", "name:vo": "Nolüda-Makedoniyän", "name:wo": "Réewum Maseduwaan", "name:yi": "רעפובליק פון מאקעדאניע", "name:yo": "Orílẹ̀-èdè Olómìnira ilẹ̀ Makẹdóníà", "name:zh": "北马其顿共和国", "int_name": "North Macedonia", "name:hif": "Macedonia", "name:lad": "Makedonia", "name:lij": "Maçedònia", "name:lmo": "Macedonia", "name:ltg": "Makedonejis Republika", "name:mdf": "Македоние", "name:mhr": "Македоний", "name:nah": "Tlācatlahtohcāyōtl Macedonia", "name:nan": "Makedonija Kiōng-hô-kok", "name:nds": "Republiek Makedonien", "name:pam": "Republika ning Makedonia", "name:pap": "Macedonia", "name:pcd": "Machédoène", "name:pih": "Repablik o' Masedoenya", "name:pms": "Macedònia", "name:rmy": "Makedoniya", "name:sah": "Македония", "name:scn": "Macidonia", "name:sco": "Macedonie", "name:stq": "Makedonien", "name:szl": "Macedůńijo", "name:udm": "Македония Республика", "name:vec": "Republica de Macedonia", "name:vep": "Makedonii", "name:vls": "Nôord-Macedonië", "name:war": "Republika han Macedonia", "name:wuu": "北马其顿", "name:xal": "Масидин Орн", "name:xmf": "მაკედონია", "name:yue": "北馬其頓共和國", "name:zea": "Macedonië", "old_name": "Македонија", "name:UN:ar": "جمهورية شمال مقدونيا", "name:UN:el": "Βόρεια Μακεδονία", "name:UN:en": "Republic of North Macedonia", "name:UN:es": "Macedonia del Norte", "name:UN:he": "הרפובליקה היוגוסלבית לשעבר של מקדוניה", "name:UN:sk": "Bývalá Juhoslovanská Republika Macedónsko", "name:UN:zh": "前南斯拉夫的马其顿共和国", "name:pt-BR": "Macedônia do Norte", "alt_name:ar": "مقدونيا الشمالية", "alt_name:eo": "Nord-Makedonujo", "alt_name:vi": "Bắc Ma-xê-đô-ni-a;Ma-xê-đô-ni-a;Bắc Mác-kê-đôn-ni-a;Mác-kê-đôn-ni-a", "name:nds-nl": "Massedonië", "old_name:ar": "مقدونيا", "old_name:bg": "Македония", "old_name:cs": "Makedonie", "old_name:cy": "Macedonia", "old_name:de": "Mazedonien", "old_name:el": "Πρώην Γιουγκοσλαβική Δημοκρατία της Μακεδονίας", "old_name:en": "Macedonia", "old_name:eu": "Mazedonia", "old_name:fa": "مقدونیه", "old_name:fr": "Macédoine", "old_name:fy": "Masedoanje", "old_name:he": "מקדוניה", "old_name:hr": "Makedonija", "old_name:ja": "マケドニア", "old_name:mk": "Македонија", "old_name:nl": "Macedonië", "old_name:nn": "Makedonia", "old_name:no": "Makedonia", "old_name:sk": "Macedónsko", "old_name:sq": "Maqedoni", "old_name:sr": "Македонија", "old_name:tr": "Makedonya Cumhuriyeti", "old_name:uk": "Македонія", "old_name:ur": "مقدونیہ", "old_name:vi": "Macedonia", "old_name:zh": "马其顿共和国", "name:roa-rup": "Machedonia", "name:sr-Latn": "Severna Makedonija", "name:roa-tara": "Macidonie", "official_name": "Република Северна Македонија", "short_name:ca": "Macedònia", "short_name:en": "Macedonia", "short_name:hr": "Makedonija", "short_name:mk": "Македонија", "short_name:sl": "Makedonija", "short_name:zh": "北马其顿", "is_in:continent": "Europe", "default_language": "mk", "official_name:ar": "جمهورية شمال مقدونيا", "official_name:bg": "Република Северна Македония", "official_name:ca": "República de Macedònia del Nord", "official_name:cs": "Republika Severní Makedonie", "official_name:cy": "Gweriniaeth Gogledd Macedonia", "official_name:de": "Republik Nordmazedonien", "official_name:el": "Δημοκρατία της Βόρειας Μακεδονίας", "official_name:en": "Republic of North Macedonia", "official_name:eo": "Respubliko Makedonujo", "official_name:es": "República de Macedonia del Norte", "official_name:eu": "Ipar Mazedoniako Errepublika", "official_name:fa": "جمهوری مقدونیه شمالی", "official_name:fr": "République de Macédoine du Nord", "official_name:gl": "República de Macedonia do Norte", "official_name:he": "רפובליקת מקדוניה הצפונית", "official_name:hr": "Republika Sjeverna Makedonija", "official_name:it": "Repubblica di Macedonia del Nord", "official_name:mk": "Република Северна Македонија", "official_name:nn": "Republikken Nord-Makedonia", "official_name:no": "Republikken Nord-Makedonia", "official_name:pl": "Republika Macedonii Północnej", "official_name:se": "Dásseváldi Davvi-Makedonia", "official_name:sk": "Republika Severné Macedónsko", "official_name:sl": "Republika Makedonija", "official_name:sq": "Republika e Maqedonisë së Veriut", "official_name:sr": "Република Северна Македонија", "official_name:tr": "Kuzey Makedonya Cumhuriyeti", "official_name:uk": "Республіка Македонія", "official_name:ur": "جمہوریہ شمالی مقدونیہ", "official_name:vi": "Cộng hòa Bắc Macedonia", "old_name:sr-Latn": "Makedonija", "old_official_name": "Република Македонија", "old_short_name:el": "ΠΓΔΜ", "old_official_name:ar": "جمهورية مقدونيا", "old_official_name:bg": "Република Македония", "old_official_name:ca": "Antiga República Iugoslava de Macedònia", "old_official_name:cs": "Makedonská republika", "old_official_name:cy": "Gweriniaeth Macedonia", "old_official_name:el": "Δημοκρατία της Μακεδονίας", "old_official_name:en": "Republic of Macedonia", "old_official_name:eu": "Mazedoniako Errepublika", "old_official_name:fa": "جمهوری مقدونیه", "old_official_name:fr": "République de Macédoine", "old_official_name:he": "רפובליקת מקדוניה", "old_official_name:hr": "Republika Makedonija", "old_official_name:it": "Repubblica di Macedonia", "old_official_name:mk": "Република Македонија", "old_official_name:sq": "Republika e Maqedonisë", "old_official_name:tr": "Makedonya Cumhuriyeti", "old_official_name:ur": "جمہوریہ مقدونیہ", "old_official_name:vi": "Cộng hòa Macedonia", "official_name:sr-Latn": "Republika Severna Makedonija"}}, "center_lat": 41.61, "center_lon": 21.71, "timezone": "Europe/Skopje", "population": 2075301, "wikidata_id": "Q221", "wikipedia_id": "mk:Македонија"}, "geometry": {"type": "MultiPolygon", "coordinates": [[[[20.987, 40.869], [20.987, 40.869], [20.987, 40.869], [20.987, 40.869]]], [[[20.633, 41.087], [20.596, 41.092], [20.583, 41.112], [20.596, 41.133], [20.583, 41.156], [20.559, 41.182], [20.555, 41.19], [20.533, 41.199], [20.532, 41.211], [20.515, 41.233], [20.522, 41.246], [20.514, 41.256], [20.511, 41.274], [20.515, 41.287], [20.508, 41.295], [20.506, 41.311], [20.491, 41.333], [20.498, 41.347], [20.52, 41.338], [20.527, 41.354], [20.552, 41.38], [20.546, 41.384], [20.561, 41.405], [20.557, 41.417], [20.538, 41.427], [20.538, 41.437], [20.514, 41.437], [20.513, 41.45], [20.502, 41.467], [20.495, 41.492], [20.478, 41.499], [20.468, 41.498], [20.477, 41.508], [20.455, 41.513], [20.454, 41.522], [20.472, 41.531], [20.457, 41.551], [20.471, 41.559], [20.519, 41.563], [20.555, 41.583], [20.555, 41.601], [20.547, 41.608], [20.544, 41.622], [20.525, 41.637], [20.526, 41.653], [20.517, 41.661], [20.529, 41.685], [20.527, 41.705], [20.514, 41.723], [20.521, 41.751], [20.536, 41.769], [20.532, 41.776], [20.546, 41.78], [20.547, 41.79], [20.567, 41.786], [20.574, 41.789], [20.562, 41.822], [20.563, 41.843], [20.557, 41.868], [20.571, 41.876], [20.594, 41.877], [20.619, 41.858], [20.632, 41.861], [20.649, 41.875], [20.663, 41.875], [20.678, 41.869], [20.683, 41.858], [20.706, 41.865], [20.728, 41.864], [20.741, 41.893], [20.75, 41.895], [20.756, 41.906], [20.776, 41.919], [20.755, 41.947], [20.766, 41.954], [20.767, 41.963], [20.749, 41.983], [20.752, 42.015], [20.749, 42.027], [20.765, 42.045], [20.758, 42.053], [20.783, 42.071], [20.785, 42.079], [20.834, 42.086], [20.842, 42.098], [20.861, 42.1], [20.892, 42.097], [20.915, 42.115], [20.92, 42.129], [20.928, 42.128], [20.945, 42.138], [20.968, 42.136], [21.026, 42.152], [21.05, 42.167], [21.069, 42.186], [21.081, 42.189], [21.104, 42.206], [21.162, 42.197], [21.181, 42.167], [21.203, 42.147], [21.216, 42.129], [21.213, 42.111], [21.222, 42.094], [21.251, 42.092], [21.272, 42.096], [21.297, 42.113], [21.303, 42.104], [21.322, 42.108], [21.315, 42.115], [21.302, 42.141], [21.321, 42.161], [21.318, 42.173], [21.329, 42.179], [21.336, 42.191], [21.331, 42.199], [21.349, 42.208], [21.354, 42.217], [21.368, 42.222], [21.382, 42.244], [21.401, 42.249], [21.422, 42.242], [21.427, 42.236], [21.444, 42.241], [21.432, 42.259], [21.44, 42.262], [21.444, 42.278], [21.475, 42.279], [21.487, 42.274], [21.511, 42.271], [21.521, 42.241], [21.532, 42.241], [21.544, 42.253], [21.569, 42.251], [21.587, 42.263], [21.6, 42.254], [21.657, 42.249], [21.663, 42.244], [21.685, 42.242], [21.694, 42.233], [21.712, 42.241], [21.717, 42.253], [21.729, 42.264], [21.757, 42.257], [21.776, 42.267], [21.79, 42.285], [21.795, 42.298], [21.816, 42.295], [21.836, 42.312], [21.834, 42.321], [21.852, 42.326], [21.874, 42.309], [21.882, 42.313], [21.893, 42.3], [21.923, 42.306], [21.929, 42.31], [21.935, 42.34], [21.946, 42.344], [21.974, 42.328], [21.992, 42.323], [22.032, 42.298], [22.051, 42.308], [22.066, 42.299], [22.084, 42.302], [22.119, 42.315], [22.133, 42.307], [22.146, 42.322], [22.167, 42.313], [22.182, 42.325], [22.182, 42.333], [22.197, 42.34], [22.23, 42.336], [22.25, 42.35], [22.253, 42.362], [22.265, 42.367], [22.271, 42.361], [22.294, 42.374], [22.298, 42.364], [22.291, 42.352], [22.316, 42.332], [22.322, 42.335], [22.332, 42.324], [22.352, 42.318], [22.36, 42.311], [22.378, 42.309], [22.425, 42.255], [22.434, 42.258], [22.469, 42.201], [22.486, 42.201], [22.501, 42.196], [22.51, 42.156], [22.528, 42.14], [22.548, 42.135], [22.564, 42.12], [22.581, 42.11], [22.59, 42.11], [22.6, 42.098], [22.63, 42.094], [22.65, 42.077], [22.676, 42.065], [22.698, 42.063], [22.717, 42.068], [22.734, 42.047], [22.75, 42.047], [22.779, 42.037], [22.792, 42.038], [22.798, 42.045], [22.827, 42.022], [22.852, 42.025], [22.867, 42.022], [22.87, 42.01], [22.864, 42.001], [22.875, 41.997], [22.878, 41.976], [22.874, 41.955], [22.874, 41.936], [22.89, 41.92], [22.899, 41.904], [22.903, 41.876], [22.916, 41.876], [22.928, 41.862], [22.943, 41.828], [22.941, 41.816], [22.956, 41.794], [22.964, 41.789], [22.963, 41.776], [22.97, 41.77], [23.008, 41.769], [23.033, 41.722], [23.034, 41.709], [23.022, 41.703], [23.007, 41.682], [22.993, 41.672], [22.981, 41.656], [22.984, 41.647], [22.968, 41.648], [22.952, 41.642], [22.948, 41.632], [22.955, 41.619], [22.95, 41.599], [22.953, 41.586], [22.967, 41.577], [22.973, 41.56], [22.97, 41.543], [22.959, 41.534], [22.971, 41.516], [22.969, 41.503], [22.958, 41.494], [22.964, 41.465], [22.98, 41.447], [22.969, 41.431], [22.952, 41.417], [22.961, 41.409], [22.967, 41.393], [22.962, 41.379], [22.966, 41.353], [22.948, 41.351], [22.927, 41.339], [22.913, 41.342], [22.853, 41.34], [22.828, 41.335], [22.812, 41.344], [22.8, 41.341], [22.794, 41.331], [22.765, 41.322], [22.755, 41.305], [22.766, 41.293], [22.756, 41.276], [22.761, 41.265], [22.758, 41.245], [22.744, 41.25], [22.722, 41.245], [22.708, 41.227], [22.711, 41.201], [22.734, 41.174], [22.749, 41.176], [22.748, 41.167], [22.733, 41.147], [22.712, 41.14], [22.688, 41.159], [22.667, 41.186], [22.649, 41.181], [22.642, 41.161], [22.618, 41.134], [22.589, 41.118], [22.571, 41.121], [22.562, 41.131], [22.538, 41.13], [22.47, 41.12], [22.45, 41.122], [22.416, 41.12], [22.402, 41.129], [22.405, 41.136], [22.389, 41.132], [22.369, 41.138], [22.334, 41.129], [22.328, 41.122], [22.324, 41.151], [22.305, 41.146], [22.275, 41.156], [22.261, 41.166], [22.237, 41.163], [22.215, 41.17], [22.205, 41.162], [22.17, 41.156], [22.149, 41.128], [22.128, 41.123], [22.109, 41.135], [22.088, 41.138], [22.08, 41.152], [22.062, 41.161], [22.061, 41.152], [22.047, 41.148], [22.03, 41.133], [21.991, 41.126], [21.972, 41.129], [21.962, 41.118], [21.932, 41.104], [21.912, 41.086], [21.904, 41.069], [21.914, 41.05], [21.896, 41.039], [21.882, 41.041], [21.884, 41.028], [21.854, 41.014], [21.848, 40.999], [21.816, 40.986], [21.801, 40.974], [21.804, 40.944], [21.783, 40.929], [21.757, 40.925], [21.731, 40.93], [21.707, 40.943], [21.684, 40.94], [21.671, 40.925], [21.672, 40.9], [21.649, 40.901], [21.604, 40.88], [21.594, 40.866], [21.566, 40.866], [21.563, 40.877], [21.55, 40.883], [21.532, 40.908], [21.49, 40.912], [21.464, 40.907], [21.441, 40.917], [21.417, 40.918], [21.363, 40.879], [21.309, 40.867], [21.252, 40.862], [21.242, 40.874], [21.206, 40.884], [21.194, 40.877], [21.176, 40.874], [21.156, 40.858], [21.118, 40.854], [21.117, 40.866], [21.092, 40.895], [21.097, 40.911], [21.078, 40.924], [21.075, 40.949], [21.066, 40.966], [21.054, 40.973], [21.047, 40.987], [21.027, 40.995], [21.013, 40.995], [20.962, 41.008], [20.948, 41.007], [20.917, 40.98], [20.898, 40.956], [20.903, 40.948], [20.93, 40.934], [20.944, 40.936], [20.97, 40.919], [20.994, 40.913], [20.984, 40.908], [20.984, 40.892], [20.978, 40.89], [20.979, 40.898], [20.968, 40.911], [20.941, 40.925], [20.916, 40.924], [20.912, 40.917], [20.899, 40.918], [20.885, 40.925], [20.848, 40.938], [20.827, 40.913], [20.826, 40.905], [20.801, 40.898], [20.775, 40.905], [20.759, 40.903], [20.732, 40.911], [20.757, 40.925], [20.777, 40.927], [20.78, 40.936], [20.775, 40.949], [20.778, 40.96], [20.8, 40.987], [20.796, 40.996], [20.805, 41.003], [20.809, 41.02], [20.801, 41.048], [20.802, 41.075], [20.796, 41.083], [20.808, 41.106], [20.789, 41.111], [20.788, 41.117], [20.771, 41.122], [20.759, 41.136], [20.746, 41.162], [20.727, 41.168], [20.676, 41.174], [20.653, 41.164], [20.651, 41.145], [20.641, 41.133], [20.634, 41.108], [20.633, 41.087]]]]}}