{"type": "Feature", "properties": {"name": "Norfolk Island", "iso1": "NF", "admin_level": 4, "osm_id": 2574988, "countrylevel_id": "iso1:NF", "osm_data": {"localname": "Norfolk Island", "official_name": "Territory of Norfolk Island", "alltags": {"sqkm": "36", "name:af": "Norfolkeiland", "name:ak": "Nɔfolk Aeland", "name:am": "ኖርፎልክ ደሴት", "name:ar": "جزيرة نورفولك", "name:az": "Norfolk Adası", "name:be": "Норфалк", "name:bg": "Остров Норфолк", "name:bm": "Nɔrofoliki Gun", "name:bn": "নিরফোক দ্বীপ", "name:br": "Enez Norfolk", "name:bs": "Norfolk Ostrvo", "name:ca": "Illa Norfolk", "name:cs": "Norfolk", "name:cy": "Ynys Norfolk", "name:da": "Norfolk-øen", "name:dz": "ནོར་ཕོལཀ་མཚོ་གླིང༌", "name:ee": "Norfolk ƒudomekpo nutome", "name:el": "Νήσος Νόρφολκ", "name:en": "Norfolk Island", "name:eo": "Norfolkinsulo", "name:es": "Isla Norfolk", "name:et": "Norfolki saar", "name:eu": "Norfolk uhartea", "name:fa": "جزیرهٔ نورفولک", "name:ff": "Duuɗe Norfolk", "name:fi": "Norfolkinsaari", "name:fo": "Norfolkoyggjin", "name:fr": "Île Norfolk", "name:fy": "Norfolk", "name:ga": "Oileán Norfolk", "name:gd": "Eilean Norfolk", "name:gl": "Illa Norfolk", "name:gu": "નોરફૉક આઇલેન્ડ", "name:gv": "Ellan Norfolk", "name:ha": "Tsibirin Narfalk", "name:he": "איי נורפוק", "name:hi": "नॉरफ़ॉक द्वीप", "name:hr": "Otok Norfolk", "name:hu": "Norfolk-sziget", "name:ia": "Insula Norfolk", "name:id": "Pulau Norfolk", "name:io": "Insulo Norfolk", "name:is": "Norfolkeyja", "name:it": "Isola Norfolk", "name:ja": "ノーフォーク島", "name:ka": "ნორფოლკის კუნძული", "name:ki": "Kisiwa cha Norfok", "name:km": "កោះ​ណ័រហ្វក់", "name:kn": "ನಾರ್ಫೋಕ್ ದ್ವೀಪ", "name:ko": "노퍽섬", "name:ks": "نارفاک جٔزیٖرٕ", "name:ku": "Giravê Norfolk", "name:la": "Insula Norfolcia", "name:lg": "Kizinga ky'eNorofoko", "name:ln": "Esanga Norfokɛ", "name:lo": "ເກາະນໍໂຟກ", "name:lt": "Norfolko sala", "name:lv": "Norfolkas sala", "name:mg": "Nosy Norfolk", "name:mk": "Нофролшки Остров", "name:ml": "നോർഫോക് ദ്വീപ്", "name:mn": "Норфолк Арал", "name:mr": "नॉरफॉक बेट", "name:ne": "नोरफोल्क टापु", "name:nl": "Norfolk", "name:nn": "Norfolkøyane", "name:no": "Norfolkøya", "name:oc": "Illa Norfolk", "name:or": "ନରଫ୍ଲକ୍ ଦ୍ବୀପ", "name:pl": "Wyspa Norfolk", "name:pt": "Ilha Norfolk", "name:rm": "Insla Norfolk", "name:rn": "izinga rya Norufoluke", "name:ro": "Insula Norfolk", "name:ru": "Остров Норфолк", "name:se": "Norfolksullot", "name:sg": "Zûâ Nôrfôlko", "name:si": "නෝෆෝක් දූපත", "name:sk": "Norfolk", "name:sl": "Otok Norfolk", "name:sn": "Chitsuwa cheNorfolk", "name:sr": "Острво Норфолк", "name:sv": "Norfolkön", "name:sw": "Kisiwa cha Norfok", "name:ta": "நார்ஃபாக் தீவுகள்", "name:te": "నార్ఫాక్ దీవి", "name:th": "เกาะนอร์ฟอล์ก", "name:ti": "ኖርፎልክ ደሴት", "name:to": "Motu Nōfoliki", "name:tr": "Norfolk Adası", "name:uk": "Острів Норфолк", "name:ur": "نار فاک آئلینڈ", "name:vi": "Đảo Norfolk", "name:yo": "Orílẹ́ède Etikun Nọ́úfókì", "name:zh": "诺福克岛", "name:zu": "i-Norfolk Island", "name:ast": "Islla Norfolk", "name:chr": "ᏃᎵᏬᎵᎩ ᎤᎦᏚᏛ", "name:fur": "Isole Norfolk", "name:jbo": "norfuk", "name:kab": "Tigzirin Tinawfukin", "name:ksh": "de Noofok-Ensel", "name:lfn": "Isola Norfolk", "name:pih": "Norfuk Ailen", "population": "1748", "geonames:id": "2155115", "is_in:ocean": "Pacific", "official_name": "Territory of Norfolk Island", "is_in:continent": "Oceania", "official_name:eo": "Teritorio de Insulo Norfolk", "official_name:lv": "Norfolkas salas teritorija", "official_name:pl": "Terytorium Wyspy Norfolk", "country_code_fips": "NF"}}, "center_lat": -29.04, "center_lon": 167.95, "timezone": "Pacific/Norfolk", "population": 1748, "wikidata_id": "Q31057", "wikipedia_id": "en:Norfolk Island"}, "geometry": {"type": "MultiPolygon", "coordinates": [[[[167.947, -29.136], [167.947, -29.136], [167.947, -29.136], [167.947, -29.136]]], [[[167.951, -29.132], [167.951, -29.132], [167.951, -29.132], [167.951, -29.132]]], [[[167.949, -29.115], [167.964, -29.117], [167.951, -29.132], [167.943, -29.117], [167.949, -29.115]]], [[[167.953, -29.114], [167.953, -29.114], [167.953, -29.114], [167.953, -29.114]]], [[[167.953, -29.113], [167.953, -29.113], [167.953, -29.113], [167.953, -29.113]]], [[[167.95, -29.113], [167.95, -29.113], [167.95, -29.113], [167.95, -29.113]]], [[[167.951, -29.111], [167.951, -29.111], [167.951, -29.111], [167.951, -29.111]]], [[[167.963, -29.075], [167.963, -29.075], [167.963, -29.075], [167.963, -29.075]]], [[[167.92, -29.022], [167.92, -29.022], [167.92, -29.022], [167.92, -29.022]]], [[[167.957, -29.006], [167.957, -29.006], [167.957, -29.006], [167.957, -29.006]]], [[[167.923, -28.995], [167.923, -28.995], [167.923, -28.995], [167.923, -28.995]]], [[[167.922, -28.994], [167.922, -28.994], [167.922, -28.994], [167.922, -28.994]]], [[[167.92, -29], [167.945, -29.002], [167.962, -29.01], [167.972, -29.022], [167.996, -29.028], [167.995, -29.046], [167.984, -29.047], [167.986, -29.057], [167.97, -29.057], [167.965, -29.063], [167.947, -29.056], [167.937, -29.063], [167.934, -29.055], [167.92, -29.052], [167.919, -29.034], [167.922, -29.009], [167.92, -29]]], [[[167.951, -29.005], [167.951, -29.005], [167.951, -29.005], [167.951, -29.005]]], [[[167.949, -29.004], [167.949, -29.004], [167.949, -29.004], [167.949, -29.004]]], [[[167.947, -29.002], [167.947, -29.002], [167.947, -29.002], [167.947, -29.002]]], [[[167.938, -29.002], [167.938, -29.002], [167.938, -29.002], [167.938, -29.002]]], [[[167.946, -29.001], [167.946, -29.001], [167.946, -29.001], [167.946, -29.001]]], [[[167.936, -29.001], [167.936, -29.001], [167.936, -29.001], [167.936, -29.001]]]]}}