{"type": "Feature", "properties": {"name": "Peru", "iso1": "PE", "admin_level": 2, "osm_id": 288247, "countrylevel_id": "iso1:PE", "osm_data": {"localname": "Perú", "official_name": "República del Perú", "alltags": {"flag": "http://upload.wikimedia.org/wikipedia/commons/c/cf/Flag_of_Peru.svg", "name:ab": "Перу", "name:af": "Peru", "name:ak": "Peru", "name:am": "ፔሩ", "name:an": "Perú", "name:ar": "بيرو", "name:ay": "Piruw", "name:az": "Peru", "name:ba": "Перу", "name:be": "Перу", "name:bg": "Перу", "name:bi": "Peru", "name:bm": "Peru", "name:bn": "পেরু", "name:bo": "པེ་རུ།", "name:br": "Perou", "name:bs": "Peru", "name:ca": "Perú", "name:ce": "Перу", "name:ch": "Perú", "name:co": "Perù", "name:cs": "Peru", "name:cv": "Перу", "name:cy": "Periw", "name:da": "Peru", "name:dv": "ޕެރޫ", "name:ee": "Peru", "name:el": "Περού", "name:en": "Peru", "name:eo": "Peruo", "name:es": "Perú", "name:et": "Peruu", "name:eu": "Peru", "name:fa": "پرو", "name:ff": "Peru", "name:fi": "Peru", "name:fo": "Peru", "name:fr": "Pérou", "name:fy": "Perû", "name:ga": "Peiriú", "name:gd": "Pearù", "name:gl": "Perú", "name:gn": "Perũ", "name:gu": "પેરુ", "name:gv": "Yn Pheroo", "name:he": "פרו", "name:hi": "पेरू", "name:hr": "Peru", "name:ht": "Pewou", "name:hu": "Peru", "name:hy": "Պերու", "name:ia": "Peru", "name:id": "Peru", "name:ie": "Perú", "name:io": "Peru", "name:is": "Perú", "name:it": "Perù", "name:iu": "ᐱᕉ", "name:ja": "ペルー", "name:jv": "Peru", "name:ka": "პერუ", "name:ki": "Peru", "name:kk": "Перу", "name:kl": "Peru", "name:kn": "ಪೆರು", "name:ko": "페루", "name:ku": "Perû", "name:kv": "Перу", "name:kw": "Perou", "name:ky": "Перу", "name:la": "Peruvia", "name:lb": "Peru", "name:li": "Peru", "name:ln": "Peru", "name:lt": "Peru", "name:lv": "Peru", "name:mi": "Perū", "name:mk": "Перу", "name:ml": "പെറു", "name:mn": "Перу", "name:mr": "पेरू", "name:ms": "Peru", "name:mt": "Perù", "name:my": "ပီရူးနိုင်ငံ", "name:na": "Peru", "name:ne": "पेरू", "name:nl": "Peru", "name:nn": "Peru", "name:no": "Peru", "name:oc": "Peró", "name:or": "ପେରୁ", "name:os": "Перу", "name:pa": "ਪੇਰੂ", "name:pl": "Peru", "name:ps": "پيرو", "name:pt": "Peru", "name:qu": "Piruw", "name:rm": "Peru", "name:ro": "Peru", "name:ru": "Перу", "name:rw": "Peru", "name:sa": "पेरु", "name:se": "Peru", "name:sh": "Peru", "name:si": "පේරූ", "name:sk": "Peru", "name:sl": "Peru", "name:sn": "Peru", "name:so": "Peru", "name:sq": "Peruja", "name:sr": "Перу", "name:ss": "IPheru", "name:su": "Péru", "name:sv": "Peru", "name:sw": "Peru", "name:ta": "பெரு", "name:te": "పెరూ", "name:tg": "Перу", "name:th": "ประเทศเปรู", "name:tk": "Peru", "name:tl": "Peru", "name:tr": "Peru", "name:tt": "Перу", "name:ug": "پېرۇ", "name:uk": "Перу", "name:ur": "پیرو", "name:uz": "Peru", "name:vi": "Peru", "name:vo": "Peruvän", "name:wo": "Peru", "name:yi": "פערו", "name:yo": "Perú", "name:zh": "秘鲁", "name:zu": "Peru", "int_name": "Peru", "name:ace": "Pèru", "name:als": "Peru", "name:ang": "Peru", "name:arz": "بيرو", "name:ast": "Perú", "name:bar": "Peru", "name:bcl": "Peru", "name:bpy": "পেরু", "name:ceb": "Peru", "name:ckb": "پێروو", "name:crh": "Peru", "name:diq": "Peru", "name:dsb": "Peru", "name:ext": "Perú", "name:frp": "Pèrou", "name:frr": "Peruu", "name:gag": "Peru", "name:hak": "Pi-lû", "name:hif": "Peru", "name:hsb": "Peru", "name:ilo": "Peru", "name:jbo": "perus", "name:kaa": "Peru", "name:lad": "Peru", "name:lez": "Перу", "name:lij": "Perù", "name:lmo": "Perù", "name:ltg": "Peru", "name:lzh": "祕魯", "name:mhr": "Перу", "name:mrj": "Перу", "name:mwl": "Peru", "name:nah": "Peru", "name:nan": "Perú", "name:nap": "Perù", "name:nds": "Peru", "name:new": "पेरु", "name:nov": "Peru", "name:nrm": "Pérou", "name:pam": "Peru", "name:pap": "Peru", "name:pih": "Peruu", "name:pms": "Perù", "name:pnb": "پیرو", "name:rmy": "Peru", "name:rue": "Перу", "name:sah": "Перу", "name:scn": "Perù", "name:sco": "Peru", "name:szl": "Peru", "name:tet": "Perú", "name:tzl": "Perù", "name:vec": "Perù", "name:war": "Perú", "name:wuu": "秘鲁", "name:xal": "Перумудин Орн", "name:xmf": "პერუ", "name:yue": "秘魯", "name:zea": "Peru", "name:simple": "Peru", "name:bat-smg": "Perū", "name:cbk-zam": "Peru", "name:fiu-vro": "Peruu", "official_name": "República del Perú", "name:be-tarask": "Пэру", "is_in:continent": "South America", "official_name:cs": "Peruánská republika", "official_name:el": "Δημοκρατία του Περού", "official_name:en": "Republic of Peru", "official_name:eo": "Perua Respubliko", "official_name:es": "República del Perú", "official_name:et": "Peruu Vabariik", "official_name:eu": "Peruko Errepublika", "official_name:fr": "République du Pérou", "official_name:id": "Republik Peru", "official_name:lb": "Republik Peru", "official_name:lt": "Peru Respublika", "official_name:lv": "Peru Republika", "official_name:ro": "Republica Peru", "official_name:ru": "Республика Перу", "official_name:sk": "Peruánska republika", "official_name:sv": "Republiken Peru", "official_name:vi": "Cộng hòa Peru"}}, "center_lat": -9.15, "center_lon": -74.38, "timezone": "America/Lima", "population": 32162184, "wikidata_id": "Q419", "wikipedia_id": "es:Perú"}, "geometry": {"type": "MultiPolygon", "coordinates": [[[[-78.584, -9.202], [-78.584, -9.202], [-78.584, -9.202], [-78.584, -9.202]]], [[[-78.608, -9.158], [-78.608, -9.158], [-78.608, -9.158], [-78.608, -9.158]]], [[[-78.62, -9.152], [-78.62, -9.152], [-78.62, -9.152], [-78.62, -9.152]]], [[[-78.501, -9.3], [-78.501, -9.3], [-78.501, -9.3], [-78.501, -9.3]]], [[[-78.561, -9.24], [-78.561, -9.24], [-78.561, -9.24], [-78.561, -9.24]]], [[[-78.554, -9.246], [-78.554, -9.246], [-78.554, -9.246], [-78.554, -9.246]]], [[[-78.443, -9.386], [-78.443, -9.386], [-78.443, -9.386], [-78.443, -9.386]]], [[[-78.466, -9.352], [-78.466, -9.352], [-78.466, -9.352], [-78.466, -9.352]]], [[[-78.482, -9.333], [-78.482, -9.333], [-78.482, -9.333], [-78.482, -9.333]]], [[[-78.456, -9.329], [-78.456, -9.329], [-78.456, -9.329], [-78.456, -9.329]]], [[[-78.487, -9.321], [-78.487, -9.321], [-78.487, -9.321], [-78.487, -9.321]]], [[[-78.488, -9.317], [-78.488, -9.317], [-78.488, -9.317], [-78.488, -9.317]]], [[[-78.5, -9.303], [-78.5, -9.303], [-78.5, -9.303], [-78.5, -9.303]]], [[[-78.503, -9.303], [-78.503, -9.303], [-78.503, -9.303], [-78.503, -9.303]]], [[[-78.499, -9.303], [-78.499, -9.303], [-78.499, -9.303], [-78.499, -9.303]]], [[[-78.202, -9.995], [-78.202, -9.995], [-78.202, -9.995], [-78.202, -9.995]]], [[[-78.242, -9.898], [-78.242, -9.898], [-78.242, -9.898], [-78.242, -9.898]]], [[[-78.237, -9.897], [-78.237, -9.897], [-78.237, -9.897], [-78.237, -9.897]]], [[[-78.239, -9.84], [-78.239, -9.84], [-78.239, -9.84], [-78.239, -9.84]]], [[[-78.281, -9.744], [-78.281, -9.744], [-78.281, -9.744], [-78.281, -9.744]]], [[[-78.297, -9.709], [-78.297, -9.709], [-78.297, -9.709], [-78.297, -9.709]]], [[[-78.253, -9.871], [-78.253, -9.871], [-78.253, -9.871], [-78.253, -9.871]]], [[[-78.254, -9.871], [-78.254, -9.871], [-78.254, -9.871], [-78.254, -9.871]]], [[[-78.371, -9.611], [-78.371, -9.611], [-78.371, -9.611], [-78.371, -9.611]]], [[[-78.367, -9.609], [-78.367, -9.609], [-78.367, -9.609], [-78.367, -9.609]]], [[[-78.371, -9.603], [-78.371, -9.603], [-78.371, -9.603], [-78.371, -9.603]]], [[[-78.372, -9.602], [-78.372, -9.602], [-78.372, -9.602], [-78.372, -9.602]]], [[[-78.385, -9.546], [-78.385, -9.546], [-78.385, -9.546], [-78.385, -9.546]]], [[[-78.416, -9.424], [-78.416, -9.424], [-78.416, -9.424], [-78.416, -9.424]]], [[[-78.415, -9.424], [-78.415, -9.424], [-78.415, -9.424], [-78.415, -9.424]]], [[[-78.421, -9.422], [-78.421, -9.422], [-78.421, -9.422], [-78.421, -9.422]]], [[[-78.621, -9.141], [-78.621, -9.141], [-78.621, -9.141], [-78.621, -9.141]]], [[[-78.623, -9.084], [-78.623, -9.084], [-78.623, -9.084], [-78.623, -9.084]]], [[[-78.618, -9.113], [-78.627, -9.103], [-78.619, -9.092], [-78.614, -9.109], [-78.618, -9.113]]], [[[-78.617, -9.089], [-78.617, -9.089], [-78.617, -9.089], [-78.617, -9.089]]], [[[-78.623, -9.084], [-78.623, -9.084], [-78.623, -9.084], [-78.623, -9.084]]], [[[-78.688, -9.044], [-78.688, -9.044], [-78.688, -9.044], [-78.688, -9.044]]], [[[-78.686, -9.042], [-78.686, -9.042], [-78.686, -9.042], [-78.686, -9.042]]], [[[-78.669, -9.042], [-78.678, -9.04], [-78.68, -9.022], [-78.669, -9.042]]], [[[-78.678, -9.022], [-78.678, -9.022], [-78.678, -9.022], [-78.678, -9.022]]], [[[-78.65, -9.008], [-78.65, -9.008], [-78.65, -9.008], [-78.65, -9.008]]], [[[-78.696, -8.943], [-78.696, -8.943], [-78.696, -8.943], [-78.696, -8.943]]], [[[-78.71, -8.889], [-78.71, -8.889], [-78.71, -8.889], [-78.71, -8.889]]], [[[-78.79, -8.769], [-78.79, -8.769], [-78.79, -8.769], [-78.79, -8.769]]], [[[-78.795, -8.761], [-78.795, -8.761], [-78.795, -8.761], [-78.795, -8.761]]], [[[-78.964, -8.568], [-78.964, -8.568], [-78.964, -8.568], [-78.964, -8.568]]], [[[-78.966, -8.568], [-78.966, -8.568], [-78.966, -8.568], [-78.966, -8.568]]], [[[-78.959, -8.546], [-78.959, -8.546], [-78.959, -8.546], [-78.959, -8.546]]], [[[-78.96, -8.546], [-78.96, -8.546], [-78.96, -8.546], [-78.96, -8.546]]], [[[-78.962, -8.54], [-78.962, -8.54], [-78.962, -8.54], [-78.962, -8.54]]], [[[-78.96, -8.539], [-78.96, -8.539], [-78.96, -8.539], [-78.96, -8.539]]], [[[-78.972, -8.526], [-78.972, -8.526], [-78.972, -8.526], [-78.972, -8.526]]], [[[-80.716, -6.958], [-80.716, -6.958], [-80.716, -6.958], [-80.716, -6.958]]], [[[-79.499, -7.813], [-79.499, -7.813], [-79.499, -7.813], [-79.499, -7.813]]], [[[-79.5, -7.813], [-79.5, -7.813], [-79.5, -7.813], [-79.5, -7.813]]], [[[-80.719, -6.956], [-80.719, -6.956], [-80.719, -6.956], [-80.719, -6.956]]], [[[-80.705, -6.943], [-80.705, -6.943], [-80.705, -6.943], [-80.705, -6.943]]], [[[-80.735, -6.93], [-80.735, -6.93], [-80.735, -6.93], [-80.735, -6.93]]], [[[-80.72, -6.938], [-80.72, -6.938], [-80.72, -6.938], [-80.72, -6.938]]], [[[-80.72, -6.952], [-80.729, -6.945], [-80.728, -6.934], [-80.717, -6.947], [-80.72, -6.952]]], [[[-80.708, -6.939], [-80.708, -6.939], [-80.708, -6.939], [-80.708, -6.939]]], [[[-80.741, -6.925], [-80.741, -6.925], [-80.741, -6.925], [-80.741, -6.925]]], [[[-80.722, -6.93], [-80.719, -6.92], [-80.714, -6.932], [-80.722, -6.93]]], [[[-80.721, -6.925], [-80.721, -6.925], [-80.721, -6.925], [-80.721, -6.925]]], [[[-80.741, -6.924], [-80.741, -6.924], [-80.741, -6.924], [-80.741, -6.924]]], [[[-80.721, -6.92], [-80.721, -6.92], [-80.721, -6.92], [-80.721, -6.92]]], [[[-80.721, -6.918], [-80.721, -6.918], [-80.721, -6.918], [-80.721, -6.918]]], [[[-80.722, -6.916], [-80.722, -6.916], [-80.722, -6.916], [-80.722, -6.916]]], [[[-80.869, -6.405], [-80.869, -6.405], [-80.869, -6.405], [-80.869, -6.405]]], [[[-80.864, -6.383], [-80.864, -6.383], [-80.864, -6.383], [-80.864, -6.383]]], [[[-80.864, -6.382], [-80.864, -6.382], [-80.864, -6.382], [-80.864, -6.382]]], [[[-81.205, -5.214], [-81.205, -5.214], [-81.205, -5.214], [-81.205, -5.214]]], [[[-80.415, -3.508], [-80.415, -3.508], [-80.415, -3.508], [-80.415, -3.508]]], [[[-80.839, -6.471], [-80.839, -6.471], [-80.839, -6.471], [-80.839, -6.471]]], [[[-80.864, -6.461], [-80.864, -6.461], [-80.864, -6.461], [-80.864, -6.461]]], [[[-80.87, -6.443], [-80.87, -6.443], [-80.87, -6.443], [-80.87, -6.443]]], [[[-80.857, -6.393], [-80.852, -6.381], [-80.846, -6.385], [-80.856, -6.403], [-80.857, -6.415], [-80.841, -6.438], [-80.846, -6.443], [-80.841, -6.47], [-80.85, -6.475], [-80.864, -6.469], [-80.856, -6.452], [-80.868, -6.444], [-80.872, -6.433], [-80.863, -6.423], [-80.865, -6.411], [-80.857, -6.393]]], [[[-80.403, -3.5], [-80.403, -3.5], [-80.403, -3.5], [-80.403, -3.5]]], [[[-80.41, -3.5], [-80.41, -3.5], [-80.41, -3.5], [-80.41, -3.5]]], [[[-80.383, -3.494], [-80.383, -3.494], [-80.383, -3.494], [-80.383, -3.494]]], [[[-80.45, -3.496], [-80.45, -3.496], [-80.45, -3.496], [-80.45, -3.496]]], [[[-80.384, -3.496], [-80.384, -3.496], [-80.384, -3.496], [-80.384, -3.496]]], [[[-80.408, -3.498], [-80.408, -3.498], [-80.408, -3.498], [-80.408, -3.498]]], [[[-80.449, -3.495], [-80.449, -3.495], [-80.449, -3.495], [-80.449, -3.495]]], [[[-80.41, -3.494], [-80.41, -3.494], [-80.41, -3.494], [-80.41, -3.494]]], [[[-80.402, -3.495], [-80.402, -3.495], [-80.402, -3.495], [-80.402, -3.495]]], [[[-80.399, -3.494], [-80.399, -3.494], [-80.399, -3.494], [-80.399, -3.494]]], [[[-80.376, -3.487], [-80.376, -3.487], [-80.376, -3.487], [-80.376, -3.487]]], [[[-80.378, -3.491], [-80.378, -3.491], [-80.378, -3.491], [-80.378, -3.491]]], [[[-80.248, -3.449], [-80.248, -3.449], [-80.248, -3.449], [-80.248, -3.449]]], [[[-80.297, -3.419], [-80.282, -3.428], [-80.295, -3.428], [-80.297, -3.419]]], [[[-80.23, -3.435], [-80.256, -3.444], [-80.275, -3.442], [-80.28, -3.43], [-80.265, -3.425], [-80.26, -3.429], [-80.236, -3.427], [-80.23, -3.435]]], [[[-80.26, -3.426], [-80.26, -3.426], [-80.26, -3.426], [-80.26, -3.426]]], [[[-80.262, -3.426], [-80.262, -3.426], [-80.262, -3.426], [-80.262, -3.426]]], [[[-80.278, -3.427], [-80.278, -3.427], [-80.278, -3.427], [-80.278, -3.427]]], [[[-80.27, -3.423], [-80.287, -3.421], [-80.287, -3.414], [-80.273, -3.417], [-80.262, -3.414], [-80.241, -3.424], [-80.254, -3.426], [-80.27, -3.423]]], [[[-80.387, -3.496], [-80.387, -3.496], [-80.387, -3.496], [-80.387, -3.496]]], [[[-80.445, -3.492], [-80.445, -3.492], [-80.445, -3.492], [-80.445, -3.492]]], [[[-80.413, -3.493], [-80.413, -3.493], [-80.413, -3.493], [-80.413, -3.493]]], [[[-80.39, -3.491], [-80.39, -3.491], [-80.39, -3.491], [-80.39, -3.491]]], [[[-80.457, -3.486], [-80.457, -3.486], [-80.457, -3.486], [-80.457, -3.486]]], [[[-80.401, -3.504], [-80.401, -3.504], [-80.401, -3.504], [-80.401, -3.504]]], [[[-80.411, -3.504], [-80.411, -3.504], [-80.411, -3.504], [-80.411, -3.504]]], [[[-80.41, -3.503], [-80.41, -3.503], [-80.41, -3.503], [-80.41, -3.503]]], [[[-80.415, -3.504], [-80.415, -3.504], [-80.415, -3.504], [-80.415, -3.504]]], [[[-80.403, -3.504], [-80.403, -3.504], [-80.403, -3.504], [-80.403, -3.504]]], [[[-76.621, -12.784], [-76.621, -12.784], [-76.621, -12.784], [-76.621, -12.784]]], [[[-76.708, -12.593], [-76.708, -12.593], [-76.708, -12.593], [-76.708, -12.593]]], [[[-76.624, -12.772], [-76.624, -12.772], [-76.624, -12.772], [-76.624, -12.772]]], [[[-76.623, -12.771], [-76.623, -12.771], [-76.623, -12.771], [-76.623, -12.771]]], [[[-76.707, -12.589], [-76.707, -12.589], [-76.707, -12.589], [-76.707, -12.589]]], [[[-76.708, -12.589], [-76.708, -12.589], [-76.708, -12.589], [-76.708, -12.589]]], [[[-76.716, -12.576], [-76.716, -12.576], [-76.716, -12.576], [-76.716, -12.576]]], [[[-76.802, -12.475], [-76.802, -12.475], [-76.802, -12.475], [-76.802, -12.475]]], [[[-76.79, -12.462], [-76.79, -12.462], [-76.79, -12.462], [-76.79, -12.462]]], [[[-76.781, -12.413], [-76.781, -12.413], [-76.781, -12.413], [-76.781, -12.413]]], [[[-76.782, -12.409], [-76.782, -12.409], [-76.782, -12.409], [-76.782, -12.409]]], [[[-76.897, -12.312], [-76.897, -12.312], [-76.897, -12.312], [-76.897, -12.312]]], [[[-76.899, -12.307], [-76.899, -12.307], [-76.899, -12.307], [-76.899, -12.307]]], [[[-76.9, -12.303], [-76.9, -12.303], [-76.9, -12.303], [-76.9, -12.303]]], [[[-77.039, -12.206], [-77.039, -12.206], [-77.039, -12.206], [-77.039, -12.206]]], [[[-77.232, -12.129], [-77.232, -12.129], [-77.232, -12.129], [-77.232, -12.129]]], [[[-77.232, -12.128], [-77.232, -12.128], [-77.232, -12.128], [-77.232, -12.128]]], [[[-77.185, -12.113], [-77.185, -12.113], [-77.185, -12.113], [-77.185, -12.113]]], [[[-77.24, -12.095], [-77.24, -12.095], [-77.24, -12.095], [-77.24, -12.095]]], [[[-77.193, -12.109], [-77.193, -12.109], [-77.193, -12.109], [-77.193, -12.109]]], [[[-77.194, -12.109], [-77.207, -12.11], [-77.249, -12.078], [-77.252, -12.066], [-77.241, -12.06], [-77.221, -12.07], [-77.19, -12.103], [-77.194, -12.109]]], [[[-77.733, -11.958], [-77.733, -11.958], [-77.733, -11.958], [-77.733, -11.958]]], [[[-77.734, -11.956], [-77.734, -11.956], [-77.734, -11.956], [-77.734, -11.956]]], [[[-77.184, -11.848], [-77.184, -11.848], [-77.184, -11.848], [-77.184, -11.848]]], [[[-77.183, -11.846], [-77.183, -11.846], [-77.183, -11.846], [-77.183, -11.846]]], [[[-77.212, -12.119], [-77.212, -12.119], [-77.212, -12.119], [-77.212, -12.119]]], [[[-77.211, -12.118], [-77.211, -12.118], [-77.211, -12.118], [-77.211, -12.118]]], [[[-77.215, -12.117], [-77.215, -12.117], [-77.215, -12.117], [-77.215, -12.117]]], [[[-77.209, -12.118], [-77.209, -12.118], [-77.209, -12.118], [-77.209, -12.118]]], [[[-77.236, -12.13], [-77.236, -12.13], [-77.236, -12.13], [-77.236, -12.13]]], [[[-77.233, -12.13], [-77.233, -12.13], [-77.233, -12.13], [-77.233, -12.13]]], [[[-77.235, -12.13], [-77.235, -12.13], [-77.235, -12.13], [-77.235, -12.13]]], [[[-77.184, -11.845], [-77.184, -11.845], [-77.184, -11.845], [-77.184, -11.845]]], [[[-77.192, -11.838], [-77.192, -11.838], [-77.192, -11.838], [-77.192, -11.838]]], [[[-77.189, -11.829], [-77.189, -11.829], [-77.189, -11.829], [-77.189, -11.829]]], [[[-77.181, -11.812], [-77.181, -11.812], [-77.181, -11.812], [-77.181, -11.812]]], [[[-77.19, -11.807], [-77.19, -11.807], [-77.19, -11.807], [-77.19, -11.807]]], [[[-77.223, -11.799], [-77.223, -11.799], [-77.223, -11.799], [-77.223, -11.799]]], [[[-77.223, -11.799], [-77.223, -11.799], [-77.223, -11.799], [-77.223, -11.799]]], [[[-77.182, -11.813], [-77.182, -11.813], [-77.182, -11.813], [-77.182, -11.813]]], [[[-77.22, -11.796], [-77.22, -11.796], [-77.22, -11.796], [-77.22, -11.796]]], [[[-77.221, -11.792], [-77.221, -11.792], [-77.221, -11.792], [-77.221, -11.792]]], [[[-77.212, -11.792], [-77.212, -11.792], [-77.212, -11.792], [-77.212, -11.792]]], [[[-77.241, -11.788], [-77.241, -11.788], [-77.241, -11.788], [-77.241, -11.788]]], [[[-77.24, -11.788], [-77.24, -11.788], [-77.24, -11.788], [-77.24, -11.788]]], [[[-77.241, -11.787], [-77.241, -11.787], [-77.241, -11.787], [-77.241, -11.787]]], [[[-77.217, -11.79], [-77.217, -11.79], [-77.217, -11.79], [-77.217, -11.79]]], [[[-77.216, -11.79], [-77.216, -11.79], [-77.216, -11.79], [-77.216, -11.79]]], [[[-77.198, -11.78], [-77.198, -11.78], [-77.198, -11.78], [-77.198, -11.78]]], [[[-77.198, -11.776], [-77.198, -11.776], [-77.198, -11.776], [-77.198, -11.776]]], [[[-77.268, -11.776], [-77.268, -11.776], [-77.268, -11.776], [-77.268, -11.776]]], [[[-77.265, -11.778], [-77.265, -11.778], [-77.265, -11.778], [-77.265, -11.778]]], [[[-77.266, -11.774], [-77.266, -11.774], [-77.266, -11.774], [-77.266, -11.774]]], [[[-77.266, -11.774], [-77.266, -11.774], [-77.266, -11.774], [-77.266, -11.774]]], [[[-77.258, -11.774], [-77.258, -11.774], [-77.258, -11.774], [-77.258, -11.774]]], [[[-77.26, -11.772], [-77.26, -11.772], [-77.26, -11.772], [-77.26, -11.772]]], [[[-77.275, -11.755], [-77.275, -11.755], [-77.275, -11.755], [-77.275, -11.755]]], [[[-77.844, -11.442], [-77.844, -11.442], [-77.844, -11.442], [-77.844, -11.442]]], [[[-77.748, -11.382], [-77.748, -11.382], [-77.748, -11.382], [-77.748, -11.382]]], [[[-77.726, -11.367], [-77.726, -11.367], [-77.726, -11.367], [-77.726, -11.367]]], [[[-77.724, -11.366], [-77.724, -11.366], [-77.724, -11.366], [-77.724, -11.366]]], [[[-77.747, -11.384], [-77.747, -11.384], [-77.747, -11.384], [-77.747, -11.384]]], [[[-77.748, -11.383], [-77.748, -11.383], [-77.748, -11.383], [-77.748, -11.383]]], [[[-77.746, -11.385], [-77.746, -11.385], [-77.746, -11.385], [-77.746, -11.385]]], [[[-77.724, -11.365], [-77.724, -11.365], [-77.724, -11.365], [-77.724, -11.365]]], [[[-77.704, -11.334], [-77.704, -11.334], [-77.704, -11.334], [-77.704, -11.334]]], [[[-77.706, -11.333], [-77.706, -11.333], [-77.706, -11.333], [-77.706, -11.333]]], [[[-77.706, -11.334], [-77.706, -11.334], [-77.706, -11.334], [-77.706, -11.334]]], [[[-77.65, -11.239], [-77.65, -11.239], [-77.65, -11.239], [-77.65, -11.239]]], [[[-77.651, -11.066], [-77.651, -11.066], [-77.651, -11.066], [-77.651, -11.066]]], [[[-77.67, -11.023], [-77.67, -11.023], [-77.67, -11.023], [-77.67, -11.023]]], [[[-77.752, -10.813], [-77.752, -10.813], [-77.752, -10.813], [-77.752, -10.813]]], [[[-77.939, -10.516], [-77.939, -10.516], [-77.939, -10.516], [-77.939, -10.516]]], [[[-77.998, -10.431], [-77.998, -10.431], [-77.998, -10.431], [-77.998, -10.431]]], [[[-78.011, -10.418], [-78.011, -10.418], [-78.011, -10.418], [-78.011, -10.418]]], [[[-78.008, -10.418], [-78.008, -10.418], [-78.008, -10.418], [-78.008, -10.418]]], [[[-78.036, -10.359], [-78.036, -10.359], [-78.036, -10.359], [-78.036, -10.359]]], [[[-78.056, -10.331], [-78.056, -10.331], [-78.056, -10.331], [-78.056, -10.331]]], [[[-78.179, -10.068], [-78.179, -10.068], [-78.179, -10.068], [-78.179, -10.068]]], [[[-78.009, -10.418], [-78.009, -10.418], [-78.009, -10.418], [-78.009, -10.418]]], [[[-70.88, -18.017], [-70.88, -18.017], [-70.88, -18.017], [-70.88, -18.017]]], [[[-70.88, -18.016], [-70.88, -18.016], [-70.88, -18.016], [-70.88, -18.016]]], [[[-70.884, -18.011], [-70.884, -18.011], [-70.884, -18.011], [-70.884, -18.011]]], [[[-71.387, -17.71], [-71.387, -17.71], [-71.387, -17.71], [-71.387, -17.71]]], [[[-71.37, -17.646], [-71.37, -17.646], [-71.37, -17.646], [-71.37, -17.646]]], [[[-71.393, -17.397], [-71.393, -17.397], [-71.393, -17.397], [-71.393, -17.397]]], [[[-71.406, -17.387], [-71.406, -17.387], [-71.406, -17.387], [-71.406, -17.387]]], [[[-71.509, -17.29], [-71.509, -17.29], [-71.509, -17.29], [-71.509, -17.29]]], [[[-71.525, -17.273], [-71.525, -17.273], [-71.525, -17.273], [-71.525, -17.273]]], [[[-71.53, -17.271], [-71.53, -17.271], [-71.53, -17.271], [-71.53, -17.271]]], [[[-71.539, -17.259], [-71.539, -17.259], [-71.539, -17.259], [-71.539, -17.259]]], [[[-72.11, -17.018], [-72.11, -17.018], [-72.11, -17.018], [-72.11, -17.018]]], [[[-72.114, -17.017], [-72.114, -17.017], [-72.114, -17.017], [-72.114, -17.017]]], [[[-72.112, -17.017], [-72.112, -17.017], [-72.112, -17.017], [-72.112, -17.017]]], [[[-72.099, -17.016], [-72.099, -17.016], [-72.099, -17.016], [-72.099, -17.016]]], [[[-72.108, -17.02], [-72.108, -17.02], [-72.108, -17.02], [-72.108, -17.02]]], [[[-72.115, -17.012], [-72.115, -17.012], [-72.115, -17.012], [-72.115, -17.012]]], [[[-72.117, -17.01], [-72.117, -17.01], [-72.117, -17.01], [-72.117, -17.01]]], [[[-72.121, -17.011], [-72.121, -17.011], [-72.121, -17.011], [-72.121, -17.011]]], [[[-72.121, -17.01], [-72.121, -17.01], [-72.121, -17.01], [-72.121, -17.01]]], [[[-72.118, -16.983], [-72.118, -16.983], [-72.118, -16.983], [-72.118, -16.983]]], [[[-72.15, -16.958], [-72.15, -16.958], [-72.15, -16.958], [-72.15, -16.958]]], [[[-72.151, -16.957], [-72.151, -16.957], [-72.151, -16.957], [-72.151, -16.957]]], [[[-72.157, -16.956], [-72.157, -16.956], [-72.157, -16.956], [-72.157, -16.956]]], [[[-72.233, -16.899], [-72.233, -16.899], [-72.233, -16.899], [-72.233, -16.899]]], [[[-72.289, -16.879], [-72.289, -16.879], [-72.289, -16.879], [-72.289, -16.879]]], [[[-72.29, -16.88], [-72.29, -16.88], [-72.29, -16.88], [-72.29, -16.88]]], [[[-72.29, -16.873], [-72.29, -16.873], [-72.29, -16.873], [-72.29, -16.873]]], [[[-72.293, -16.862], [-72.293, -16.862], [-72.293, -16.862], [-72.293, -16.862]]], [[[-72.291, -16.86], [-72.291, -16.86], [-72.291, -16.86], [-72.291, -16.86]]], [[[-72.286, -16.882], [-72.286, -16.882], [-72.286, -16.882], [-72.286, -16.882]]], [[[-72.29, -16.877], [-72.29, -16.877], [-72.29, -16.877], [-72.29, -16.877]]], [[[-73.039, -16.503], [-73.039, -16.503], [-73.039, -16.503], [-73.039, -16.503]]], [[[-73.056, -16.488], [-73.056, -16.488], [-73.056, -16.488], [-73.056, -16.488]]], [[[-73.235, -16.418], [-73.235, -16.418], [-73.235, -16.418], [-73.235, -16.418]]], [[[-73.235, -16.417], [-73.235, -16.417], [-73.235, -16.417], [-73.235, -16.417]]], [[[-73.291, -16.405], [-73.291, -16.405], [-73.291, -16.405], [-73.291, -16.405]]], [[[-73.27, -16.401], [-73.27, -16.401], [-73.27, -16.401], [-73.27, -16.401]]], [[[-68.841, -16.336], [-68.841, -16.336], [-68.841, -16.336], [-68.841, -16.336]]], [[[-68.843, -16.329], [-68.843, -16.329], [-68.843, -16.329], [-68.843, -16.329]]], [[[-69.255, -16.272], [-69.255, -16.272], [-69.255, -16.272], [-69.255, -16.272]]], [[[-69.226, -16.263], [-69.226, -16.263], [-69.226, -16.263], [-69.226, -16.263]]], [[[-68.904, -16.269], [-68.899, -16.263], [-68.89, -16.273], [-68.904, -16.269]]], [[[-68.89, -16.289], [-68.87, -16.279], [-68.862, -16.289], [-68.866, -16.297], [-68.877, -16.299], [-68.89, -16.289]]], [[[-68.897, -16.281], [-68.897, -16.281], [-68.897, -16.281], [-68.897, -16.281]]], [[[-68.846, -16.336], [-68.846, -16.336], [-68.846, -16.336], [-68.846, -16.336]]], [[[-68.866, -16.337], [-68.844, -16.326], [-68.855, -16.341], [-68.866, -16.337]]], [[[-68.871, -16.309], [-68.86, -16.305], [-68.86, -16.293], [-68.85, -16.305], [-68.85, -16.316], [-68.858, -16.319], [-68.871, -16.309]]], [[[-68.939, -16.244], [-68.939, -16.244], [-68.939, -16.244], [-68.939, -16.244]]], [[[-68.954, -16.227], [-68.937, -16.236], [-68.944, -16.246], [-68.954, -16.227]]], [[[-73.829, -16.159], [-73.829, -16.159], [-73.829, -16.159], [-73.829, -16.159]]], [[[-73.828, -16.16], [-73.828, -16.16], [-73.828, -16.16], [-73.828, -16.16]]], [[[-69.66, -15.918], [-69.66, -15.918], [-69.66, -15.918], [-69.66, -15.918]]], [[[-69.834, -15.9], [-69.834, -15.9], [-69.834, -15.9], [-69.834, -15.9]]], [[[-69.834, -15.888], [-69.826, -15.881], [-69.826, -15.894], [-69.834, -15.888]]], [[[-69.824, -15.879], [-69.816, -15.872], [-69.812, -15.882], [-69.824, -15.879]]], [[[-74.254, -15.867], [-74.254, -15.867], [-74.254, -15.867], [-74.254, -15.867]]], [[[-74.253, -15.865], [-74.253, -15.865], [-74.253, -15.865], [-74.253, -15.865]]], [[[-69.988, -15.837], [-69.988, -15.837], [-69.988, -15.837], [-69.988, -15.837]]], [[[-69.984, -15.826], [-69.984, -15.826], [-69.984, -15.826], [-69.984, -15.826]]], [[[-69.989, -15.829], [-69.989, -15.829], [-69.989, -15.829], [-69.989, -15.829]]], [[[-69.983, -15.825], [-69.983, -15.825], [-69.983, -15.825], [-69.983, -15.825]]], [[[-69.972, -15.824], [-69.972, -15.824], [-69.972, -15.824], [-69.972, -15.824]]], [[[-69.98, -15.824], [-69.98, -15.824], [-69.98, -15.824], [-69.98, -15.824]]], [[[-69.979, -15.823], [-69.979, -15.823], [-69.979, -15.823], [-69.979, -15.823]]], [[[-69.969, -15.823], [-69.969, -15.823], [-69.969, -15.823], [-69.969, -15.823]]], [[[-69.972, -15.823], [-69.972, -15.823], [-69.972, -15.823], [-69.972, -15.823]]], [[[-69.972, -15.823], [-69.972, -15.823], [-69.972, -15.823], [-69.972, -15.823]]], [[[-69.969, -15.822], [-69.969, -15.822], [-69.969, -15.822], [-69.969, -15.822]]], [[[-69.971, -15.821], [-69.971, -15.821], [-69.971, -15.821], [-69.971, -15.821]]], [[[-69.969, -15.82], [-69.969, -15.82], [-69.969, -15.82], [-69.969, -15.82]]], [[[-69.975, -15.818], [-69.975, -15.818], [-69.975, -15.818], [-69.975, -15.818]]], [[[-69.971, -15.817], [-69.971, -15.817], [-69.971, -15.817], [-69.971, -15.817]]], [[[-69.971, -15.817], [-69.971, -15.817], [-69.971, -15.817], [-69.971, -15.817]]], [[[-69.973, -15.819], [-69.973, -15.819], [-69.973, -15.819], [-69.973, -15.819]]], [[[-69.97, -15.819], [-69.97, -15.819], [-69.97, -15.819], [-69.97, -15.819]]], [[[-69.973, -15.815], [-69.973, -15.815], [-69.973, -15.815], [-69.973, -15.815]]], [[[-69.975, -15.816], [-69.975, -15.816], [-69.975, -15.816], [-69.975, -15.816]]], [[[-69.975, -15.814], [-69.975, -15.814], [-69.975, -15.814], [-69.975, -15.814]]], [[[-69.973, -15.813], [-69.973, -15.813], [-69.973, -15.813], [-69.973, -15.813]]], [[[-69.975, -15.814], [-69.975, -15.814], [-69.975, -15.814], [-69.975, -15.814]]], [[[-69.973, -15.814], [-69.973, -15.814], [-69.973, -15.814], [-69.973, -15.814]]], [[[-69.976, -15.812], [-69.976, -15.812], [-69.976, -15.812], [-69.976, -15.812]]], [[[-69.973, -15.812], [-69.973, -15.812], [-69.973, -15.812], [-69.973, -15.812]]], [[[-69.973, -15.811], [-69.973, -15.811], [-69.973, -15.811], [-69.973, -15.811]]], [[[-69.976, -15.811], [-69.976, -15.811], [-69.976, -15.811], [-69.976, -15.811]]], [[[-69.973, -15.811], [-69.973, -15.811], [-69.973, -15.811], [-69.973, -15.811]]], [[[-69.975, -15.813], [-69.975, -15.813], [-69.975, -15.813], [-69.975, -15.813]]], [[[-69.973, -15.813], [-69.973, -15.813], [-69.973, -15.813], [-69.973, -15.813]]], [[[-69.975, -15.817], [-69.975, -15.817], [-69.975, -15.817], [-69.975, -15.817]]], [[[-69.973, -15.811], [-69.973, -15.811], [-69.973, -15.811], [-69.973, -15.811]]], [[[-69.975, -15.81], [-69.975, -15.81], [-69.975, -15.81], [-69.975, -15.81]]], [[[-69.975, -15.809], [-69.975, -15.809], [-69.975, -15.809], [-69.975, -15.809]]], [[[-69.68, -15.797], [-69.68, -15.797], [-69.68, -15.797], [-69.68, -15.797]]], [[[-69.698, -15.755], [-69.689, -15.75], [-69.678, -15.767], [-69.676, -15.792], [-69.682, -15.799], [-69.684, -15.785], [-69.698, -15.755]]], [[[-69.972, -15.81], [-69.972, -15.81], [-69.972, -15.81], [-69.972, -15.81]]], [[[-69.975, -15.809], [-69.975, -15.809], [-69.975, -15.809], [-69.975, -15.809]]], [[[-74.458, -15.761], [-74.458, -15.761], [-74.458, -15.761], [-74.458, -15.761]]], [[[-70.024, -15.753], [-70.024, -15.753], [-70.024, -15.753], [-70.024, -15.753]]], [[[-69.971, -15.713], [-69.971, -15.713], [-69.971, -15.713], [-69.971, -15.713]]], [[[-69.971, -15.711], [-69.971, -15.711], [-69.971, -15.711], [-69.971, -15.711]]], [[[-69.972, -15.709], [-69.972, -15.709], [-69.972, -15.709], [-69.972, -15.709]]], [[[-69.992, -15.708], [-69.992, -15.708], [-69.992, -15.708], [-69.992, -15.708]]], [[[-69.971, -15.712], [-69.971, -15.712], [-69.971, -15.712], [-69.971, -15.712]]], [[[-69.971, -15.709], [-69.971, -15.709], [-69.971, -15.709], [-69.971, -15.709]]], [[[-69.975, -15.707], [-69.975, -15.707], [-69.975, -15.707], [-69.975, -15.707]]], [[[-69.973, -15.707], [-69.973, -15.707], [-69.973, -15.707], [-69.973, -15.707]]], [[[-69.975, -15.706], [-69.975, -15.706], [-69.975, -15.706], [-69.975, -15.706]]], [[[-69.971, -15.706], [-69.971, -15.706], [-69.971, -15.706], [-69.971, -15.706]]], [[[-69.971, -15.706], [-69.971, -15.706], [-69.971, -15.706], [-69.971, -15.706]]], [[[-69.974, -15.706], [-69.974, -15.706], [-69.974, -15.706], [-69.974, -15.706]]], [[[-69.974, -15.706], [-69.974, -15.706], [-69.974, -15.706], [-69.974, -15.706]]], [[[-69.76, -15.684], [-69.76, -15.684], [-69.76, -15.684], [-69.76, -15.684]]], [[[-69.94, -15.677], [-69.94, -15.677], [-69.94, -15.677], [-69.94, -15.677]]], [[[-69.695, -15.671], [-69.695, -15.671], [-69.695, -15.671], [-69.695, -15.671]]], [[[-69.728, -15.663], [-69.709, -15.649], [-69.693, -15.66], [-69.702, -15.676], [-69.716, -15.681], [-69.728, -15.663]]], [[[-69.913, -15.655], [-69.913, -15.655], [-69.913, -15.655], [-69.913, -15.655]]], [[[-69.791, -15.647], [-69.791, -15.647], [-69.791, -15.647], [-69.791, -15.647]]], [[[-69.759, -15.673], [-69.759, -15.673], [-69.759, -15.673], [-69.759, -15.673]]], [[[-69.973, -15.706], [-69.973, -15.706], [-69.973, -15.706], [-69.973, -15.706]]], [[[-69.973, -15.705], [-69.973, -15.705], [-69.973, -15.705], [-69.973, -15.705]]], [[[-69.973, -15.811], [-69.973, -15.811], [-69.973, -15.811], [-69.973, -15.811]]], [[[-69.976, -15.811], [-69.976, -15.811], [-69.976, -15.811], [-69.976, -15.811]]], [[[-69.976, -15.811], [-69.976, -15.811], [-69.976, -15.811], [-69.976, -15.811]]], [[[-69.996, -15.829], [-69.996, -15.829], [-69.996, -15.829], [-69.996, -15.829]]], [[[-69.971, -15.826], [-69.971, -15.826], [-69.971, -15.826], [-69.971, -15.826]]], [[[-69.987, -15.828], [-69.987, -15.828], [-69.987, -15.828], [-69.987, -15.828]]], [[[-69.983, -15.826], [-69.983, -15.826], [-69.983, -15.826], [-69.983, -15.826]]], [[[-69.78, -15.645], [-69.78, -15.645], [-69.78, -15.645], [-69.78, -15.645]]], [[[-69.932, -15.586], [-69.932, -15.586], [-69.932, -15.586], [-69.932, -15.586]]], [[[-69.913, -15.625], [-69.913, -15.625], [-69.913, -15.625], [-69.913, -15.625]]], [[[-69.806, -15.625], [-69.806, -15.625], [-69.806, -15.625], [-69.806, -15.625]]], [[[-69.512, -15.538], [-69.508, -15.535], [-69.49, -15.552], [-69.483, -15.572], [-69.512, -15.538]]], [[[-69.398, -15.504], [-69.398, -15.504], [-69.398, -15.504], [-69.398, -15.504]]], [[[-69.385, -15.49], [-69.385, -15.49], [-69.385, -15.49], [-69.385, -15.49]]], [[[-69.481, -15.454], [-69.481, -15.454], [-69.481, -15.454], [-69.481, -15.454]]], [[[-69.635, -15.368], [-69.635, -15.368], [-69.635, -15.368], [-69.635, -15.368]]], [[[-69.789, -15.351], [-69.789, -15.351], [-69.789, -15.351], [-69.789, -15.351]]], [[[-69.673, -15.306], [-69.67, -15.3], [-69.661, -15.307], [-69.645, -15.326], [-69.662, -15.319], [-69.673, -15.306]]], [[[-69.69, -15.292], [-69.69, -15.292], [-69.69, -15.292], [-69.69, -15.292]]], [[[-74.961, -15.498], [-74.961, -15.498], [-74.961, -15.498], [-74.961, -15.498]]], [[[-74.96, -15.497], [-74.96, -15.497], [-74.96, -15.497], [-74.96, -15.497]]], [[[-74.962, -15.497], [-74.962, -15.497], [-74.962, -15.497], [-74.962, -15.497]]], [[[-75.241, -15.277], [-75.241, -15.277], [-75.241, -15.277], [-75.241, -15.277]]], [[[-75.242, -15.273], [-75.242, -15.273], [-75.242, -15.273], [-75.242, -15.273]]], [[[-69.679, -15.261], [-69.679, -15.261], [-69.679, -15.261], [-69.679, -15.261]]], [[[-75.26, -15.257], [-75.26, -15.257], [-75.26, -15.257], [-75.26, -15.257]]], [[[-75.354, -15.153], [-75.354, -15.153], [-75.354, -15.153], [-75.354, -15.153]]], [[[-75.689, -14.813], [-75.689, -14.813], [-75.689, -14.813], [-75.689, -14.813]]], [[[-75.739, -14.784], [-75.739, -14.784], [-75.739, -14.784], [-75.739, -14.784]]], [[[-75.925, -14.659], [-75.925, -14.659], [-75.925, -14.659], [-75.925, -14.659]]], [[[-75.924, -14.66], [-75.924, -14.66], [-75.924, -14.66], [-75.924, -14.66]]], [[[-76.164, -14.32], [-76.164, -14.32], [-76.164, -14.32], [-76.164, -14.32]]], [[[-76.166, -14.318], [-76.166, -14.318], [-76.166, -14.318], [-76.166, -14.318]]], [[[-76.163, -14.322], [-76.163, -14.322], [-76.163, -14.322], [-76.163, -14.322]]], [[[-76.159, -14.321], [-76.159, -14.321], [-76.159, -14.321], [-76.159, -14.321]]], [[[-76.16, -14.323], [-76.16, -14.323], [-76.16, -14.323], [-76.16, -14.323]]], [[[-76.186, -14.284], [-76.175, -14.291], [-76.177, -14.296], [-76.192, -14.294], [-76.208, -14.286], [-76.219, -14.273], [-76.216, -14.26], [-76.201, -14.264], [-76.187, -14.272], [-76.186, -14.284]]], [[[-76.29, -14.141], [-76.29, -14.141], [-76.29, -14.141], [-76.29, -14.141]]], [[[-76.267, -14.054], [-76.267, -14.054], [-76.267, -14.054], [-76.267, -14.054]]], [[[-76.271, -14.053], [-76.271, -14.053], [-76.271, -14.053], [-76.271, -14.053]]], [[[-76.265, -14.049], [-76.265, -14.049], [-76.265, -14.049], [-76.265, -14.049]]], [[[-76.298, -13.999], [-76.298, -13.999], [-76.298, -13.999], [-76.298, -13.999]]], [[[-76.29, -13.997], [-76.29, -13.997], [-76.29, -13.997], [-76.29, -13.997]]], [[[-76.317, -13.917], [-76.317, -13.917], [-76.317, -13.917], [-76.317, -13.917]]], [[[-76.468, -13.841], [-76.468, -13.841], [-76.468, -13.841], [-76.468, -13.841]]], [[[-76.468, -13.841], [-76.468, -13.841], [-76.468, -13.841], [-76.468, -13.841]]], [[[-76.452, -13.818], [-76.452, -13.818], [-76.452, -13.818], [-76.452, -13.818]]], [[[-76.454, -13.815], [-76.454, -13.815], [-76.454, -13.815], [-76.454, -13.815]]], [[[-76.398, -13.768], [-76.398, -13.768], [-76.398, -13.768], [-76.398, -13.768]]], [[[-76.446, -13.858], [-76.467, -13.845], [-76.457, -13.823], [-76.444, -13.823], [-76.434, -13.836], [-76.434, -13.849], [-76.446, -13.858]]], [[[-76.458, -13.822], [-76.458, -13.822], [-76.458, -13.822], [-76.458, -13.822]]], [[[-76.166, -14.315], [-76.166, -14.315], [-76.166, -14.315], [-76.166, -14.315]]], [[[-76.165, -14.317], [-76.165, -14.317], [-76.165, -14.317], [-76.165, -14.317]]], [[[-76.399, -13.762], [-76.399, -13.762], [-76.399, -13.762], [-76.399, -13.762]]], [[[-76.4, -13.742], [-76.4, -13.742], [-76.4, -13.742], [-76.4, -13.742]]], [[[-76.314, -13.738], [-76.314, -13.738], [-76.314, -13.738], [-76.314, -13.738]]], [[[-76.399, -13.734], [-76.399, -13.734], [-76.399, -13.734], [-76.399, -13.734]]], [[[-76.396, -13.739], [-76.396, -13.739], [-76.396, -13.739], [-76.396, -13.739]]], [[[-76.312, -13.737], [-76.312, -13.737], [-76.312, -13.737], [-76.312, -13.737]]], [[[-76.398, -13.735], [-76.398, -13.735], [-76.398, -13.735], [-76.398, -13.735]]], [[[-76.413, -13.665], [-76.413, -13.665], [-76.413, -13.665], [-76.413, -13.665]]], [[[-76.414, -13.664], [-76.414, -13.664], [-76.414, -13.664], [-76.414, -13.664]]], [[[-76.397, -13.646], [-76.397, -13.646], [-76.397, -13.646], [-76.397, -13.646]]], [[[-76.402, -13.654], [-76.402, -13.654], [-76.402, -13.654], [-76.402, -13.654]]], [[[-76.404, -13.648], [-76.404, -13.648], [-76.404, -13.648], [-76.404, -13.648]]], [[[-76.4, -13.734], [-76.4, -13.734], [-76.4, -13.734], [-76.4, -13.734]]], [[[-76.397, -13.734], [-76.397, -13.734], [-76.397, -13.734], [-76.397, -13.734]]], [[[-76.4, -13.624], [-76.4, -13.624], [-76.4, -13.624], [-76.4, -13.624]]], [[[-76.505, -12.983], [-76.505, -12.983], [-76.505, -12.983], [-76.505, -12.983]]], [[[-76.52, -12.953], [-76.52, -12.953], [-76.52, -12.953], [-76.52, -12.953]]], [[[-76.395, -13.631], [-76.395, -13.631], [-76.395, -13.631], [-76.395, -13.631]]], [[[-76.397, -13.631], [-76.397, -13.631], [-76.397, -13.631], [-76.397, -13.631]]], [[[-76.395, -13.63], [-76.395, -13.63], [-76.395, -13.63], [-76.395, -13.63]]], [[[-76.395, -13.629], [-76.395, -13.629], [-76.395, -13.629], [-76.395, -13.629]]], [[[-76.509, -12.948], [-76.509, -12.948], [-76.509, -12.948], [-76.509, -12.948]]], [[[-76.51, -12.911], [-76.51, -12.911], [-76.51, -12.911], [-76.51, -12.911]]], [[[-76.516, -12.888], [-76.516, -12.888], [-76.516, -12.888], [-76.516, -12.888]]], [[[-76.616, -12.793], [-76.616, -12.793], [-76.616, -12.793], [-76.616, -12.793]]], [[[-76.618, -12.789], [-76.618, -12.789], [-76.618, -12.789], [-76.618, -12.789]]], [[[-76.618, -12.789], [-76.618, -12.789], [-76.618, -12.789], [-76.618, -12.789]]], [[[-76.618, -12.788], [-76.618, -12.788], [-76.618, -12.788], [-76.618, -12.788]]], [[[-76.616, -12.794], [-76.616, -12.794], [-76.616, -12.794], [-76.616, -12.794]]], [[[-76.395, -13.633], [-76.395, -13.633], [-76.395, -13.633], [-76.395, -13.633]]], [[[-76.394, -13.632], [-76.394, -13.632], [-76.394, -13.632], [-76.394, -13.632]]], [[[-76.392, -13.633], [-76.392, -13.633], [-76.392, -13.633], [-76.392, -13.633]]], [[[-69.704, -15.276], [-69.689, -15.283], [-69.702, -15.284], [-69.704, -15.276]]], [[[-69.711, -15.282], [-69.711, -15.282], [-69.711, -15.282], [-69.711, -15.282]]], [[[-69.036, -16.563], [-69.04, -16.573], [-69.036, -16.58], [-69.033, -16.607], [-69.022, -16.615], [-69.017, -16.638], [-68.996, -16.657], [-69.012, -16.67], [-69.026, -16.673], [-69.043, -16.688], [-69.055, -16.687], [-69.059, -16.693], [-69.073, -16.696], [-69.1, -16.711], [-69.124, -16.716], [-69.136, -16.714], [-69.153, -16.725], [-69.17, -16.728], [-69.182, -16.757], [-69.186, -16.798], [-69.198, -16.799], [-69.219, -16.836], [-69.253, -16.861], [-69.305, -16.916], [-69.325, -16.952], [-69.32, -16.961], [-69.344, -16.987], [-69.371, -16.992], [-69.395, -17.024], [-69.384, -17.031], [-69.373, -17.05], [-69.374, -17.073], [-69.406, -17.1], [-69.433, -17.11], [-69.449, -17.098], [-69.473, -17.118], [-69.512, -17.146], [-69.557, -17.159], [-69.563, -17.175], [-69.573, -17.185], [-69.569, -17.194], [-69.58, -17.208], [-69.601, -17.217], [-69.616, -17.261], [-69.627, -17.273], [-69.636, -17.271], [-69.645, -17.282], [-69.642, -17.287], [-69.576, -17.291], [-69.469, -17.374], [-69.468, -17.498], [-69.552, -17.575], [-69.619, -17.623], [-69.667, -17.66], [-69.731, -17.652], [-69.796, -17.646], [-69.826, -17.706], [-69.822, -17.744], [-69.801, -17.762], [-69.803, -17.788], [-69.799, -17.865], [-69.78, -17.912], [-69.75, -17.947], [-69.755, -17.989], [-69.816, -18.117], [-69.86, -18.17], [-69.907, -18.203], [-69.966, -18.262], [-69.985, -18.27], [-70.05, -18.269], [-70.078, -18.284], [-70.149, -18.319], [-70.198, -18.322], [-70.275, -18.31], [-70.302, -18.309], [-70.322, -18.312], [-70.34, -18.319], [-70.357, -18.329], [-70.379, -18.35], [-70.395, -18.336], [-70.465, -18.285], [-70.525, -18.247], [-70.599, -18.203], [-70.679, -18.162], [-70.708, -18.135], [-70.715, -18.125], [-70.728, -18.119], [-70.731, -18.106], [-70.752, -18.089], [-70.796, -18.055], [-70.813, -18.049], [-70.813, -18.04], [-70.855, -18.027], [-70.889, -18.004], [-70.883, -17.993], [-70.891, -17.969], [-70.91, -17.952], [-70.909, -17.942], [-70.923, -17.938], [-70.924, -17.929], [-70.935, -17.929], [-70.942, -17.915], [-70.96, -17.911], [-70.975, -17.897], [-71.011, -17.877], [-71.027, -17.884], [-71.041, -17.879], [-71.052, -17.88], [-71.059, -17.873], [-71.073, -17.873], [-71.096, -17.868], [-71.106, -17.843], [-71.139, -17.822], [-71.15, -17.82], [-71.175, -17.803], [-71.177, -17.79], [-71.185, -17.781], [-71.206, -17.769], [-71.27, -17.735], [-71.327, -17.704], [-71.35, -17.693], [-71.364, -17.693], [-71.365, -17.702], [-71.381, -17.704], [-71.371, -17.692], [-71.372, -17.682], [-71.364, -17.675], [-71.359, -17.66], [-71.344, -17.642], [-71.345, -17.611], [-71.358, -17.589], [-71.358, -17.569], [-71.365, -17.545], [-71.361, -17.54], [-71.368, -17.521], [-71.361, -17.509], [-71.363, -17.489], [-71.373, -17.475], [-71.387, -17.429], [-71.383, -17.42], [-71.39, -17.398], [-71.398, -17.386], [-71.413, -17.381], [-71.422, -17.366], [-71.432, -17.367], [-71.431, -17.351], [-71.438, -17.338], [-71.459, -17.331], [-71.477, -17.316], [-71.473, -17.297], [-71.497, -17.281], [-71.506, -17.271], [-71.52, -17.265], [-71.528, -17.27], [-71.534, -17.256], [-71.545, -17.259], [-71.557, -17.256], [-71.564, -17.262], [-71.57, -17.254], [-71.608, -17.243], [-71.631, -17.233], [-71.69, -17.212], [-71.729, -17.203], [-71.776, -17.195], [-71.804, -17.187], [-71.834, -17.175], [-71.85, -17.165], [-71.886, -17.132], [-71.923, -17.088], [-71.96, -17.06], [-72.008, -17.035], [-72.026, -17.021], [-72.033, -17.023], [-72.048, -17.016], [-72.05, -17.02], [-72.076, -17.021], [-72.095, -17.012], [-72.113, -17.016], [-72.113, -17.006], [-72.104, -16.996], [-72.124, -16.975], [-72.12, -16.97], [-72.149, -16.962], [-72.146, -16.957], [-72.165, -16.949], [-72.165, -16.938], [-72.173, -16.941], [-72.2, -16.92], [-72.212, -16.902], [-72.234, -16.899], [-72.248, -16.886], [-72.263, -16.886], [-72.277, -16.873], [-72.288, -16.875], [-72.297, -16.849], [-72.296, -16.83], [-72.313, -16.813], [-72.315, -16.803], [-72.329, -16.8], [-72.331, -16.79], [-72.365, -16.761], [-72.374, -16.761], [-72.387, -16.75], [-72.398, -16.753], [-72.411, -16.736], [-72.417, -16.736], [-72.424, -16.724], [-72.436, -16.718], [-72.448, -16.702], [-72.47, -16.698], [-72.543, -16.678], [-72.572, -16.674], [-72.594, -16.667], [-72.626, -16.662], [-72.709, -16.653], [-72.734, -16.645], [-72.772, -16.629], [-72.79, -16.616], [-72.845, -16.567], [-72.885, -16.539], [-72.916, -16.52], [-72.943, -16.515], [-72.964, -16.518], [-72.974, -16.514], [-72.987, -16.517], [-73.004, -16.507], [-73.012, -16.512], [-73.026, -16.502], [-73.053, -16.498], [-73.053, -16.489], [-73.078, -16.475], [-73.11, -16.452], [-73.119, -16.454], [-73.133, -16.449], [-73.149, -16.439], [-73.159, -16.42], [-73.187, -16.416], [-73.203, -16.403], [-73.215, -16.4], [-73.224, -16.413], [-73.246, -16.406], [-73.26, -16.409], [-73.26, -16.402], [-73.272, -16.398], [-73.288, -16.405], [-73.305, -16.38], [-73.307, -16.362], [-73.303, -16.349], [-73.314, -16.339], [-73.337, -16.327], [-73.391, -16.309], [-73.405, -16.299], [-73.451, -16.281], [-73.474, -16.279], [-73.482, -16.284], [-73.497, -16.273], [-73.531, -16.257], [-73.551, -16.251], [-73.559, -16.244], [-73.567, -16.25], [-73.589, -16.241], [-73.603, -16.24], [-73.62, -16.23], [-73.633, -16.229], [-73.649, -16.234], [-73.676, -16.224], [-73.701, -16.241], [-73.699, -16.221], [-73.721, -16.207], [-73.728, -16.195], [-73.772, -16.175], [-73.801, -16.169], [-73.835, -16.155], [-73.853, -16.142], [-73.869, -16.136], [-73.881, -16.116], [-73.889, -16.109], [-73.924, -16.092], [-73.931, -16.085], [-73.953, -16.075], [-73.959, -16.061], [-73.975, -16.053], [-73.99, -16.039], [-73.998, -16.042], [-74.007, -16.034], [-74.018, -16.036], [-74.02, -16.026], [-74.033, -16.018], [-74.025, -15.994], [-74.042, -15.964], [-74.054, -15.955], [-74.101, -15.932], [-74.12, -15.924], [-74.175, -15.897], [-74.213, -15.889], [-74.213, -15.885], [-74.242, -15.879], [-74.25, -15.869], [-74.25, -15.858], [-74.256, -15.851], [-74.286, -15.837], [-74.319, -15.849], [-74.342, -15.841], [-74.362, -15.838], [-74.363, -15.832], [-74.374, -15.835], [-74.423, -15.811], [-74.439, -15.795], [-74.448, -15.773], [-74.463, -15.755], [-74.46, -15.741], [-74.463, -15.727], [-74.472, -15.719], [-74.502, -15.707], [-74.532, -15.701], [-74.554, -15.693], [-74.608, -15.671], [-74.649, -15.658], [-74.686, -15.642], [-74.688, -15.636], [-74.75, -15.6], [-74.786, -15.584], [-74.831, -15.567], [-74.844, -15.565], [-74.848, -15.555], [-74.868, -15.536], [-74.91, -15.512], [-74.935, -15.502], [-74.974, -15.491], [-74.985, -15.47], [-75.007, -15.46], [-75.026, -15.458], [-75.032, -15.461], [-75.056, -15.455], [-75.07, -15.443], [-75.07, -15.435], [-75.083, -15.424], [-75.1, -15.421], [-75.108, -15.412], [-75.124, -15.406], [-75.14, -15.407], [-75.15, -15.391], [-75.159, -15.393], [-75.161, -15.38], [-75.192, -15.369], [-75.185, -15.355], [-75.161, -15.359], [-75.155, -15.355], [-75.151, -15.339], [-75.157, -15.321], [-75.169, -15.307], [-75.197, -15.291], [-75.216, -15.292], [-75.219, -15.285], [-75.23, -15.285], [-75.231, -15.277], [-75.24, -15.273], [-75.237, -15.268], [-75.255, -15.257], [-75.258, -15.25], [-75.244, -15.256], [-75.225, -15.259], [-75.219, -15.25], [-75.217, -15.231], [-75.232, -15.203], [-75.275, -15.168], [-75.317, -15.15], [-75.339, -15.147], [-75.349, -15.158], [-75.348, -15.149], [-75.356, -15.14], [-75.369, -15.15], [-75.369, -15.134], [-75.376, -15.121], [-75.384, -15.116], [-75.392, -15.101], [-75.395, -15.081], [-75.409, -15.068], [-75.414, -15.043], [-75.423, -15.03], [-75.433, -15.026], [-75.443, -15.001], [-75.475, -14.984], [-75.5, -14.967], [-75.504, -14.96], [-75.501, -14.944], [-75.493, -14.932], [-75.51, -14.911], [-75.545, -14.884], [-75.575, -14.868], [-75.633, -14.839], [-75.68, -14.818], [-75.706, -14.798], [-75.736, -14.783], [-75.737, -14.777], [-75.784, -14.748], [-75.856, -14.716], [-75.849, -14.705], [-75.857, -14.693], [-75.878, -14.679], [-75.916, -14.659], [-75.927, -14.643], [-75.923, -14.632], [-75.932, -14.61], [-75.926, -14.601], [-75.932, -14.589], [-75.932, -14.568], [-75.974, -14.525], [-75.965, -14.506], [-75.972, -14.47], [-75.986, -14.458], [-76.011, -14.444], [-76.016, -14.437], [-76.039, -14.424], [-76.041, -14.416], [-76.066, -14.387], [-76.099, -14.368], [-76.126, -14.359], [-76.132, -14.354], [-76.142, -14.327], [-76.111, -14.329], [-76.105, -14.314], [-76.11, -14.293], [-76.129, -14.265], [-76.13, -14.248], [-76.144, -14.228], [-76.191, -14.198], [-76.191, -14.186], [-76.198, -14.173], [-76.205, -14.175], [-76.218, -14.168], [-76.216, -14.16], [-76.231, -14.149], [-76.253, -14.15], [-76.26, -14.142], [-76.271, -14.143], [-76.256, -14.167], [-76.261, -14.185], [-76.272, -14.2], [-76.275, -14.183], [-76.289, -14.164], [-76.279, -14.154], [-76.286, -14.139], [-76.28, -14.125], [-76.287, -14.11], [-76.285, -14.1], [-76.292, -14.089], [-76.276, -14.082], [-76.276, -14.062], [-76.264, -14.062], [-76.262, -14.05], [-76.271, -14.036], [-76.262, -14.03], [-76.263, -14.02], [-76.286, -13.998], [-76.275, -13.992], [-76.27, -13.981], [-76.273, -13.952], [-76.295, -13.927], [-76.283, -13.918], [-76.283, -13.909], [-76.296, -13.905], [-76.298, -13.893], [-76.311, -13.892], [-76.318, -13.908], [-76.316, -13.915], [-76.33, -13.925], [-76.344, -13.915], [-76.356, -13.923], [-76.36, -13.915], [-76.373, -13.91], [-76.396, -13.909], [-76.398, -13.892], [-76.39, -13.876], [-76.391, -13.862], [-76.386, -13.844], [-76.379, -13.833], [-76.371, -13.832], [-76.371, -13.809], [-76.357, -13.801], [-76.345, -13.804], [-76.328, -13.793], [-76.297, -13.792], [-76.289, -13.797], [-76.294, -13.811], [-76.305, -13.825], [-76.303, -13.832], [-76.312, -13.845], [-76.301, -13.838], [-76.283, -13.853], [-76.272, -13.856], [-76.261, -13.866], [-76.251, -13.85], [-76.258, -13.837], [-76.249, -13.832], [-76.251, -13.823], [-76.239, -13.776], [-76.22, -13.718], [-76.217, -13.681], [-76.207, -13.657], [-76.198, -13.641], [-76.193, -13.612], [-76.187, -13.55], [-76.191, -13.471], [-76.185, -13.462], [-76.186, -13.448], [-76.191, -13.424], [-76.208, -13.381], [-76.223, -13.355], [-76.248, -13.317], [-76.284, -13.272], [-76.313, -13.242], [-76.355, -13.192], [-76.361, -13.177], [-76.391, -13.146], [-76.392, -13.139], [-76.434, -13.09], [-76.48, -13.044], [-76.491, -13.03], [-76.482, -13.017], [-76.497, -12.99], [-76.507, -12.98], [-76.506, -12.971], [-76.513, -12.964], [-76.514, -12.952], [-76.507, -12.947], [-76.506, -12.926], [-76.518, -12.873], [-76.515, -12.86], [-76.519, -12.85], [-76.541, -12.831], [-76.559, -12.821], [-76.564, -12.806], [-76.599, -12.782], [-76.609, -12.778], [-76.622, -12.755], [-76.638, -12.741], [-76.63, -12.727], [-76.636, -12.713], [-76.653, -12.699], [-76.659, -12.677], [-76.672, -12.661], [-76.669, -12.645], [-76.672, -12.629], [-76.687, -12.61], [-76.706, -12.594], [-76.709, -12.575], [-76.735, -12.55], [-76.759, -12.532], [-76.801, -12.508], [-76.798, -12.489], [-76.803, -12.48], [-76.792, -12.479], [-76.783, -12.453], [-76.785, -12.445], [-76.775, -12.438], [-76.782, -12.415], [-76.776, -12.408], [-76.779, -12.392], [-76.803, -12.359], [-76.817, -12.352], [-76.818, -12.341], [-76.828, -12.338], [-76.838, -12.324], [-76.836, -12.317], [-76.846, -12.307], [-76.87, -12.292], [-76.889, -12.285], [-76.927, -12.256], [-76.949, -12.243], [-77.022, -12.211], [-77.038, -12.206], [-77.04, -12.193], [-77.034, -12.174], [-77.039, -12.167], [-77.028, -12.165], [-77.025, -12.152], [-77.032, -12.133], [-77.052, -12.114], [-77.088, -12.092], [-77.13, -12.071], [-77.156, -12.067], [-77.159, -12.074], [-77.171, -12.072], [-77.152, -12.062], [-77.144, -12.052], [-77.146, -12.031], [-77.138, -12.004], [-77.134, -11.981], [-77.136, -11.954], [-77.146, -11.902], [-77.16, -11.867], [-77.174, -11.845], [-77.181, -11.845], [-77.188, -11.827], [-77.177, -11.816], [-77.178, -11.802], [-77.184, -11.79], [-77.195, -11.78], [-77.198, -11.768], [-77.178, -11.775], [-77.171, -11.764], [-77.17, -11.736], [-77.184, -11.712], [-77.198, -11.696], [-77.192, -11.68], [-77.208, -11.655], [-77.209, -11.648], [-77.247, -11.616], [-77.281, -11.587], [-77.272, -11.584], [-77.272, -11.572], [-77.276, -11.559], [-77.295, -11.538], [-77.296, -11.529], [-77.306, -11.512], [-77.342, -11.487], [-77.343, -11.475], [-77.372, -11.453], [-77.45, -11.405], [-77.498, -11.377], [-77.582, -11.333], [-77.648, -11.302], [-77.642, -11.288], [-77.641, -11.27], [-77.649, -11.24], [-77.644, -11.235], [-77.647, -11.222], [-77.642, -11.215], [-77.629, -11.212], [-77.628, -11.217], [-77.602, -11.213], [-77.594, -11.193], [-77.597, -11.162], [-77.607, -11.142], [-77.62, -11.127], [-77.612, -11.117], [-77.615, -11.109], [-77.632, -11.094], [-77.628, -11.084], [-77.637, -11.071], [-77.633, -11.055], [-77.641, -11.038], [-77.662, -11.013], [-77.649, -11.004], [-77.648, -10.987], [-77.665, -10.958], [-77.662, -10.951], [-77.676, -10.921], [-77.709, -10.871], [-77.704, -10.858], [-77.723, -10.837], [-77.75, -10.818], [-77.754, -10.804], [-77.744, -10.795], [-77.756, -10.775], [-77.766, -10.772], [-77.763, -10.765], [-77.772, -10.752], [-77.792, -10.738], [-77.804, -10.726], [-77.81, -10.701], [-77.841, -10.671], [-77.86, -10.649], [-77.865, -10.64], [-77.886, -10.613], [-77.887, -10.605], [-77.909, -10.569], [-77.901, -10.564], [-77.908, -10.544], [-77.93, -10.523], [-77.939, -10.509], [-77.961, -10.493], [-77.963, -10.471], [-77.976, -10.456], [-77.98, -10.44], [-78.007, -10.42], [-78.015, -10.41], [-78.004, -10.403], [-78.001, -10.394], [-78.014, -10.371], [-78.055, -10.345], [-78.055, -10.319], [-78.062, -10.308], [-78.058, -10.301], [-78.078, -10.282], [-78.087, -10.277], [-78.087, -10.259], [-78.081, -10.248], [-78.088, -10.249], [-78.092, -10.239], [-78.087, -10.231], [-78.096, -10.222], [-78.102, -10.2], [-78.113, -10.196], [-78.123, -10.176], [-78.135, -10.171], [-78.164, -10.147], [-78.174, -10.114], [-78.186, -10.109], [-78.183, -10.1], [-78.169, -10.097], [-78.168, -10.082], [-78.176, -10.067], [-78.173, -10.061], [-78.177, -10.042], [-78.188, -10.023], [-78.196, -10.02], [-78.194, -10], [-78.2, -9.993], [-78.2, -9.981], [-78.209, -9.977], [-78.209, -9.966], [-78.234, -9.952], [-78.226, -9.941], [-78.224, -9.922], [-78.229, -9.917], [-78.225, -9.907], [-78.234, -9.883], [-78.243, -9.873], [-78.242, -9.856], [-78.237, -9.856], [-78.235, -9.83], [-78.228, -9.821], [-78.227, -9.795], [-78.236, -9.788], [-78.246, -9.77], [-78.261, -9.759], [-78.274, -9.755], [-78.276, -9.742], [-78.297, -9.718], [-78.295, -9.705], [-78.307, -9.694], [-78.308, -9.684], [-78.318, -9.683], [-78.319, -9.666], [-78.336, -9.654], [-78.343, -9.633], [-78.354, -9.626], [-78.368, -9.626], [-78.362, -9.609], [-78.369, -9.595], [-78.366, -9.561], [-78.374, -9.548], [-78.382, -9.546], [-78.389, -9.531], [-78.385, -9.52], [-78.397, -9.499], [-78.395, -9.478], [-78.403, -9.479], [-78.399, -9.464], [-78.38, -9.452], [-78.383, -9.438], [-78.396, -9.428], [-78.408, -9.436], [-78.418, -9.417], [-78.425, -9.418], [-78.43, -9.401], [-78.427, -9.392], [-78.434, -9.39], [-78.428, -9.371], [-78.41, -9.367], [-78.414, -9.36], [-78.427, -9.36], [-78.425, -9.341], [-78.437, -9.341], [-78.443, -9.327], [-78.452, -9.33], [-78.467, -9.32], [-78.479, -9.327], [-78.5, -9.3], [-78.496, -9.291], [-78.518, -9.27], [-78.507, -9.257], [-78.493, -9.253], [-78.485, -9.217], [-78.487, -9.203], [-78.508, -9.18], [-78.54, -9.174], [-78.557, -9.179], [-78.566, -9.194], [-78.557, -9.203], [-78.559, -9.213], [-78.554, -9.235], [-78.569, -9.224], [-78.576, -9.205], [-78.583, -9.201], [-78.577, -9.195], [-78.59, -9.196], [-78.605, -9.174], [-78.608, -9.161], [-78.598, -9.167], [-78.585, -9.164], [-78.572, -9.172], [-78.565, -9.165], [-78.559, -9.148], [-78.559, -9.137], [-78.567, -9.107], [-78.576, -9.091], [-78.588, -9.08], [-78.615, -9.074], [-78.623, -9.081], [-78.633, -9.067], [-78.631, -9.058], [-78.638, -9.048], [-78.634, -9.029], [-78.621, -9.021], [-78.622, -9.015], [-78.641, -9.001], [-78.658, -8.996], [-78.658, -8.986], [-78.651, -8.991], [-78.644, -8.983], [-78.644, -8.937], [-78.652, -8.914], [-78.673, -8.885], [-78.691, -8.866], [-78.761, -8.774], [-78.761, -8.756], [-78.744, -8.742], [-78.737, -8.712], [-78.747, -8.684], [-78.741, -8.668], [-78.747, -8.635], [-78.759, -8.606], [-78.781, -8.57], [-78.799, -8.55], [-78.835, -8.518], [-78.866, -8.494], [-78.918, -8.46], [-78.938, -8.437], [-78.937, -8.428], [-78.916, -8.429], [-78.904, -8.415], [-78.899, -8.397], [-78.902, -8.371], [-78.945, -8.312], [-78.959, -8.29], [-78.956, -8.285], [-78.961, -8.266], [-78.99, -8.233], [-78.981, -8.228], [-78.984, -8.213], [-79.015, -8.18], [-79.065, -8.137], [-79.117, -8.096], [-79.124, -8.084], [-79.12, -8.077], [-79.128, -8.062], [-79.177, -8.023], [-79.221, -7.99], [-79.286, -7.943], [-79.307, -7.926], [-79.31, -7.914], [-79.353, -7.872], [-79.376, -7.842], [-79.387, -7.81], [-79.385, -7.8], [-79.392, -7.788], [-79.411, -7.769], [-79.448, -7.736], [-79.465, -7.717], [-79.466, -7.712], [-79.447, -7.705], [-79.435, -7.693], [-79.437, -7.674], [-79.449, -7.647], [-79.472, -7.612], [-79.495, -7.581], [-79.496, -7.575], [-79.519, -7.546], [-79.541, -7.521], [-79.539, -7.514], [-79.55, -7.495], [-79.577, -7.462], [-79.579, -7.443], [-79.588, -7.414], [-79.578, -7.407], [-79.57, -7.39], [-79.574, -7.374], [-79.589, -7.351], [-79.591, -7.327], [-79.588, -7.321], [-79.592, -7.305], [-79.61, -7.267], [-79.64, -7.229], [-79.691, -7.177], [-79.682, -7.153], [-79.683, -7.125], [-79.707, -7.095], [-79.735, -7.067], [-79.74, -7.058], [-79.787, -7.012], [-79.835, -6.971], [-79.866, -6.949], [-79.866, -6.933], [-79.879, -6.918], [-79.911, -6.896], [-79.932, -6.873], [-79.938, -6.847], [-79.94, -6.827], [-79.956, -6.792], [-79.964, -6.784], [-79.973, -6.763], [-79.986, -6.747], [-80.075, -6.676], [-80.109, -6.653], [-80.177, -6.606], [-80.289, -6.543], [-80.409, -6.482], [-80.5, -6.433], [-80.554, -6.406], [-80.638, -6.367], [-80.66, -6.354], [-80.71, -6.33], [-80.757, -6.312], [-80.779, -6.302], [-80.798, -6.289], [-80.861, -6.229], [-80.913, -6.191], [-81.007, -6.133], [-81.051, -6.109], [-81.092, -6.082], [-81.111, -6.062], [-81.117, -6.04], [-81.132, -6.023], [-81.14, -6.007], [-81.149, -5.981], [-81.145, -5.966], [-81.15, -5.948], [-81.145, -5.931], [-81.146, -5.899], [-81.149, -5.889], [-81.129, -5.864], [-81.124, -5.843], [-81.103, -5.843], [-81.087, -5.819], [-81.08, -5.79], [-81.065, -5.786], [-81.058, -5.792], [-81.042, -5.815], [-81.02, -5.83], [-81.003, -5.835], [-80.992, -5.833], [-80.989, -5.838], [-80.976, -5.838], [-80.968, -5.845], [-80.943, -5.846], [-80.922, -5.837], [-80.905, -5.824], [-80.891, -5.81], [-80.879, -5.781], [-80.866, -5.765], [-80.868, -5.759], [-80.855, -5.725], [-80.85, -5.664], [-80.853, -5.635], [-80.863, -5.61], [-80.871, -5.579], [-80.881, -5.55], [-80.896, -5.517], [-80.911, -5.488], [-80.93, -5.458], [-80.958, -5.423], [-80.972, -5.412], [-81.011, -5.37], [-81.053, -5.331], [-81.078, -5.313], [-81.092, -5.308], [-81.108, -5.315], [-81.118, -5.292], [-81.138, -5.264], [-81.193, -5.217], [-81.196, -5.211], [-81.189, -5.194], [-81.174, -5.184], [-81.167, -5.167], [-81.168, -5.155], [-81.179, -5.132], [-81.16, -5.123], [-81.16, -5.111], [-81.171, -5.088], [-81.16, -5.073], [-81.149, -5.079], [-81.133, -5.07], [-81.123, -5.074], [-81.115, -5.084], [-81.091, -5.082], [-81.075, -5.07], [-81.061, -5.047], [-81.062, -5.021], [-81.073, -4.992], [-81.086, -4.967], [-81.098, -4.953], [-81.131, -4.921], [-81.149, -4.9], [-81.16, -4.88], [-81.213, -4.816], [-81.28, -4.738], [-81.315, -4.699], [-81.328, -4.682], [-81.327, -4.669], [-81.31, -4.662], [-81.296, -4.62], [-81.296, -4.605], [-81.287, -4.586], [-81.286, -4.575], [-81.275, -4.572], [-81.281, -4.551], [-81.282, -4.532], [-81.302, -4.491], [-81.305, -4.48], [-81.298, -4.472], [-81.3, -4.459], [-81.281, -4.453], [-81.273, -4.443], [-81.255, -4.4], [-81.251, -4.351], [-81.252, -4.337], [-81.261, -4.309], [-81.256, -4.298], [-81.253, -4.274], [-81.239, -4.251], [-81.224, -4.248], [-81.204, -4.227], [-81.177, -4.216], [-81.149, -4.181], [-81.134, -4.178], [-81.126, -4.171], [-81.1, -4.128], [-81.075, -4.111], [-81.054, -4.103], [-81.022, -4.054], [-81.007, -4.035], [-80.987, -3.985], [-80.974, -3.978], [-80.965, -3.959], [-80.954, -3.955], [-80.889, -3.914], [-80.871, -3.899], [-80.857, -3.895], [-80.834, -3.874], [-80.829, -3.837], [-80.812, -3.796], [-80.794, -3.759], [-80.783, -3.745], [-80.774, -3.741], [-80.754, -3.718], [-80.732, -3.712], [-80.713, -3.7], [-80.683, -3.678], [-80.666, -3.675], [-80.658, -3.667], [-80.636, -3.666], [-80.621, -3.656], [-80.603, -3.635], [-80.584, -3.635], [-80.576, -3.63], [-80.551, -3.596], [-80.522, -3.542], [-80.511, -3.513], [-80.504, -3.505], [-80.474, -3.497], [-80.456, -3.487], [-80.464, -3.498], [-80.461, -3.504], [-80.452, -3.5], [-80.413, -3.491], [-80.419, -3.51], [-80.403, -3.506], [-80.379, -3.494], [-80.37, -3.481], [-80.347, -3.462], [-80.33, -3.441], [-80.319, -3.423], [-80.309, -3.398], [-80.294, -3.429], [-80.283, -3.433], [-80.273, -3.444], [-80.256, -3.444], [-80.247, -3.439], [-80.224, -3.436], [-80.222, -3.44], [-80.243, -3.467], [-80.24, -3.477], [-80.246, -3.486], [-80.237, -3.486], [-80.228, -3.502], [-80.215, -3.503], [-80.218, -3.511], [-80.211, -3.52], [-80.216, -3.525], [-80.207, -3.535], [-80.212, -3.569], [-80.219, -3.575], [-80.212, -3.592], [-80.199, -3.592], [-80.192, -3.597], [-80.191, -3.613], [-80.198, -3.622], [-80.187, -3.632], [-80.186, -3.648], [-80.192, -3.677], [-80.2, -3.689], [-80.194, -3.709], [-80.185, -3.716], [-80.181, -3.739], [-80.191, -3.748], [-80.189, -3.763], [-80.192, -3.776], [-80.185, -3.775], [-80.176, -3.793], [-80.172, -3.791], [-80.16, -3.803], [-80.161, -3.842], [-80.153, -3.856], [-80.16, -3.869], [-80.148, -3.881], [-80.13, -3.888], [-80.126, -3.895], [-80.14, -3.913], [-80.158, -3.913], [-80.164, -3.922], [-80.187, -3.929], [-80.198, -3.946], [-80.219, -3.957], [-80.233, -3.948], [-80.24, -3.955], [-80.237, -3.963], [-80.248, -3.97], [-80.257, -3.99], [-80.273, -4.008], [-80.29, -4.011], [-80.299, -4.017], [-80.324, -4.011], [-80.338, -3.993], [-80.354, -3.995], [-80.368, -3.983], [-80.375, -3.99], [-80.39, -3.989], [-80.398, -3.981], [-80.426, -3.997], [-80.43, -3.99], [-80.447, -3.998], [-80.441, -4.006], [-80.447, -4.017], [-80.456, -4.017], [-80.451, -4.03], [-80.46, -4.037], [-80.467, -4.035], [-80.47, -4.047], [-80.482, -4.056], [-80.474, -4.059], [-80.472, -4.073], [-80.484, -4.09], [-80.477, -4.103], [-80.464, -4.114], [-80.467, -4.126], [-80.449, -4.125], [-80.45, -4.21], [-80.435, -4.196], [-80.418, -4.205], [-80.41, -4.218], [-80.388, -4.203], [-80.383, -4.207], [-80.372, -4.198], [-80.354, -4.221], [-80.339, -4.209], [-80.329, -4.215], [-80.314, -4.199], [-80.306, -4.2], [-80.312, -4.209], [-80.332, -4.225], [-80.354, -4.257], [-80.369, -4.272], [-80.367, -4.28], [-80.386, -4.291], [-80.412, -4.316], [-80.424, -4.33], [-80.436, -4.363], [-80.443, -4.365], [-80.454, -4.389], [-80.446, -4.394], [-80.454, -4.408], [-80.45, -4.444], [-80.44, -4.455], [-80.402, -4.47], [-80.397, -4.481], [-80.388, -4.486], [-80.382, -4.478], [-80.365, -4.481], [-80.356, -4.473], [-80.329, -4.465], [-80.32, -4.452], [-80.308, -4.451], [-80.303, -4.441], [-80.29, -4.436], [-80.296, -4.427], [-80.283, -4.407], [-80.272, -4.406], [-80.266, -4.412], [-80.258, -4.402], [-80.248, -4.399], [-80.249, -4.391], [-80.237, -4.388], [-80.232, -4.373], [-80.22, -4.375], [-80.219, -4.353], [-80.214, -4.359], [-80.205, -4.35], [-80.195, -4.35], [-80.207, -4.341], [-80.204, -4.336], [-80.186, -4.335], [-80.185, -4.316], [-80.178, -4.295], [-80.165, -4.291], [-80.166, -4.302], [-80.155, -4.304], [-80.144, -4.286], [-80.135, -4.285], [-80.136, -4.297], [-80.118, -4.295], [-80.107, -4.298], [-80.106, -4.291], [-80.072, -4.31], [-80.061, -4.311], [-80.052, -4.331], [-80.041, -4.336], [-80.034, -4.35], [-80.015, -4.357], [-80.009, -4.369], [-79.992, -4.381], [-79.979, -4.379], [-79.972, -4.388], [-79.952, -4.398], [-79.925, -4.393], [-79.92, -4.386], [-79.882, -4.41], [-79.871, -4.413], [-79.854, -4.434], [-79.855, -4.448], [-79.837, -4.471], [-79.833, -4.471], [-79.814, -4.492], [-79.797, -4.49], [-79.792, -4.494], [-79.774, -4.488], [-79.745, -4.483], [-79.719, -4.468], [-79.706, -4.472], [-79.689, -4.458], [-79.682, -4.448], [-79.675, -4.449], [-79.655, -4.434], [-79.644, -4.433], [-79.617, -4.446], [-79.609, -4.457], [-79.601, -4.456], [-79.598, -4.467], [-79.582, -4.483], [-79.581, -4.498], [-79.571, -4.502], [-79.564, -4.513], [-79.55, -4.514], [-79.544, -4.525], [-79.521, -4.527], [-79.514, -4.516], [-79.498, -4.52], [-79.488, -4.53], [-79.482, -4.558], [-79.477, -4.569], [-79.493, -4.578], [-79.489, -4.597], [-79.488, -4.627], [-79.47, -4.641], [-79.463, -4.654], [-79.457, -4.693], [-79.458, -4.702], [-79.447, -4.72], [-79.432, -4.737], [-79.431, -4.756], [-79.421, -4.794], [-79.399, -4.829], [-79.392, -4.833], [-79.375, -4.832], [-79.361, -4.844], [-79.362, -4.852], [-79.352, -4.88], [-79.344, -4.887], [-79.334, -4.883], [-79.32, -4.901], [-79.306, -4.901], [-79.291, -4.939], [-79.266, -4.967], [-79.224, -4.964], [-79.212, -4.967], [-79.177, -4.96], [-79.165, -4.965], [-79.144, -4.965], [-79.132, -4.972], [-79.102, -4.978], [-79.097, -4.974], [-79.076, -4.97], [-79.07, -4.991], [-79.062, -4.986], [-79.051, -4.992], [-79.049, -4.999], [-79.035, -5.014], [-79.013, -5.012], [-79.002, -4.983], [-78.992, -4.966], [-78.993, -4.957], [-78.984, -4.942], [-78.983, -4.928], [-78.974, -4.897], [-78.955, -4.893], [-78.946, -4.898], [-78.914, -4.89], [-78.902, -4.9], [-78.893, -4.898], [-78.891, -4.872], [-78.913, -4.857], [-78.915, -4.847], [-78.904, -4.835], [-78.896, -4.812], [-78.891, -4.809], [-78.903, -4.795], [-78.912, -4.79], [-78.915, -4.78], [-78.896, -4.772], [-78.889, -4.762], [-78.889, -4.715], [-78.871, -4.7], [-78.863, -4.689], [-78.863, -4.679], [-78.856, -4.667], [-78.843, -4.654], [-78.805, -4.638], [-78.785, -4.638], [-78.776, -4.643], [-78.754, -4.63], [-78.706, -4.624], [-78.696, -4.607], [-78.675, -4.592], [-78.668, -4.594], [-78.656, -4.585], [-78.663, -4.57], [-78.657, -4.562], [-78.663, -4.537], [-78.648, -4.509], [-78.638, -4.501], [-78.637, -4.478], [-78.634, -4.463], [-78.628, -4.458], [-78.62, -4.437], [-78.61, -4.436], [-78.601, -4.429], [-78.603, -4.411], [-78.634, -4.415], [-78.641, -4.401], [-78.639, -4.38], [-78.651, -4.352], [-78.648, -4.344], [-78.652, -4.333], [-78.638, -4.303], [-78.618, -4.294], [-78.611, -4.267], [-78.602, -4.256], [-78.609, -4.234], [-78.608, -4.22], [-78.598, -4.208], [-78.577, -4.196], [-78.579, -4.182], [-78.574, -4.171], [-78.581, -4.135], [-78.568, -4.102], [-78.541, -4.074], [-78.538, -4.061], [-78.563, -4.05], [-78.57, -4.037], [-78.565, -4.023], [-78.566, -3.993], [-78.561, -3.985], [-78.542, -3.973], [-78.542, -3.963], [-78.529, -3.95], [-78.525, -3.937], [-78.489, -3.934], [-78.476, -3.906], [-78.487, -3.892], [-78.478, -3.882], [-78.477, -3.859], [-78.468, -3.845], [-78.462, -3.844], [-78.463, -3.825], [-78.453, -3.827], [-78.436, -3.818], [-78.414, -3.793], [-78.409, -3.772], [-78.416, -3.767], [-78.402, -3.735], [-78.422, -3.723], [-78.418, -3.709], [-78.423, -3.705], [-78.423, -3.691], [-78.416, -3.686], [-78.401, -3.69], [-78.393, -3.677], [-78.399, -3.669], [-78.395, -3.66], [-78.401, -3.651], [-78.386, -3.64], [-78.398, -3.623], [-78.4, -3.608], [-78.393, -3.6], [-78.395, -3.588], [-78.386, -3.574], [-78.391, -3.56], [-78.377, -3.549], [-78.365, -3.53], [-78.367, -3.514], [-78.355, -3.494], [-78.354, -3.481], [-78.359, -3.47], [-78.345, -3.448], [-78.341, -3.427], [-78.356, -3.404], [-78.344, -3.392], [-78.35, -3.368], [-78.339, -3.371], [-78.324, -3.391], [-78.305, -3.397], [-78.278, -3.4], [-78.248, -3.398], [-78.244, -3.402], [-78.244, -3.434], [-78.238, -3.449], [-78.237, -3.462], [-78.231, -3.484], [-78.233, -3.494], [-78.229, -3.505], [-78.212, -3.507], [-78.203, -3.498], [-78.186, -3.499], [-78.164, -3.484], [-78.148, -3.479], [-78.147, -3.463], [-78.155, -3.427], [-78.162, -3.416], [-78.179, -3.413], [-78.188, -3.397], [-78.198, -3.364], [-78.17, -3.35], [-78.147, -3.326], [-78.127, -3.297], [-78.107, -3.276], [-78.111, -3.266], [-78.1, -3.261], [-78.09, -3.241], [-78.09, -3.215], [-78.079, -3.226], [-78.065, -3.227], [-78.064, -3.219], [-78.053, -3.208], [-78.042, -3.207], [-78.04, -3.196], [-78.032, -3.189], [-78.014, -3.192], [-78.008, -3.179], [-78.012, -3.16], [-77.986, -3.134], [-77.983, -3.12], [-77.971, -3.118], [-77.962, -3.095], [-77.951, -3.09], [-77.944, -3.066], [-77.839, -3.007], [-77.844, -3], [-77.812, -2.986], [-77.801, -2.984], [-77.71, -2.951], [-77.574, -2.908], [-77.524, -2.889], [-77.436, -2.858], [-77.414, -2.852], [-77.175, -2.772], [-77.025, -2.721], [-77.023, -2.722], [-76.864, -2.668], [-76.693, -2.609], [-76.633, -2.591], [-76.312, -2.338], [-76.167, -2.223], [-76.044, -2.125], [-76.005, -2.077], [-75.949, -2.004], [-75.751, -1.76], [-75.587, -1.554], [-75.578, -1.547], [-75.564, -1.564], [-75.557, -1.56], [-75.555, -1.547], [-75.405, -1.004], [-75.386, -0.938], [-75.38, -0.931], [-75.372, -0.941], [-75.336, -0.96], [-75.314, -0.984], [-75.283, -0.984], [-75.26, -0.989], [-75.243, -0.983], [-75.237, -0.976], [-75.22, -0.971], [-75.195, -0.97], [-75.201, -0.959], [-75.214, -0.954], [-75.231, -0.939], [-75.233, -0.928], [-75.224, -0.909], [-75.224, -0.884], [-75.221, -0.869], [-75.225, -0.862], [-75.24, -0.855], [-75.252, -0.834], [-75.242, -0.813], [-75.243, -0.797], [-75.269, -0.786], [-75.253, -0.764], [-75.268, -0.747], [-75.276, -0.731], [-75.27, -0.71], [-75.249, -0.7], [-75.249, -0.695], [-75.274, -0.674], [-75.272, -0.662], [-75.258, -0.656], [-75.258, -0.644], [-75.241, -0.645], [-75.232, -0.63], [-75.224, -0.629], [-75.233, -0.615], [-75.23, -0.603], [-75.24, -0.602], [-75.238, -0.583], [-75.229, -0.57], [-75.228, -0.551], [-75.241, -0.549], [-75.244, -0.533], [-75.242, -0.524], [-75.254, -0.52], [-75.262, -0.533], [-75.273, -0.517], [-75.267, -0.509], [-75.271, -0.501], [-75.285, -0.499], [-75.296, -0.506], [-75.297, -0.497], [-75.313, -0.495], [-75.31, -0.481], [-75.314, -0.468], [-75.327, -0.461], [-75.33, -0.452], [-75.344, -0.464], [-75.354, -0.458], [-75.356, -0.447], [-75.367, -0.446], [-75.388, -0.434], [-75.389, -0.417], [-75.411, -0.399], [-75.442, -0.354], [-75.445, -0.34], [-75.457, -0.329], [-75.463, -0.318], [-75.466, -0.298], [-75.474, -0.297], [-75.472, -0.279], [-75.481, -0.259], [-75.481, -0.241], [-75.496, -0.226], [-75.499, -0.216], [-75.511, -0.212], [-75.514, -0.197], [-75.522, -0.194], [-75.531, -0.181], [-75.548, -0.178], [-75.563, -0.185], [-75.578, -0.178], [-75.59, -0.191], [-75.61, -0.193], [-75.611, -0.114], [-75.601, -0.11], [-75.59, -0.123], [-75.579, -0.12], [-75.569, -0.132], [-75.553, -0.13], [-75.536, -0.116], [-75.525, -0.12], [-75.517, -0.114], [-75.507, -0.117], [-75.504, -0.127], [-75.485, -0.13], [-75.466, -0.141], [-75.461, -0.152], [-75.447, -0.155], [-75.433, -0.153], [-75.42, -0.163], [-75.403, -0.17], [-75.392, -0.165], [-75.384, -0.169], [-75.37, -0.16], [-75.365, -0.146], [-75.35, -0.163], [-75.341, -0.156], [-75.316, -0.16], [-75.296, -0.148], [-75.287, -0.151], [-75.277, -0.133], [-75.259, -0.125], [-75.258, -0.116], [-75.248, -0.112], [-75.223, -0.08], [-75.209, -0.046], [-75.193, -0.039], [-75.162, -0.045], [-75.132, -0.071], [-75.077, -0.082], [-75.054, -0.11], [-75.041, -0.113], [-75.012, -0.149], [-74.985, -0.148], [-74.973, -0.155], [-74.97, -0.167], [-74.96, -0.177], [-74.956, -0.195], [-74.935, -0.202], [-74.931, -0.221], [-74.917, -0.225], [-74.915, -0.203], [-74.903, -0.214], [-74.895, -0.236], [-74.883, -0.243], [-74.862, -0.238], [-74.845, -0.231], [-74.831, -0.205], [-74.806, -0.188], [-74.793, -0.189], [-74.762, -0.224], [-74.754, -0.247], [-74.741, -0.279], [-74.729, -0.297], [-74.733, -0.334], [-74.728, -0.343], [-74.708, -0.349], [-74.686, -0.329], [-74.676, -0.336], [-74.68, -0.348], [-74.676, -0.366], [-74.66, -0.374], [-74.65, -0.363], [-74.612, -0.351], [-74.607, -0.357], [-74.616, -0.373], [-74.608, -0.384], [-74.589, -0.383], [-74.554, -0.408], [-74.544, -0.419], [-74.537, -0.459], [-74.521, -0.47], [-74.504, -0.462], [-74.495, -0.471], [-74.501, -0.482], [-74.487, -0.489], [-74.483, -0.477], [-74.474, -0.473], [-74.466, -0.487], [-74.438, -0.497], [-74.422, -0.499], [-74.42, -0.504], [-74.424, -0.521], [-74.424, -0.55], [-74.42, -0.56], [-74.408, -0.557], [-74.398, -0.54], [-74.387, -0.555], [-74.39, -0.576], [-74.384, -0.586], [-74.381, -0.6], [-74.375, -0.609], [-74.363, -0.615], [-74.36, -0.63], [-74.374, -0.654], [-74.368, -0.662], [-74.338, -0.678], [-74.343, -0.701], [-74.354, -0.711], [-74.372, -0.714], [-74.377, -0.719], [-74.37, -0.737], [-74.352, -0.754], [-74.336, -0.759], [-74.316, -0.754], [-74.309, -0.767], [-74.318, -0.778], [-74.316, -0.791], [-74.305, -0.794], [-74.295, -0.778], [-74.288, -0.774], [-74.279, -0.779], [-74.292, -0.816], [-74.279, -0.828], [-74.251, -0.815], [-74.243, -0.821], [-74.248, -0.83], [-74.266, -0.841], [-74.27, -0.854], [-74.267, -0.874], [-74.276, -0.882], [-74.286, -0.872], [-74.306, -0.865], [-74.32, -0.881], [-74.31, -0.896], [-74.29, -0.894], [-74.279, -0.899], [-74.272, -0.917], [-74.271, -0.93], [-74.262, -0.941], [-74.265, -0.954], [-74.275, -0.967], [-74.273, -0.979], [-74.236, -0.998], [-74.225, -1.008], [-74.186, -1.011], [-74.173, -1.006], [-74.135, -1.022], [-74.126, -1.033], [-74.065, -1.054], [-74.044, -1.044], [-74.036, -1.031], [-74.038, -1.021], [-74.033, -1.006], [-74.02, -1.005], [-74.014, -1.021], [-74.024, -1.047], [-74.027, -1.061], [-74.006, -1.099], [-73.995, -1.106], [-73.978, -1.106], [-73.974, -1.091], [-73.965, -1.082], [-73.957, -1.086], [-73.95, -1.098], [-73.965, -1.114], [-73.967, -1.121], [-73.958, -1.131], [-73.933, -1.132], [-73.922, -1.12], [-73.912, -1.116], [-73.904, -1.124], [-73.895, -1.154], [-73.895, -1.169], [-73.871, -1.198], [-73.867, -1.224], [-73.853, -1.234], [-73.824, -1.238], [-73.81, -1.249], [-73.802, -1.25], [-73.789, -1.239], [-73.78, -1.245], [-73.784, -1.258], [-73.77, -1.262], [-73.763, -1.258], [-73.755, -1.237], [-73.75, -1.201], [-73.744, -1.2], [-73.74, -1.238], [-73.727, -1.248], [-73.711, -1.252], [-73.694, -1.247], [-73.683, -1.24], [-73.674, -1.241], [-73.658, -1.261], [-73.648, -1.267], [-73.63, -1.27], [-73.619, -1.264], [-73.611, -1.319], [-73.596, -1.329], [-73.584, -1.327], [-73.576, -1.319], [-73.567, -1.329], [-73.581, -1.346], [-73.577, -1.363], [-73.565, -1.374], [-73.552, -1.398], [-73.552, -1.417], [-73.565, -1.421], [-73.577, -1.413], [-73.58, -1.428], [-73.575, -1.43], [-73.542, -1.43], [-73.531, -1.437], [-73.531, -1.462], [-73.525, -1.473], [-73.51, -1.483], [-73.491, -1.484], [-73.487, -1.501], [-73.496, -1.51], [-73.493, -1.518], [-73.478, -1.523], [-73.483, -1.542], [-73.482, -1.559], [-73.49, -1.571], [-73.476, -1.577], [-73.464, -1.567], [-73.457, -1.575], [-73.463, -1.589], [-73.497, -1.615], [-73.516, -1.64], [-73.515, -1.659], [-73.52, -1.67], [-73.537, -1.683], [-73.539, -1.701], [-73.521, -1.715], [-73.504, -1.721], [-73.496, -1.731], [-73.466, -1.735], [-73.454, -1.742], [-73.435, -1.765], [-73.433, -1.787], [-73.428, -1.791], [-73.411, -1.786], [-73.387, -1.772], [-73.377, -1.776], [-73.363, -1.792], [-73.352, -1.798], [-73.335, -1.802], [-73.321, -1.826], [-73.309, -1.828], [-73.301, -1.822], [-73.31, -1.79], [-73.3, -1.777], [-73.287, -1.777], [-73.273, -1.783], [-73.252, -1.78], [-73.243, -1.79], [-73.259, -1.799], [-73.25, -1.807], [-73.235, -1.803], [-73.23, -1.788], [-73.232, -1.762], [-73.226, -1.75], [-73.212, -1.752], [-73.194, -1.789], [-73.172, -1.801], [-73.146, -1.805], [-73.144, -1.827], [-73.153, -1.845], [-73.151, -1.863], [-73.132, -1.873], [-73.111, -1.874], [-73.108, -1.895], [-73.119, -1.912], [-73.113, -1.939], [-73.119, -1.975], [-73.13, -1.992], [-73.118, -2.016], [-73.093, -2.033], [-73.092, -2.042], [-73.11, -2.064], [-73.114, -2.072], [-73.105, -2.083], [-73.073, -2.083], [-73.07, -2.106], [-73.105, -2.123], [-73.117, -2.131], [-73.125, -2.173], [-73.133, -2.184], [-73.145, -2.189], [-73.162, -2.186], [-73.173, -2.195], [-73.165, -2.237], [-73.155, -2.258], [-73.142, -2.27], [-73.123, -2.279], [-73.114, -2.296], [-73.123, -2.309], [-73.124, -2.321], [-73.12, -2.327], [-73.096, -2.324], [-73.094, -2.33], [-73.072, -2.34], [-73.068, -2.352], [-73.058, -2.361], [-73.044, -2.357], [-73.042, -2.337], [-73.038, -2.317], [-73.024, -2.317], [-73.016, -2.344], [-73.003, -2.36], [-72.99, -2.355], [-72.971, -2.336], [-72.953, -2.337], [-72.956, -2.351], [-72.956, -2.386], [-72.952, -2.402], [-72.931, -2.418], [-72.93, -2.434], [-72.937, -2.45], [-72.931, -2.457], [-72.896, -2.435], [-72.857, -2.44], [-72.843, -2.433], [-72.829, -2.42], [-72.802, -2.411], [-72.791, -2.403], [-72.786, -2.391], [-72.777, -2.385], [-72.759, -2.397], [-72.753, -2.425], [-72.735, -2.424], [-72.731, -2.412], [-72.731, -2.394], [-72.712, -2.386], [-72.694, -2.407], [-72.687, -2.421], [-72.691, -2.451], [-72.681, -2.452], [-72.667, -2.441], [-72.666, -2.42], [-72.658, -2.407], [-72.638, -2.392], [-72.635, -2.38], [-72.642, -2.366], [-72.635, -2.358], [-72.619, -2.363], [-72.607, -2.363], [-72.592, -2.37], [-72.576, -2.394], [-72.56, -2.403], [-72.549, -2.402], [-72.515, -2.413], [-72.499, -2.413], [-72.493, -2.42], [-72.472, -2.419], [-72.449, -2.434], [-72.432, -2.435], [-72.416, -2.428], [-72.408, -2.414], [-72.396, -2.443], [-72.38, -2.453], [-72.377, -2.467], [-72.38, -2.481], [-72.369, -2.491], [-72.34, -2.48], [-72.328, -2.472], [-72.299, -2.474], [-72.288, -2.47], [-72.286, -2.455], [-72.28, -2.453], [-72.259, -2.46], [-72.255, -2.453], [-72.262, -2.439], [-72.259, -2.432], [-72.24, -2.43], [-72.227, -2.447], [-72.201, -2.445], [-72.182, -2.431], [-72.171, -2.426], [-72.162, -2.433], [-72.162, -2.445], [-72.169, -2.47], [-72.157, -2.48], [-72.145, -2.473], [-72.132, -2.437], [-72.133, -2.417], [-72.129, -2.41], [-72.098, -2.39], [-72.086, -2.379], [-72.079, -2.366], [-72.06, -2.343], [-72.045, -2.336], [-72.029, -2.341], [-72.016, -2.362], [-72.005, -2.371], [-71.985, -2.371], [-71.969, -2.368], [-71.959, -2.357], [-71.945, -2.356], [-71.938, -2.361], [-71.937, -2.376], [-71.922, -2.381], [-71.92, -2.363], [-71.936, -2.339], [-71.939, -2.316], [-71.927, -2.308], [-71.887, -2.314], [-71.872, -2.296], [-71.865, -2.278], [-71.854, -2.231], [-71.841, -2.213], [-71.837, -2.199], [-71.829, -2.187], [-71.82, -2.189], [-71.807, -2.207], [-71.797, -2.205], [-71.791, -2.185], [-71.772, -2.173], [-71.755, -2.175], [-71.746, -2.17], [-71.75, -2.149], [-71.734, -2.141], [-71.723, -2.143], [-71.718, -2.166], [-71.731, -2.209], [-71.728, -2.223], [-71.713, -2.23], [-71.706, -2.228], [-71.679, -2.21], [-71.652, -2.2], [-71.638, -2.202], [-71.599, -2.239], [-71.568, -2.239], [-71.551, -2.242], [-71.533, -2.25], [-71.52, -2.249], [-71.515, -2.254], [-71.52, -2.301], [-71.515, -2.311], [-71.506, -2.346], [-71.493, -2.354], [-71.48, -2.349], [-71.479, -2.334], [-71.485, -2.318], [-71.5, -2.289], [-71.495, -2.276], [-71.479, -2.27], [-71.468, -2.272], [-71.446, -2.287], [-71.423, -2.329], [-71.401, -2.343], [-71.392, -2.355], [-71.394, -2.367], [-71.407, -2.392], [-71.404, -2.403], [-71.393, -2.41], [-71.383, -2.406], [-71.354, -2.379], [-71.327, -2.383], [-71.317, -2.379], [-71.309, -2.365], [-71.304, -2.34], [-71.296, -2.336], [-71.281, -2.339], [-71.276, -2.348], [-71.276, -2.361], [-71.29, -2.381], [-71.281, -2.389], [-71.266, -2.377], [-71.26, -2.362], [-71.244, -2.338], [-71.232, -2.337], [-71.212, -2.358], [-71.207, -2.369], [-71.194, -2.382], [-71.176, -2.382], [-71.171, -2.374], [-71.171, -2.344], [-71.162, -2.333], [-71.149, -2.336], [-71.141, -2.343], [-71.129, -2.339], [-71.131, -2.327], [-71.142, -2.308], [-71.143, -2.297], [-71.133, -2.286], [-71.113, -2.281], [-71.09, -2.282], [-71.046, -2.265], [-71.024, -2.282], [-71.01, -2.304], [-71.001, -2.308], [-70.989, -2.301], [-70.996, -2.276], [-71.017, -2.244], [-71.02, -2.229], [-71.014, -2.216], [-71.001, -2.21], [-70.978, -2.213], [-70.963, -2.225], [-70.958, -2.242], [-70.942, -2.255], [-70.924, -2.254], [-70.898, -2.224], [-70.878, -2.222], [-70.863, -2.226], [-70.854, -2.241], [-70.845, -2.268], [-70.843, -2.285], [-70.832, -2.295], [-70.817, -2.297], [-70.788, -2.292], [-70.768, -2.298], [-70.762, -2.32], [-70.736, -2.334], [-70.697, -2.339], [-70.663, -2.355], [-70.664, -2.377], [-70.673, -2.384], [-70.679, -2.399], [-70.674, -2.41], [-70.65, -2.41], [-70.627, -2.396], [-70.626, -2.408], [-70.631, -2.432], [-70.642, -2.448], [-70.643, -2.459], [-70.632, -2.475], [-70.617, -2.482], [-70.601, -2.485], [-70.577, -2.48], [-70.558, -2.472], [-70.551, -2.462], [-70.553, -2.449], [-70.56, -2.442], [-70.594, -2.432], [-70.596, -2.421], [-70.562, -2.419], [-70.546, -2.427], [-70.537, -2.436], [-70.525, -2.463], [-70.509, -2.475], [-70.496, -2.473], [-70.472, -2.454], [-70.454, -2.476], [-70.445, -2.512], [-70.433, -2.524], [-70.411, -2.526], [-70.386, -2.501], [-70.368, -2.492], [-70.354, -2.49], [-70.319, -2.501], [-70.298, -2.505], [-70.295, -2.521], [-70.308, -2.532], [-70.34, -2.538], [-70.348, -2.543], [-70.358, -2.556], [-70.357, -2.563], [-70.347, -2.572], [-70.333, -2.578], [-70.303, -2.574], [-70.265, -2.549], [-70.247, -2.552], [-70.239, -2.559], [-70.229, -2.582], [-70.219, -2.645], [-70.206, -2.659], [-70.191, -2.657], [-70.18, -2.632], [-70.17, -2.634], [-70.157, -2.647], [-70.16, -2.691], [-70.136, -2.704], [-70.115, -2.697], [-70.107, -2.677], [-70.104, -2.658], [-70.096, -2.649], [-70.084, -2.649], [-70.068, -2.675], [-70.066, -2.689], [-70.07, -2.715], [-70.066, -2.752], [-70.061, -2.76], [-70.074, -2.79], [-70.08, -2.795], [-70.336, -3.197], [-70.478, -3.424], [-70.503, -3.463], [-70.713, -3.795], [-70.7, -3.792], [-70.681, -3.797], [-70.651, -3.83], [-70.625, -3.834], [-70.616, -3.843], [-70.597, -3.822], [-70.577, -3.817], [-70.56, -3.827], [-70.54, -3.867], [-70.524, -3.88], [-70.515, -3.881], [-70.478, -3.873], [-70.453, -3.863], [-70.434, -3.848], [-70.415, -3.828], [-70.39, -3.826], [-70.372, -3.819], [-70.36, -3.806], [-70.348, -3.8], [-70.309, -3.811], [-70.284, -3.824], [-70.269, -3.843], [-70.259, -3.875], [-70.248, -3.897], [-70.216, -3.915], [-70.187, -3.924], [-70.18, -3.931], [-70.173, -3.96], [-70.161, -3.987], [-70.126, -4.035], [-70.113, -4.047], [-70.062, -4.083], [-70.052, -4.106], [-70.041, -4.125], [-70.024, -4.144], [-70.009, -4.155], [-69.969, -4.196], [-69.953, -4.217], [-69.948, -4.232], [-69.95, -4.263], [-69.941, -4.289], [-69.952, -4.311], [-69.986, -4.348], [-69.985, -4.322], [-70.01, -4.33], [-70.034, -4.359], [-70.027, -4.371], [-70.035, -4.375], [-70.047, -4.372], [-70.051, -4.362], [-70.04, -4.348], [-70.043, -4.332], [-70.055, -4.325], [-70.068, -4.325], [-70.079, -4.314], [-70.071, -4.304], [-70.058, -4.308], [-70.046, -4.305], [-70.039, -4.298], [-70.048, -4.293], [-70.062, -4.295], [-70.072, -4.287], [-70.089, -4.29], [-70.098, -4.286], [-70.102, -4.261], [-70.116, -4.257], [-70.113, -4.276], [-70.117, -4.286], [-70.126, -4.286], [-70.148, -4.27], [-70.159, -4.278], [-70.16, -4.287], [-70.172, -4.306], [-70.153, -4.319], [-70.151, -4.328], [-70.158, -4.334], [-70.177, -4.337], [-70.178, -4.351], [-70.187, -4.361], [-70.202, -4.355], [-70.203, -4.332], [-70.211, -4.317], [-70.213, -4.3], [-70.217, -4.298], [-70.219, -4.313], [-70.224, -4.317], [-70.256, -4.31], [-70.269, -4.297], [-70.247, -4.287], [-70.246, -4.275], [-70.254, -4.27], [-70.289, -4.288], [-70.284, -4.272], [-70.305, -4.262], [-70.308, -4.245], [-70.284, -4.237], [-70.279, -4.23], [-70.288, -4.198], [-70.288, -4.166], [-70.308, -4.158], [-70.319, -4.145], [-70.329, -4.145], [-70.328, -4.172], [-70.339, -4.18], [-70.357, -4.165], [-70.367, -4.143], [-70.38, -4.133], [-70.394, -4.138], [-70.416, -4.137], [-70.43, -4.131], [-70.441, -4.135], [-70.441, -4.144], [-70.431, -4.157], [-70.436, -4.164], [-70.453, -4.159], [-70.458, -4.173], [-70.467, -4.176], [-70.477, -4.16], [-70.49, -4.168], [-70.49, -4.182], [-70.496, -4.198], [-70.504, -4.201], [-70.513, -4.194], [-70.505, -4.177], [-70.503, -4.161], [-70.51, -4.148], [-70.523, -4.138], [-70.535, -4.146], [-70.548, -4.137], [-70.553, -4.141], [-70.542, -4.148], [-70.542, -4.158], [-70.555, -4.161], [-70.558, -4.172], [-70.552, -4.192], [-70.555, -4.205], [-70.574, -4.212], [-70.576, -4.205], [-70.563, -4.187], [-70.561, -4.177], [-70.573, -4.174], [-70.584, -4.185], [-70.619, -4.194], [-70.632, -4.183], [-70.636, -4.172], [-70.618, -4.139], [-70.62, -4.127], [-70.644, -4.127], [-70.652, -4.141], [-70.65, -4.162], [-70.66, -4.146], [-70.672, -4.149], [-70.666, -4.164], [-70.672, -4.196], [-70.681, -4.208], [-70.688, -4.192], [-70.696, -4.187], [-70.715, -4.189], [-70.727, -4.185], [-70.748, -4.161], [-70.76, -4.159], [-70.772, -4.167], [-70.784, -4.184], [-70.802, -4.184], [-70.805, -4.194], [-70.819, -4.198], [-70.825, -4.212], [-70.846, -4.219], [-70.848, -4.229], [-70.841, -4.231], [-70.829, -4.221], [-70.82, -4.22], [-70.817, -4.23], [-70.827, -4.239], [-70.828, -4.25], [-70.837, -4.255], [-70.849, -4.248], [-70.863, -4.249], [-70.865, -4.256], [-70.857, -4.269], [-70.845, -4.274], [-70.848, -4.283], [-70.862, -4.285], [-70.878, -4.293], [-70.88, -4.302], [-70.875, -4.319], [-70.881, -4.326], [-70.892, -4.324], [-70.903, -4.33], [-70.912, -4.359], [-70.925, -4.356], [-70.934, -4.359], [-70.934, -4.38], [-70.939, -4.384], [-70.949, -4.377], [-70.96, -4.381], [-70.971, -4.376], [-70.975, -4.359], [-70.991, -4.345], [-70.999, -4.351], [-70.99, -4.36], [-70.988, -4.381], [-70.994, -4.387], [-71.01, -4.388], [-71.017, -4.383], [-71.023, -4.392], [-71.038, -4.402], [-71.047, -4.394], [-71.044, -4.379], [-71.047, -4.37], [-71.056, -4.373], [-71.06, -4.39], [-71.075, -4.396], [-71.084, -4.393], [-71.077, -4.38], [-71.084, -4.374], [-71.106, -4.378], [-71.11, -4.386], [-71.107, -4.401], [-71.11, -4.408], [-71.12, -4.409], [-71.129, -4.392], [-71.145, -4.382], [-71.153, -4.386], [-71.148, -4.397], [-71.159, -4.403], [-71.16, -4.392], [-71.184, -4.395], [-71.19, -4.423], [-71.2, -4.421], [-71.207, -4.398], [-71.199, -4.388], [-71.203, -4.379], [-71.218, -4.382], [-71.219, -4.403], [-71.229, -4.404], [-71.228, -4.389], [-71.235, -4.384], [-71.245, -4.392], [-71.27, -4.385], [-71.279, -4.392], [-71.278, -4.401], [-71.269, -4.394], [-71.262, -4.396], [-71.269, -4.412], [-71.263, -4.422], [-71.264, -4.431], [-71.278, -4.441], [-71.292, -4.441], [-71.305, -4.42], [-71.318, -4.417], [-71.321, -4.427], [-71.305, -4.441], [-71.302, -4.451], [-71.311, -4.464], [-71.315, -4.444], [-71.34, -4.443], [-71.344, -4.427], [-71.363, -4.435], [-71.379, -4.425], [-71.396, -4.431], [-71.401, -4.445], [-71.41, -4.45], [-71.425, -4.469], [-71.434, -4.46], [-71.432, -4.448], [-71.418, -4.443], [-71.414, -4.436], [-71.425, -4.438], [-71.431, -4.43], [-71.439, -4.434], [-71.434, -4.443], [-71.438, -4.45], [-71.448, -4.45], [-71.45, -4.434], [-71.463, -4.44], [-71.48, -4.436], [-71.478, -4.453], [-71.486, -4.457], [-71.504, -4.439], [-71.51, -4.443], [-71.506, -4.46], [-71.497, -4.468], [-71.495, -4.487], [-71.505, -4.477], [-71.515, -4.474], [-71.52, -4.463], [-71.537, -4.463], [-71.535, -4.479], [-71.54, -4.483], [-71.553, -4.477], [-71.551, -4.484], [-71.566, -4.505], [-71.597, -4.529], [-71.62, -4.528], [-71.63, -4.52], [-71.635, -4.51], [-71.621, -4.503], [-71.613, -4.482], [-71.612, -4.472], [-71.619, -4.468], [-71.628, -4.48], [-71.625, -4.489], [-71.644, -4.502], [-71.652, -4.502], [-71.648, -4.482], [-71.655, -4.472], [-71.661, -4.478], [-71.656, -4.485], [-71.657, -4.499], [-71.674, -4.506], [-71.692, -4.499], [-71.708, -4.511], [-71.727, -4.498], [-71.74, -4.495], [-71.741, -4.482], [-71.75, -4.468], [-71.751, -4.494], [-71.77, -4.504], [-71.773, -4.489], [-71.79, -4.485], [-71.785, -4.498], [-71.792, -4.497], [-71.793, -4.487], [-71.81, -4.492], [-71.808, -4.506], [-71.827, -4.497], [-71.836, -4.516], [-71.838, -4.505], [-71.857, -4.512], [-71.868, -4.527], [-71.882, -4.515], [-71.888, -4.522], [-71.893, -4.515], [-71.907, -4.516], [-71.887, -4.53], [-71.892, -4.539], [-71.896, -4.531], [-71.919, -4.53], [-71.92, -4.541], [-71.928, -4.548], [-71.919, -4.562], [-71.931, -4.562], [-71.928, -4.568], [-71.936, -4.579], [-71.946, -4.578], [-71.951, -4.586], [-71.944, -4.596], [-71.951, -4.598], [-71.948, -4.609], [-71.962, -4.606], [-71.965, -4.611], [-71.981, -4.61], [-71.983, -4.604], [-71.995, -4.61], [-71.986, -4.614], [-71.983, -4.628], [-72.003, -4.629], [-72.007, -4.646], [-72.016, -4.631], [-72.044, -4.625], [-72.038, -4.642], [-72.046, -4.644], [-72.046, -4.654], [-72.059, -4.65], [-72.069, -4.659], [-72.06, -4.668], [-72.066, -4.676], [-72.071, -4.663], [-72.081, -4.669], [-72.078, -4.682], [-72.091, -4.681], [-72.092, -4.692], [-72.102, -4.706], [-72.114, -4.705], [-72.114, -4.712], [-72.125, -4.715], [-72.121, -4.728], [-72.128, -4.735], [-72.135, -4.73], [-72.128, -4.725], [-72.139, -4.711], [-72.148, -4.724], [-72.161, -4.727], [-72.161, -4.736], [-72.172, -4.734], [-72.192, -4.745], [-72.187, -4.749], [-72.191, -4.761], [-72.208, -4.747], [-72.221, -4.753], [-72.213, -4.758], [-72.222, -4.772], [-72.243, -4.781], [-72.249, -4.768], [-72.258, -4.767], [-72.262, -4.782], [-72.271, -4.798], [-72.285, -4.796], [-72.277, -4.789], [-72.278, -4.771], [-72.284, -4.783], [-72.303, -4.776], [-72.305, -4.789], [-72.314, -4.785], [-72.31, -4.775], [-72.326, -4.779], [-72.33, -4.785], [-72.32, -4.788], [-72.326, -4.801], [-72.339, -4.805], [-72.338, -4.793], [-72.346, -4.807], [-72.369, -4.803], [-72.372, -4.808], [-72.359, -4.824], [-72.382, -4.825], [-72.372, -4.83], [-72.383, -4.831], [-72.376, -4.84], [-72.39, -4.862], [-72.381, -4.87], [-72.391, -4.869], [-72.402, -4.876], [-72.401, -4.885], [-72.409, -4.887], [-72.412, -4.877], [-72.424, -4.878], [-72.416, -4.886], [-72.415, -4.9], [-72.427, -4.901], [-72.429, -4.909], [-72.439, -4.909], [-72.443, -4.898], [-72.47, -4.891], [-72.468, -4.906], [-72.452, -4.913], [-72.459, -4.925], [-72.471, -4.923], [-72.477, -4.929], [-72.475, -4.944], [-72.484, -4.953], [-72.486, -4.935], [-72.492, -4.936], [-72.496, -4.95], [-72.507, -4.944], [-72.503, -4.939], [-72.52, -4.933], [-72.526, -4.954], [-72.536, -4.963], [-72.539, -4.953], [-72.552, -4.956], [-72.553, -4.965], [-72.567, -4.973], [-72.568, -4.983], [-72.584, -4.983], [-72.584, -4.998], [-72.59, -4.986], [-72.597, -4.983], [-72.603, -5.012], [-72.613, -5.017], [-72.607, -5.028], [-72.617, -5.033], [-72.623, -5.052], [-72.628, -5.046], [-72.642, -5.063], [-72.641, -5.046], [-72.654, -5.052], [-72.654, -5.062], [-72.683, -5.051], [-72.692, -5.061], [-72.708, -5.049], [-72.715, -5.057], [-72.73, -5.053], [-72.726, -5.062], [-72.738, -5.06], [-72.731, -5.077], [-72.739, -5.075], [-72.74, -5.089], [-72.755, -5.077], [-72.768, -5.099], [-72.784, -5.092], [-72.78, -5.101], [-72.789, -5.112], [-72.793, -5.106], [-72.807, -5.11], [-72.815, -5.102], [-72.821, -5.107], [-72.814, -5.133], [-72.829, -5.144], [-72.851, -5.146], [-72.85, -5.136], [-72.869, -5.146], [-72.887, -5.161], [-72.885, -5.174], [-72.877, -5.175], [-72.88, -5.186], [-72.87, -5.178], [-72.876, -5.192], [-72.869, -5.196], [-72.868, -5.227], [-72.864, -5.235], [-72.873, -5.247], [-72.867, -5.249], [-72.866, -5.268], [-72.867, -5.29], [-72.889, -5.31], [-72.885, -5.318], [-72.905, -5.336], [-72.896, -5.333], [-72.892, -5.352], [-72.902, -5.352], [-72.911, -5.362], [-72.907, -5.371], [-72.919, -5.375], [-72.917, -5.385], [-72.927, -5.398], [-72.925, -5.408], [-72.938, -5.417], [-72.937, -5.435], [-72.952, -5.444], [-72.946, -5.454], [-72.959, -5.48], [-72.95, -5.482], [-72.962, -5.496], [-72.951, -5.537], [-72.939, -5.541], [-72.957, -5.558], [-72.95, -5.564], [-72.961, -5.572], [-72.953, -5.576], [-72.971, -5.606], [-72.974, -5.623], [-72.967, -5.621], [-72.967, -5.635], [-72.959, -5.656], [-72.986, -5.661], [-72.989, -5.675], [-72.984, -5.694], [-72.989, -5.7], [-72.999, -5.701], [-72.997, -5.72], [-73.01, -5.729], [-73.026, -5.733], [-73.02, -5.739], [-73.046, -5.759], [-73.047, -5.772], [-73.054, -5.775], [-73.049, -5.783], [-73.055, -5.796], [-73.08, -5.801], [-73.084, -5.812], [-73.095, -5.821], [-73.089, -5.829], [-73.102, -5.826], [-73.114, -5.833], [-73.113, -5.86], [-73.123, -5.858], [-73.129, -5.87], [-73.152, -5.868], [-73.159, -5.881], [-73.154, -5.888], [-73.167, -5.897], [-73.166, -5.915], [-73.175, -5.932], [-73.181, -5.929], [-73.18, -5.941], [-73.187, -5.945], [-73.181, -5.954], [-73.184, -5.961], [-73.177, -5.971], [-73.191, -5.985], [-73.187, -6.004], [-73.192, -6.003], [-73.217, -6.017], [-73.211, -6.02], [-73.228, -6.03], [-73.234, -6.063], [-73.229, -6.078], [-73.239, -6.08], [-73.24, -6.103], [-73.248, -6.109], [-73.244, -6.154], [-73.221, -6.177], [-73.216, -6.193], [-73.221, -6.2], [-73.211, -6.202], [-73.22, -6.22], [-73.209, -6.22], [-73.193, -6.243], [-73.186, -6.262], [-73.181, -6.257], [-73.172, -6.27], [-73.161, -6.277], [-73.157, -6.298], [-73.158, -6.322], [-73.146, -6.343], [-73.141, -6.359], [-73.132, -6.363], [-73.127, -6.394], [-73.121, -6.388], [-73.106, -6.404], [-73.109, -6.422], [-73.121, -6.431], [-73.112, -6.447], [-73.118, -6.466], [-73.13, -6.465], [-73.128, -6.477], [-73.139, -6.485], [-73.142, -6.493], [-73.134, -6.506], [-73.141, -6.515], [-73.142, -6.505], [-73.149, -6.514], [-73.152, -6.527], [-73.171, -6.518], [-73.173, -6.528], [-73.188, -6.523], [-73.188, -6.529], [-73.176, -6.535], [-73.182, -6.546], [-73.202, -6.552], [-73.197, -6.562], [-73.207, -6.577], [-73.218, -6.564], [-73.23, -6.573], [-73.226, -6.585], [-73.241, -6.584], [-73.239, -6.593], [-73.25, -6.581], [-73.268, -6.588], [-73.281, -6.584], [-73.293, -6.588], [-73.297, -6.597], [-73.303, -6.592], [-73.327, -6.595], [-73.353, -6.593], [-73.37, -6.614], [-73.373, -6.608], [-73.382, -6.621], [-73.38, -6.636], [-73.391, -6.641], [-73.403, -6.64], [-73.423, -6.649], [-73.423, -6.654], [-73.44, -6.652], [-73.446, -6.659], [-73.464, -6.669], [-73.481, -6.668], [-73.486, -6.674], [-73.499, -6.671], [-73.532, -6.685], [-73.554, -6.704], [-73.562, -6.721], [-73.582, -6.726], [-73.624, -6.745], [-73.622, -6.751], [-73.638, -6.755], [-73.644, -6.775], [-73.666, -6.8], [-73.666, -6.805], [-73.684, -6.816], [-73.692, -6.835], [-73.71, -6.84], [-73.719, -6.867], [-73.72, -6.877], [-73.737, -6.899], [-73.747, -6.909], [-73.747, -6.918], [-73.761, -6.94], [-73.744, -6.964], [-73.761, -6.979], [-73.757, -6.988], [-73.762, -7.009], [-73.756, -7.016], [-73.761, -7.023], [-73.762, -7.039], [-73.757, -7.045], [-73.762, -7.063], [-73.788, -7.094], [-73.784, -7.104], [-73.798, -7.113], [-73.794, -7.13], [-73.784, -7.128], [-73.788, -7.146], [-73.768, -7.156], [-73.77, -7.168], [-73.757, -7.173], [-73.756, -7.195], [-73.752, -7.206], [-73.743, -7.211], [-73.74, -7.22], [-73.717, -7.228], [-73.721, -7.236], [-73.709, -7.246], [-73.715, -7.275], [-73.706, -7.282], [-73.695, -7.299], [-73.7, -7.321], [-73.708, -7.322], [-73.723, -7.341], [-73.732, -7.343], [-73.755, -7.354], [-73.753, -7.34], [-73.762, -7.337], [-73.781, -7.339], [-73.789, -7.348], [-73.805, -7.341], [-73.823, -7.339], [-73.831, -7.352], [-73.85, -7.355], [-73.857, -7.363], [-73.862, -7.388], [-73.873, -7.387], [-73.889, -7.379], [-73.897, -7.386], [-73.906, -7.384], [-73.907, -7.373], [-73.924, -7.362], [-73.936, -7.376], [-73.946, -7.359], [-73.955, -7.368], [-73.941, -7.394], [-73.939, -7.407], [-73.923, -7.418], [-73.925, -7.428], [-73.917, -7.444], [-73.917, -7.456], [-73.911, -7.466], [-73.911, -7.476], [-73.922, -7.479], [-73.917, -7.501], [-73.93, -7.512], [-73.943, -7.534], [-73.954, -7.529], [-73.983, -7.534], [-73.979, -7.561], [-73.958, -7.564], [-73.942, -7.579], [-73.927, -7.582], [-73.912, -7.596], [-73.889, -7.603], [-73.896, -7.618], [-73.895, -7.635], [-73.9, -7.641], [-73.877, -7.659], [-73.868, -7.675], [-73.856, -7.678], [-73.843, -7.666], [-73.837, -7.671], [-73.835, -7.694], [-73.822, -7.701], [-73.82, -7.716], [-73.81, -7.719], [-73.803, -7.714], [-73.79, -7.717], [-73.771, -7.727], [-73.741, -7.733], [-73.736, -7.744], [-73.726, -7.74], [-73.714, -7.743], [-73.712, -7.761], [-73.689, -7.767], [-73.679, -7.783], [-73.676, -7.8], [-73.683, -7.818], [-73.678, -7.858], [-73.689, -7.869], [-73.706, -7.877], [-73.721, -7.872], [-73.735, -7.879], [-73.744, -7.871], [-73.766, -7.866], [-73.755, -7.891], [-73.765, -7.895], [-73.772, -7.91], [-73.767, -7.91], [-73.755, -7.925], [-73.74, -7.931], [-73.748, -7.947], [-73.731, -7.952], [-73.727, -7.965], [-73.72, -7.958], [-73.705, -7.955], [-73.705, -7.968], [-73.697, -7.978], [-73.692, -7.975], [-73.681, -7.985], [-73.682, -7.997], [-73.668, -8.013], [-73.653, -8.013], [-73.64, -8.007], [-73.63, -8.023], [-73.624, -8.023], [-73.617, -8.039], [-73.626, -8.05], [-73.626, -8.059], [-73.617, -8.069], [-73.601, -8.104], [-73.59, -8.113], [-73.585, -8.127], [-73.59, -8.155], [-73.595, -8.166], [-73.59, -8.179], [-73.589, -8.196], [-73.575, -8.211], [-73.571, -8.225], [-73.584, -8.231], [-73.587, -8.241], [-73.565, -8.245], [-73.526, -8.274], [-73.538, -8.297], [-73.527, -8.314], [-73.532, -8.336], [-73.542, -8.344], [-73.538, -8.352], [-73.525, -8.357], [-73.52, -8.373], [-73.512, -8.373], [-73.485, -8.384], [-73.441, -8.425], [-73.422, -8.435], [-73.408, -8.431], [-73.4, -8.439], [-73.399, -8.45], [-73.391, -8.458], [-73.389, -8.469], [-73.378, -8.464], [-73.373, -8.472], [-73.359, -8.47], [-73.345, -8.475], [-73.34, -8.471], [-73.331, -8.476], [-73.329, -8.524], [-73.334, -8.531], [-73.338, -8.576], [-73.344, -8.603], [-73.338, -8.621], [-73.32, -8.611], [-73.313, -8.618], [-73.31, -8.633], [-73.304, -8.629], [-73.296, -8.64], [-73.297, -8.647], [-73.284, -8.665], [-73.266, -8.671], [-73.251, -8.691], [-73.237, -8.687], [-73.218, -8.692], [-73.204, -8.688], [-73.19, -8.693], [-73.179, -8.691], [-73.167, -8.698], [-73.15, -8.725], [-73.144, -8.727], [-73.136, -8.741], [-73.14, -8.748], [-73.134, -8.767], [-73.114, -8.786], [-73.112, -8.819], [-73.095, -8.837], [-73.079, -8.841], [-73.079, -8.861], [-73.072, -8.862], [-73.07, -8.878], [-73.059, -8.896], [-73.059, -8.906], [-73.037, -8.916], [-73.02, -8.911], [-73.011, -8.919], [-72.999, -8.918], [-72.987, -8.936], [-72.976, -8.967], [-72.962, -8.984], [-72.942, -8.984], [-72.943, -8.992], [-72.957, -9], [-72.963, -9.013], [-72.948, -9.029], [-72.943, -9.052], [-72.949, -9.072], [-72.94, -9.093], [-72.945, -9.104], [-72.946, -9.119], [-72.958, -9.142], [-72.99, -9.162], [-73.005, -9.162], [-73.012, -9.174], [-73.027, -9.181], [-73.015, -9.186], [-73.012, -9.195], [-73.003, -9.195], [-73.004, -9.211], [-73.009, -9.222], [-73.025, -9.222], [-73.034, -9.234], [-73.064, -9.228], [-73.074, -9.235], [-73.094, -9.269], [-73.106, -9.274], [-73.109, -9.283], [-73.1, -9.302], [-73.101, -9.308], [-73.116, -9.318], [-73.131, -9.318], [-73.135, -9.332], [-73.148, -9.337], [-73.147, -9.353], [-73.169, -9.36], [-73.177, -9.355], [-73.189, -9.363], [-73.191, -9.389], [-73.187, -9.399], [-73.2, -9.404], [-73.2, -9.411], [-72.717, -9.412], [-72.712, -9.43], [-72.7, -9.429], [-72.694, -9.44], [-72.682, -9.434], [-72.668, -9.438], [-72.663, -9.448], [-72.646, -9.448], [-72.644, -9.442], [-72.622, -9.446], [-72.573, -9.464], [-72.563, -9.463], [-72.56, -9.472], [-72.547, -9.466], [-72.538, -9.47], [-72.521, -9.491], [-72.515, -9.484], [-72.506, -9.486], [-72.492, -9.48], [-72.48, -9.487], [-72.475, -9.483], [-72.454, -9.49], [-72.44, -9.477], [-72.416, -9.483], [-72.407, -9.477], [-72.397, -9.488], [-72.374, -9.495], [-72.367, -9.49], [-72.341, -9.507], [-72.334, -9.529], [-72.318, -9.544], [-72.29, -9.535], [-72.281, -9.542], [-72.288, -9.603], [-72.269, -9.621], [-72.259, -9.615], [-72.252, -9.62], [-72.26, -9.642], [-72.252, -9.656], [-72.246, -9.657], [-72.252, -9.702], [-72.259, -9.712], [-72.255, -9.734], [-72.263, -9.751], [-72.247, -9.751], [-72.241, -9.76], [-72.231, -9.762], [-72.215, -9.779], [-72.194, -9.776], [-72.171, -9.784], [-72.165, -9.791], [-72.151, -9.797], [-72.155, -9.816], [-72.161, -9.818], [-72.163, -9.83], [-72.157, -9.832], [-72.156, -9.846], [-72.148, -9.872], [-72.136, -9.874], [-72.148, -9.889], [-72.151, -9.906], [-72.164, -9.913], [-72.174, -9.933], [-72.156, -9.942], [-72.161, -9.956], [-72.15, -9.961], [-72.158, -9.978], [-72.176, -9.984], [-72.181, -10], [-71.822, -10], [-71.576, -10], [-71.499, -10], [-71.378, -10], [-71.36, -9.984], [-71.35, -9.985], [-71.351, -9.977], [-71.343, -9.967], [-71.329, -9.975], [-71.322, -9.986], [-71.311, -9.992], [-71.297, -9.992], [-71.292, -9.983], [-71.285, -9.986], [-71.272, -9.978], [-71.257, -9.979], [-71.251, -9.974], [-71.253, -9.963], [-71.236, -9.965], [-71.223, -9.97], [-71.209, -9.965], [-71.21, -9.953], [-71.192, -9.941], [-71.189, -9.92], [-71.179, -9.918], [-71.179, -9.908], [-71.173, -9.901], [-71.156, -9.871], [-71.149, -9.87], [-71.135, -9.854], [-71.109, -9.855], [-71.081, -9.836], [-71.077, -9.828], [-71.062, -9.826], [-71.051, -9.816], [-71.04, -9.819], [-71.032, -9.814], [-70.998, -9.818], [-70.991, -9.811], [-70.992, -9.796], [-70.981, -9.778], [-70.97, -9.756], [-70.961, -9.753], [-70.952, -9.742], [-70.938, -9.744], [-70.925, -9.742], [-70.914, -9.727], [-70.898, -9.714], [-70.897, -9.703], [-70.88, -9.681], [-70.853, -9.656], [-70.839, -9.657], [-70.835, -9.643], [-70.817, -9.644], [-70.813, -9.64], [-70.799, -9.642], [-70.785, -9.624], [-70.787, -9.615], [-70.766, -9.601], [-70.759, -9.606], [-70.755, -9.596], [-70.758, -9.579], [-70.755, -9.568], [-70.738, -9.559], [-70.73, -9.567], [-70.711, -9.548], [-70.694, -9.541], [-70.692, -9.535], [-70.674, -9.53], [-70.65, -9.512], [-70.649, -9.498], [-70.638, -9.499], [-70.632, -9.479], [-70.612, -9.467], [-70.61, -9.457], [-70.596, -9.459], [-70.595, -9.441], [-70.588, -9.446], [-70.562, -9.429], [-70.549, -9.435], [-70.547, -9.427], [-70.529, -9.433], [-70.505, -9.422], [-70.495, -9.424], [-70.495, -9.44], [-70.51, -9.446], [-70.504, -9.464], [-70.522, -9.456], [-70.524, -9.468], [-70.518, -9.478], [-70.503, -9.494], [-70.505, -9.506], [-70.515, -9.49], [-70.519, -9.505], [-70.526, -9.498], [-70.532, -9.504], [-70.526, -9.513], [-70.53, -9.519], [-70.538, -9.511], [-70.546, -9.515], [-70.547, -9.526], [-70.539, -9.527], [-70.542, -9.538], [-70.554, -9.539], [-70.567, -9.53], [-70.564, -9.541], [-70.57, -9.556], [-70.558, -9.56], [-70.553, -9.568], [-70.558, -9.575], [-70.568, -9.573], [-70.574, -9.563], [-70.587, -9.567], [-70.583, -9.558], [-70.592, -9.548], [-70.6, -9.563], [-70.586, -9.576], [-70.585, -9.591], [-70.598, -9.607], [-70.593, -9.623], [-70.575, -9.649], [-70.567, -9.667], [-70.553, -9.668], [-70.543, -9.68], [-70.527, -9.724], [-70.535, -9.734], [-70.533, -9.745], [-70.539, -9.75], [-70.537, -9.766], [-70.556, -9.788], [-70.563, -9.789], [-70.578, -9.778], [-70.587, -9.786], [-70.592, -9.803], [-70.601, -9.8], [-70.612, -9.805], [-70.623, -9.821], [-70.62, -9.828], [-70.621, -9.856], [-70.614, -9.867], [-70.613, -10.162], [-70.614, -10.425], [-70.614, -10.608], [-70.614, -10.852], [-70.614, -10.997], [-70.53, -10.935], [-70.515, -10.948], [-70.504, -10.952], [-70.494, -10.963], [-70.487, -10.965], [-70.473, -10.985], [-70.453, -10.997], [-70.438, -11.027], [-70.438, -11.039], [-70.42, -11.039], [-70.408, -11.047], [-70.391, -11.046], [-70.381, -11.051], [-70.376, -11.06], [-70.352, -11.06], [-70.35, -11.066], [-70.327, -11.066], [-70.314, -11.07], [-70.294, -11.066], [-70.282, -11.057], [-70.272, -11.06], [-70.256, -11.051], [-70.229, -11.05], [-70.199, -11.055], [-70.189, -11.046], [-70.157, -11.042], [-70.156, -11.033], [-70.141, -11.031], [-70.127, -11.015], [-70.106, -11.007], [-70.109, -10.996], [-70.084, -10.985], [-70.067, -10.994], [-70.064, -10.987], [-70.04, -10.98], [-70.038, -10.971], [-70.027, -10.977], [-70.007, -10.961], [-69.997, -10.963], [-69.996, -10.952], [-69.983, -10.953], [-69.984, -10.944], [-69.975, -10.949], [-69.959, -10.94], [-69.948, -10.925], [-69.918, -10.925], [-69.901, -10.92], [-69.878, -10.924], [-69.873, -10.931], [-69.862, -10.926], [-69.86, -10.934], [-69.853, -10.924], [-69.834, -10.928], [-69.831, -10.934], [-69.799, -10.928], [-69.781, -10.936], [-69.771, -10.931], [-69.774, -10.94], [-69.759, -10.945], [-69.76, -10.94], [-69.74, -10.964], [-69.737, -10.975], [-69.723, -10.965], [-69.715, -10.977], [-69.701, -10.965], [-69.699, -10.973], [-69.69, -10.964], [-69.669, -10.963], [-69.66, -10.953], [-69.634, -10.958], [-69.623, -10.95], [-69.611, -10.958], [-69.611, -10.947], [-69.596, -10.941], [-69.592, -10.948], [-69.584, -10.94], [-69.572, -10.946], [-69.475, -11.102], [-69.379, -11.264], [-69.336, -11.328], [-69.255, -11.459], [-68.97, -11.913], [-68.652, -12.498], [-68.653, -12.51], [-68.661, -12.518], [-68.654, -12.53], [-68.661, -12.536], [-68.664, -12.524], [-68.681, -12.522], [-68.673, -12.542], [-68.677, -12.555], [-68.692, -12.557], [-68.7, -12.572], [-68.699, -12.581], [-68.711, -12.591], [-68.716, -12.606], [-68.723, -12.603], [-68.733, -12.611], [-68.735, -12.625], [-68.742, -12.635], [-68.732, -12.653], [-68.738, -12.658], [-68.735, -12.668], [-68.728, -12.661], [-68.728, -12.675], [-68.721, -12.667], [-68.713, -12.682], [-68.734, -12.691], [-68.728, -12.7], [-68.742, -12.707], [-68.729, -12.712], [-68.741, -12.717], [-68.743, -12.726], [-68.766, -12.742], [-68.783, -12.74], [-68.792, -12.76], [-68.802, -12.756], [-68.804, -12.77], [-68.818, -12.792], [-68.807, -12.808], [-68.825, -12.806], [-68.825, -12.813], [-68.835, -12.813], [-68.839, -12.83], [-68.831, -12.842], [-68.842, -12.844], [-68.835, -12.856], [-68.845, -12.858], [-68.849, -12.866], [-68.859, -12.859], [-68.869, -12.868], [-68.864, -12.875], [-68.872, -12.89], [-68.866, -12.896], [-68.874, -12.92], [-68.862, -12.925], [-68.873, -12.94], [-68.862, -12.949], [-68.875, -12.947], [-68.882, -12.957], [-68.874, -12.967], [-68.877, -12.976], [-68.866, -12.97], [-68.862, -12.983], [-68.875, -12.984], [-68.866, -12.995], [-68.874, -13.002], [-68.867, -13.008], [-68.875, -13.011], [-68.874, -13.019], [-68.857, -13.013], [-68.854, -13.018], [-68.863, -13.036], [-68.85, -13.037], [-68.863, -13.046], [-68.854, -13.061], [-68.869, -13.08], [-68.86, -13.096], [-68.877, -13.139], [-68.867, -13.135], [-68.87, -13.147], [-68.864, -13.154], [-68.871, -13.168], [-68.857, -13.172], [-68.864, -13.184], [-68.852, -13.211], [-68.86, -13.211], [-68.863, -13.223], [-68.854, -13.222], [-68.858, -13.235], [-68.845, -13.247], [-68.86, -13.256], [-68.849, -13.269], [-68.861, -13.275], [-68.855, -13.282], [-68.858, -13.296], [-68.868, -13.297], [-68.859, -13.312], [-68.878, -13.332], [-68.868, -13.334], [-68.879, -13.345], [-68.868, -13.35], [-68.888, -13.373], [-68.883, -13.381], [-68.886, -13.397], [-68.893, -13.398], [-68.898, -13.414], [-68.891, -13.425], [-68.905, -13.435], [-68.906, -13.448], [-68.896, -13.462], [-68.906, -13.458], [-68.902, -13.472], [-68.916, -13.483], [-68.913, -13.505], [-68.922, -13.511], [-68.936, -13.535], [-68.943, -13.538], [-68.949, -13.554], [-68.946, -13.569], [-68.954, -13.577], [-68.958, -13.592], [-68.952, -13.603], [-68.975, -13.604], [-68.972, -13.609], [-68.988, -13.612], [-69.005, -13.625], [-68.99, -13.635], [-68.997, -13.64], [-68.993, -13.65], [-69.021, -13.657], [-69.033, -13.654], [-69.037, -13.64], [-69.061, -13.657], [-69.067, -13.687], [-69.054, -13.695], [-69.056, -13.702], [-69.036, -13.716], [-69.034, -13.729], [-69.025, -13.74], [-69.008, -13.738], [-68.974, -13.761], [-68.981, -13.783], [-68.992, -13.778], [-68.995, -13.787], [-68.973, -13.796], [-68.959, -13.79], [-68.95, -13.801], [-68.918, -13.814], [-68.922, -13.827], [-68.941, -13.84], [-68.945, -13.868], [-68.951, -13.879], [-68.966, -13.886], [-68.974, -13.882], [-68.982, -13.894], [-68.984, -13.912], [-68.983, -13.93], [-68.97, -13.948], [-68.979, -13.976], [-68.969, -13.983], [-68.954, -14.004], [-68.947, -14.003], [-68.942, -14.021], [-68.928, -14.031], [-68.919, -14.027], [-68.909, -14.041], [-68.896, -14.041], [-68.893, -14.052], [-68.88, -14.064], [-68.884, -14.084], [-68.875, -14.087], [-68.871, -14.111], [-68.85, -14.138], [-68.833, -14.145], [-68.832, -14.15], [-68.847, -14.153], [-68.856, -14.163], [-68.846, -14.197], [-68.831, -14.205], [-68.828, -14.22], [-68.962, -14.22], [-68.97, -14.225], [-68.969, -14.235], [-68.982, -14.235], [-68.989, -14.242], [-68.984, -14.262], [-68.979, -14.263], [-68.99, -14.282], [-69.005, -14.29], [-69.008, -14.305], [-69.015, -14.315], [-68.99, -14.37], [-68.985, -14.373], [-68.991, -14.384], [-69.004, -14.391], [-69.005, -14.404], [-69.018, -14.403], [-69.026, -14.41], [-69.031, -14.426], [-69.05, -14.429], [-69.06, -14.442], [-69.082, -14.444], [-69.099, -14.486], [-69.114, -14.488], [-69.115, -14.503], [-69.125, -14.513], [-69.141, -14.513], [-69.154, -14.522], [-69.144, -14.53], [-69.148, -14.544], [-69.147, -14.572], [-69.15, -14.58], [-69.165, -14.589], [-69.178, -14.59], [-69.19, -14.586], [-69.22, -14.582], [-69.222, -14.593], [-69.23, -14.6], [-69.231, -14.615], [-69.226, -14.629], [-69.23, -14.657], [-69.242, -14.659], [-69.258, -14.683], [-69.254, -14.7], [-69.225, -14.741], [-69.24, -14.759], [-69.26, -14.763], [-69.271, -14.77], [-69.28, -14.765], [-69.301, -14.765], [-69.323, -14.778], [-69.34, -14.796], [-69.354, -14.802], [-69.357, -14.852], [-69.344, -14.883], [-69.354, -14.924], [-69.364, -14.931], [-69.36, -14.937], [-69.361, -14.961], [-69.354, -14.972], [-69.329, -14.997], [-69.325, -15.005], [-69.315, -15.041], [-69.304, -15.041], [-69.304, -15.054], [-69.295, -15.074], [-69.29, -15.074], [-69.284, -15.097], [-69.263, -15.11], [-69.243, -15.112], [-69.243, -15.122], [-69.236, -15.12], [-69.225, -15.136], [-69.218, -15.136], [-69.191, -15.165], [-69.175, -15.179], [-69.166, -15.194], [-69.153, -15.198], [-69.149, -15.213], [-69.133, -15.221], [-69.132, -15.246], [-69.12, -15.26], [-69.14, -15.257], [-69.152, -15.269], [-69.176, -15.261], [-69.178, -15.279], [-69.193, -15.295], [-69.195, -15.315], [-69.207, -15.324], [-69.216, -15.317], [-69.231, -15.335], [-69.249, -15.371], [-69.26, -15.374], [-69.25, -15.427], [-69.232, -15.442], [-69.241, -15.46], [-69.254, -15.469], [-69.29, -15.437], [-69.309, -15.464], [-69.312, -15.473], [-69.301, -15.486], [-69.313, -15.492], [-69.309, -15.505], [-69.314, -15.518], [-69.33, -15.537], [-69.358, -15.53], [-69.391, -15.507], [-69.375, -15.492], [-69.373, -15.504], [-69.355, -15.498], [-69.359, -15.482], [-69.376, -15.472], [-69.385, -15.472], [-69.395, -15.481], [-69.406, -15.483], [-69.435, -15.481], [-69.417, -15.504], [-69.43, -15.503], [-69.442, -15.492], [-69.436, -15.473], [-69.447, -15.457], [-69.46, -15.453], [-69.464, -15.442], [-69.476, -15.428], [-69.5, -15.413], [-69.498, -15.406], [-69.513, -15.407], [-69.528, -15.387], [-69.517, -15.38], [-69.522, -15.37], [-69.532, -15.371], [-69.54, -15.38], [-69.554, -15.376], [-69.555, -15.359], [-69.572, -15.352], [-69.568, -15.362], [-69.596, -15.37], [-69.607, -15.355], [-69.634, -15.353], [-69.63, -15.344], [-69.634, -15.324], [-69.642, -15.321], [-69.653, -15.298], [-69.639, -15.311], [-69.635, -15.307], [-69.651, -15.283], [-69.668, -15.274], [-69.669, -15.268], [-69.656, -15.27], [-69.67, -15.253], [-69.695, -15.237], [-69.711, -15.234], [-69.72, -15.244], [-69.736, -15.242], [-69.74, -15.257], [-69.75, -15.249], [-69.754, -15.256], [-69.744, -15.262], [-69.751, -15.27], [-69.736, -15.271], [-69.743, -15.279], [-69.714, -15.279], [-69.716, -15.284], [-69.705, -15.295], [-69.706, -15.304], [-69.719, -15.305], [-69.723, -15.297], [-69.751, -15.282], [-69.758, -15.297], [-69.752, -15.302], [-69.758, -15.309], [-69.772, -15.307], [-69.767, -15.328], [-69.779, -15.325], [-69.784, -15.311], [-69.797, -15.297], [-69.811, -15.286], [-69.816, -15.276], [-69.828, -15.276], [-69.83, -15.283], [-69.818, -15.29], [-69.819, -15.307], [-69.837, -15.279], [-69.844, -15.294], [-69.855, -15.294], [-69.856, -15.303], [-69.867, -15.303], [-69.872, -15.293], [-69.899, -15.296], [-69.899, -15.319], [-69.888, -15.331], [-69.871, -15.334], [-69.866, -15.343], [-69.874, -15.347], [-69.892, -15.342], [-69.873, -15.351], [-69.87, -15.363], [-69.846, -15.355], [-69.845, -15.329], [-69.836, -15.338], [-69.843, -15.347], [-69.828, -15.354], [-69.823, -15.347], [-69.804, -15.35], [-69.833, -15.36], [-69.839, -15.368], [-69.841, -15.359], [-69.865, -15.363], [-69.873, -15.375], [-69.879, -15.365], [-69.892, -15.363], [-69.907, -15.369], [-69.918, -15.366], [-69.924, -15.383], [-69.935, -15.397], [-69.934, -15.419], [-69.927, -15.432], [-69.915, -15.436], [-69.922, -15.455], [-69.912, -15.465], [-69.901, -15.49], [-69.889, -15.511], [-69.877, -15.52], [-69.86, -15.545], [-69.86, -15.559], [-69.848, -15.562], [-69.842, -15.576], [-69.826, -15.588], [-69.809, -15.612], [-69.816, -15.617], [-69.814, -15.638], [-69.796, -15.662], [-69.784, -15.661], [-69.781, -15.653], [-69.772, -15.658], [-69.761, -15.682], [-69.777, -15.682], [-69.799, -15.667], [-69.804, -15.673], [-69.782, -15.696], [-69.754, -15.713], [-69.746, -15.725], [-69.754, -15.73], [-69.795, -15.725], [-69.803, -15.716], [-69.82, -15.708], [-69.851, -15.676], [-69.852, -15.662], [-69.847, -15.638], [-69.859, -15.62], [-69.881, -15.607], [-69.893, -15.593], [-69.905, -15.566], [-69.921, -15.56], [-69.945, -15.56], [-69.909, -15.572], [-69.914, -15.583], [-69.926, -15.573], [-69.918, -15.591], [-69.924, -15.608], [-69.914, -15.618], [-69.926, -15.645], [-69.932, -15.648], [-69.94, -15.664], [-69.95, -15.675], [-69.96, -15.665], [-69.961, -15.685], [-69.955, -15.687], [-69.963, -15.7], [-69.975, -15.705], [-69.989, -15.691], [-70.012, -15.687], [-70.017, -15.691], [-70.024, -15.708], [-70.03, -15.709], [-70.034, -15.723], [-70.024, -15.742], [-70.036, -15.754], [-70.035, -15.769], [-70.017, -15.793], [-70.006, -15.787], [-69.994, -15.803], [-69.989, -15.819], [-70.016, -15.83], [-70.015, -15.846], [-70.011, -15.851], [-69.998, -15.851], [-69.997, -15.864], [-69.984, -15.861], [-69.975, -15.853], [-69.963, -15.85], [-69.952, -15.862], [-69.922, -15.873], [-69.919, -15.88], [-69.899, -15.885], [-69.893, -15.882], [-69.883, -15.891], [-69.884, -15.903], [-69.869, -15.916], [-69.861, -15.932], [-69.838, -15.912], [-69.816, -15.913], [-69.807, -15.922], [-69.787, -15.921], [-69.784, -15.927], [-69.778, -15.917], [-69.784, -15.891], [-69.805, -15.882], [-69.799, -15.879], [-69.826, -15.862], [-69.835, -15.86], [-69.837, -15.869], [-69.85, -15.862], [-69.851, -15.843], [-69.842, -15.824], [-69.843, -15.808], [-69.823, -15.786], [-69.803, -15.785], [-69.796, -15.81], [-69.783, -15.815], [-69.766, -15.833], [-69.775, -15.841], [-69.78, -15.856], [-69.771, -15.885], [-69.77, -15.895], [-69.759, -15.911], [-69.757, -15.901], [-69.744, -15.91], [-69.736, -15.901], [-69.726, -15.914], [-69.712, -15.916], [-69.701, -15.909], [-69.698, -15.89], [-69.667, -15.915], [-69.683, -15.911], [-69.688, -15.923], [-69.68, -15.949], [-69.671, -15.958], [-69.636, -15.958], [-69.597, -15.956], [-69.563, -15.959], [-69.545, -15.963], [-69.495, -15.988], [-69.478, -15.992], [-69.462, -15.99], [-69.441, -16.001], [-69.442, -16.019], [-69.426, -16.04], [-69.42, -16.058], [-69.432, -16.095], [-69.443, -16.112], [-69.456, -16.118], [-69.478, -16.144], [-69.479, -16.15], [-69.504, -16.174], [-69.507, -16.166], [-69.514, -16.18], [-69.506, -16.198], [-69.492, -16.208], [-69.472, -16.198], [-69.462, -16.203], [-69.436, -16.182], [-69.424, -16.179], [-69.404, -16.191], [-69.388, -16.181], [-69.384, -16.191], [-69.398, -16.201], [-69.398, -16.209], [-69.376, -16.236], [-69.355, -16.252], [-69.311, -16.257], [-69.294, -16.255], [-69.286, -16.263], [-69.288, -16.273], [-69.274, -16.284], [-69.259, -16.286], [-69.243, -16.276], [-69.247, -16.271], [-69.236, -16.262], [-69.23, -16.268], [-69.212, -16.268], [-69.173, -16.257], [-69.149, -16.254], [-69.116, -16.238], [-69.098, -16.241], [-69.103, -16.225], [-69.082, -16.221], [-69.062, -16.207], [-69.055, -16.197], [-69.025, -16.21], [-69.013, -16.22], [-69.007, -16.205], [-68.983, -16.193], [-68.957, -16.198], [-68.966, -16.219], [-68.97, -16.241], [-68.979, -16.262], [-68.987, -16.258], [-68.998, -16.274], [-69.005, -16.272], [-68.992, -16.238], [-69.004, -16.25], [-69.007, -16.261], [-69.019, -16.262], [-69.032, -16.275], [-69.044, -16.267], [-69.059, -16.25], [-69.063, -16.258], [-69.074, -16.256], [-69.076, -16.272], [-69.067, -16.28], [-69.056, -16.277], [-69.037, -16.296], [-69.037, -16.309], [-69.022, -16.332], [-69.026, -16.343], [-69.021, -16.349], [-69.029, -16.375], [-69.022, -16.4], [-69.027, -16.41], [-69.04, -16.42], [-69.046, -16.438], [-69.058, -16.44], [-69.065, -16.453], [-69.082, -16.464], [-69.079, -16.471], [-69.089, -16.494], [-69.076, -16.504], [-69.073, -16.518], [-69.065, -16.523], [-69.064, -16.532], [-69.054, -16.537], [-69.036, -16.563]]]]}}