{"type": "Feature", "properties": {"name": "Slovenia", "iso1": "SI", "admin_level": 2, "osm_id": 218657, "countrylevel_id": "iso1:SI", "osm_data": {"localname": "Slovenija", "official_name": "Republika Slovenija", "alltags": {"flag": "http://upload.wikimedia.org/wikipedia/commons/f/f0/Flag_of_Slovenia.svg", "name:af": "Slowenië", "name:am": "ስሎቬኒያ", "name:an": "Eslovenia", "name:ar": "سلوفينيا", "name:az": "Sloveniya", "name:ba": "Словения", "name:be": "Славенія", "name:bg": "Словения", "name:bi": "Slovenia", "name:bn": "স্লোভেনিয়া", "name:bo": "སི་ལོ་ཝེ་ནི་ཡ།", "name:br": "Slovenia", "name:bs": "Slovenija", "name:ca": "Eslovènia", "name:ce": "Словени", "name:co": "Sluvenia", "name:cs": "Slovinsko", "name:cu": "Їллѷрїиска Словѣнїꙗ", "name:cv": "Словени", "name:cy": "Slofenia", "name:da": "Slovenien", "name:dv": "ސުލޮވީނިއާ", "name:ee": "Slovenia", "name:el": "Σλοβενία", "name:en": "Slovenia", "name:eo": "Slovenujo", "name:es": "Eslovenia", "name:et": "Sloveenia", "name:eu": "Eslovenia", "name:fa": "اسلوونی", "name:fi": "Slovenia", "name:fo": "Slovenia", "name:fr": "Slovénie", "name:fy": "Sloveenje", "name:ga": "An tSlóivéin", "name:gd": "Sloibhìnia", "name:gl": "Eslovenia", "name:gn": "Eloveña", "name:gu": "સ્લોવેનિયા", "name:gv": "Yn Clovean", "name:he": "סלובניה", "name:hi": "स्लोवेनिया", "name:hr": "Slovenija", "name:ht": "Sloveni", "name:hu": "Szlovénia", "name:hy": "Սլովենիա", "name:ia": "Slovenia", "name:id": "Slovenia", "name:ie": "Slovenia", "name:io": "Slovenia", "name:is": "Slóvenía", "name:it": "Slovenia", "name:ja": "スロベニア", "name:jv": "Slovénia", "name:ka": "სლოვენია", "name:kg": "Slovenia", "name:kk": "Словения", "name:kl": "Slovenia", "name:ko": "슬로베니아", "name:ku": "Slovenya", "name:kv": "Словения", "name:kw": "Sloveni", "name:la": "Slovenia", "name:lb": "Slowenien", "name:li": "Slovenië", "name:ln": "Slovenia", "name:lt": "Slovėnija", "name:lv": "Slovēnija", "name:mi": "Horowinia", "name:mk": "Словенија", "name:ml": "സ്ലൊവീന്യ", "name:mn": "Словен", "name:mr": "स्लोव्हेनिया", "name:ms": "Slovenia", "name:mt": "Slovenja", "name:my": "ဆလိုဗေးနီးယားနိုင်ငံ", "name:na": "Tsirobeniya", "name:ne": "स्लोभेनिया", "name:nl": "Slovenië", "name:nn": "Slovenia", "name:no": "Slovenia", "name:nv": "Słobíín Bikéyah", "name:oc": "Eslovènia", "name:or": "ସ୍ଲୋଭେନିଆ", "name:os": "Словени", "name:pl": "Słowenia", "name:ps": "سلووانیا", "name:pt": "Eslovénia", "name:qu": "Isluwinya", "name:rm": "Slovenia", "name:ro": "Slovenia", "name:ru": "Словения", "name:rw": "Siloveniya", "name:sa": "स्लोवीनिया", "name:sc": "Islovènia", "name:se": "Slovenia", "name:sh": "Slovenija", "name:sk": "Slovinsko", "name:sl": "Slovenija", "name:sm": "Slovenia", "name:so": "Isloveeniya", "name:sq": "Sllovenia", "name:sr": "Словенија", "name:ss": "Siloveni", "name:st": "Slovenia", "name:su": "Slovénia", "name:sv": "Slovenien", "name:sw": "Slovenia", "name:ta": "சுலோவீனியா", "name:te": "స్లోవేనియా", "name:tg": "Словения", "name:th": "ประเทศสโลวีเนีย", "name:tk": "Sloweniýa", "name:tl": "Eslobenya", "name:tr": "Slovenya", "name:tt": "Словения", "name:ug": "Slowéniye", "name:uk": "Словенія", "name:ur": "سلووینیا", "name:uz": "Sloveniya", "name:vi": "Slovenia", "name:vo": "Sloveniyän", "name:wo": "Esloweeni", "name:yi": "סלאוועניע", "name:yo": "Sloféníà", "name:zh": "斯洛文尼亞", "currency": "EUR", "int_name": "Slovenia", "name:ace": "Slovenia", "name:als": "Slowenien", "name:ang": "Slofenia", "name:arc": "ܣܠܘܒܢܝܐ", "name:arz": "سلوفينيا", "name:ast": "Eslovenia", "name:bar": "Slowenien", "name:bcl": "Slobinya", "name:bpy": "স্লোভেনিয়া", "name:bxr": "Словен", "name:ceb": "Eslobenya", "name:chy": "Slovenia", "name:ckb": "سلۆڤێنیا", "name:crh": "Sloveniya", "name:csb": "Sloweńskô", "name:diq": "Slowenya", "name:dsb": "Słowjeńska", "name:ext": "Eslovénia", "name:frp": "Slovènie", "name:frr": "Slowenien", "name:fur": "Slovenie", "name:gag": "Sloveniya", "name:hak": "Sṳ̂-lo̍k-vì-nì-â", "name:haw": "Solowenia", "name:hif": "Slovenia", "name:hsb": "Słowjenska", "name:ilo": "Eslobenia", "name:jbo": "slovEni,as", "name:kaa": "Sloveniya", "name:kbd": "Слоуэнэ", "name:koi": "Словения", "name:krc": "Словения", "name:lad": "Eslovenia", "name:lij": "Slovenia", "name:lmo": "Sluenia", "name:ltg": "Sloveneja", "name:mdf": "Словение", "name:mhr": "Словений", "name:nah": "Eslovenia", "name:nan": "Slovenia", "name:nds": "Slowenien", "name:nov": "Slovenia", "name:nrm": "Slovénie", "name:pag": "Eslovenia", "name:pam": "Slovenia", "name:pap": "Slovenia", "name:pcd": "Slovénie", "name:pih": "Slowenya", "name:pms": "Slovenia", "name:pnb": "سلوینیا", "name:pnt": "Σλοβενία", "name:rue": "Словенія", "name:sah": "Словения", "name:scn": "Sluvenia", "name:sco": "Slovenie", "name:stq": "Slowenien", "name:szl": "Słowyńijo", "name:tet": "Eslovénia", "name:tok": "ma Lowensina", "name:tzl": "Slovensca", "name:udm": "Словения", "name:vec": "Slovenia", "name:vep": "Slovenii", "name:vls": "Slovenië", "name:war": "Eslovenya", "name:wuu": "斯洛文尼亚", "name:xal": "Словенмудин Орн", "name:xmf": "სლოვენია", "name:yue": "斯洛文尼亞", "name:zea": "Slovenië", "alt_name:eo": "Slovenio", "name:nds-nl": "Sloveniën", "name:bat-smg": "Slovienėjė", "name:fiu-vro": "Sloveeniä", "name:roa-tara": "Slovenie", "official_name": "Republika Slovenija", "name:be-tarask": "Славенія", "default_language": "sl", "official_name:cs": "Slovinská republika", "official_name:el": "Δημοκρατία της Σλοβενίας", "official_name:eo": "Respubliko Slovenujo", "official_name:fi": "Slovenian tasavalta", "official_name:uk": "Республіка Словенія"}}, "center_lat": 46.12, "center_lon": 14.82, "timezone": "Europe/Ljubljana", "population": 2066880, "wikidata_id": "Q215", "wikipedia_id": "sl:Slovenija"}, "geometry": {"type": "MultiPolygon", "coordinates": [[[[13.723, 45.595], [13.747, 45.598], [13.781, 45.584], [13.81, 45.581], [13.851, 45.585], [13.866, 45.597], [13.869, 45.609], [13.907, 45.625], [13.919, 45.634], [13.893, 45.645], [13.858, 45.666], [13.834, 45.687], [13.834, 45.707], [13.811, 45.723], [13.8, 45.74], [13.784, 45.748], [13.746, 45.755], [13.73, 45.766], [13.71, 45.774], [13.669, 45.8], [13.624, 45.796], [13.624, 45.8], [13.596, 45.808], [13.597, 45.82], [13.589, 45.835], [13.574, 45.843], [13.587, 45.871], [13.587, 45.881], [13.596, 45.895], [13.609, 45.899], [13.618, 45.916], [13.638, 45.935], [13.633, 45.948], [13.643, 45.983], [13.634, 45.989], [13.619, 45.983], [13.591, 45.99], [13.577, 45.983], [13.569, 45.969], [13.528, 45.967], [13.514, 45.98], [13.502, 45.98], [13.48, 46.011], [13.497, 46.016], [13.51, 46.042], [13.496, 46.048], [13.496, 46.058], [13.516, 46.062], [13.579, 46.097], [13.597, 46.105], [13.601, 46.113], [13.645, 46.138], [13.656, 46.155], [13.654, 46.162], [13.667, 46.174], [13.659, 46.184], [13.634, 46.192], [13.615, 46.184], [13.613, 46.189], [13.565, 46.187], [13.562, 46.204], [13.545, 46.212], [13.529, 46.212], [13.529, 46.219], [13.503, 46.216], [13.482, 46.225], [13.444, 46.225], [13.446, 46.213], [13.423, 46.206], [13.409, 46.216], [13.412, 46.228], [13.423, 46.235], [13.41, 46.24], [13.399, 46.253], [13.392, 46.282], [13.375, 46.298], [13.403, 46.3], [13.418, 46.306], [13.415, 46.314], [13.426, 46.323], [13.44, 46.323], [13.449, 46.335], [13.437, 46.354], [13.448, 46.363], [13.468, 46.361], [13.482, 46.369], [13.517, 46.377], [13.527, 46.388], [13.566, 46.398], [13.575, 46.409], [13.579, 46.425], [13.598, 46.439], [13.615, 46.439], [13.649, 46.446], [13.655, 46.439], [13.684, 46.437], [13.699, 46.457], [13.694, 46.468], [13.709, 46.482], [13.703, 46.484], [13.704, 46.502], [13.717, 46.507], [13.714, 46.523], [13.737, 46.517], [13.766, 46.515], [13.779, 46.517], [13.794, 46.506], [13.811, 46.506], [13.829, 46.517], [13.858, 46.514], [13.882, 46.523], [13.912, 46.521], [13.943, 46.511], [13.97, 46.497], [13.989, 46.493], [14.006, 46.481], [14.02, 46.481], [14.041, 46.493], [14.095, 46.485], [14.12, 46.475], [14.135, 46.459], [14.135, 46.451], [14.153, 46.437], [14.169, 46.433], [14.193, 46.443], [14.216, 46.443], [14.237, 46.432], [14.283, 46.444], [14.308, 46.431], [14.332, 46.432], [14.344, 46.437], [14.382, 46.439], [14.41, 46.446], [14.411, 46.446], [14.43, 46.447], [14.439, 46.441], [14.431, 46.434], [14.447, 46.422], [14.476, 46.42], [14.492, 46.413], [14.503, 46.423], [14.522, 46.427], [14.557, 46.385], [14.563, 46.372], [14.578, 46.377], [14.587, 46.395], [14.586, 46.43], [14.596, 46.437], [14.631, 46.439], [14.66, 46.444], [14.675, 46.451], [14.683, 46.468], [14.699, 46.464], [14.698, 46.474], [14.709, 46.481], [14.715, 46.5], [14.73, 46.492], [14.741, 46.505], [14.748, 46.498], [14.759, 46.504], [14.784, 46.499], [14.819, 46.509], [14.818, 46.522], [14.832, 46.539], [14.823, 46.543], [14.838, 46.559], [14.835, 46.563], [14.852, 46.581], [14.867, 46.604], [14.887, 46.613], [14.923, 46.603], [14.923, 46.621], [14.931, 46.615], [14.956, 46.633], [14.972, 46.623], [14.979, 46.601], [14.996, 46.616], [14.995, 46.622], [15.016, 46.641], [15.044, 46.652], [15.065, 46.652], [15.082, 46.645], [15.111, 46.66], [15.131, 46.651], [15.145, 46.66], [15.167, 46.654], [15.181, 46.656], [15.197, 46.646], [15.236, 46.639], [15.263, 46.645], [15.277, 46.644], [15.293, 46.652], [15.319, 46.648], [15.328, 46.653], [15.344, 46.651], [15.394, 46.652], [15.414, 46.656], [15.439, 46.64], [15.457, 46.639], [15.463, 46.616], [15.475, 46.612], [15.488, 46.621], [15.512, 46.617], [15.534, 46.632], [15.542, 46.63], [15.553, 46.653], [15.544, 46.669], [15.559, 46.671], [15.568, 46.68], [15.595, 46.69], [15.609, 46.688], [15.605, 46.681], [15.634, 46.681], [15.634, 46.688], [15.654, 46.693], [15.65, 46.706], [15.674, 46.707], [15.694, 46.699], [15.722, 46.696], [15.737, 46.7], [15.771, 46.699], [15.804, 46.716], [15.83, 46.722], [15.862, 46.722], [15.905, 46.712], [15.921, 46.706], [15.95, 46.688], [15.985, 46.684], [16.004, 46.677], [16.009, 46.667], [16.038, 46.656], [16.042, 46.686], [16.027, 46.705], [16.029, 46.712], [16.004, 46.717], [15.993, 46.732], [15.985, 46.753], [15.998, 46.811], [15.986, 46.827], [15.996, 46.835], [16.008, 46.831], [16.029, 46.84], [16.058, 46.839], [16.071, 46.853], [16.09, 46.864], [16.098, 46.861], [16.114, 46.869], [16.127, 46.857], [16.156, 46.854], [16.165, 46.86], [16.177, 46.857], [16.183, 46.864], [16.216, 46.868], [16.233, 46.877], [16.26, 46.872], [16.291, 46.873], [16.302, 46.86], [16.319, 46.856], [16.33, 46.845], [16.34, 46.847], [16.351, 46.83], [16.34, 46.822], [16.34, 46.804], [16.313, 46.798], [16.312, 46.778], [16.33, 46.778], [16.319, 46.754], [16.333, 46.748], [16.349, 46.732], [16.357, 46.714], [16.371, 46.722], [16.38, 46.712], [16.369, 46.704], [16.382, 46.698], [16.429, 46.694], [16.42, 46.674], [16.42, 46.658], [16.396, 46.665], [16.385, 46.654], [16.392, 46.634], [16.412, 46.628], [16.425, 46.613], [16.446, 46.611], [16.484, 46.578], [16.483, 46.566], [16.508, 46.565], [16.519, 46.553], [16.52, 46.535], [16.533, 46.531], [16.524, 46.52], [16.533, 46.514], [16.524, 46.505], [16.57, 46.487], [16.581, 46.478], [16.597, 46.476], [16.575, 46.471], [16.561, 46.478], [16.538, 46.476], [16.534, 46.481], [16.516, 46.481], [16.518, 46.49], [16.493, 46.498], [16.488, 46.508], [16.471, 46.517], [16.441, 46.515], [16.441, 46.525], [16.404, 46.537], [16.387, 46.536], [16.369, 46.545], [16.382, 46.55], [16.369, 46.555], [16.365, 46.546], [16.342, 46.542], [16.336, 46.527], [16.314, 46.525], [16.308, 46.514], [16.266, 46.515], [16.267, 46.505], [16.242, 46.499], [16.241, 46.485], [16.252, 46.481], [16.264, 46.456], [16.267, 46.437], [16.274, 46.415], [16.282, 46.415], [16.307, 46.398], [16.302, 46.378], [16.266, 46.376], [16.244, 46.38], [16.228, 46.388], [16.189, 46.378], [16.187, 46.387], [16.148, 46.405], [16.088, 46.389], [16.058, 46.394], [16.05, 46.382], [16.072, 46.365], [16.077, 46.348], [16.053, 46.335], [16.036, 46.337], [16.02, 46.321], [16.022, 46.314], [16.002, 46.307], [15.99, 46.315], [15.977, 46.312], [15.967, 46.299], [15.917, 46.285], [15.913, 46.29], [15.867, 46.276], [15.863, 46.268], [15.822, 46.261], [15.791, 46.259], [15.802, 46.243], [15.794, 46.228], [15.781, 46.213], [15.757, 46.207], [15.753, 46.22], [15.702, 46.222], [15.674, 46.227], [15.647, 46.217], [15.649, 46.192], [15.627, 46.173], [15.615, 46.172], [15.604, 46.161], [15.614, 46.153], [15.596, 46.146], [15.614, 46.133], [15.609, 46.108], [15.619, 46.092], [15.633, 46.084], [15.649, 46.087], [15.657, 46.072], [15.679, 46.072], [15.687, 46.064], [15.715, 46.058], [15.732, 46.045], [15.716, 46.035], [15.716, 46.01], [15.7, 45.997], [15.71, 45.962], [15.706, 45.92], [15.679, 45.904], [15.69, 45.88], [15.678, 45.869], [15.699, 45.858], [15.709, 45.847], [15.663, 45.839], [15.642, 45.82], [15.634, 45.83], [15.609, 45.841], [15.583, 45.847], [15.573, 45.854], [15.559, 45.834], [15.551, 45.845], [15.539, 45.848], [15.536, 45.83], [15.521, 45.821], [15.501, 45.822], [15.493, 45.832], [15.479, 45.827], [15.479, 45.82], [15.466, 45.818], [15.476, 45.798], [15.463, 45.794], [15.413, 45.795], [15.399, 45.792], [15.381, 45.779], [15.352, 45.773], [15.334, 45.764], [15.3, 45.754], [15.275, 45.74], [15.257, 45.719], [15.267, 45.717], [15.27, 45.707], [15.288, 45.706], [15.289, 45.692], [15.301, 45.691], [15.326, 45.676], [15.318, 45.695], [15.335, 45.705], [15.34, 45.715], [15.358, 45.713], [15.359, 45.685], [15.35, 45.683], [15.348, 45.671], [15.363, 45.678], [15.363, 45.687], [15.392, 45.667], [15.395, 45.654], [15.406, 45.65], [15.39, 45.637], [15.343, 45.646], [15.351, 45.637], [15.306, 45.632], [15.302, 45.624], [15.308, 45.615], [15.292, 45.612], [15.277, 45.603], [15.298, 45.585], [15.301, 45.538], [15.314, 45.532], [15.316, 45.522], [15.334, 45.509], [15.386, 45.487], [15.36, 45.477], [15.346, 45.457], [15.329, 45.453], [15.277, 45.466], [15.244, 45.453], [15.222, 45.425], [15.201, 45.427], [15.195, 45.437], [15.177, 45.421], [15.154, 45.426], [15.139, 45.444], [15.124, 45.447], [15.105, 45.462], [15.085, 45.468], [15.085, 45.483], [15.062, 45.488], [15.054, 45.494], [15.028, 45.486], [15.012, 45.497], [14.979, 45.499], [14.944, 45.523], [14.923, 45.528], [14.913, 45.518], [14.916, 45.494], [14.902, 45.475], [14.874, 45.472], [14.871, 45.467], [14.834, 45.461], [14.817, 45.46], [14.816, 45.472], [14.805, 45.479], [14.804, 45.496], [14.786, 45.507], [14.756, 45.514], [14.721, 45.534], [14.703, 45.535], [14.7, 45.525], [14.685, 45.535], [14.689, 45.553], [14.7, 45.563], [14.693, 45.578], [14.678, 45.59], [14.651, 45.592], [14.627, 45.614], [14.614, 45.617], [14.596, 45.628], [14.608, 45.658], [14.598, 45.669], [14.583, 45.665], [14.57, 45.673], [14.566, 45.652], [14.544, 45.622], [14.526, 45.61], [14.501, 45.608], [14.507, 45.594], [14.499, 45.576], [14.5, 45.55], [14.489, 45.537], [14.476, 45.534], [14.455, 45.52], [14.427, 45.507], [14.416, 45.51], [14.394, 45.494], [14.361, 45.484], [14.35, 45.486], [14.328, 45.472], [14.317, 45.483], [14.306, 45.48], [14.286, 45.49], [14.265, 45.483], [14.245, 45.505], [14.223, 45.501], [14.206, 45.482], [14.208, 45.469], [14.181, 45.478], [14.154, 45.481], [14.143, 45.475], [14.118, 45.481], [14.071, 45.485], [14.044, 45.498], [14.011, 45.52], [13.997, 45.516], [14.002, 45.508], [13.975, 45.515], [13.962, 45.506], [13.966, 45.496], [13.984, 45.489], [13.997, 45.472], [13.985, 45.469], [13.987, 45.459], [13.971, 45.448], [13.957, 45.456], [13.915, 45.454], [13.893, 45.438], [13.887, 45.426], [13.861, 45.428], [13.851, 45.432], [13.815, 45.434], [13.803, 45.444], [13.808, 45.456], [13.798, 45.463], [13.766, 45.467], [13.708, 45.452], [13.704, 45.457], [13.675, 45.443], [13.644, 45.459], [13.609, 45.465], [13.594, 45.472], [13.592, 45.489], [13.584, 45.498], [13.597, 45.502], [13.594, 45.512], [13.566, 45.521], [13.568, 45.528], [13.602, 45.526], [13.602, 45.537], [13.617, 45.54], [13.644, 45.532], [13.692, 45.548], [13.72, 45.543], [13.736, 45.564], [13.746, 45.564], [13.741, 45.574], [13.703, 45.59], [13.723, 45.595]]]]}}