{"type": "Feature", "properties": {"name": "South Sudan", "iso1": "SS", "admin_level": 2, "osm_id": 1656678, "countrylevel_id": "iso1:SS", "osm_data": {"localname": "South Sudan", "official_name": "", "alltags": {"flag": "http://upload.wikimedia.org/wikipedia/commons/7/7a/Flag_of_South_Sudan.svg", "name:af": "Suid-Soedan", "name:am": "ደቡብ ሱዳን", "name:an": "Sudán d'o Sud", "name:ar": "جنوب السودان", "name:av": "Югалъулаб Судан", "name:az": "Cənubi Sudan", "name:be": "Паўднёвы Судан", "name:bg": "Южен Судан", "name:bn": "দক্ষিণ সুদান", "name:br": "Soudan ar Su", "name:bs": "Južni Sudan", "name:ca": "Sudan del Sud", "name:cs": "Jižní Súdán", "name:cv": "Кăнтăр Судан", "name:cy": "De Sudan", "name:da": "Sydsudan", "name:el": "Νότιο Σουδάν", "name:en": "South Sudan", "name:eo": "Suda Sudano", "name:es": "Sudán del Sur", "name:et": "Lõuna-Sudaan", "name:eu": "Hego Sudan", "name:fa": "سودان جنوبی", "name:fi": "Etelä-Sudan", "name:fo": "Suðursudan", "name:fr": "Sud-Soudan", "name:fy": "Súd-Sûdan", "name:ga": "An tSúdáin Theas", "name:gd": "Sudàn a Deas", "name:gl": "Sudán do Sur", "name:gv": "Yn Toodaan Yiass", "name:he": "דרום סודאן", "name:hi": "दक्षिण सूडान", "name:hr": "Južni Sudan", "name:hu": "Dél-Szudán", "name:hy": "Հարավային Սուդան", "name:ia": "Sudan del Sud", "name:id": "Sudan Selatan", "name:ie": "Sud-Sudan", "name:io": "Sud-Sudan", "name:is": "Suður-Súdan", "name:it": "Sudan del Sud", "name:ja": "南部スーダン", "name:jv": "Sudan Kidul", "name:ka": "სამხრეთი სუდანი", "name:kk": "Оңтүстік Судан", "name:ko": "남수단", "name:ku": "Sûdana Başûr", "name:kv": "Лунвыв Судан", "name:kw": "Soudan Soth", "name:ky": "Түштүк Судан", "name:la": "Sudania Australis", "name:lb": "Südsudan", "name:li": "Zuid-Soedan", "name:lt": "Pietų Sudanas", "name:lv": "Dienvidsudāna", "name:mk": "Јужен Судан", "name:ml": "ദക്ഷിണ സുഡാൻ", "name:mr": "दक्षिण सुदान", "name:ms": "Sudan Selatan", "name:my": "တောင်ဆူဒန်နိုင်ငံ", "name:na": "South Sudan", "name:nl": "Zuid-Soedan", "name:nn": "Sør-Sudan", "name:no": "Sør-Sudan", "name:nv": "Shádiʼááhjí Soodą́ą", "name:oc": "Sodan del Sud", "name:or": "ଦକ୍ଷିନ ସୁଦାନ", "name:pa": "ਦੱਖਣੀ ਸੁਡਾਨ", "name:pl": "Sudan Południowy", "name:ps": "سوېلي سوډان", "name:pt": "Sudão do Sul", "name:qu": "Urin Sudan", "name:rm": "Sudan dal Sid", "name:ro": "Sudanul de Sud", "name:ru": "Южный Судан", "name:sc": "Sudan Meridionali", "name:se": "Lulli-Sudan", "name:sg": "Sudäan-Mbongo", "name:sh": "Južni Sudan", "name:sk": "Južný Sudán", "name:sl": "Južni Sudan", "name:sn": "South Sudan", "name:so": "Koonfur Suudaan", "name:sq": "Sudani i Jugut", "name:sr": "Јужни Судан", "name:su": "Sudan Kidul", "name:sv": "Sydsudan", "name:sw": "Sudan Kusini", "name:ta": "தெற்கு சூடான்", "name:te": "దక్షిణ సూడాన్", "name:th": "ประเทศเซาท์ซูดาน", "name:tk": "Günorta Sudan", "name:tl": "Timog Sudan", "name:tr": "Güney Sudan", "name:tt": "Көньяк Судан", "name:uk": "Південний Судан", "name:ur": "جنوبی سوڈان", "name:uz": "Janubiy Sudan", "name:vi": "Nam Sudan", "name:vo": "Sulüda-Sudän", "name:yi": "דרום סודאן", "name:yo": "Gúúsù Sudan", "name:zh": "南蘇丹", "name:zu": "ISudan yaseNingizimu", "name:als": "Südsudan", "name:ang": "Sūþsudan", "name:arc": "ܬܝܡܢܐ ܕܣܘܕܐܢ", "name:arz": "جنوب السودان", "name:ast": "Sudán del Sur", "name:bcl": "Habagatan Sudan", "name:bxr": "Урда Судан", "name:ceb": "Habagatang Sudan", "name:ckb": "باشووری سوودان", "name:crh": "Cenübiy Sudan", "name:diq": "Sudanê Veroci", "name:dsb": "Pódpołdnjowy Sudan", "name:ext": "Sudán del Sul", "name:frr": "Süüdsudaan", "name:hsb": "Južny Sudan", "name:kaa": "Qubla Sudan", "name:koi": "Лунвыв Судан", "name:ksh": "Südsudan", "name:lad": "Sudan del Sud", "name:lbe": "Кьилвалул Судан", "name:lij": "Sudan do Sud", "name:lmo": "Süd Sudan", "name:lzh": "南蘇丹", "name:mdf": "Лямбеширень Судан", "name:mrj": "Кечӹвӓлвел Судан", "name:mzn": "جنوبی سودان", "name:nah": "Sudan Huitztlāmpa", "name:nan": "Lâm Sudan", "name:nds": "Süüdsudan", "name:pam": "Mauling Sudan", "name:pnb": "دکھن سوڈان", "name:scn": "Sudan dû Sud", "name:sco": "Sooth Sudan", "name:stq": "Suud-Sudan", "name:szl": "Połedńowy Sudan", "name:udm": "Лымшор Судан", "name:vec": "Sud Sudan", "name:vls": "Zuud-Soedan", "name:war": "Salatan nga Sudan", "name:yue": "南蘇丹", "alt_name:vi": "Nam Xu-đăng", "name:nds-nl": "Zuudsoedan", "name:simple": "South Sudan", "name:bat-smg": "Pėitū Sudans", "name:roa-tara": "Sudan d'u Sud", "name:be-tarask": "Паўднёвы Судан", "is_in:continent": "Africa", "default_language": "en", "official_name:ar": "جمهورية جنوب السودان", "official_name:cs": "Jihosúdánská republika", "official_name:en": "Republic of South Sudan", "official_name:es": "República de Sudán del Sur", "official_name:fa": "جمهوری سودان جنوبی", "official_name:fr": "République du Soudan du Sud", "official_name:ru": "Республика Южный Судан", "official_name:ur": "جمہوریہ جنوبی سوڈان", "official_name:vi": "Cộng hòa Nam Sudan"}}, "center_lat": 7.37, "center_lon": 30.17, "timezone": "Africa/Juba", "population": 12575714, "wikidata_id": "Q958", "wikipedia_id": "en:South Sudan"}, "geometry": {"type": "MultiPolygon", "coordinates": [[[[24.256, 8.687], [24.254, 8.675], [24.237, 8.65], [24.229, 8.63], [24.236, 8.617], [24.268, 8.592], [24.266, 8.579], [24.255, 8.57], [24.229, 8.555], [24.199, 8.522], [24.182, 8.49], [24.163, 8.474], [24.156, 8.419], [24.141, 8.376], [24.163, 8.331], [24.177, 8.317], [24.197, 8.301], [24.231, 8.285], [24.259, 8.277], [24.289, 8.271], [24.323, 8.27], [24.334, 8.266], [24.351, 8.249], [24.366, 8.25], [24.373, 8.263], [24.396, 8.273], [24.443, 8.269], [24.466, 8.272], [24.47, 8.269], [24.477, 8.243], [24.483, 8.235], [24.501, 8.231], [24.514, 8.216], [24.527, 8.215], [24.539, 8.206], [24.563, 8.207], [24.577, 8.213], [24.634, 8.221], [24.667, 8.218], [24.68, 8.21], [24.723, 8.21], [24.744, 8.203], [24.753, 8.191], [24.763, 8.187], [24.787, 8.188], [24.8, 8.196], [24.838, 8.176], [24.856, 8.174], [24.867, 8.145], [24.872, 8.118], [24.881, 8.094], [24.899, 8.059], [24.905, 8.038], [24.912, 8.031], [24.936, 8.025], [24.946, 8.015], [24.965, 7.98], [24.985, 7.971], [25.001, 7.966], [25.047, 7.945], [25.069, 7.919], [25.08, 7.9], [25.088, 7.896], [25.112, 7.905], [25.122, 7.903], [25.129, 7.909], [25.151, 7.909], [25.174, 7.914], [25.205, 7.879], [25.22, 7.88], [25.225, 7.867], [25.246, 7.846], [25.25, 7.829], [25.261, 7.824], [25.259, 7.816], [25.271, 7.802], [25.286, 7.806], [25.282, 7.783], [25.288, 7.767], [25.287, 7.751], [25.279, 7.737], [25.282, 7.719], [25.274, 7.711], [25.282, 7.707], [25.285, 7.69], [25.298, 7.687], [25.296, 7.668], [25.28, 7.667], [25.29, 7.652], [25.276, 7.644], [25.265, 7.643], [25.252, 7.63], [25.238, 7.638], [25.23, 7.633], [25.231, 7.617], [25.213, 7.622], [25.205, 7.602], [25.189, 7.601], [25.18, 7.586], [25.169, 7.585], [25.172, 7.574], [25.183, 7.569], [25.184, 7.559], [25.193, 7.541], [25.189, 7.531], [25.197, 7.519], [25.197, 7.495], [25.213, 7.487], [25.22, 7.496], [25.239, 7.479], [25.266, 7.481], [25.287, 7.47], [25.29, 7.459], [25.305, 7.442], [25.308, 7.428], [25.323, 7.433], [25.34, 7.426], [25.339, 7.405], [25.348, 7.396], [25.35, 7.375], [25.369, 7.344], [25.385, 7.34], [25.391, 7.331], [25.405, 7.341], [25.42, 7.333], [25.437, 7.314], [25.437, 7.305], [25.452, 7.308], [25.461, 7.299], [25.456, 7.286], [25.468, 7.286], [25.478, 7.27], [25.494, 7.277], [25.504, 7.268], [25.508, 7.279], [25.536, 7.278], [25.543, 7.257], [25.563, 7.259], [25.57, 7.253], [25.57, 7.238], [25.584, 7.243], [25.597, 7.235], [25.6, 7.217], [25.62, 7.221], [25.636, 7.214], [25.647, 7.216], [25.654, 7.205], [25.689, 7.194], [25.707, 7.192], [25.719, 7.177], [25.751, 7.182], [25.76, 7.176], [25.758, 7.163], [25.779, 7.161], [25.788, 7.155], [25.821, 7.156], [25.829, 7.153], [25.831, 7.14], [25.817, 7.118], [25.832, 7.117], [25.841, 7.111], [25.872, 7.106], [25.895, 7.099], [25.908, 7.082], [25.901, 7.076], [25.909, 7.061], [25.931, 7.061], [25.932, 7.044], [25.938, 7.041], [25.986, 7.042], [25.991, 7.036], [25.987, 7.027], [25.998, 7.014], [26.023, 7.017], [26.039, 7.003], [26.049, 6.982], [26.046, 6.967], [26.058, 6.957], [26.055, 6.942], [26.042, 6.939], [26.044, 6.922], [26.056, 6.923], [26.061, 6.902], [26.079, 6.903], [26.084, 6.893], [26.077, 6.872], [26.078, 6.85], [26.086, 6.836], [26.097, 6.834], [26.109, 6.817], [26.12, 6.821], [26.127, 6.816], [26.14, 6.824], [26.15, 6.825], [26.161, 6.816], [26.175, 6.813], [26.176, 6.802], [26.17, 6.783], [26.173, 6.776], [26.186, 6.776], [26.178, 6.769], [26.184, 6.757], [26.213, 6.744], [26.234, 6.748], [26.248, 6.739], [26.249, 6.727], [26.257, 6.717], [26.255, 6.707], [26.265, 6.696], [26.301, 6.706], [26.31, 6.711], [26.333, 6.707], [26.339, 6.689], [26.345, 6.682], [26.358, 6.685], [26.37, 6.679], [26.382, 6.68], [26.387, 6.664], [26.4, 6.662], [26.415, 6.654], [26.416, 6.644], [26.409, 6.626], [26.411, 6.614], [26.403, 6.617], [26.377, 6.608], [26.382, 6.597], [26.377, 6.58], [26.353, 6.579], [26.35, 6.554], [26.354, 6.546], [26.338, 6.54], [26.33, 6.527], [26.333, 6.52], [26.32, 6.513], [26.327, 6.502], [26.314, 6.49], [26.292, 6.487], [26.29, 6.466], [26.304, 6.458], [26.305, 6.422], [26.301, 6.389], [26.309, 6.385], [26.316, 6.372], [26.326, 6.374], [26.337, 6.362], [26.364, 6.352], [26.373, 6.343], [26.376, 6.324], [26.399, 6.309], [26.427, 6.303], [26.436, 6.308], [26.445, 6.296], [26.482, 6.292], [26.489, 6.28], [26.469, 6.224], [26.47, 6.218], [26.486, 6.217], [26.504, 6.219], [26.518, 6.234], [26.526, 6.234], [26.53, 6.224], [26.534, 6.192], [26.522, 6.159], [26.516, 6.153], [26.502, 6.15], [26.497, 6.14], [26.458, 6.118], [26.447, 6.086], [26.449, 6.07], [26.463, 6.08], [26.471, 6.094], [26.483, 6.103], [26.514, 6.115], [26.522, 6.116], [26.527, 6.101], [26.539, 6.091], [26.537, 6.069], [26.54, 6.061], [26.55, 6.058], [26.556, 6.048], [26.555, 6.035], [26.569, 6.028], [26.596, 6.032], [26.612, 6.028], [26.619, 6.017], [26.629, 6.011], [26.642, 6.014], [26.662, 5.997], [26.668, 5.998], [26.689, 6.016], [26.702, 6.018], [26.718, 6.005], [26.735, 6.001], [26.746, 6.007], [26.749, 6.021], [26.757, 6.019], [26.783, 6], [26.801, 5.968], [26.823, 5.989], [26.832, 5.981], [26.819, 5.942], [26.823, 5.937], [26.829, 5.902], [26.838, 5.902], [26.861, 5.892], [26.894, 5.896], [26.913, 5.906], [26.919, 5.904], [26.934, 5.865], [26.945, 5.866], [26.973, 5.859], [26.988, 5.864], [27.006, 5.855], [27.011, 5.844], [27.03, 5.85], [27.037, 5.834], [27.034, 5.825], [27.051, 5.809], [27.068, 5.8], [27.103, 5.811], [27.123, 5.802], [27.141, 5.782], [27.162, 5.774], [27.156, 5.764], [27.164, 5.748], [27.201, 5.744], [27.201, 5.722], [27.216, 5.703], [27.226, 5.697], [27.222, 5.683], [27.228, 5.663], [27.24, 5.659], [27.244, 5.651], [27.238, 5.631], [27.238, 5.606], [27.243, 5.602], [27.258, 5.607], [27.281, 5.601], [27.287, 5.593], [27.281, 5.568], [27.288, 5.55], [27.287, 5.54], [27.264, 5.519], [27.243, 5.461], [27.235, 5.429], [27.243, 5.412], [27.238, 5.398], [27.25, 5.376], [27.253, 5.351], [27.248, 5.339], [27.256, 5.322], [27.268, 5.32], [27.268, 5.309], [27.282, 5.285], [27.291, 5.289], [27.303, 5.28], [27.301, 5.263], [27.307, 5.257], [27.305, 5.242], [27.316, 5.236], [27.318, 5.218], [27.331, 5.208], [27.345, 5.203], [27.348, 5.194], [27.356, 5.201], [27.364, 5.199], [27.36, 5.185], [27.377, 5.178], [27.387, 5.182], [27.413, 5.148], [27.422, 5.145], [27.419, 5.125], [27.436, 5.099], [27.466, 5.086], [27.46, 5.051], [27.452, 5.038], [27.449, 5.02], [27.45, 5.004], [27.459, 5.001], [27.466, 4.989], [27.481, 4.985], [27.488, 4.973], [27.5, 4.972], [27.513, 4.957], [27.506, 4.939], [27.512, 4.922], [27.521, 4.925], [27.539, 4.911], [27.546, 4.911], [27.559, 4.892], [27.577, 4.888], [27.585, 4.896], [27.608, 4.896], [27.613, 4.892], [27.648, 4.896], [27.656, 4.884], [27.674, 4.878], [27.683, 4.867], [27.689, 4.851], [27.701, 4.841], [27.697, 4.83], [27.707, 4.817], [27.698, 4.8], [27.709, 4.79], [27.726, 4.788], [27.729, 4.799], [27.756, 4.797], [27.771, 4.791], [27.772, 4.777], [27.779, 4.774], [27.772, 4.759], [27.783, 4.751], [27.776, 4.737], [27.782, 4.728], [27.77, 4.706], [27.766, 4.69], [27.779, 4.679], [27.781, 4.667], [27.795, 4.634], [27.788, 4.615], [27.793, 4.606], [27.813, 4.606], [27.824, 4.597], [27.842, 4.59], [27.846, 4.573], [27.858, 4.57], [27.886, 4.543], [27.893, 4.539], [27.912, 4.54], [27.923, 4.535], [27.929, 4.546], [27.939, 4.551], [27.943, 4.574], [27.954, 4.579], [27.957, 4.569], [27.976, 4.561], [27.986, 4.562], [28, 4.555], [28.017, 4.555], [28.022, 4.549], [28.04, 4.552], [28.05, 4.549], [28.042, 4.531], [28.037, 4.479], [28.054, 4.457], [28.06, 4.456], [28.071, 4.444], [28.077, 4.422], [28.084, 4.417], [28.092, 4.423], [28.091, 4.438], [28.099, 4.437], [28.115, 4.447], [28.133, 4.433], [28.14, 4.443], [28.146, 4.436], [28.149, 4.42], [28.138, 4.411], [28.147, 4.396], [28.174, 4.388], [28.194, 4.37], [28.206, 4.352], [28.221, 4.354], [28.231, 4.351], [28.257, 4.349], [28.266, 4.361], [28.279, 4.356], [28.301, 4.361], [28.333, 4.359], [28.339, 4.353], [28.356, 4.353], [28.367, 4.338], [28.375, 4.315], [28.374, 4.302], [28.382, 4.285], [28.4, 4.289], [28.418, 4.281], [28.436, 4.288], [28.451, 4.288], [28.464, 4.295], [28.468, 4.306], [28.479, 4.312], [28.49, 4.326], [28.49, 4.336], [28.503, 4.351], [28.498, 4.355], [28.513, 4.364], [28.517, 4.379], [28.563, 4.388], [28.573, 4.382], [28.584, 4.384], [28.596, 4.402], [28.602, 4.418], [28.612, 4.423], [28.628, 4.418], [28.639, 4.425], [28.668, 4.429], [28.668, 4.44], [28.686, 4.459], [28.69, 4.479], [28.703, 4.491], [28.695, 4.504], [28.699, 4.512], [28.714, 4.514], [28.724, 4.526], [28.718, 4.53], [28.729, 4.545], [28.734, 4.539], [28.756, 4.547], [28.766, 4.546], [28.776, 4.559], [28.788, 4.564], [28.802, 4.556], [28.802, 4.546], [28.812, 4.541], [28.816, 4.519], [28.811, 4.513], [28.811, 4.496], [28.817, 4.497], [28.837, 4.48], [28.86, 4.484], [28.874, 4.492], [28.91, 4.476], [28.924, 4.485], [28.926, 4.479], [28.939, 4.477], [28.953, 4.484], [28.97, 4.479], [28.997, 4.485], [28.999, 4.494], [29.021, 4.496], [29.035, 4.491], [29.043, 4.482], [29.042, 4.472], [29.063, 4.458], [29.074, 4.463], [29.083, 4.46], [29.08, 4.434], [29.109, 4.436], [29.138, 4.429], [29.136, 4.416], [29.15, 4.409], [29.158, 4.392], [29.165, 4.394], [29.179, 4.379], [29.2, 4.366], [29.202, 4.35], [29.221, 4.341], [29.229, 4.349], [29.25, 4.352], [29.259, 4.376], [29.253, 4.384], [29.269, 4.398], [29.289, 4.389], [29.297, 4.395], [29.303, 4.384], [29.347, 4.397], [29.348, 4.416], [29.354, 4.427], [29.355, 4.448], [29.362, 4.452], [29.37, 4.471], [29.381, 4.469], [29.396, 4.475], [29.404, 4.473], [29.422, 4.497], [29.432, 4.501], [29.436, 4.512], [29.444, 4.517], [29.448, 4.529], [29.445, 4.54], [29.448, 4.567], [29.459, 4.574], [29.475, 4.592], [29.477, 4.602], [29.47, 4.627], [29.473, 4.649], [29.464, 4.667], [29.467, 4.674], [29.475, 4.667], [29.48, 4.672], [29.49, 4.695], [29.501, 4.696], [29.511, 4.69], [29.513, 4.676], [29.534, 4.655], [29.552, 4.671], [29.564, 4.662], [29.58, 4.664], [29.601, 4.65], [29.62, 4.659], [29.643, 4.647], [29.657, 4.646], [29.659, 4.635], [29.675, 4.631], [29.685, 4.621], [29.705, 4.62], [29.707, 4.609], [29.717, 4.595], [29.73, 4.591], [29.743, 4.572], [29.75, 4.57], [29.763, 4.587], [29.782, 4.568], [29.794, 4.561], [29.81, 4.565], [29.826, 4.56], [29.807, 4.525], [29.8, 4.52], [29.798, 4.507], [29.81, 4.499], [29.806, 4.458], [29.797, 4.438], [29.8, 4.406], [29.8, 4.373], [29.812, 4.362], [29.829, 4.356], [29.838, 4.338], [29.881, 4.343], [29.89, 4.349], [29.903, 4.348], [29.924, 4.328], [29.966, 4.296], [29.967, 4.286], [29.951, 4.267], [29.954, 4.259], [29.945, 4.248], [29.951, 4.242], [29.958, 4.224], [29.971, 4.219], [29.976, 4.21], [29.989, 4.215], [30.009, 4.209], [30.016, 4.213], [30.028, 4.205], [30.026, 4.183], [30.034, 4.163], [30.046, 4.157], [30.059, 4.133], [30.07, 4.127], [30.088, 4.128], [30.115, 4.118], [30.122, 4.112], [30.148, 4.11], [30.16, 4.12], [30.168, 4.095], [30.164, 4.08], [30.169, 4.061], [30.161, 4.049], [30.195, 4.024], [30.202, 4.001], [30.193, 3.984], [30.198, 3.966], [30.207, 3.959], [30.211, 3.94], [30.221, 3.933], [30.229, 3.941], [30.237, 3.933], [30.26, 3.948], [30.271, 3.946], [30.277, 3.956], [30.294, 3.942], [30.299, 3.915], [30.314, 3.926], [30.328, 3.918], [30.346, 3.924], [30.353, 3.912], [30.37, 3.907], [30.382, 3.892], [30.395, 3.892], [30.404, 3.882], [30.403, 3.872], [30.411, 3.865], [30.429, 3.865], [30.438, 3.878], [30.446, 3.881], [30.451, 3.861], [30.463, 3.837], [30.47, 3.832], [30.493, 3.836], [30.531, 3.855], [30.534, 3.842], [30.541, 3.846], [30.552, 3.841], [30.55, 3.83], [30.554, 3.813], [30.567, 3.792], [30.569, 3.778], [30.578, 3.754], [30.576, 3.706], [30.57, 3.692], [30.574, 3.671], [30.566, 3.64], [30.556, 3.627], [30.562, 3.62], [30.581, 3.619], [30.584, 3.612], [30.606, 3.608], [30.628, 3.607], [30.64, 3.619], [30.644, 3.618], [30.67, 3.631], [30.673, 3.639], [30.688, 3.643], [30.704, 3.632], [30.708, 3.634], [30.727, 3.623], [30.736, 3.641], [30.756, 3.636], [30.755, 3.656], [30.764, 3.666], [30.763, 3.677], [30.771, 3.675], [30.776, 3.683], [30.783, 3.668], [30.798, 3.655], [30.797, 3.636], [30.801, 3.633], [30.796, 3.622], [30.799, 3.603], [30.805, 3.593], [30.825, 3.592], [30.825, 3.583], [30.85, 3.583], [30.861, 3.571], [30.864, 3.548], [30.859, 3.533], [30.851, 3.525], [30.85, 3.501], [30.854, 3.489], [30.866, 3.494], [30.879, 3.526], [30.888, 3.555], [30.904, 3.575], [30.913, 3.597], [30.922, 3.599], [30.929, 3.618], [30.94, 3.62], [30.949, 3.633], [30.947, 3.651], [30.955, 3.666], [30.968, 3.675], [30.972, 3.69], [30.991, 3.705], [31.007, 3.707], [31.018, 3.693], [31.034, 3.7], [31.06, 3.719], [31.059, 3.733], [31.069, 3.743], [31.081, 3.743], [31.1, 3.736], [31.105, 3.75], [31.118, 3.754], [31.13, 3.766], [31.156, 3.78], [31.16, 3.789], [31.182, 3.795], [31.264, 3.795], [31.29, 3.796], [31.352, 3.753], [31.415, 3.722], [31.442, 3.706], [31.491, 3.682], [31.508, 3.676], [31.502, 3.644], [31.518, 3.638], [31.522, 3.646], [31.546, 3.656], [31.576, 3.682], [31.609, 3.693], [31.672, 3.715], [31.707, 3.724], [31.729, 3.753], [31.743, 3.756], [31.776, 3.783], [31.8, 3.801], [31.796, 3.822], [31.811, 3.825], [31.827, 3.818], [31.842, 3.804], [31.865, 3.789], [31.881, 3.767], [31.897, 3.75], [31.914, 3.722], [31.928, 3.706], [31.949, 3.669], [31.957, 3.66], [31.96, 3.648], [31.952, 3.629], [31.953, 3.607], [31.96, 3.579], [31.958, 3.572], [31.981, 3.58], [31.996, 3.579], [32.02, 3.584], [32.047, 3.587], [32.054, 3.592], [32.074, 3.566], [32.081, 3.565], [32.082, 3.553], [32.09, 3.535], [32.086, 3.532], [32.104, 3.531], [32.194, 3.51], [32.203, 3.506], [32.202, 3.522], [32.211, 3.539], [32.212, 3.553], [32.219, 3.56], [32.216, 3.575], [32.208, 3.592], [32.196, 3.594], [32.197, 3.6], [32.415, 3.746], [32.466, 3.749], [32.485, 3.752], [32.72, 3.768], [32.755, 3.777], [32.901, 3.816], [33.028, 3.894], [33.179, 3.779], [33.487, 3.754], [33.511, 3.752], [33.515, 3.755], [33.988, 4.234], [34.056, 4.282], [34.156, 4.38], [34.215, 4.439], [34.242, 4.465], [34.388, 4.61], [34.431, 4.665], [34.459, 4.704], [34.476, 4.724], [34.503, 4.74], [34.583, 4.762], [34.713, 4.798], [34.912, 4.873], [34.973, 4.895], [35.009, 4.911], [35.098, 4.96], [35.152, 4.988], [35.197, 4.956], [35.299, 5.018], [35.315, 5.023], [35.337, 5.019], [35.346, 5.008], [35.334, 4.986], [35.311, 4.92], [35.31, 4.907], [35.427, 4.919], [35.452, 4.923], [35.469, 4.921], [35.476, 4.914], [35.477, 4.903], [35.437, 4.809], [35.421, 4.771], [35.455, 4.709], [35.509, 4.617], [35.608, 4.618], [35.623, 4.668], [35.636, 4.683], [35.649, 4.691], [35.679, 4.691], [35.699, 4.677], [35.698, 4.618], [35.71, 4.618], [35.944, 4.619], [35.949, 4.631], [35.863, 4.724], [35.818, 4.774], [35.819, 5.1], [35.831, 5.122], [35.838, 5.123], [35.861, 5.159], [35.866, 5.184], [35.856, 5.198], [35.855, 5.213], [35.848, 5.215], [35.84, 5.233], [35.828, 5.245], [35.828, 5.261], [35.842, 5.274], [35.853, 5.291], [35.864, 5.301], [35.862, 5.32], [35.839, 5.329], [35.84, 5.336], [35.825, 5.336], [35.813, 5.346], [35.79, 5.348], [35.782, 5.356], [35.775, 5.35], [35.754, 5.36], [35.756, 5.371], [35.723, 5.382], [35.717, 5.392], [35.7, 5.393], [35.689, 5.388], [35.661, 5.386], [35.651, 5.394], [35.639, 5.386], [35.621, 5.382], [35.617, 5.404], [35.598, 5.4], [35.585, 5.419], [35.568, 5.412], [35.545, 5.417], [35.542, 5.423], [35.518, 5.419], [35.51, 5.424], [35.498, 5.417], [35.489, 5.419], [35.451, 5.394], [35.431, 5.376], [35.402, 5.362], [35.377, 5.359], [35.363, 5.351], [35.336, 5.345], [35.316, 5.335], [35.317, 5.343], [35.302, 5.35], [35.297, 5.366], [35.289, 5.378], [35.295, 5.427], [35.304, 5.445], [35.309, 5.464], [35.307, 5.484], [35.315, 5.498], [35.126, 5.624], [35.13, 5.687], [35.041, 5.838], [35.006, 5.89], [35.011, 5.918], [35, 5.931], [34.992, 5.951], [34.996, 5.976], [35.007, 5.991], [35.009, 6.012], [34.994, 6.042], [35.005, 6.075], [34.991, 6.079], [34.989, 6.087], [34.971, 6.094], [34.971, 6.114], [34.963, 6.126], [34.968, 6.16], [34.977, 6.175], [34.973, 6.207], [34.964, 6.214], [34.961, 6.23], [34.963, 6.237], [34.95, 6.246], [34.964, 6.258], [34.961, 6.283], [34.974, 6.307], [34.986, 6.313], [34.992, 6.328], [34.991, 6.344], [35.001, 6.35], [34.993, 6.362], [34.99, 6.378], [34.992, 6.395], [35.006, 6.399], [35.013, 6.408], [35.012, 6.424], [35.022, 6.435], [35.018, 6.46], [35.009, 6.475], [34.982, 6.486], [34.98, 6.499], [34.971, 6.507], [34.959, 6.504], [34.961, 6.519], [34.95, 6.528], [34.939, 6.558], [34.927, 6.556], [34.908, 6.573], [34.91, 6.581], [34.898, 6.577], [34.883, 6.587], [34.89, 6.6], [34.865, 6.611], [34.851, 6.609], [34.841, 6.601], [34.817, 6.607], [34.793, 6.596], [34.788, 6.59], [34.776, 6.603], [34.768, 6.594], [34.766, 6.609], [34.749, 6.622], [34.74, 6.639], [34.714, 6.655], [34.706, 6.675], [34.712, 6.684], [34.705, 6.691], [34.677, 6.7], [34.67, 6.713], [34.661, 6.714], [34.652, 6.732], [34.64, 6.74], [34.625, 6.743], [34.622, 6.724], [34.607, 6.733], [34.6, 6.729], [34.582, 6.729], [34.567, 6.734], [34.565, 6.739], [34.55, 6.735], [34.544, 6.75], [34.531, 6.745], [34.53, 6.755], [34.539, 6.759], [34.533, 6.771], [34.535, 6.814], [34.543, 6.816], [34.537, 6.828], [34.531, 6.827], [34.526, 6.861], [34.513, 6.856], [34.515, 6.873], [34.488, 6.889], [34.485, 6.899], [34.469, 6.914], [34.461, 6.911], [34.457, 6.923], [34.448, 6.913], [34.445, 6.919], [34.436, 6.912], [34.422, 6.919], [34.415, 6.917], [34.404, 6.923], [34.382, 6.919], [34.384, 6.912], [34.372, 6.913], [34.366, 6.921], [34.358, 6.917], [34.328, 6.926], [34.324, 6.935], [34.309, 6.95], [34.31, 6.943], [34.293, 6.948], [34.298, 6.953], [34.302, 6.979], [34.287, 6.981], [34.284, 6.992], [34.277, 6.988], [34.276, 7.002], [34.265, 7.002], [34.264, 7.009], [34.252, 7.011], [34.237, 7.002], [34.233, 7.012], [34.219, 7.021], [34.225, 7.023], [34.212, 7.038], [34.194, 7.039], [34.192, 7.057], [34.198, 7.069], [34.186, 7.08], [34.192, 7.093], [34.199, 7.096], [34.191, 7.105], [34.189, 7.117], [34.195, 7.121], [34.19, 7.132], [34.179, 7.134], [34.16, 7.148], [34.14, 7.147], [34.128, 7.166], [34.105, 7.17], [34.097, 7.184], [34.101, 7.194], [34.086, 7.2], [34.074, 7.218], [34.062, 7.218], [34.041, 7.228], [34.024, 7.243], [34.016, 7.256], [34.013, 7.271], [34.024, 7.265], [34.039, 7.271], [34.038, 7.293], [34.032, 7.31], [34.03, 7.329], [34.036, 7.358], [34.018, 7.377], [34.007, 7.383], [34.008, 7.4], [34.004, 7.419], [33.995, 7.425], [33.979, 7.443], [33.959, 7.448], [33.957, 7.469], [33.94, 7.475], [33.928, 7.472], [33.93, 7.483], [33.916, 7.498], [33.91, 7.499], [33.899, 7.518], [33.906, 7.526], [33.898, 7.539], [33.879, 7.548], [33.874, 7.546], [33.866, 7.559], [33.849, 7.559], [33.831, 7.564], [33.82, 7.563], [33.812, 7.572], [33.786, 7.587], [33.78, 7.601], [33.764, 7.606], [33.753, 7.623], [33.74, 7.622], [33.736, 7.64], [33.716, 7.663], [33.7, 7.66], [33.688, 7.671], [33.677, 7.673], [33.666, 7.686], [33.642, 7.694], [33.629, 7.695], [33.603, 7.69], [33.595, 7.694], [33.582, 7.689], [33.565, 7.7], [33.553, 7.699], [33.55, 7.691], [33.538, 7.698], [33.541, 7.703], [33.516, 7.737], [33.5, 7.732], [33.497, 7.741], [33.49, 7.733], [33.482, 7.747], [33.47, 7.752], [33.455, 7.738], [33.426, 7.758], [33.429, 7.751], [33.419, 7.738], [33.4, 7.74], [33.403, 7.734], [33.393, 7.731], [33.39, 7.742], [33.379, 7.733], [33.365, 7.732], [33.364, 7.72], [33.35, 7.73], [33.34, 7.707], [33.336, 7.715], [33.319, 7.71], [33.32, 7.721], [33.306, 7.729], [33.302, 7.743], [33.292, 7.739], [33.294, 7.749], [33.284, 7.743], [33.282, 7.753], [33.268, 7.754], [33.252, 7.766], [33.252, 7.771], [33.233, 7.782], [33.225, 7.768], [33.186, 7.79], [33.159, 7.803], [33.156, 7.79], [33.137, 7.79], [33.127, 7.785], [33.097, 7.784], [33.106, 7.787], [33.105, 7.796], [33.078, 7.798], [33.055, 7.79], [33.046, 7.814], [33.029, 7.829], [33.018, 7.847], [33.006, 7.856], [33, 7.874], [33.006, 7.891], [33.015, 7.897], [33, 7.915], [33.006, 7.929], [32.998, 7.946], [33.016, 7.958], [33.038, 7.968], [33.04, 7.98], [33.036, 7.99], [33.04, 8.009], [33.05, 8.016], [33.062, 8.017], [33.078, 8.024], [33.082, 8.045], [33.079, 8.056], [33.087, 8.06], [33.085, 8.073], [33.108, 8.074], [33.119, 8.061], [33.123, 8.068], [33.118, 8.107], [33.125, 8.112], [33.148, 8.116], [33.162, 8.112], [33.17, 8.129], [33.192, 8.128], [33.183, 8.161], [33.189, 8.166], [33.176, 8.178], [33.175, 8.192], [33.168, 8.192], [33.171, 8.203], [33.199, 8.216], [33.205, 8.235], [33.199, 8.248], [33.184, 8.25], [33.175, 8.256], [33.171, 8.277], [33.175, 8.286], [33.173, 8.301], [33.197, 8.3], [33.202, 8.312], [33.192, 8.33], [33.203, 8.331], [33.217, 8.342], [33.218, 8.359], [33.194, 8.353], [33.187, 8.383], [33.194, 8.397], [33.19, 8.406], [33.199, 8.409], [33.217, 8.407], [33.214, 8.427], [33.219, 8.435], [33.23, 8.425], [33.25, 8.44], [33.245, 8.448], [33.259, 8.45], [33.27, 8.462], [33.281, 8.457], [33.288, 8.44], [33.3, 8.445], [33.309, 8.466], [33.316, 8.466], [33.32, 8.456], [33.336, 8.448], [33.351, 8.45], [33.37, 8.445], [33.372, 8.438], [33.397, 8.426], [33.404, 8.441], [33.423, 8.453], [33.436, 8.445], [33.452, 8.447], [33.46, 8.456], [33.475, 8.456], [33.488, 8.463], [33.489, 8.477], [33.498, 8.481], [33.506, 8.473], [33.518, 8.469], [33.531, 8.471], [33.543, 8.467], [33.561, 8.473], [33.569, 8.451], [33.592, 8.449], [33.597, 8.443], [33.601, 8.453], [33.619, 8.472], [33.629, 8.465], [33.646, 8.462], [33.661, 8.449], [33.676, 8.445], [33.679, 8.437], [33.674, 8.427], [33.68, 8.409], [33.69, 8.398], [33.689, 8.388], [33.714, 8.371], [33.734, 8.369], [33.75, 8.379], [33.768, 8.368], [33.784, 8.38], [33.802, 8.399], [33.817, 8.406], [33.828, 8.398], [33.836, 8.409], [33.842, 8.405], [33.864, 8.415], [33.876, 8.411], [33.876, 8.423], [33.884, 8.434], [33.875, 8.442], [33.876, 8.456], [33.908, 8.488], [33.924, 8.487], [33.933, 8.497], [33.95, 8.5], [33.957, 8.494], [33.975, 8.503], [33.974, 8.495], [33.993, 8.49], [34.001, 8.496], [34.013, 8.488], [34.025, 8.49], [34.035, 8.509], [34.036, 8.518], [34.045, 8.53], [34.056, 8.533], [34.076, 8.546], [34.085, 8.556], [34.101, 8.556], [34.106, 8.566], [34.125, 8.588], [34.131, 8.599], [34.138, 8.599], [34.146, 8.608], [34.146, 9.033], [34.13, 9.205], [34.107, 9.5], [33.878, 9.5], [33.878, 9.531], [33.892, 9.643], [33.894, 9.672], [33.901, 9.7], [33.904, 9.73], [33.916, 9.765], [33.935, 9.772], [33.954, 9.798], [33.964, 9.807], [33.964, 9.825], [33.973, 9.863], [33.973, 9.874], [33.99, 9.918], [33.987, 9.965], [34, 10.006], [33.992, 10.04], [33.995, 10.063], [33.971, 10.092], [33.967, 10.127], [33.97, 10.146], [33.947, 10.157], [33.932, 10.159], [33.904, 10.171], [33.804, 10.336], [33.668, 10.442], [33.575, 10.572], [33.517, 10.643], [33.246, 10.778], [33.271, 10.828], [33.203, 11.233], [33.138, 11.437], [33.171, 11.675], [33.18, 11.75], [33.253, 12.149], [33.257, 12.159], [33.254, 12.174], [33.26, 12.187], [33.292, 12.207], [33.294, 12.219], [33.244, 12.22], [32.766, 12.236], [32.732, 12.236], [32.744, 12.202], [32.744, 12.182], [32.74, 12.171], [32.739, 12.14], [32.746, 12.121], [32.756, 12.067], [32.751, 12.046], [32.756, 12.036], [32.759, 12.014], [32.756, 11.977], [32.746, 11.951], [32.581, 11.951], [32.097, 11.951], [32.391, 11.706], [32.391, 11.181], [32.47, 11.043], [32.412, 11], [32.149, 10.737], [31.989, 10.65], [31.84, 10.379], [31.778, 10.289], [31.734, 10.253], [31.556, 10.042], [31.365, 9.816], [31.326, 9.782], [31.309, 9.771], [31.282, 9.76], [31.18, 9.75], [30.838, 9.75], [30.843, 9.725], [30.834, 9.712], [30.53, 9.96], [30.181, 10.176], [30, 10.288], [29.941, 10.288], [29.537, 10.082], [29.538, 9.75], [29.117, 9.75], [29.112, 9.737], [29.105, 9.745], [29.101, 9.738], [29.083, 9.735], [29.071, 9.747], [29.069, 9.731], [29.047, 9.737], [29.037, 9.719], [29.026, 9.716], [29, 9.674], [29, 10.167], [28.688, 10.167], [28.128, 10.167], [27.833, 10.167], [27.831, 9.773], [27.906, 9.612], [27.822, 9.606], [27.75, 9.607], [27.5, 9.624], [27.25, 9.628], [27.142, 9.626], [27.024, 9.603], [26.844, 9.53], [26.75, 9.497], [26.703, 9.489], [26.548, 9.522], [26.394, 9.564], [26.374, 9.573], [26.346, 9.594], [26.333, 9.607], [26.315, 9.633], [26.303, 9.659], [26.214, 9.917], [26.117, 10], [26.078, 10.058], [26.059, 10.1], [26.038, 10.125], [26.009, 10.15], [25.988, 10.162], [25.962, 10.172], [25.932, 10.179], [25.933, 10.374], [25.93, 10.386], [25.921, 10.372], [25.91, 10.38], [25.898, 10.38], [25.905, 10.393], [25.896, 10.411], [25.894, 10.404], [25.885, 10.405], [25.854, 10.399], [25.844, 10.405], [25.846, 10.414], [25.839, 10.424], [25.833, 10.417], [25.824, 10.42], [25.82, 10.413], [25.808, 10.424], [25.797, 10.42], [25.773, 10.42], [25.762, 10.427], [25.747, 10.426], [25.73, 10.412], [25.721, 10.421], [25.701, 10.411], [25.692, 10.412], [25.692, 10.403], [25.668, 10.413], [25.67, 10.427], [25.654, 10.425], [25.649, 10.416], [25.654, 10.406], [25.637, 10.399], [25.634, 10.407], [25.613, 10.402], [25.607, 10.407], [25.584, 10.397], [25.584, 10.406], [25.574, 10.4], [25.573, 10.389], [25.567, 10.404], [25.561, 10.396], [25.551, 10.406], [25.537, 10.385], [25.537, 10.394], [25.527, 10.398], [25.521, 10.386], [25.505, 10.395], [25.5, 10.376], [25.488, 10.38], [25.475, 10.391], [25.471, 10.373], [25.46, 10.373], [25.447, 10.38], [25.449, 10.389], [25.441, 10.394], [25.439, 10.382], [25.424, 10.384], [25.414, 10.391], [25.415, 10.382], [25.404, 10.382], [25.394, 10.374], [25.396, 10.383], [25.388, 10.389], [25.377, 10.372], [25.37, 10.381], [25.351, 10.378], [25.352, 10.37], [25.342, 10.379], [25.32, 10.365], [25.322, 10.353], [25.301, 10.36], [25.289, 10.354], [25.276, 10.36], [25.274, 10.335], [25.27, 10.341], [25.236, 10.346], [25.239, 10.356], [25.231, 10.349], [25.227, 10.356], [25.216, 10.36], [25.194, 10.336], [25.178, 10.334], [25.182, 10.319], [25.169, 10.33], [25.165, 10.322], [25.147, 10.326], [25.148, 10.334], [25.124, 10.324], [25.122, 10.304], [25.112, 10.314], [25.098, 10.317], [25.084, 10.303], [25.084, 10.283], [25.08, 10.276], [25.07, 10.276], [25.062, 10.267], [25.068, 10.261], [25.057, 10.256], [25.062, 10.249], [25.056, 10.226], [25.048, 10.222], [25.059, 10.209], [25.042, 10.188], [25.056, 10.181], [25.031, 10.167], [25.045, 10.15], [25.058, 10.151], [25.055, 10.145], [25.068, 10.137], [25.074, 10.127], [25.071, 10.116], [25.079, 10.114], [25.072, 10.1], [25.079, 10.09], [25.063, 10.075], [25.047, 10.081], [25.056, 10.066], [25.035, 10.06], [25.035, 10.028], [25.042, 10.028], [25.047, 10.017], [25.04, 10.017], [25.031, 10.009], [25.02, 10.01], [25.012, 10.002], [25.013, 9.981], [25.022, 9.978], [25.018, 9.97], [25.008, 9.967], [24.999, 9.974], [25, 9.964], [24.984, 9.957], [24.987, 9.933], [24.975, 9.93], [24.97, 9.904], [24.98, 9.905], [24.978, 9.895], [24.961, 9.902], [24.948, 9.897], [24.958, 9.891], [24.943, 9.89], [24.946, 9.88], [24.941, 9.871], [24.925, 9.872], [24.915, 9.855], [24.903, 9.854], [24.888, 9.841], [24.88, 9.845], [24.858, 9.82], [24.841, 9.816], [24.823, 9.819], [24.809, 9.816], [24.811, 9.791], [24.795, 9.791], [24.791, 9.796], [24.772, 9.797], [24.762, 9.806], [24.736, 9.815], [24.721, 9.837], [24.71, 9.834], [24.707, 9.825], [24.697, 9.824], [24.695, 9.811], [24.674, 9.803], [24.657, 9.794], [24.639, 9.803], [24.63, 9.797], [24.611, 9.808], [24.601, 9.801], [24.598, 9.807], [24.58, 9.814], [24.568, 9.805], [24.556, 9.809], [24.556, 9.8], [24.536, 9.805], [24.526, 9.823], [24.514, 9.831], [24.493, 9.83], [24.488, 9.834], [24.466, 9.817], [24.452, 9.819], [24.434, 9.817], [24.433, 9.8], [24.428, 9.804], [24.408, 9.784], [24.385, 9.784], [24.367, 9.787], [24.351, 9.801], [24.331, 9.799], [24.316, 9.786], [24.299, 9.784], [24.293, 9.788], [24.286, 9.779], [24.267, 9.784], [24.243, 9.777], [24.229, 9.776], [24.225, 9.765], [24.206, 9.738], [24.177, 9.728], [24.165, 9.733], [24.133, 9.736], [24.114, 9.724], [24.12, 9.714], [24.115, 9.71], [24.12, 9.692], [24.112, 9.686], [24.098, 9.663], [24.072, 9.658], [24.053, 9.667], [23.696, 9.672], [23.682, 9.648], [23.663, 9.603], [23.65, 9.58], [23.627, 9.547], [23.625, 9.53], [23.635, 9.519], [23.637, 9.489], [23.632, 9.45], [23.636, 9.441], [23.647, 9.439], [23.656, 9.445], [23.666, 9.436], [23.66, 9.397], [23.654, 9.375], [23.641, 9.346], [23.64, 9.321], [23.653, 9.287], [23.65, 9.276], [23.619, 9.251], [23.607, 9.228], [23.588, 9.212], [23.573, 9.193], [23.552, 9.18], [23.512, 9.182], [23.493, 9.174], [23.49, 9.163], [23.479, 9.146], [23.471, 9.125], [23.468, 9.092], [23.462, 9.076], [23.461, 9.05], [23.449, 9.026], [23.448, 9.015], [23.455, 9.007], [23.458, 8.991], [23.489, 8.966], [23.504, 8.96], [23.524, 8.957], [23.534, 8.961], [23.56, 9.005], [23.572, 9.005], [23.583, 8.995], [23.584, 8.983], [23.581, 8.942], [23.584, 8.919], [23.58, 8.901], [23.55, 8.847], [23.526, 8.822], [23.509, 8.812], [23.498, 8.773], [23.499, 8.761], [23.512, 8.746], [23.515, 8.736], [23.514, 8.718], [23.526, 8.709], [23.558, 8.705], [23.579, 8.726], [23.597, 8.735], [23.634, 8.737], [23.643, 8.734], [23.667, 8.716], [23.679, 8.714], [23.699, 8.721], [23.716, 8.715], [23.734, 8.705], [23.76, 8.712], [23.781, 8.725], [23.83, 8.727], [23.864, 8.711], [23.883, 8.708], [23.926, 8.719], [23.957, 8.714], [23.984, 8.699], [23.997, 8.696], [24.016, 8.704], [24.049, 8.694], [24.074, 8.69], [24.108, 8.688], [24.127, 8.685], [24.15, 8.689], [24.168, 8.698], [24.195, 8.689], [24.208, 8.688], [24.231, 8.698], [24.25, 8.694], [24.256, 8.687]]]]}}