{"type": "Feature", "properties": {"name": "Yemen", "iso1": "YE", "admin_level": 2, "osm_id": 305092, "countrylevel_id": "iso1:YE", "osm_data": {"localname": "اليمن", "official_name": "", "alltags": {"flag": "http://upload.wikimedia.org/wikipedia/commons/8/89/Flag_of_Yemen.svg", "name:af": "Jemen", "name:am": "የመን (አገር)", "name:an": "Yemen", "name:ar": "اليمن", "name:az": "Yəmən", "name:ba": "Йемен", "name:be": "Емен", "name:bg": "Йемен", "name:bn": "ইয়েমেন", "name:bo": "ཡེ་མེན།", "name:br": "Yemen", "name:bs": "Jemen", "name:ca": "Iemen", "name:ce": "Йемен", "name:co": "Yemen", "name:cs": "Jemen", "name:cv": "Йемен", "name:cy": "Yemen", "name:da": "Yemen", "name:dv": "ޔަމަން", "name:el": "Υεμένη", "name:en": "Yemen", "name:eo": "Jemeno", "name:es": "Yemen", "name:et": "Jeemen", "name:eu": "Yemen", "name:fa": "یمن", "name:fi": "Jemen", "name:fo": "Jemen", "name:fr": "Yémen", "name:fy": "Jemen", "name:ga": "Poblacht Éimin", "name:gd": "Iemen", "name:gl": "Iemen - اليمن", "name:gn": "Jemẽ", "name:gu": "યેમેન", "name:gv": "Yn Yeaman", "name:he": "תימן", "name:hi": "यमन", "name:hr": "Jemen", "name:ht": "Yemèn", "name:hu": "Jemen", "name:hy": "Եմեն", "name:ia": "Yemen", "name:id": "Yaman", "name:ie": "Yemen", "name:io": "Yemen", "name:is": "Jemen", "name:it": "Yemen", "name:ja": "イエメン", "name:jv": "Yaman", "name:ka": "იემენი", "name:ki": "Yemen", "name:kk": "Йемен", "name:kl": "Yemen", "name:kn": "ಯೆಮೆನ್", "name:ko": "예멘", "name:ku": "Yemen", "name:kv": "Йемен", "name:kw": "Yemen", "name:ky": "Йемен", "name:la": "Iemenia", "name:lb": "Jemen", "name:li": "Jeme", "name:ln": "Yeméni", "name:lt": "Jemenas", "name:lv": "Jemena", "name:mk": "Јемен", "name:ml": "യെമൻ", "name:mn": "Йемен", "name:mr": "येमेनचे प्रजासत्ताक", "name:ms": "Yaman", "name:mt": "Jemen", "name:my": "ယီမင်နိုင်ငံ", "name:na": "Yemen", "name:ne": "गणतन्त्र यमन", "name:nl": "Jemen", "name:nn": "Jemen", "name:no": "Jemen", "name:nv": "Shádiʼááhjí Ásáí Bikéyah", "name:oc": "Iemèn", "name:or": "ୟେମେନ", "name:os": "Йемен", "name:pa": "ਯਮਨ", "name:pl": "Jemen", "name:ps": "یمن", "name:pt": "Iémen", "name:qu": "Yaman", "name:ro": "Yemen", "name:ru": "Йемен", "name:rw": "Yemeni", "name:sa": "यमन", "name:se": "Jemen", "name:sh": "Jemen", "name:sk": "Jemen", "name:sl": "Jemen", "name:so": "Yemen", "name:sq": "Jemeni", "name:sr": "Јемен", "name:ss": "IYemeni", "name:su": "Yaman", "name:sv": "Jemen", "name:sw": "Yemen", "name:ta": "யெமன்", "name:te": "యెమన్", "name:tg": "Яман", "name:th": "ประเทศเยเมน", "name:tk": "Ýemen", "name:tl": "Yemen", "name:tr": "Yemen", "name:tt": "Йәмән", "name:ug": "يەمەن", "name:uk": "Ємен", "name:ur": "یمن", "name:uz": "Yaman", "name:vi": "Yemen", "name:vo": "Yämän", "name:wo": "Yaman", "name:yi": "תימן", "name:yo": "Yemen", "name:zh": "也门", "name:zu": "IYemen", "name:ace": "Yaman", "name:als": "Jemen", "name:ang": "Gemen", "name:arc": "ܝܡܢ", "name:arz": "اليمن", "name:ast": "Yeme", "name:bar": "Jemen", "name:bcl": "Yemen", "name:ber": "ⵢⴰⵎⴰⵏ", "name:bpy": "ইয়েমেন", "name:bug": "Yaman", "name:bxr": "Йемен", "name:ceb": "Yemen", "name:ckb": "یەمەن", "name:crh": "Yemen", "name:csb": "Jemen", "name:diq": "Yemen", "name:dsb": "Jemen", "name:ext": "Yemen", "name:frp": "Yèmen", "name:gag": "Yemen", "name:hak": "Ya̍p-mùn", "name:haw": "Iemene", "name:hif": "Yemen", "name:hsb": "Jemen", "name:ilo": "Yemen", "name:jbo": "djemen", "name:kaa": "Yemen", "name:kab": "Yamen", "name:kbd": "Йемен", "name:lad": "Teman", "name:lez": "Йемен", "name:lij": "Yemen", "name:lmo": "Yemen", "name:mzn": "یمن", "name:nah": "Yemen", "name:nan": "Yemen", "name:nap": "Yemen", "name:nds": "Jemen", "name:new": "गणतन्त्र यमन", "name:nov": "Yemen", "name:pam": "Yemen", "name:pap": "Yemen", "name:pih": "Yemen", "name:pms": "Yemen", "name:pnb": "یمن", "name:sah": "Йиэмэн", "name:scn": "Yemen", "name:sco": "Yemen", "name:stq": "Jemen", "name:szl": "Jymyn", "name:tpi": "Yemen", "name:tzl": "Iemén", "name:udm": "Йемен", "name:vec": "Jemen", "name:war": "Yemen", "name:wuu": "也门", "name:xal": "Йеменмудин Орн", "name:yue": "也門", "name:zea": "Jeem’n", "population": "32080300", "border_type": "nation", "name:bat-smg": "Jemens", "name:fiu-vro": "Jeemen", "name:be-tarask": "Емэн", "is_in:continent": "Asia", "default_language": "ar", "official_name:cs": "Jemenská republika", "official_name:eo": "Jemena Respubliko"}}, "center_lat": 15.91, "center_lon": 47.59, "timezone": "Asia/Aden", "population": 28250420, "wikidata_id": "Q805", "wikipedia_id": "ar:اليمن"}, "geometry": {"type": "MultiPolygon", "coordinates": [[[[53.291, 12.121], [53.31, 12.111], [53.258, 12.114], [53.248, 12.122], [53.269, 12.128], [53.284, 12.127], [53.291, 12.121]]], [[[53, 12.171], [53.011, 12.177], [53.036, 12.18], [53.057, 12.174], [53.073, 12.174], [53.086, 12.161], [53.089, 12.151], [53.086, 12.134], [53.061, 12.128], [53.026, 12.14], [53.016, 12.153], [52.981, 12.168], [53, 12.171]]], [[[52.985, 12.162], [52.985, 12.162], [52.985, 12.162], [52.985, 12.162]]], [[[53.065, 12.175], [53.065, 12.175], [53.065, 12.175], [53.065, 12.175]]], [[[52.139, 12.196], [52.139, 12.196], [52.139, 12.196], [52.139, 12.196]]], [[[52.143, 12.2], [52.143, 12.2], [52.143, 12.2], [52.143, 12.2]]], [[[52.148, 12.193], [52.148, 12.193], [52.148, 12.193], [52.148, 12.193]]], [[[52.146, 12.194], [52.146, 12.194], [52.146, 12.194], [52.146, 12.194]]], [[[52.148, 12.194], [52.148, 12.194], [52.148, 12.194], [52.148, 12.194]]], [[[52.384, 12.158], [52.384, 12.158], [52.384, 12.158], [52.384, 12.158]]], [[[52.383, 12.158], [52.383, 12.158], [52.383, 12.158], [52.383, 12.158]]], [[[52.151, 12.187], [52.151, 12.187], [52.151, 12.187], [52.151, 12.187]]], [[[52.388, 12.19], [52.388, 12.19], [52.388, 12.19], [52.388, 12.19]]], [[[52.39, 12.191], [52.39, 12.191], [52.39, 12.191], [52.39, 12.191]]], [[[52.311, 12.192], [52.327, 12.189], [52.333, 12.194], [52.375, 12.189], [52.393, 12.195], [52.371, 12.183], [52.37, 12.164], [52.38, 12.159], [52.373, 12.154], [52.359, 12.16], [52.331, 12.15], [52.302, 12.153], [52.285, 12.15], [52.266, 12.157], [52.236, 12.16], [52.228, 12.18], [52.201, 12.18], [52.179, 12.183], [52.171, 12.189], [52.163, 12.184], [52.151, 12.189], [52.134, 12.206], [52.126, 12.202], [52.094, 12.208], [52.091, 12.217], [52.077, 12.219], [52.063, 12.229], [52.068, 12.238], [52.079, 12.244], [52.099, 12.238], [52.113, 12.243], [52.149, 12.235], [52.172, 12.215], [52.176, 12.217], [52.194, 12.205], [52.215, 12.206], [52.264, 12.2], [52.279, 12.206], [52.285, 12.2], [52.299, 12.201], [52.311, 12.192]]], [[[52.138, 12.439], [52.138, 12.439], [52.138, 12.439], [52.138, 12.439]]], [[[54.534, 12.542], [54.534, 12.542], [54.534, 12.542], [54.534, 12.542]]], [[[52.134, 12.436], [52.134, 12.436], [52.134, 12.436], [52.134, 12.436]]], [[[54, 12.33], [53.967, 12.336], [53.951, 12.333], [53.934, 12.333], [53.871, 12.322], [53.83, 12.311], [53.822, 12.312], [53.787, 12.306], [53.725, 12.301], [53.678, 12.305], [53.63, 12.317], [53.601, 12.329], [53.557, 12.341], [53.548, 12.339], [53.543, 12.347], [53.547, 12.356], [53.541, 12.366], [53.523, 12.382], [53.517, 12.396], [53.503, 12.408], [53.477, 12.424], [53.476, 12.43], [53.461, 12.443], [53.429, 12.457], [53.391, 12.477], [53.309, 12.529], [53.305, 12.536], [53.319, 12.544], [53.335, 12.537], [53.368, 12.544], [53.386, 12.551], [53.395, 12.559], [53.4, 12.583], [53.399, 12.605], [53.404, 12.622], [53.398, 12.655], [53.417, 12.664], [53.442, 12.671], [53.465, 12.67], [53.485, 12.692], [53.499, 12.711], [53.543, 12.713], [53.556, 12.71], [53.58, 12.699], [53.605, 12.697], [53.619, 12.699], [53.653, 12.7], [53.704, 12.66], [53.762, 12.622], [53.79, 12.608], [53.826, 12.597], [53.845, 12.598], [53.854, 12.604], [53.87, 12.622], [53.881, 12.642], [53.901, 12.65], [53.913, 12.652], [53.944, 12.64], [53.959, 12.638], [53.974, 12.643], [53.979, 12.65], [53.995, 12.647], [54.009, 12.65], [54.03, 12.66], [54.039, 12.661], [54.076, 12.676], [54.084, 12.684], [54.089, 12.7], [54.109, 12.7], [54.128, 12.691], [54.15, 12.672], [54.167, 12.664], [54.198, 12.667], [54.223, 12.644], [54.235, 12.646], [54.253, 12.639], [54.263, 12.639], [54.266, 12.629], [54.276, 12.626], [54.292, 12.614], [54.299, 12.617], [54.31, 12.609], [54.354, 12.605], [54.377, 12.591], [54.405, 12.579], [54.421, 12.577], [54.455, 12.553], [54.474, 12.545], [54.491, 12.544], [54.508, 12.556], [54.532, 12.554], [54.534, 12.543], [54.527, 12.543], [54.498, 12.532], [54.467, 12.527], [54.447, 12.517], [54.44, 12.499], [54.445, 12.49], [54.425, 12.478], [54.416, 12.477], [54.412, 12.467], [54.368, 12.458], [54.331, 12.446], [54.304, 12.448], [54.284, 12.445], [54.256, 12.438], [54.232, 12.421], [54.221, 12.396], [54.195, 12.39], [54.18, 12.374], [54.142, 12.353], [54.085, 12.356], [54.072, 12.353], [54.034, 12.351], [54.022, 12.344], [54.013, 12.33], [54, 12.33]]], [[[41.83, 15.524], [41.819, 15.527], [41.815, 15.539], [41.826, 15.554], [41.834, 15.558], [41.851, 15.551], [41.849, 15.533], [41.83, 15.524]]], [[[42.453, 15.764], [42.453, 15.764], [42.453, 15.764], [42.453, 15.764]]], [[[42.537, 15.818], [42.537, 15.818], [42.537, 15.818], [42.537, 15.818]]], [[[42.441, 15.841], [42.441, 15.841], [42.441, 15.841], [42.441, 15.841]]], [[[42.285, 15.87], [42.285, 15.87], [42.285, 15.87], [42.285, 15.87]]], [[[42.567, 15.853], [42.567, 15.853], [42.567, 15.853], [42.567, 15.853]]], [[[42.479, 15.856], [42.479, 15.856], [42.479, 15.856], [42.479, 15.856]]], [[[42.591, 15.907], [42.591, 15.907], [42.591, 15.907], [42.591, 15.907]]], [[[42.64, 15.965], [42.64, 15.965], [42.64, 15.965], [42.64, 15.965]]], [[[42.631, 15.991], [42.631, 15.991], [42.631, 15.991], [42.631, 15.991]]], [[[42.587, 16], [42.587, 16], [42.587, 16], [42.587, 16]]], [[[42.707, 16.021], [42.707, 16.021], [42.707, 16.021], [42.707, 16.021]]], [[[42.603, 16.026], [42.603, 16.026], [42.603, 16.026], [42.603, 16.026]]], [[[42.709, 16.081], [42.709, 16.081], [42.709, 16.081], [42.709, 16.081]]], [[[42.412, 16.095], [42.406, 16.1], [42.422, 16.11], [42.412, 16.095]]], [[[42.664, 16.134], [42.664, 16.134], [42.664, 16.134], [42.664, 16.134]]], [[[42.7, 16.137], [42.7, 16.137], [42.7, 16.137], [42.7, 16.137]]], [[[42.355, 16.132], [42.355, 16.132], [42.355, 16.132], [42.355, 16.132]]], [[[42.276, 16.14], [42.276, 16.14], [42.276, 16.14], [42.276, 16.14]]], [[[42.818, 16.155], [42.818, 16.155], [42.818, 16.155], [42.818, 16.155]]], [[[42.351, 16.159], [42.351, 16.159], [42.351, 16.159], [42.351, 16.159]]], [[[42.629, 16.145], [42.629, 16.145], [42.629, 16.145], [42.629, 16.145]]], [[[42.373, 16.179], [42.361, 16.191], [42.363, 16.209], [42.37, 16.218], [42.385, 16.204], [42.385, 16.187], [42.373, 16.179]]], [[[42.411, 16.224], [42.411, 16.224], [42.411, 16.224], [42.411, 16.224]]], [[[42.435, 16.239], [42.435, 16.239], [42.435, 16.239], [42.435, 16.239]]], [[[42.518, 16.245], [42.518, 16.245], [42.518, 16.245], [42.518, 16.245]]], [[[42.522, 16.255], [42.522, 16.255], [42.522, 16.255], [42.522, 16.255]]], [[[42.507, 16.255], [42.507, 16.255], [42.507, 16.255], [42.507, 16.255]]], [[[42.667, 16.171], [42.667, 16.171], [42.667, 16.171], [42.667, 16.171]]], [[[42.817, 16.168], [42.817, 16.168], [42.817, 16.168], [42.817, 16.168]]], [[[42.207, 16.303], [42.209, 16.289], [42.202, 16.281], [42.192, 16.289], [42.194, 16.306], [42.192, 16.316], [42.203, 16.32], [42.207, 16.303]]], [[[42.207, 16.301], [42.207, 16.301], [42.207, 16.301], [42.207, 16.301]]], [[[41.975, 16.297], [41.964, 16.297], [41.963, 16.319], [41.973, 16.315], [41.975, 16.297]]], [[[41.984, 16.311], [41.984, 16.311], [41.984, 16.311], [41.984, 16.311]]], [[[42.251, 16.314], [42.248, 16.297], [42.238, 16.293], [42.235, 16.304], [42.247, 16.319], [42.267, 16.331], [42.251, 16.314]]], [[[42.501, 16.255], [42.479, 16.26], [42.485, 16.264], [42.503, 16.258], [42.501, 16.255]]], [[[42.515, 16.264], [42.515, 16.264], [42.515, 16.264], [42.515, 16.264]]], [[[42.338, 16.276], [42.338, 16.276], [42.338, 16.276], [42.338, 16.276]]], [[[42.579, 16.311], [42.579, 16.311], [42.579, 16.311], [42.579, 16.311]]], [[[42.684, 16.328], [42.684, 16.328], [42.684, 16.328], [42.684, 16.328]]], [[[42.573, 16.325], [42.573, 16.325], [42.573, 16.325], [42.573, 16.325]]], [[[42.553, 16.296], [42.553, 16.296], [42.553, 16.296], [42.553, 16.296]]], [[[42.539, 16.283], [42.539, 16.283], [42.539, 16.283], [42.539, 16.283]]], [[[42.366, 16.277], [42.361, 16.262], [42.348, 16.265], [42.36, 16.278], [42.366, 16.277]]], [[[42.302, 16.28], [42.302, 16.28], [42.302, 16.28], [42.302, 16.28]]], [[[42.324, 16.276], [42.299, 16.283], [42.295, 16.289], [42.307, 16.298], [42.326, 16.319], [42.341, 16.319], [42.349, 16.3], [42.333, 16.277], [42.324, 16.276]]], [[[42.467, 16.266], [42.457, 16.281], [42.448, 16.283], [42.464, 16.303], [42.474, 16.306], [42.47, 16.293], [42.506, 16.277], [42.512, 16.269], [42.494, 16.274], [42.471, 16.274], [42.467, 16.266]]], [[[42.792, 16.336], [42.792, 16.336], [42.792, 16.336], [42.792, 16.336]]], [[[42.501, 16.347], [42.501, 16.347], [42.501, 16.347], [42.501, 16.347]]], [[[42.337, 16.346], [42.337, 16.346], [42.337, 16.346], [42.337, 16.346]]], [[[42.358, 16.374], [42.358, 16.374], [42.358, 16.374], [42.358, 16.374]]], [[[42.291, 16.374], [42.289, 16.379], [42.304, 16.378], [42.291, 16.374]]], [[[42.653, 16.392], [42.653, 16.392], [42.653, 16.392], [42.653, 16.392]]], [[[42.44, 16.355], [42.44, 16.355], [42.44, 16.355], [42.44, 16.355]]], [[[42.775, 16.363], [42.761, 16.379], [42.767, 16.402], [42.768, 16.374], [42.775, 16.363]]], [[[42.997, 14.591], [42.997, 14.591], [42.997, 14.591], [42.997, 14.591]]], [[[42.91, 14.612], [42.899, 14.625], [42.9, 14.633], [42.909, 14.632], [42.909, 14.621], [42.92, 14.622], [42.914, 14.615], [42.92, 14.609], [42.943, 14.612], [42.927, 14.601], [42.91, 14.612]]], [[[42.935, 14.629], [42.935, 14.629], [42.935, 14.629], [42.935, 14.629]]], [[[42.955, 14.722], [42.955, 14.722], [42.955, 14.722], [42.955, 14.722]]], [[[42.952, 14.73], [42.952, 14.73], [42.952, 14.73], [42.952, 14.73]]], [[[42.923, 14.908], [42.923, 14.908], [42.923, 14.908], [42.923, 14.908]]], [[[42.925, 14.911], [42.925, 14.911], [42.925, 14.911], [42.925, 14.911]]], [[[42.928, 14.916], [42.928, 14.916], [42.928, 14.916], [42.928, 14.916]]], [[[42.933, 14.919], [42.933, 14.919], [42.933, 14.919], [42.933, 14.919]]], [[[42.164, 15.013], [42.15, 15.021], [42.156, 15.032], [42.167, 15.027], [42.164, 15.013]]], [[[42.182, 15.029], [42.167, 15.044], [42.161, 15.058], [42.172, 15.077], [42.185, 15.077], [42.193, 15.067], [42.195, 15.049], [42.182, 15.029]]], [[[42.144, 15.065], [42.144, 15.065], [42.144, 15.065], [42.144, 15.065]]], [[[42.137, 15.099], [42.137, 15.099], [42.137, 15.099], [42.137, 15.099]]], [[[42.149, 15.078], [42.147, 15.088], [42.155, 15.091], [42.159, 15.082], [42.149, 15.078]]], [[[42.105, 15.11], [42.105, 15.11], [42.105, 15.11], [42.105, 15.11]]], [[[42.107, 15.117], [42.107, 15.117], [42.107, 15.117], [42.107, 15.117]]], [[[42.112, 15.13], [42.112, 15.13], [42.112, 15.13], [42.112, 15.13]]], [[[42.106, 15.141], [42.106, 15.141], [42.106, 15.141], [42.106, 15.141]]], [[[42.102, 15.157], [42.102, 15.157], [42.102, 15.157], [42.102, 15.157]]], [[[42.118, 15.17], [42.118, 15.17], [42.118, 15.17], [42.118, 15.17]]], [[[42.571, 15.172], [42.571, 15.172], [42.571, 15.172], [42.571, 15.172]]], [[[42.551, 15.388], [42.551, 15.388], [42.551, 15.388], [42.551, 15.388]]], [[[42.523, 15.416], [42.523, 15.416], [42.523, 15.416], [42.523, 15.416]]], [[[42.598, 15.428], [42.598, 15.428], [42.598, 15.428], [42.598, 15.428]]], [[[42.625, 15.408], [42.625, 15.408], [42.625, 15.408], [42.625, 15.408]]], [[[42.603, 15.416], [42.603, 15.416], [42.603, 15.416], [42.603, 15.416]]], [[[42.598, 15.418], [42.598, 15.418], [42.598, 15.418], [42.598, 15.418]]], [[[42.618, 15.422], [42.618, 15.422], [42.618, 15.422], [42.618, 15.422]]], [[[42.107, 15.108], [42.107, 15.108], [42.107, 15.108], [42.107, 15.108]]], [[[51.853, 15.446], [51.853, 15.446], [51.853, 15.446], [51.853, 15.446]]], [[[42.522, 15.493], [42.504, 15.498], [42.486, 15.489], [42.484, 15.496], [42.501, 15.506], [42.519, 15.499], [42.533, 15.5], [42.522, 15.493]]], [[[42.381, 15.512], [42.381, 15.512], [42.381, 15.512], [42.381, 15.512]]], [[[42.384, 15.519], [42.384, 15.519], [42.384, 15.519], [42.384, 15.519]]], [[[42.725, 15.542], [42.725, 15.542], [42.725, 15.542], [42.725, 15.542]]], [[[42.538, 15.563], [42.538, 15.563], [42.538, 15.563], [42.538, 15.563]]], [[[42.499, 15.59], [42.499, 15.59], [42.499, 15.59], [42.499, 15.59]]], [[[42.595, 15.65], [42.602, 15.651], [42.61, 15.639], [42.638, 15.63], [42.623, 15.63], [42.603, 15.621], [42.586, 15.647], [42.595, 15.65]]], [[[42.308, 15.659], [42.295, 15.668], [42.291, 15.683], [42.282, 15.688], [42.289, 15.712], [42.299, 15.712], [42.298, 15.703], [42.308, 15.659]]], [[[42.677, 15.676], [42.677, 15.676], [42.677, 15.676], [42.677, 15.676]]], [[[42.408, 15.469], [42.392, 15.479], [42.377, 15.494], [42.368, 15.522], [42.358, 15.532], [42.379, 15.531], [42.376, 15.525], [42.379, 15.499], [42.41, 15.477], [42.408, 15.469]]], [[[52.207, 15.691], [52.207, 15.691], [52.207, 15.691], [52.207, 15.691]]], [[[42.496, 15.732], [42.506, 15.726], [42.493, 15.722], [42.496, 15.732]]], [[[42.685, 15.73], [42.685, 15.73], [42.685, 15.73], [42.685, 15.73]]], [[[42.702, 15.738], [42.702, 15.738], [42.702, 15.738], [42.702, 15.738]]], [[[42.513, 15.717], [42.513, 15.717], [42.513, 15.717], [42.513, 15.717]]], [[[42.682, 15.719], [42.682, 15.719], [42.682, 15.719], [42.682, 15.719]]], [[[42.678, 15.689], [42.678, 15.689], [42.678, 15.689], [42.678, 15.689]]], [[[42.482, 15.702], [42.46, 15.698], [42.417, 15.707], [42.391, 15.705], [42.385, 15.701], [42.378, 15.716], [42.385, 15.726], [42.377, 15.74], [42.391, 15.747], [42.395, 15.742], [42.44, 15.719], [42.466, 15.715], [42.483, 15.715], [42.482, 15.702]]], [[[42.547, 15.707], [42.547, 15.707], [42.547, 15.707], [42.547, 15.707]]], [[[42.648, 15.43], [42.648, 15.43], [42.648, 15.43], [42.648, 15.43]]], [[[42.534, 15.309], [42.553, 15.317], [42.562, 15.327], [42.565, 15.348], [42.56, 15.363], [42.553, 15.369], [42.555, 15.387], [42.572, 15.405], [42.585, 15.425], [42.601, 15.432], [42.599, 15.443], [42.607, 15.443], [42.623, 15.455], [42.643, 15.455], [42.641, 15.441], [42.625, 15.431], [42.613, 15.436], [42.606, 15.422], [42.592, 15.419], [42.602, 15.416], [42.611, 15.401], [42.581, 15.401], [42.576, 15.394], [42.586, 15.393], [42.595, 15.385], [42.628, 15.403], [42.639, 15.403], [42.632, 15.39], [42.631, 15.379], [42.625, 15.381], [42.629, 15.368], [42.615, 15.349], [42.622, 15.325], [42.617, 15.303], [42.6, 15.288], [42.591, 15.265], [42.573, 15.265], [42.558, 15.277], [42.536, 15.3], [42.534, 15.309]]], [[[42.767, 15.429], [42.767, 15.429], [42.767, 15.429], [42.767, 15.429]]], [[[42.649, 15.431], [42.649, 15.431], [42.649, 15.431], [42.649, 15.431]]], [[[42.77, 15.435], [42.77, 15.435], [42.77, 15.435], [42.77, 15.435]]], [[[42.62, 15.766], [42.621, 15.755], [42.608, 15.737], [42.604, 15.747], [42.62, 15.766]]], [[[44.162, 12.62], [44.162, 12.62], [44.162, 12.62], [44.162, 12.62]]], [[[44.147, 12.625], [44.147, 12.625], [44.147, 12.625], [44.147, 12.625]]], [[[44.13, 12.631], [44.13, 12.631], [44.13, 12.631], [44.13, 12.631]]], [[[44.126, 12.632], [44.126, 12.632], [44.126, 12.632], [44.126, 12.632]]], [[[43.387, 12.656], [43.394, 12.666], [43.411, 12.672], [43.433, 12.665], [43.441, 12.641], [43.432, 12.632], [43.418, 12.656], [43.413, 12.651], [43.399, 12.655], [43.407, 12.644], [43.392, 12.65], [43.387, 12.656]]], [[[43.468, 12.719], [43.468, 12.719], [43.468, 12.719], [43.468, 12.719]]], [[[44.703, 12.733], [44.703, 12.733], [44.703, 12.733], [44.703, 12.733]]], [[[44.702, 12.735], [44.702, 12.735], [44.702, 12.735], [44.702, 12.735]]], [[[44.881, 12.735], [44.881, 12.735], [44.881, 12.735], [44.881, 12.735]]], [[[44.905, 12.739], [44.905, 12.739], [44.905, 12.739], [44.905, 12.739]]], [[[43.461, 12.676], [43.461, 12.676], [43.461, 12.676], [43.461, 12.676]]], [[[45.007, 12.753], [45.007, 12.753], [45.007, 12.753], [45.007, 12.753]]], [[[44.919, 12.756], [44.919, 12.756], [44.919, 12.756], [44.919, 12.756]]], [[[44.743, 12.751], [44.743, 12.751], [44.743, 12.751], [44.743, 12.751]]], [[[45.047, 12.779], [45.047, 12.779], [45.047, 12.779], [45.047, 12.779]]], [[[44.972, 12.789], [44.972, 12.789], [44.972, 12.789], [44.972, 12.789]]], [[[44.986, 12.794], [44.986, 12.794], [44.986, 12.794], [44.986, 12.794]]], [[[45.015, 12.796], [45.015, 12.796], [45.015, 12.796], [45.015, 12.796]]], [[[45.015, 12.798], [45.015, 12.798], [45.015, 12.798], [45.015, 12.798]]], [[[45.014, 12.799], [45.014, 12.799], [45.014, 12.799], [45.014, 12.799]]], [[[45.009, 12.803], [45.009, 12.803], [45.009, 12.803], [45.009, 12.803]]], [[[43.49, 12.812], [43.49, 12.812], [43.49, 12.812], [43.49, 12.812]]], [[[44.994, 12.815], [44.994, 12.815], [44.994, 12.815], [44.994, 12.815]]], [[[44.984, 12.824], [44.984, 12.824], [44.984, 12.824], [44.984, 12.824]]], [[[43.456, 12.87], [43.456, 12.87], [43.456, 12.87], [43.456, 12.87]]], [[[43.455, 12.871], [43.455, 12.871], [43.455, 12.871], [43.455, 12.871]]], [[[43.441, 12.89], [43.441, 12.89], [43.441, 12.89], [43.441, 12.89]]], [[[43.44, 12.893], [43.44, 12.893], [43.44, 12.893], [43.44, 12.893]]], [[[43.402, 12.979], [43.402, 12.979], [43.402, 12.979], [43.402, 12.979]]], [[[45.832, 13.386], [45.832, 13.386], [45.832, 13.386], [45.832, 13.386]]], [[[43.463, 12.864], [43.463, 12.864], [43.463, 12.864], [43.463, 12.864]]], [[[43.463, 12.866], [43.463, 12.866], [43.463, 12.866], [43.463, 12.866]]], [[[43.463, 12.867], [43.463, 12.867], [43.463, 12.867], [43.463, 12.867]]], [[[43.461, 12.868], [43.461, 12.868], [43.461, 12.868], [43.461, 12.868]]], [[[44.709, 12.732], [44.715, 12.742], [44.719, 12.733], [44.709, 12.732]]], [[[44.917, 12.738], [44.917, 12.738], [44.917, 12.738], [44.917, 12.738]]], [[[44.706, 12.74], [44.706, 12.74], [44.706, 12.74], [44.706, 12.74]]], [[[46.444, 13.402], [46.444, 13.402], [46.444, 13.402], [46.444, 13.402]]], [[[46.444, 13.403], [46.444, 13.403], [46.444, 13.403], [46.444, 13.403]]], [[[46.357, 13.411], [46.357, 13.411], [46.357, 13.411], [46.357, 13.411]]], [[[46.357, 13.412], [46.357, 13.412], [46.357, 13.412], [46.357, 13.412]]], [[[42.727, 13.604], [42.74, 13.633], [42.747, 13.632], [42.738, 13.616], [42.74, 13.604], [42.727, 13.604]]], [[[42.74, 13.624], [42.74, 13.624], [42.74, 13.624], [42.74, 13.624]]], [[[42.779, 13.632], [42.779, 13.632], [42.779, 13.632], [42.779, 13.632]]], [[[42.779, 13.634], [42.779, 13.634], [42.779, 13.634], [42.779, 13.634]]], [[[42.78, 13.637], [42.78, 13.637], [42.78, 13.637], [42.78, 13.637]]], [[[42.747, 13.636], [42.747, 13.636], [42.747, 13.636], [42.747, 13.636]]], [[[42.778, 13.639], [42.778, 13.639], [42.778, 13.639], [42.778, 13.639]]], [[[42.793, 13.705], [42.793, 13.705], [42.793, 13.705], [42.793, 13.705]]], [[[42.809, 13.708], [42.809, 13.708], [42.809, 13.708], [42.809, 13.708]]], [[[42.755, 13.775], [42.755, 13.775], [42.755, 13.775], [42.755, 13.775]]], [[[42.837, 13.783], [42.837, 13.783], [42.837, 13.783], [42.837, 13.783]]], [[[42.837, 13.783], [42.837, 13.783], [42.837, 13.783], [42.837, 13.783]]], [[[42.814, 13.857], [42.814, 13.857], [42.814, 13.857], [42.814, 13.857]]], [[[42.805, 13.877], [42.81, 13.878], [42.801, 13.855], [42.794, 13.847], [42.776, 13.841], [42.773, 13.851], [42.778, 13.862], [42.794, 13.878], [42.805, 13.877]]], [[[42.714, 13.88], [42.714, 13.88], [42.714, 13.88], [42.714, 13.88]]], [[[42.819, 13.865], [42.819, 13.865], [42.819, 13.865], [42.819, 13.865]]], [[[42.811, 13.883], [42.811, 13.883], [42.811, 13.883], [42.811, 13.883]]], [[[42.805, 13.791], [42.805, 13.791], [42.805, 13.791], [42.805, 13.791]]], [[[42.788, 13.782], [42.788, 13.782], [42.788, 13.782], [42.788, 13.782]]], [[[42.808, 13.79], [42.808, 13.79], [42.808, 13.79], [42.808, 13.79]]], [[[42.746, 13.643], [42.746, 13.643], [42.746, 13.643], [42.746, 13.643]]], [[[42.756, 13.657], [42.756, 13.657], [42.756, 13.657], [42.756, 13.657]]], [[[42.801, 13.663], [42.801, 13.663], [42.801, 13.663], [42.801, 13.663]]], [[[42.753, 13.679], [42.753, 13.679], [42.753, 13.679], [42.753, 13.679]]], [[[42.753, 13.68], [42.753, 13.68], [42.753, 13.68], [42.753, 13.68]]], [[[42.781, 13.781], [42.784, 13.765], [42.776, 13.76], [42.774, 13.742], [42.778, 13.732], [42.767, 13.733], [42.757, 13.722], [42.756, 13.708], [42.746, 13.698], [42.742, 13.687], [42.732, 13.678], [42.716, 13.679], [42.694, 13.662], [42.695, 13.657], [42.675, 13.651], [42.666, 13.664], [42.668, 13.672], [42.683, 13.674], [42.683, 13.684], [42.702, 13.701], [42.707, 13.734], [42.716, 13.743], [42.733, 13.748], [42.736, 13.758], [42.756, 13.767], [42.766, 13.767], [42.781, 13.781]]], [[[42.817, 13.89], [42.817, 13.89], [42.817, 13.89], [42.817, 13.89]]], [[[42.814, 13.892], [42.814, 13.892], [42.814, 13.892], [42.814, 13.892]]], [[[48.461, 13.976], [48.461, 13.976], [48.461, 13.976], [48.461, 13.976]]], [[[48.321, 13.986], [48.321, 13.986], [48.321, 13.986], [48.321, 13.986]]], [[[42.78, 13.963], [42.78, 13.963], [42.78, 13.963], [42.78, 13.963]]], [[[48.392, 14], [48.392, 14], [48.392, 14], [48.392, 14]]], [[[48.388, 14.004], [48.388, 14.004], [48.388, 14.004], [48.388, 14.004]]], [[[48.429, 14.016], [48.429, 14.016], [48.429, 14.016], [48.429, 14.016]]], [[[48.389, 14.004], [48.389, 14.004], [48.389, 14.004], [48.389, 14.004]]], [[[42.785, 13.911], [42.785, 13.911], [42.785, 13.911], [42.785, 13.911]]], [[[48.388, 13.928], [48.388, 13.928], [48.388, 13.928], [48.388, 13.928]]], [[[42.695, 13.961], [42.695, 13.961], [42.695, 13.961], [42.695, 13.961]]], [[[42.714, 13.941], [42.714, 13.941], [42.714, 13.941], [42.714, 13.941]]], [[[42.712, 13.943], [42.712, 13.943], [42.712, 13.943], [42.712, 13.943]]], [[[42.813, 14.073], [42.813, 14.073], [42.813, 14.073], [42.813, 14.073]]], [[[42.822, 14.077], [42.822, 14.077], [42.822, 14.077], [42.822, 14.077]]], [[[42.76, 14.082], [42.76, 14.082], [42.76, 14.082], [42.76, 14.082]]], [[[43.002, 14.519], [43.002, 14.519], [43.002, 14.519], [43.002, 14.519]]], [[[42.948, 14.545], [42.942, 14.556], [42.943, 14.567], [42.95, 14.563], [42.948, 14.545]]], [[[42.817, 14.076], [42.817, 14.076], [42.817, 14.076], [42.817, 14.076]]], [[[42.689, 14], [42.676, 14.004], [42.695, 14.024], [42.707, 14.028], [42.716, 14.044], [42.727, 14.057], [42.743, 14.061], [42.745, 14.066], [42.763, 14.072], [42.767, 14.06], [42.787, 14.042], [42.789, 14.029], [42.795, 14.029], [42.787, 13.996], [42.79, 13.989], [42.779, 13.973], [42.779, 13.954], [42.783, 13.936], [42.775, 13.929], [42.786, 13.914], [42.776, 13.906], [42.767, 13.91], [42.772, 13.924], [42.761, 13.924], [42.747, 13.911], [42.75, 13.934], [42.763, 13.951], [42.728, 13.954], [42.727, 13.963], [42.714, 13.964], [42.713, 13.979], [42.69, 13.99], [42.689, 14]]], [[[42.696, 14.027], [42.696, 14.027], [42.696, 14.027], [42.696, 14.027]]], [[[42.737, 14.062], [42.737, 14.062], [42.737, 14.062], [42.737, 14.062]]], [[[42.71, 13.883], [42.71, 13.883], [42.71, 13.883], [42.71, 13.883]]], [[[42.823, 13.885], [42.823, 13.885], [42.823, 13.885], [42.823, 13.885]]], [[[42.812, 13.886], [42.812, 13.886], [42.812, 13.886], [42.812, 13.886]]], [[[43, 14.563], [43, 14.563], [43, 14.563], [43, 14.563]]], [[[42.772, 16.404], [42.804, 16.401], [42.827, 16.388], [42.831, 16.38], [42.923, 16.395], [42.932, 16.399], [42.956, 16.402], [42.95, 16.408], [42.937, 16.441], [42.945, 16.49], [42.95, 16.497], [42.992, 16.522], [43.059, 16.525], [43.076, 16.528], [43.121, 16.529], [43.129, 16.593], [43.14, 16.597], [43.139, 16.622], [43.146, 16.636], [43.141, 16.655], [43.129, 16.672], [43.15, 16.674], [43.156, 16.667], [43.206, 16.648], [43.224, 16.648], [43.235, 16.643], [43.236, 16.667], [43.227, 16.67], [43.234, 16.676], [43.228, 16.702], [43.21, 16.701], [43.212, 16.71], [43.231, 16.731], [43.224, 16.737], [43.226, 16.746], [43.248, 16.744], [43.256, 16.737], [43.275, 16.747], [43.259, 16.755], [43.252, 16.779], [43.267, 16.795], [43.252, 16.805], [43.233, 16.807], [43.221, 16.838], [43.199, 16.853], [43.18, 16.849], [43.176, 16.867], [43.152, 16.88], [43.145, 16.9], [43.139, 16.902], [43.138, 16.918], [43.154, 16.929], [43.172, 16.931], [43.175, 16.937], [43.195, 16.945], [43.195, 16.955], [43.178, 16.963], [43.178, 16.99], [43.18, 17.03], [43.192, 17.026], [43.191, 17.016], [43.203, 17.01], [43.207, 17.021], [43.215, 17.022], [43.225, 17.011], [43.231, 17.03], [43.237, 17.029], [43.249, 17.015], [43.24, 17.047], [43.229, 17.059], [43.227, 17.075], [43.208, 17.078], [43.185, 17.099], [43.16, 17.087], [43.158, 17.114], [43.164, 17.125], [43.178, 17.131], [43.171, 17.173], [43.216, 17.21], [43.2, 17.243], [43.202, 17.259], [43.256, 17.278], [43.267, 17.292], [43.302, 17.293], [43.31, 17.299], [43.336, 17.304], [43.326, 17.328], [43.277, 17.358], [43.259, 17.362], [43.228, 17.386], [43.247, 17.401], [43.226, 17.426], [43.257, 17.458], [43.241, 17.481], [43.26, 17.49], [43.285, 17.517], [43.303, 17.527], [43.31, 17.528], [43.336, 17.54], [43.355, 17.556], [43.376, 17.544], [43.379, 17.555], [43.399, 17.557], [43.42, 17.566], [43.431, 17.564], [43.445, 17.55], [43.465, 17.552], [43.485, 17.545], [43.496, 17.527], [43.506, 17.524], [43.52, 17.509], [43.527, 17.514], [43.567, 17.483], [43.618, 17.426], [43.683, 17.367], [43.768, 17.374], [43.789, 17.375], [43.806, 17.357], [43.832, 17.339], [43.906, 17.342], [43.967, 17.331], [44.011, 17.402], [44.023, 17.391], [44.05, 17.405], [44.067, 17.406], [44.101, 17.366], [44.111, 17.366], [44.131, 17.384], [44.138, 17.409], [44.19, 17.415], [44.208, 17.414], [44.227, 17.418], [44.271, 17.422], [44.366, 17.433], [44.467, 17.433], [44.567, 17.406], [44.65, 17.433], [44.889, 17.433], [45.217, 17.433], [45.4, 17.333], [45.748, 17.292], [46.1, 17.25], [46.367, 17.233], [46.75, 17.283], [47, 16.95], [47.183, 16.95], [47.467, 17.117], [47.6, 17.45], [47.849, 17.756], [48.183, 18.167], [48.588, 18.361], [48.65, 18.392], [49.117, 18.617], [49.713, 18.678], [50.13, 18.721], [50.456, 18.755], [50.783, 18.789], [51.424, 18.9], [51.774, 18.961], [52, 19], [52.216, 18.548], [52.283, 18.404], [52.548, 17.845], [52.782, 17.35], [52.751, 17.306], [52.743, 17.302], [52.746, 17.294], [52.812, 17.286], [53.008, 16.868], [53.109, 16.65], [53.043, 16.634], [52.976, 16.621], [52.947, 16.613], [52.929, 16.6], [52.901, 16.591], [52.843, 16.572], [52.829, 16.56], [52.791, 16.549], [52.734, 16.529], [52.706, 16.515], [52.591, 16.477], [52.518, 16.45], [52.475, 16.431], [52.442, 16.412], [52.39, 16.373], [52.366, 16.352], [52.338, 16.323], [52.292, 16.269], [52.282, 16.26], [52.237, 16.199], [52.218, 16.157], [52.205, 16.133], [52.204, 16.101], [52.196, 16.077], [52.183, 16.058], [52.166, 16.017], [52.153, 15.992], [52.147, 15.973], [52.15, 15.941], [52.162, 15.926], [52.17, 15.924], [52.16, 15.879], [52.16, 15.858], [52.173, 15.844], [52.189, 15.838], [52.196, 15.822], [52.19, 15.816], [52.196, 15.802], [52.195, 15.792], [52.201, 15.781], [52.189, 15.769], [52.191, 15.747], [52.196, 15.736], [52.196, 15.719], [52.204, 15.7], [52.213, 15.661], [52.225, 15.633], [52.219, 15.632], [52.206, 15.618], [52.192, 15.609], [52.167, 15.605], [52.058, 15.568], [51.934, 15.521], [51.869, 15.494], [51.85, 15.476], [51.854, 15.464], [51.85, 15.453], [51.86, 15.446], [51.847, 15.444], [51.822, 15.462], [51.749, 15.44], [51.686, 15.416], [51.66, 15.401], [51.641, 15.385], [51.636, 15.369], [51.638, 15.355], [51.658, 15.348], [51.66, 15.337], [51.642, 15.337], [51.628, 15.33], [51.605, 15.33], [51.602, 15.334], [51.576, 15.331], [51.503, 15.308], [51.476, 15.296], [51.459, 15.283], [51.42, 15.264], [51.421, 15.255], [51.408, 15.261], [51.374, 15.246], [51.37, 15.235], [51.347, 15.233], [51.338, 15.238], [51.316, 15.233], [51.223, 15.194], [51.208, 15.193], [51.165, 15.177], [51.131, 15.167], [51.065, 15.156], [51.014, 15.144], [50.949, 15.127], [50.915, 15.117], [50.889, 15.113], [50.813, 15.09], [50.809, 15.091], [50.718, 15.07], [50.706, 15.072], [50.659, 15.061], [50.644, 15.061], [50.589, 15.052], [50.552, 15.045], [50.492, 15.027], [50.478, 15.024], [50.411, 14.989], [50.374, 14.965], [50.339, 14.936], [50.329, 14.919], [50.318, 14.927], [50.299, 14.923], [50.262, 14.908], [50.191, 14.867], [50.181, 14.858], [50.178, 14.845], [50.147, 14.842], [50.138, 14.848], [50.125, 14.846], [50.108, 14.85], [50.056, 14.828], [50.024, 14.82], [50.023, 14.834], [50.014, 14.848], [50, 14.853], [49.986, 14.853], [49.961, 14.846], [49.938, 14.851], [49.895, 14.835], [49.853, 14.815], [49.83, 14.808], [49.822, 14.809], [49.797, 14.799], [49.737, 14.782], [49.683, 14.773], [49.629, 14.759], [49.589, 14.746], [49.561, 14.735], [49.529, 14.718], [49.491, 14.695], [49.448, 14.68], [49.416, 14.664], [49.355, 14.644], [49.296, 14.615], [49.253, 14.591], [49.218, 14.568], [49.176, 14.546], [49.168, 14.533], [49.169, 14.509], [49.158, 14.511], [49.148, 14.526], [49.128, 14.531], [49.105, 14.528], [49.079, 14.51], [49.058, 14.489], [49.023, 14.445], [49.007, 14.416], [48.988, 14.378], [48.983, 14.35], [48.994, 14.345], [48.997, 14.327], [48.981, 14.311], [48.949, 14.309], [48.934, 14.297], [48.924, 14.271], [48.918, 14.264], [48.902, 14.26], [48.889, 14.252], [48.869, 14.245], [48.862, 14.23], [48.866, 14.215], [48.856, 14.206], [48.842, 14.183], [48.824, 14.163], [48.81, 14.157], [48.793, 14.136], [48.77, 14.128], [48.753, 14.115], [48.731, 14.083], [48.703, 14.057], [48.679, 14.044], [48.603, 14.049], [48.563, 14.047], [48.541, 14.042], [48.52, 14.032], [48.489, 14.005], [48.471, 14.007], [48.458, 13.995], [48.451, 13.998], [48.45, 14.013], [48.434, 14.025], [48.428, 14.017], [48.416, 14.014], [48.405, 14.022], [48.387, 14.013], [48.374, 14.018], [48.359, 14.014], [48.342, 14.024], [48.328, 14.022], [48.322, 14.006], [48.313, 13.998], [48.297, 13.995], [48.294, 13.985], [48.279, 13.996], [48.272, 13.99], [48.255, 13.987], [48.25, 13.977], [48.242, 13.986], [48.222, 13.988], [48.213, 13.975], [48.186, 13.974], [48.175, 13.971], [48.178, 13.992], [48.131, 14.024], [48.075, 14.045], [48.032, 14.055], [48.01, 14.055], [47.978, 14.05], [47.944, 14.038], [47.927, 14.029], [47.902, 14.01], [47.885, 13.993], [47.824, 13.948], [47.809, 13.935], [47.772, 13.923], [47.724, 13.917], [47.702, 13.91], [47.684, 13.899], [47.651, 13.873], [47.639, 13.869], [47.621, 13.852], [47.593, 13.815], [47.566, 13.799], [47.544, 13.777], [47.52, 13.757], [47.454, 13.698], [47.398, 13.659], [47.372, 13.647], [47.322, 13.64], [47.3, 13.63], [47.23, 13.608], [47.195, 13.6], [47.161, 13.595], [47.117, 13.584], [47.074, 13.569], [47.05, 13.568], [47.018, 13.559], [46.988, 13.554], [46.923, 13.539], [46.898, 13.528], [46.846, 13.491], [46.829, 13.481], [46.8, 13.47], [46.731, 13.444], [46.701, 13.429], [46.672, 13.429], [46.656, 13.434], [46.632, 13.437], [46.596, 13.436], [46.506, 13.415], [46.479, 13.415], [46.444, 13.406], [46.432, 13.414], [46.398, 13.418], [46.383, 13.414], [46.351, 13.414], [46.351, 13.416], [46.319, 13.423], [46.297, 13.423], [46.28, 13.431], [46.246, 13.434], [46.225, 13.432], [46.205, 13.426], [46.178, 13.425], [46.156, 13.419], [46.132, 13.421], [46.083, 13.413], [46.033, 13.42], [45.991, 13.415], [45.968, 13.407], [45.942, 13.407], [45.916, 13.401], [45.909, 13.396], [45.884, 13.394], [45.86, 13.396], [45.84, 13.388], [45.802, 13.382], [45.762, 13.369], [45.738, 13.366], [45.728, 13.36], [45.705, 13.355], [45.677, 13.355], [45.659, 13.349], [45.638, 13.336], [45.554, 13.261], [45.524, 13.23], [45.484, 13.176], [45.455, 13.129], [45.435, 13.111], [45.388, 13.06], [45.358, 13.048], [45.289, 13.039], [45.235, 13.025], [45.189, 13.009], [45.158, 12.996], [45.127, 12.975], [45.106, 12.952], [45.076, 12.901], [45.058, 12.859], [45.048, 12.831], [45.04, 12.796], [45.047, 12.776], [45.037, 12.754], [45, 12.757], [44.988, 12.773], [44.971, 12.778], [44.973, 12.789], [44.988, 12.794], [45.001, 12.793], [45.005, 12.799], [45.018, 12.793], [45.026, 12.806], [45.012, 12.825], [45.009, 12.84], [45.016, 12.845], [44.994, 12.851], [44.99, 12.844], [44.99, 12.813], [44.999, 12.806], [44.974, 12.799], [44.976, 12.809], [44.989, 12.819], [44.967, 12.827], [44.949, 12.827], [44.916, 12.819], [44.899, 12.798], [44.891, 12.768], [44.882, 12.773], [44.868, 12.789], [44.868, 12.796], [44.85, 12.796], [44.843, 12.774], [44.868, 12.777], [44.884, 12.766], [44.911, 12.767], [44.917, 12.746], [44.906, 12.742], [44.897, 12.751], [44.886, 12.74], [44.893, 12.728], [44.877, 12.736], [44.875, 12.725], [44.869, 12.731], [44.852, 12.73], [44.843, 12.723], [44.839, 12.731], [44.821, 12.739], [44.827, 12.757], [44.809, 12.77], [44.776, 12.772], [44.749, 12.763], [44.736, 12.754], [44.735, 12.747], [44.723, 12.738], [44.721, 12.748], [44.728, 12.753], [44.724, 12.766], [44.711, 12.781], [44.693, 12.796], [44.672, 12.806], [44.624, 12.816], [44.593, 12.816], [44.566, 12.811], [44.536, 12.798], [44.515, 12.783], [44.497, 12.767], [44.463, 12.729], [44.419, 12.67], [44.414, 12.679], [44.403, 12.681], [44.367, 12.671], [44.35, 12.663], [44.288, 12.629], [44.277, 12.631], [44.253, 12.626], [44.235, 12.634], [44.212, 12.63], [44.191, 12.618], [44.189, 12.639], [44.183, 12.647], [44.155, 12.656], [44.126, 12.644], [44.091, 12.621], [44.077, 12.619], [44.045, 12.603], [44.035, 12.606], [44.009, 12.601], [43.987, 12.603], [43.974, 12.595], [43.947, 12.593], [43.927, 12.598], [43.916, 12.607], [43.915, 12.634], [43.909, 12.643], [43.88, 12.655], [43.85, 12.659], [43.825, 12.674], [43.789, 12.693], [43.77, 12.69], [43.759, 12.693], [43.745, 12.704], [43.722, 12.712], [43.697, 12.717], [43.691, 12.723], [43.667, 12.727], [43.656, 12.726], [43.637, 12.735], [43.631, 12.734], [43.6, 12.749], [43.577, 12.739], [43.551, 12.715], [43.526, 12.683], [43.519, 12.686], [43.503, 12.675], [43.495, 12.679], [43.477, 12.673], [43.468, 12.68], [43.462, 12.676], [43.453, 12.694], [43.469, 12.718], [43.476, 12.708], [43.485, 12.707], [43.491, 12.7], [43.491, 12.712], [43.468, 12.722], [43.475, 12.756], [43.474, 12.765], [43.485, 12.798], [43.495, 12.82], [43.494, 12.826], [43.467, 12.856], [43.459, 12.875], [43.445, 12.883], [43.421, 12.938], [43.406, 12.944], [43.41, 12.959], [43.4, 12.987], [43.376, 13.012], [43.362, 13.046], [43.344, 13.083], [43.316, 13.114], [43.282, 13.162], [43.253, 13.22], [43.242, 13.253], [43.243, 13.257], [43.228, 13.282], [43.231, 13.295], [43.229, 13.312], [43.238, 13.311], [43.24, 13.329], [43.25, 13.341], [43.248, 13.362], [43.253, 13.366], [43.249, 13.394], [43.25, 13.423], [43.258, 13.44], [43.255, 13.451], [43.257, 13.478], [43.257, 13.51], [43.273, 13.551], [43.273, 13.559], [43.282, 13.579], [43.278, 13.589], [43.292, 13.597], [43.29, 13.611], [43.282, 13.629], [43.288, 13.669], [43.287, 13.687], [43.275, 13.721], [43.247, 13.785], [43.23, 13.832], [43.235, 13.84], [43.228, 13.852], [43.236, 13.874], [43.23, 13.887], [43.216, 13.898], [43.202, 13.905], [43.201, 13.918], [43.185, 13.937], [43.16, 13.953], [43.155, 13.977], [43.145, 13.988], [43.146, 14.006], [43.129, 14.024], [43.122, 14.042], [43.112, 14.056], [43.098, 14.064], [43.106, 14.074], [43.107, 14.091], [43.089, 14.124], [43.088, 14.154], [43.076, 14.183], [43.076, 14.201], [43.071, 14.228], [43.057, 14.252], [43.045, 14.282], [43.036, 14.297], [43.034, 14.326], [43.019, 14.366], [42.998, 14.398], [42.996, 14.418], [42.985, 14.461], [42.973, 14.481], [42.965, 14.521], [42.959, 14.534], [42.969, 14.533], [42.971, 14.5], [42.975, 14.489], [42.989, 14.489], [42.989, 14.48], [43.002, 14.47], [43.011, 14.436], [43.016, 14.435], [43.019, 14.461], [43.006, 14.476], [43.012, 14.478], [43.012, 14.511], [43.009, 14.52], [43.017, 14.54], [43.002, 14.564], [43.005, 14.571], [42.996, 14.603], [42.999, 14.615], [42.987, 14.615], [42.981, 14.635], [42.984, 14.661], [42.968, 14.678], [42.967, 14.689], [42.956, 14.707], [42.961, 14.725], [42.954, 14.738], [42.958, 14.751], [42.949, 14.768], [42.948, 14.782], [42.94, 14.796], [42.92, 14.813], [42.918, 14.825], [42.888, 14.85], [42.88, 14.86], [42.869, 14.893], [42.869, 14.911], [42.881, 14.924], [42.889, 14.916], [42.878, 14.912], [42.889, 14.901], [42.885, 14.873], [42.894, 14.848], [42.902, 14.848], [42.909, 14.868], [42.912, 14.857], [42.933, 14.824], [42.925, 14.815], [42.936, 14.814], [42.94, 14.822], [42.933, 14.828], [42.936, 14.84], [42.943, 14.847], [42.954, 14.871], [42.947, 14.889], [42.948, 14.9], [42.945, 14.924], [42.936, 14.939], [42.928, 14.945], [42.931, 14.952], [42.923, 14.972], [42.908, 14.991], [42.884, 15.003], [42.87, 15.027], [42.867, 15.042], [42.867, 15.074], [42.86, 15.078], [42.872, 15.099], [42.871, 15.114], [42.853, 15.146], [42.836, 15.161], [42.793, 15.183], [42.771, 15.192], [42.722, 15.208], [42.693, 15.214], [42.666, 15.209], [42.667, 15.193], [42.653, 15.181], [42.639, 15.181], [42.624, 15.19], [42.617, 15.209], [42.6, 15.225], [42.598, 15.235], [42.604, 15.252], [42.614, 15.252], [42.631, 15.236], [42.648, 15.233], [42.672, 15.238], [42.68, 15.25], [42.68, 15.258], [42.689, 15.269], [42.69, 15.279], [42.676, 15.291], [42.669, 15.304], [42.67, 15.316], [42.681, 15.32], [42.691, 15.332], [42.689, 15.345], [42.695, 15.363], [42.705, 15.363], [42.694, 15.339], [42.687, 15.296], [42.693, 15.305], [42.718, 15.31], [42.719, 15.301], [42.729, 15.296], [42.726, 15.28], [42.732, 15.274], [42.746, 15.279], [42.748, 15.265], [42.756, 15.277], [42.767, 15.268], [42.764, 15.238], [42.77, 15.236], [42.774, 15.211], [42.782, 15.218], [42.774, 15.234], [42.784, 15.235], [42.782, 15.243], [42.806, 15.269], [42.81, 15.287], [42.804, 15.289], [42.793, 15.311], [42.793, 15.345], [42.797, 15.361], [42.784, 15.374], [42.783, 15.387], [42.772, 15.408], [42.777, 15.412], [42.765, 15.423], [42.776, 15.441], [42.773, 15.453], [42.774, 15.469], [42.766, 15.474], [42.764, 15.492], [42.755, 15.504], [42.754, 15.517], [42.742, 15.533], [42.717, 15.55], [42.705, 15.551], [42.7, 15.563], [42.707, 15.565], [42.723, 15.606], [42.705, 15.616], [42.705, 15.63], [42.696, 15.642], [42.698, 15.661], [42.708, 15.68], [42.706, 15.695], [42.687, 15.697], [42.692, 15.714], [42.687, 15.716], [42.684, 15.702], [42.687, 15.693], [42.681, 15.685], [42.683, 15.715], [42.693, 15.731], [42.703, 15.725], [42.716, 15.736], [42.716, 15.743], [42.738, 15.755], [42.742, 15.768], [42.741, 15.781], [42.757, 15.788], [42.764, 15.808], [42.781, 15.821], [42.781, 15.833], [42.788, 15.846], [42.798, 15.851], [42.811, 15.867], [42.818, 15.904], [42.817, 15.93], [42.822, 15.938], [42.828, 15.977], [42.826, 16.001], [42.838, 16.026], [42.833, 16.044], [42.84, 16.057], [42.832, 16.08], [42.825, 16.089], [42.83, 16.104], [42.818, 16.131], [42.821, 16.145], [42.818, 16.172], [42.827, 16.18], [42.82, 16.199], [42.808, 16.21], [42.812, 16.214], [42.801, 16.236], [42.805, 16.247], [42.804, 16.268], [42.794, 16.282], [42.794, 16.295], [42.789, 16.301], [42.797, 16.323], [42.786, 16.351], [42.787, 16.359], [42.775, 16.366], [42.766, 16.387], [42.772, 16.404]]]]}}