{"type": "Feature", "properties": {"name": "Limassol", "iso2": "CY-02", "admin_level": 5, "osm_id": 2087230, "countrylevel_id": "iso2:CY-02", "osm_data": {"localname": "Λεμεσός", "official_name": "Επαρχία Λεμεσού - Limasol kazası", "alltags": {"name:ar": "ليماسول", "name:el": "Λεμεσός", "name:en": "Limassol", "name:fr": "Limassol", "name:hy": "Լիմասոլ", "name:ru": "Лимасол", "name:tr": "Limasol", "alt_name": "Lemesos", "int_name": "Limassol", "alt_name:ru": "Лемессос", "alt_name:tr": "Leymosun", "official_name": "Επαρχία Λεμεσού - Limasol kazası", "official_name:ar": "منطقة ليماسول", "official_name:el": "Επαρχία Λεμεσού", "official_name:en": "Limassol District", "official_name:fr": "District de Limassol", "official_name:tr": "Limasol kazası"}}, "center_lat": 34.78, "center_lon": 32.94, "timezone": "Asia/Nicosia", "population": 235230, "wikidata_id": "Q59150", "wikipedia_id": "en:Limassol District"}, "geometry": {"type": "MultiPolygon", "coordinates": [[[[33.039, 34.667], [33.039, 34.667], [33.039, 34.667], [33.039, 34.667]]], [[[33.037, 34.666], [33.037, 34.666], [33.037, 34.666], [33.037, 34.666]]], [[[33.038, 34.669], [33.038, 34.669], [33.038, 34.669], [33.038, 34.669]]], [[[32.648, 34.658], [32.774, 34.905], [33.136, 34.884], [33.277, 34.719], [32.648, 34.658]]]]}}