{"type": "Feature", "properties": {"name": "Paphos", "iso2": "CY-05", "admin_level": 5, "osm_id": 3263729, "countrylevel_id": "iso2:CY-05", "osm_data": {"localname": "Πάφος", "official_name": "Επαρχία Πάφου - Baf kazası", "alltags": {"name:ar": "بافوس", "name:el": "Πάφος", "name:en": "Paphos", "name:fr": "Paphos", "name:lt": "Pafosas", "name:mk": "Пафос", "name:pl": "Pafos", "name:ru": "Пафос", "name:sl": "Pafos", "name:tr": "Baf", "alt_name": "Baf", "int_name": "Paphos", "alt_name:tr": "Gazibaf", "official_name": "Επαρχία Πάφου - Baf kazası", "official_name:ar": "منطقة بافوس", "official_name:de": "Bezirk Paphos", "official_name:el": "Επαρχία Πάφου", "official_name:en": "Paphos District", "official_name:fr": "District de Paphos", "official_name:tr": "Baf kazası"}}, "center_lat": 34.95, "center_lon": 32.56, "timezone": "Asia/Nicosia", "population": 88276, "wikidata_id": "Q59133", "wikipedia_id": "en:Paphos District"}, "geometry": {"type": "MultiPolygon", "coordinates": [[[[32.31, 34.899], [32.31, 34.899], [32.31, 34.899], [32.31, 34.899]]], [[[32.323, 34.887], [32.323, 34.887], [32.323, 34.887], [32.323, 34.887]]], [[[32.569, 35.17], [32.774, 34.905], [32.648, 34.658], [32.285, 35.106], [32.569, 35.17]]], [[[32.334, 35.075], [32.334, 35.075], [32.334, 35.075], [32.334, 35.075]]], [[[32.308, 35.083], [32.308, 35.083], [32.308, 35.083], [32.308, 35.083]]]]}}