{"type": "Feature", "properties": {"name": "Famagusta", "iso2": "CY-04", "admin_level": 5, "osm_id": 3264447, "countrylevel_id": "iso2:CY-04", "osm_data": {"localname": "Αμμόχωστος - Mağusa", "official_name": "Επαρχία Αμμοχώστου - Mağusa kazası", "alltags": {"name:ar": "الماغوصة", "name:ca": "Famagusta", "name:da": "Famagusta", "name:el": "Αμμόχωστος", "name:en": "Famagusta", "name:fr": "Famagouste", "name:he": "פמגוסטה", "name:it": "Famagosta", "name:oc": "Famagosta", "name:pl": "Famagusta", "name:ru": "Фамагуста", "name:tr": "Mağusa", "name:uk": "Фамагуста", "int_name": "Famagusta", "alt_name:ar": "فاماغوستا;منطقة فاماغوستا", "alt_name:tr": "Gazimağusa", "description": "This fomal district is partitioned between two governing states", "official_name": "Επαρχία Αμμοχώστου - Mağusa kazası", "official_name:ar": "منطقة الماغوصة", "official_name:el": "Επαρχία Αμμοχώστου", "official_name:en": "Famagusta District", "official_name:fr": "District de Famagouste", "official_name:tr": "Mağusa kazası"}}, "center_lat": 35.29, "center_lon": 33.91, "timezone": "Asia/Famagusta", "population": 46629, "wikidata_id": "Q59148", "wikipedia_id": "en:Famagusta District"}, "geometry": {"type": "MultiPolygon", "coordinates": [[[[34.171, 35.558], [34.171, 35.558], [34.171, 35.558], [34.171, 35.558]]], [[[33.951, 35.124], [33.951, 35.124], [33.951, 35.124], [33.951, 35.124]]], [[[33.946, 35.135], [33.946, 35.135], [33.946, 35.135], [33.946, 35.135]]], [[[33.68, 35.059], [33.595, 35.108], [33.554, 35.275], [33.649, 35.358], [34.589, 35.695], [33.907, 35.258], [34.079, 34.986], [33.68, 35.059]]], [[[34.183, 35.564], [34.183, 35.564], [34.183, 35.564], [34.183, 35.564]]], [[[34.42, 35.648], [34.42, 35.648], [34.42, 35.648], [34.42, 35.648]]], [[[34.589, 35.695], [34.589, 35.695], [34.589, 35.695], [34.589, 35.695]]], [[[34.592, 35.697], [34.592, 35.697], [34.592, 35.697], [34.592, 35.697]]], [[[34.596, 35.698], [34.596, 35.698], [34.596, 35.698], [34.596, 35.698]]], [[[34.599, 35.702], [34.599, 35.702], [34.599, 35.702], [34.599, 35.702]]], [[[34.601, 35.704], [34.601, 35.704], [34.601, 35.704], [34.601, 35.704]]], [[[34.605, 35.71], [34.605, 35.71], [34.605, 35.71], [34.605, 35.71]]]]}}