{"type": "Feature", "properties": {"name": "Santa Fe", "iso2": "AR-S", "admin_level": 4, "osm_id": 153543, "countrylevel_id": "iso2:AR-S", "osm_data": {"localname": "Santa Fe", "official_name": "Provincia de Santa Fe", "alltags": {"name:ar": "سانتا في", "name:el": "Σάντα Φε", "name:fa": "سانتافه", "name:he": "סנטה פה", "name:ja": "サンタフェ州", "name:ru": "Санта-Фе", "name:uk": "Санта-Фе", "name:ur": "سانتا فے", "name:azb": "سانتا فه", "name:pnb": "سانتا فے", "short_name": "Sta. Fe", "official_name": "Provincia de Santa Fe"}}, "center_lat": -30.69, "center_lon": -60.94, "timezone": "America/Argentina/Cordoba", "population": 3397532, "wikidata_id": "Q44823", "wikipedia_id": "es:Provincia de Santa Fe"}, "geometry": {"type": "MultiPolygon", "coordinates": [[[[-62.884, -34.386], [-61.718, -34.386], [-60.819, -33.54], [-60.523, -33.649], [-60.26, -33.262], [-60.667, -32.912], [-60.771, -32.522], [-60.677, -31.82], [-60.112, -31.408], [-59.628, -30.695], [-59.674, -30.344], [-59.602, -29.391], [-59.218, -29.058], [-58.902, -28.084], [-58.899, -28.001], [-61.712, -27.999], [-62.131, -30.48], [-61.843, -30.747], [-62.127, -31.617], [-62.197, -32.115], [-61.913, -32.5], [-61.788, -33.006], [-62.884, -34.386]]]]}}