{"type": "Feature", "properties": {"name": "Santa Cruz Province, Argentina", "iso2": "AR-Z", "admin_level": 4, "osm_id": 153549, "countrylevel_id": "iso2:AR-Z", "osm_data": {"localname": "Santa Cruz", "official_name": "", "alltags": {"name:ar": "محافظة سانتا كروز", "name:ay": "Santa Crus jisk'a suyu", "name:be": "Санта-Крус", "name:bg": "Санта Крус", "name:br": "Proviñs Santa Cruz", "name:ca": "Província de Santa Cruz", "name:cs": "Santa Cruz", "name:cy": "Talaith Santa Cruz", "name:da": "Santa Cruz", "name:el": "Σάντα Κρουζ", "name:en": "Santa Cruz Province, Argentina", "name:eo": "Provinco Santa Cruz", "name:et": "Santa Cruzi provints", "name:eu": "Santa Cruzko probintzia", "name:fa": "استان سانتا کروس، آرژانتین", "name:fi": "Santa Cruzin maakunta", "name:fr": "Province de Santa Cruz", "name:gl": "Provincia de Santa Cruz", "name:gn": "Tetãvore Santa Cruz", "name:he": "סנטה קרוס", "name:hi": "सैन्ता क्रुज प्रान्त, अर्जेन्टीना", "name:hu": "Santa Cruz tartomány", "name:hy": "Սանտա Կրուս", "name:id": "Provinsi Santa Cruz", "name:it": "Provincia di Santa Cruz", "name:ja": "サンタクルス州", "name:ka": "სანტა-კრუსის პროვინცია", "name:ko": "산타크루스주", "name:lb": "Provënz Santa Cruz", "name:lt": "Santa Kruso provincija", "name:lv": "Santakrusas province", "name:mk": "Санта Круз", "name:mr": "सांता क्रुझ", "name:ms": "Wilayah Santa Cruz", "name:nl": "Santa Cruz", "name:no": "Santa Cruz", "name:oc": "Província de Santa Cruz", "name:os": "Сантæ-Крус", "name:pl": "Santa Cruz", "name:pt": "Santa Cruz", "name:qu": "Santa Krus wamani", "name:ro": "Provincia Santa Cruz", "name:ru": "Санта-Крус", "name:sk": "Santa Cruz", "name:sl": "Santa Cruz", "name:sr": "Санта Круз", "name:sv": "Santa Cruz", "name:sw": "Mkoa wa Santa Cruz", "name:tg": "Санта-Крус", "name:th": "รัฐซานตากรุซ", "name:tl": "Lalawigan ng Santa Cruz", "name:tr": "Santa Cruz", "name:tt": "Санта-Крус", "name:uk": "Санта-Крус", "name:ur": "صوبہ سانتا کروز، ارجنٹائن", "name:vi": "Santa Cruz", "name:vo": "Santa Cruz", "name:zh": "圣克鲁斯省", "short_name": "SC"}}, "center_lat": -48.83, "center_lon": -69.96, "timezone": "America/Argentina/Rio_Gallegos", "population": 273964, "wikidata_id": "Q44821", "wikipedia_id": "es:Provincia de Santa Cruz"}, "geometry": {"type": "MultiPolygon", "coordinates": [[[[-65.905, -48.096], [-65.905, -48.096], [-65.905, -48.096], [-65.905, -48.096]]], [[[-66.059, -47.775], [-66.059, -47.775], [-66.059, -47.775], [-66.059, -47.775]]], [[[-65.94, -47.751], [-65.94, -47.751], [-65.94, -47.751], [-65.94, -47.751]]], [[[-65.931, -47.756], [-65.931, -47.756], [-65.931, -47.756], [-65.931, -47.756]]], [[[-65.969, -47.755], [-65.969, -47.755], [-65.969, -47.755], [-65.969, -47.755]]], [[[-66.004, -47.745], [-66.004, -47.745], [-66.004, -47.745], [-66.004, -47.745]]], [[[-69.085, -51.657], [-69.085, -51.657], [-69.085, -51.657], [-69.085, -51.657]]], [[[-69.033, -51.575], [-69.033, -51.575], [-69.033, -51.575], [-69.033, -51.575]]], [[[-69.238, -50.979], [-69.238, -50.979], [-69.238, -50.979], [-69.238, -50.979]]], [[[-68.363, -50.111], [-68.363, -50.111], [-68.363, -50.111], [-68.363, -50.111]]], [[[-68.447, -50.077], [-68.447, -50.077], [-68.447, -50.077], [-68.447, -50.077]]], [[[-67.748, -49.33], [-67.748, -49.33], [-67.748, -49.33], [-67.748, -49.33]]], [[[-67.748, -49.324], [-67.748, -49.324], [-67.748, -49.324], [-67.748, -49.324]]], [[[-67.732, -49.322], [-67.732, -49.322], [-67.732, -49.322], [-67.732, -49.322]]], [[[-67.71, -49.286], [-67.71, -49.286], [-67.71, -49.286], [-67.71, -49.286]]], [[[-67.724, -49.282], [-67.724, -49.282], [-67.724, -49.282], [-67.724, -49.282]]], [[[-68.433, -52.398], [-69.996, -52.001], [-71.923, -52], [-72.297, -51.699], [-72.402, -51.135], [-72.286, -50.66], [-73.07, -50.789], [-73.522, -50.154], [-73.451, -49.789], [-73.473, -49.205], [-73.098, -49.284], [-73.143, -49.212], [-72.531, -48.797], [-72.586, -48.487], [-72.226, -48.323], [-72.527, -47.939], [-72.343, -47.456], [-72.046, -47.34], [-71.949, -46.81], [-71.647, -46.689], [-71.916, -46.14], [-71.648, -46], [-67.596, -46], [-67.44, -46.548], [-66.78, -47.006], [-65.753, -47.198], [-65.833, -47.964], [-67.118, -48.679], [-67.803, -49.343], [-67.858, -49.967], [-68.88, -50.335], [-69.167, -50.981], [-68.433, -52.398]]]]}}