{"type": "Feature", "properties": {"name": "Autonomous Republic of Abkhazia", "iso2": "GE-AB", "admin_level": 4, "osm_id": 3572912, "countrylevel_id": "iso2:GE-AB", "osm_data": {"localname": "აფხაზეთის ავტონომიური რესპუბლიკა - Аҧсны Автономтә Республика", "official_name": "", "alltags": {"name:ab": "Аҧсны Автономтә Республика", "name:ca": "República Autònoma d'Abkhàzia", "name:en": "Autonomous Republic of Abkhazia", "name:es": "República Autónoma de Abjasia", "name:fr": "Gouvernement de la République autonome d'Abkhazie", "name:ka": "აფხაზეთის ავტონომიური რესპუბლიკა", "name:ru": "Автономная Республика Абхазия", "name:uk": "Абхазька Автономна Республіка"}}, "center_lat": 43.11, "center_lon": 41.14, "timezone": "Asia/Tbilisi", "wikidata_id": "Q2914461", "wikipedia_id": "ru:Абхазская Автономная Республика"}, "geometry": {"type": "MultiPolygon", "coordinates": [[[[40.008, 43.386], [40.091, 43.556], [40.713, 43.532], [41.583, 43.237], [42.081, 43.205], [41.868, 42.985], [41.949, 42.639], [41.55, 42.412], [41.465, 42.704], [41.035, 42.998], [40.281, 43.185], [40.008, 43.386]]]]}}