{"type": "Feature", "properties": {"name": "Samtskhe-Javakheti", "iso2": "GE-SJ", "admin_level": 4, "osm_id": 1996031, "countrylevel_id": "iso2:GE-SJ", "osm_data": {"localname": "სამცხე-ჯავახეთი", "official_name": "", "alltags": {"name:ab": "Самцхе-Џьавахеҭи", "name:ca": "Samtskhé-Txavtxètia", "name:en": "Samtskhe-Javakheti", "name:es": "Samtsje-Yavajeti", "name:fr": "Samtskhé-Djavakhétie", "name:ha": "Սամցխե-Ջավախք", "name:hy": "Սամցխե-Ջավախք", "name:it": "Samtskhe-Giavachezia", "name:ka": "სამცხე-ჯავახეთი", "name:ku": "Samtsxê-Cevaxêtî", "name:lt": "Samcchė-Džavachetija", "name:ru": "Самцхе-Джавахети", "name:tr": "Samtshe-Cavaheti", "name:uk": "Самцхе-Джавахеті мхаре", "int_name": "Samtskhe-Javakheti", "old_name": "მესხეთი", "population": "208000", "old_name:en": "Meskhetia", "addr:country": "GE"}}, "center_lat": 41.57, "center_lon": 43.33, "timezone": "Asia/Tbilisi", "wikidata_id": "Q19039", "wikipedia_id": "ka:სამცხე-ჯავახეთის მხარე"}, "geometry": {"type": "MultiPolygon", "coordinates": [[[[42.492, 41.8], [42.603, 41.585], [42.84, 41.589], [43.474, 41.123], [43.953, 41.166], [43.728, 41.711], [43.894, 41.767], [43.444, 41.937], [42.666, 41.831], [42.492, 41.8]]]]}}