{"type": "Feature", "properties": {"name": "Tbilisi", "iso2": "GE-TB", "admin_level": 4, "osm_id": 1996871, "countrylevel_id": "iso2:GE-TB", "osm_data": {"localname": "თბილისი", "official_name": "", "alltags": {"name:ab": "Қарҭ", "name:af": "Tbilisi", "name:am": "ትብሊሲ", "name:an": "Tbilisi", "name:ar": "تبليسي", "name:av": "Тбилиси", "name:az": "Tbilisi", "name:be": "Тбілісі", "name:bg": "Тбилиси", "name:bn": "তিবি‌লিসি", "name:bo": "ཁྲེ་བྷི་ལི་སི།", "name:br": "Tbilisi", "name:bs": "Tbilisi", "name:ca": "Tbilissi", "name:cs": "Tbilisi", "name:cv": "Тбилиси", "name:cy": "Tbilisi", "name:da": "Tbilisi", "name:el": "Τιφλίδα", "name:en": "Tbilisi", "name:eo": "Tbiliso", "name:es": "Tiflis", "name:et": "Thbilisi", "name:eu": "Tbilisi", "name:fa": "تفلیس", "name:fi": "Tbilisi", "name:fo": "Tbilisi", "name:fr": "Tbilissi", "name:fy": "Tbilisy", "name:gd": "Tbilisi", "name:gl": "Tbilisi", "name:gv": "Tbilisi", "name:he": "טביליסי", "name:hi": "थ्बिलिसि", "name:hr": "Tbilisi", "name:ht": "Tbilisi", "name:hu": "Tbiliszi", "name:hy": "Թբիլիսի", "name:id": "Tbilisi", "name:io": "Tbilisi", "name:is": "Tíblisi", "name:it": "Tbilisi", "name:ja": "トビリシ", "name:jv": "Tbilisi", "name:ka": "თბილისი", "name:kk": "Тбилиси", "name:ko": "트빌리시", "name:ku": "Tibîlîsî", "name:kv": "Тбилиси", "name:ky": "Тбилиси", "name:la": "Triphelis", "name:lt": "Tbilisis", "name:lv": "Tbilisi", "name:mi": "Tbilisi", "name:mk": "Тбилиси", "name:mn": "Тбилис", "name:mr": "त्बिलिसी", "name:ms": "Tbilisi", "name:nl": "Tbilisi", "name:nn": "Tbilisi", "name:no": "Tbilisi", "name:oc": "Tbilissi", "name:os": "Тбилис", "name:pl": "Tbilisi", "name:pt": "Tbilisi", "name:ro": "Tbilisi", "name:ru": "Тбилиси", "name:sc": "Tbilisi", "name:sh": "Tbilisi", "name:sk": "Tbilisi", "name:sl": "Tbilisi", "name:sq": "Tbilisi", "name:sr": "Тбилиси", "name:sv": "Tbilisi", "name:sw": "Tbilisi", "name:ta": "திபிலீசி", "name:tg": "Тбилисӣ", "name:th": "ทบิลิซิ", "name:tl": "Tbilisi", "name:ug": "تبىلىسى", "name:uk": "Тбілісі", "name:ur": "تبلیسی", "name:vi": "Tbilisi", "name:vo": "Tbilisi", "name:wo": "Tibilisi", "name:yi": "טביליסי", "name:yo": "Tbilisi", "name:zh": "第比利斯", "website": "http://tbilisi.gov.ge/", "int_name": "Tbilisi", "name:ace": "Tbilisi", "name:arc": "ܛܒܝܠܝܣܝ", "name:bcl": "Tbilisi", "name:ckb": "تبلیس", "name:diq": "Tıflis", "name:frp": "Tbilisi", "name:hif": "Tbilisi", "name:hsb": "Tbilisi", "name:kbd": "Тбилиси", "name:lbe": "Ттуплис", "name:lij": "Tiblisi", "name:lmo": "Tbilisi", "name:mhr": "Тбилиси", "name:mrj": "Тбилиси", "name:myv": "Тбилиси ош", "name:mzn": "تفلیس", "name:nah": "Tbilisi", "name:nan": "Tbilisi", "name:nov": "Tbilisi", "name:pam": "Tbilisi", "name:pms": "Tbilisi", "name:pnb": "تبلیسی", "name:sah": "Тбилиси", "name:scn": "Tbilisi", "name:sco": "Tbilisi", "name:szl": "Tbilisi", "name:udm": "Тбилиси", "name:vep": "Tbilisi", "name:war": "Tbilisi", "name:xmf": "ქართი", "old_name": "ტფილისი", "population": "1152500", "alt_name:ca": "Tiflis", "alt_name:ko": "뜨빌리씨", "name:simple": "Tbilisi", "old_name:en": "Tiflisi", "old_name:ru": "Тифлис", "addr:country": "GE", "name:bat-smg": "Tbėlėsis", "name:fiu-vro": "Thbilisi", "name:roa-tara": "Tbilisi", "name:be-tarask": "Тбілісі"}}, "center_lat": 41.75, "center_lon": 44.76, "timezone": "Asia/Tbilisi", "population": 1082400, "wikidata_id": "Q994", "wikipedia_id": "en:Tbilisi"}, "geometry": {"type": "MultiPolygon", "coordinates": [[[[44.9, 41.804], [44.618, 41.693], [44.9, 41.804], [44.9, 41.804]]]]}}