{"type": "Feature", "properties": {"name": "Jericho Governorate", "iso2": "PS-JRH", "admin_level": 5, "osm_id": 4733521, "countrylevel_id": "iso2:PS-JRH", "osm_data": {"localname": "محافظة أريحا", "official_name": "", "alltags": {"ref": "JRH", "name": "محافظة أريحا", "name:ar": "محافظة أريحا", "name:cs": "governorát Jericho", "name:de": "Gouvernement Jericho", "name:el": "Κυβερνείο Ιεριχούς", "name:en": "Jericho Governorate", "name:he": "נפת יריחו", "name:ru": "провинция Иерихон", "boundary": "administrative", "state_code": "JRH", "admin_level": "5", "sorting_name:cs": "Jericho"}}, "center_lat": 31.96, "center_lon": 35.47, "timezone": "Asia/Hebron", "population": 42320, "wikidata_id": "Q658527", "wikipedia_id": "en:Jericho Governorate"}, "geometry": {"type": "MultiPolygon", "coordinates": [[[[35.375, 31.835], [35.404, 31.843], [35.398, 31.887], [35.416, 31.9], [35.398, 31.954], [35.43, 31.99], [35.426, 32.044], [35.398, 32.057], [35.381, 32.095], [35.421, 32.108], [35.414, 32.157], [35.463, 32.178], [35.569, 32.191], [35.532, 32.107], [35.545, 32.082], [35.519, 32.036], [35.548, 31.969], [35.527, 31.923], [35.545, 31.871], [35.539, 31.816], [35.558, 31.76], [35.505, 31.763], [35.493, 31.739], [35.46, 31.784], [35.41, 31.772], [35.368, 31.791], [35.375, 31.835]]]]}}