{"type": "Feature", "properties": {"name": "Federal District", "iso2": "BR-DF", "admin_level": 4, "osm_id": 421151, "countrylevel_id": "iso2:BR-DF", "osm_data": {"localname": "Distrito Federal", "official_name": "", "alltags": {"flag": "https://upload.wikimedia.org/wikipedia/commons/3/3c/Bandeira_do_Distrito_Federal_%28Brasil%29.svg", "name:ar": "القطاع الفدرالي", "name:be": "Федэральная акруга", "name:bg": "Федерален окръг", "name:br": "Distrig kevreadel", "name:ca": "Districte Federal", "name:cz": "Federální distrikt", "name:en": "Federal District", "name:eo": "Federacia Distrikto", "name:es": "Distrito Federal", "name:et": "Liiduringkond", "name:eu": "Barruti Federala", "name:fa": "منطقه فدرال", "name:fr": "District fédéral", "name:he": "המחוז הפדרלי", "name:hr": "Federalni distrikt", "name:hy": "Դաշնային շրջան", "name:ia": "Districto Federal", "name:id": "Distrik Federal", "name:it": "Distretto Federale", "name:ja": "連邦直轄区", "name:ka": "ფედერალური ოლქი", "name:ko": "연방구", "name:kw": "Ranndir an Kesunyans", "name:la": "Pagus Foederalis", "name:lt": "Federalinė teritorija", "name:lv": "Federālais distrikts", "name:mk": "Федерален округ", "name:mr": "शासकीय जिल्हा", "name:ms": "Wilayah Persekutuan", "name:nl": "Federaal District", "name:oc": "Districte federal", "name:os": "Федералон зылд", "name:pl": "Dystrykt Federalny", "name:pt": "Distrito Federal", "name:qu": "Tantasqap", "name:ro": "Districtul Federal", "name:ru": "Федеральный округ", "name:sh": "Federalni distrikt", "name:sq": "Distrikti Federal", "name:sr": "Савезни дистрикт", "name:sv": "Federala distrikt", "name:tg": "Савезни дистрикт", "name:th": "เฟเดอรัลดิสตริกต์", "name:tr": "Federal Bölge", "name:uk": "Федеральний округ", "name:uz": "Federal okrugi", "name:vi": "Quận liên bang", "name:zh": "聯邦區", "website": "http://www.df.gov.br/", "alt_name": "Brasília", "short_name": "DF", "is_in:country": "Brazil", "IBGE:GEOCODIGO": "53"}}, "center_lat": -15.78, "center_lon": -47.8, "timezone": "America/Sao_Paulo", "population": 3039444, "wikidata_id": "Q119158", "wikipedia_id": "pt:Distrito Federal (Brasil)"}, "geometry": {"type": "MultiPolygon", "coordinates": [[[[-47.308, -16.05], [-47.31, -16.036], [-47.369, -16.003], [-47.379, -15.978], [-47.361, -15.925], [-47.374, -15.907], [-47.366, -15.827], [-47.313, -15.74], [-47.333, -15.632], [-47.322, -15.598], [-47.378, -15.576], [-47.418, -15.546], [-47.417, -15.5], [-48.201, -15.5], [-48.199, -15.622], [-48.235, -15.643], [-48.241, -15.705], [-48.211, -15.719], [-48.219, -15.766], [-48.285, -15.837], [-48.272, -15.884], [-48.276, -15.931], [-48.251, -15.955], [-48.278, -16.05], [-47.308, -16.05]]]]}}