{"type": "Feature", "properties": {"name": "West Macedonia Region", "iso2": "GR-C", "admin_level": 5, "osm_id": 956701, "countrylevel_id": "iso2:GR-C", "osm_data": {"localname": "Περιφέρεια Δυτικής Μακεδονίας", "official_name": "", "alltags": {"name:el": "Περιφέρεια Δυτικής Μακεδονίας", "name:en": "West Macedonia Region", "name:fr": "Macédoine-Occidentale", "name:mk": "Западна Македонија", "name:nl": "West-Macedonië", "name:ru": "периферия Западная Македония", "population": "283689", "contact:website": "http://www.pdm.gov.gr/"}}, "center_lat": 40.39, "center_lon": 21.47, "timezone": "Europe/Athens", "population": 269222, "wikidata_id": "Q165408", "wikipedia_id": "el:Περιφέρεια Δυτικής Μακεδονίας"}, "geometry": {"type": "MultiPolygon", "coordinates": [[[[21.118, 40.854], [21.242, 40.874], [21.503, 40.911], [21.789, 40.931], [21.822, 40.696], [21.906, 40.681], [22.115, 40.19], [21.864, 39.958], [21.296, 39.858], [21.004, 40.154], [20.78, 40.348], [20.789, 40.43], [21.056, 40.617], [20.984, 40.801], [21.118, 40.854]]]]}}