{"type": "Feature", "properties": {"name": "Ashgabat", "iso2": "TM-S", "admin_level": 4, "osm_id": 7328329, "countrylevel_id": "iso2:TM-S", "osm_data": {"localname": "Aşgabat", "official_name": "", "alltags": {"name:af": "Asjchabat", "name:am": "አሽጋባት", "name:ar": "عشق آباد", "name:az": "Aşqabad", "name:be": "Ашхабад", "name:bg": "Ашхабад", "name:bn": "আশখাবাদ", "name:bo": "ཨ་ཧྲི་ཁ་པད​།", "name:bs": "Ashgabat", "name:cs": "Ašchabad", "name:cy": "Ashgabat", "name:da": "Asjkhabad", "name:el": "Ασγκαμπάτ", "name:en": "Ashgabat", "name:eo": "Aŝgabato", "name:es": "Asjabad", "name:eu": "Ashgabat", "name:fa": "اشک آباد", "name:fi": "Ašgabat", "name:fr": "Achgabat", "name:fy": "Asjchabad", "name:gd": "Ashgabat", "name:gl": "Achkhabad - Aşgabat", "name:he": "אשגאבט", "name:hi": "अश्क़ाबाद", "name:hr": "Ašgabat", "name:ht": "Achgabat", "name:hy": "Աշխաբադ", "name:id": "Ashgabat", "name:ie": "Ashgabat", "name:io": "Ashgabat", "name:is": "Asgabat", "name:ja": "アシガバート", "name:ka": "აშხაბადი", "name:kk": "Ашғабад", "name:kn": "ಅಶ್ಗಾಬಾತ್", "name:ko": "아시가바트", "name:kv": "Ашхабад", "name:lb": "Aschchabad", "name:lt": "Ašchabadas", "name:lv": "Ašgabata", "name:mk": "Ашхабад", "name:ml": "അഷ്ഗാബാദ്", "name:mn": "Ашгабат", "name:mr": "अश्गाबाद", "name:ms": "Ashgabat", "name:nl": "Asjchabad", "name:nn": "Asjkhabad", "name:no": "Asjkhabad", "name:oc": "Ashgabat", "name:os": "Ашхабад", "name:pl": "Aszchabad", "name:pt": "Asgabate", "name:ru": "Ашхабад", "name:sk": "Ašchabad", "name:sl": "Ašhabad", "name:sq": "Aschgabat", "name:sr": "Ашхабад", "name:sv": "Asjchabad", "name:sw": "Ashgabat", "name:ta": "அசுகாபாத்", "name:tg": "Ишқобод", "name:th": "อาชกาบัต", "name:tl": "Ashgabat", "name:tr": "Aşkabat", "name:tt": "Ашкабад", "name:ug": "Ashxabad", "name:uk": "Ашґабат", "name:ur": "اشک آباد", "name:uz": "Ashxobod", "name:vi": "Ashgabat", "name:yi": "אשגאבאט", "name:yo": "Ashgabat", "name:zh": "阿什哈巴德", "name:ace": "Ashgabat", "name:arz": "عشق اباد", "name:ckb": "عیشقاباد", "name:crh": "Aşğabat", "name:dsb": "Ašchabad", "name:hif": "Ashgabat", "name:hsb": "Ašchabad", "name:koi": "Ашхабад", "name:mhr": "Ашхабад", "name:myv": "Ашхабад ош", "name:nan": "Ashgabat", "name:nov": "Ashgabat", "name:pms": "Ashgabat", "name:sah": "Ашгабат", "name:sco": "Ashgabat", "name:udm": "Ашхабад", "name:vep": "Ašhabad", "name:war": "Ashgabat", "name:wuu": "阿什哈巴德", "name:roa-rup": "Ashgabat", "is_in:country": "Turkmenistan", "name:be-tarask": "Ашгабад", "is_in:continent": "Asia", "is_in:country_code": "TM"}}, "center_lat": 37.96, "center_lon": 58.27, "timezone": "Asia/Ashgabat", "population": 1031992, "wikidata_id": "Q23438", "wikipedia_id": "en:Ashgabat"}, "geometry": {"type": "MultiPolygon", "coordinates": [[[[57.992, 37.981], [58.005, 37.972], [58.005, 37.954], [58.028, 37.941], [58.086, 37.88], [58.099, 37.886], [58.117, 37.877], [58.137, 37.895], [58.159, 37.897], [58.232, 37.873], [58.224, 37.851], [58.231, 37.846], [58.26, 37.844], [58.271, 37.849], [58.29, 37.842], [58.3, 37.828], [58.313, 37.827], [58.325, 37.807], [58.327, 37.789], [58.366, 37.774], [58.385, 37.781], [58.414, 37.771], [58.429, 37.771], [58.45, 37.789], [58.45, 37.813], [58.456, 37.826], [58.423, 37.843], [58.445, 37.863], [58.445, 37.881], [58.456, 37.892], [58.456, 37.907], [58.446, 37.913], [58.441, 37.944], [58.449, 37.955], [58.471, 37.957], [58.477, 37.975], [58.473, 37.988], [58.479, 38.006], [58.433, 38.04], [58.411, 38.092], [58.385, 38.083], [58.379, 38.092], [58.358, 38.103], [58.339, 38.105], [58.315, 38.103], [58.274, 38.102], [58.266, 38.099], [58.24, 38.075], [58.179, 38.103], [58.133, 38.104], [58.123, 38.083], [58.131, 38.053], [58.141, 38.041], [58.141, 38.008], [58.124, 38.015], [58.101, 38.034], [58.064, 38.042], [58.015, 38.043], [58.005, 38.025], [58.006, 38.002], [57.994, 38.002], [57.992, 37.981]]]]}}