{"type": "Feature", "properties": {"name": "Autonomous Republic of Adjara", "iso2": "GE-AJ", "admin_level": 4, "osm_id": 1995970, "countrylevel_id": "iso2:GE-AJ", "osm_data": {"localname": "აჭარის ავტონომიური რესპუბლიკა", "official_name": "", "alltags": {"name:ca": "Adjària", "name:en": "Autonomous Republic of Adjara", "name:es": "Ayaria", "name:fr": "Adjarie", "name:it": "Repubblica Autonoma Agiara", "name:ka": "აჭარის ავტონომიური რესპუბლიკა", "name:ku": "Komara Xweserî ya Acaristanê", "name:nl": "Adzjarië", "name:ru": "Аджарская Автономная Республика", "name:uk": "Аджарська Автономна Республіка", "population": "376016", "alt_name:ku": "Acaristan;Acarî"}}, "center_lat": 41.65, "center_lon": 42.09, "timezone": "Asia/Tbilisi", "population": 337000, "wikidata_id": "Q45693", "wikipedia_id": "ru:Аджария"}, "geometry": {"type": "MultiPolygon", "coordinates": [[[[41.768, 41.912], [41.784, 41.892], [41.836, 41.899], [41.88, 41.885], [41.911, 41.9], [41.958, 41.886], [41.964, 41.852], [42.084, 41.799], [42.122, 41.826], [42.198, 41.818], [42.218, 41.786], [42.27, 41.806], [42.357, 41.816], [42.397, 41.843], [42.441, 41.808], [42.492, 41.8], [42.521, 41.759], [42.493, 41.713], [42.522, 41.659], [42.574, 41.635], [42.603, 41.585], [42.577, 41.566], [42.573, 41.51], [42.513, 41.472], [42.52, 41.437], [42.439, 41.442], [42.4, 41.467], [42.274, 41.494], [42.203, 41.492], [42.159, 41.507], [42.085, 41.51], [42.043, 41.494], [41.953, 41.521], [41.911, 41.499], [41.881, 41.46], [41.824, 41.431], [41.71, 41.496], [41.666, 41.483], [41.547, 41.521], [41.56, 41.544], [41.572, 41.602], [41.617, 41.646], [41.674, 41.656], [41.719, 41.707], [41.769, 41.805], [41.778, 41.859], [41.768, 41.912]]]]}}