{"type": "Feature", "properties": {"name": "Guria", "iso2": "GE-GU", "admin_level": 4, "osm_id": 1995971, "countrylevel_id": "iso2:GE-GU", "osm_data": {"localname": "გურია", "official_name": "", "alltags": {"name:ca": "Gúria", "name:en": "Guria", "name:es": "Guria", "name:fr": "Gourie", "name:ka": "გურია", "name:ku": "Gûrya", "name:ru": "Гурия", "name:uk": "Гурія", "int_name": "Guria", "is_in:country": "Georgia", "is_in:continent": "Asia", "is_in:country_code": "GE"}}, "center_lat": 41.97, "center_lon": 42.15, "timezone": "Asia/Tbilisi", "population": 113000, "wikidata_id": "Q19038", "wikipedia_id": "en:Guria"}, "geometry": {"type": "MultiPolygon", "coordinates": [[[[41.716, 42.069], [41.711, 42.098], [41.754, 42.108], [41.781, 42.146], [41.869, 42.145], [41.946, 42.17], [42.028, 42.163], [42.073, 42.143], [42.116, 42.146], [42.133, 42.116], [42.225, 42.121], [42.227, 42.07], [42.299, 42.038], [42.352, 42.065], [42.397, 42.059], [42.419, 42], [42.473, 41.989], [42.515, 41.96], [42.58, 41.943], [42.636, 41.944], [42.669, 41.899], [42.666, 41.831], [42.636, 41.836], [42.588, 41.794], [42.492, 41.8], [42.441, 41.808], [42.397, 41.843], [42.357, 41.816], [42.27, 41.806], [42.218, 41.786], [42.198, 41.818], [42.122, 41.826], [42.084, 41.799], [41.964, 41.852], [41.958, 41.886], [41.911, 41.9], [41.88, 41.885], [41.836, 41.899], [41.784, 41.892], [41.768, 41.912], [41.757, 42.007], [41.716, 42.069]]]]}}