{"type": "Feature", "properties": {"name": "Imereti", "iso2": "GE-IM", "admin_level": 4, "osm_id": 1997289, "countrylevel_id": "iso2:GE-IM", "osm_data": {"localname": "იმერეთი", "official_name": "", "alltags": {"name:ab": "Имереҭи", "name:ca": "Imerètia", "name:en": "Imereti", "name:es": "Imericia", "name:fr": "Iméréthie", "name:it": "Imerezia", "name:ku": "Îmêretî", "name:ru": "Имеретия", "name:uk": "Імереті", "int_name": "Imereti"}}, "center_lat": 42.18, "center_lon": 42.95, "timezone": "Asia/Tbilisi", "population": 532900, "wikidata_id": "Q200045", "wikipedia_id": "en:Imereti"}, "geometry": {"type": "MultiPolygon", "coordinates": [[[[42.666, 41.831], [42.75, 41.809], [42.801, 41.839], [42.879, 41.822], [42.912, 41.833], [42.957, 41.81], [42.996, 41.837], [43.069, 41.832], [43.176, 41.845], [43.36, 41.899], [43.444, 41.937], [43.423, 41.967], [43.488, 42.005], [43.505, 42.089], [43.534, 42.094], [43.579, 42.132], [43.628, 42.202], [43.598, 42.21], [43.616, 42.279], [43.67, 42.307], [43.662, 42.334], [43.595, 42.354], [43.623, 42.386], [43.594, 42.404], [43.591, 42.44], [43.51, 42.458], [43.487, 42.439], [43.395, 42.457], [43.303, 42.461], [43.242, 42.437], [43.186, 42.389], [43.145, 42.375], [43.056, 42.37], [42.95, 42.413], [42.977, 42.44], [42.92, 42.481], [42.829, 42.502], [42.794, 42.483], [42.745, 42.511], [42.688, 42.474], [42.64, 42.467], [42.618, 42.564], [42.53, 42.548], [42.463, 42.472], [42.451, 42.412], [42.369, 42.336], [42.357, 42.307], [42.284, 42.234], [42.299, 42.124], [42.287, 42.105], [42.225, 42.121], [42.227, 42.07], [42.299, 42.038], [42.352, 42.065], [42.397, 42.059], [42.419, 42], [42.473, 41.989], [42.515, 41.96], [42.58, 41.943], [42.636, 41.944], [42.669, 41.899], [42.666, 41.831]]]]}}