{"type": "Feature", "properties": {"name": "Federally Administered Tribal Areas", "iso2": "PK-TA", "admin_level": 3, "osm_id": 358004, "countrylevel_id": "iso2:PK-TA", "osm_data": {"localname": "وفاقی قبائلی علاقہ جات", "official_name": "", "alltags": {"name:ar": "المناطق القبلية الخاضعة للإدارة الاتحادية", "name:en": "Federally Administered Tribal Areas", "name:es": "Áreas tribales", "name:fr": "Régions tribales", "name:ja": "連邦直轄部族地域", "name:lt": "Federaciškai valdomos genčių žemės", "name:pl": "Terytoria Plemienne Administrowane Federalnie", "name:ru": "Федерально управляемые племенные территории", "name:ur": "وفاقی قبائلی علاقہ جات", "name:vi": "Các khu vực Hành chính Bộ lạc Liên bang", "name:zh": "联邦直辖部落地区", "border_type": "province", "is_in:country": "Pakistan", "is_in:continent": "Asia", "is_in:country_code": "PK"}}, "center_lat": 33.21, "center_lon": 70.4, "timezone": "Asia/Karachi", "population": 4452913, "wikidata_id": "Q208270", "wikipedia_id": "en:Federally Administered Tribal Areas"}, "geometry": {"type": "MultiPolygon", "coordinates": [[[[69.331, 31.925], [69.84, 32.065], [69.983, 31.334], [70.205, 31.474], [70.217, 31.067], [70.37, 31.246], [70.055, 32.166], [70.143, 32.587], [70.523, 33.054], [70.765, 33.071], [70.521, 33.424], [71.166, 33.642], [71.718, 33.548], [71.401, 34.126], [71.792, 34.763], [71.512, 34.975], [71.025, 34.56], [71.083, 34.064], [70.547, 33.943], [69.904, 34.04], [70.012, 33.729], [70.309, 33.338], [69.496, 33.021], [69.24, 32.464], [69.331, 31.925]]]]}}