{"type": "Feature", "properties": {"name": "Utena County", "iso2": "LT-UT", "admin_level": 4, "osm_id": 966958, "countrylevel_id": "iso2:LT-UT", "osm_data": {"localname": "Utenos apskritis", "official_name": "", "alltags": {"name:ar": "مقاطعة أوتينا", "name:be": "Уцянскі павет", "name:bg": "Утенски окръг", "name:bs": "Okrug Utena", "name:ca": "Comtat d'Utena", "name:cs": "Utenský kraj", "name:el": "Επαρχία Ουτενά", "name:en": "Utena County", "name:eo": "Distrikto Utena", "name:es": "Provincia de Utena", "name:et": "Utena maakond", "name:eu": "Utenako konderria", "name:fa": "شهرستان اوتنا", "name:fi": "Utenan lääni", "name:fr": "Apskritis d'Utena", "name:ga": "Contae Utena", "name:he": "מחוז אוטנה", "name:hr": "Okrug Utena", "name:it": "Contea di Utena", "name:ja": "ウテナ郡", "name:ka": "უტენის მაზრა", "name:ko": "우테나 주", "name:kw": "Konteth Utena", "name:lt": "Utenos apskritis", "name:lv": "Utenas apriņķis", "name:no": "Utena fylke", "name:pl": "Okręg uciański", "name:pt": "Condado de Utena", "name:ro": "Județul Utena", "name:ru": "Утенский уезд", "name:sa": "उतेनमण्डलम्", "name:sh": "Okrug Utena", "name:sr": "Утенски округ", "name:sv": "Utena län", "name:sw": "Wilaya ya Utena", "name:tg": "Вилояти Утена", "name:uk": "Утенський повіт", "name:ur": "اوتینا کاؤنٹی", "name:zh": "烏田納縣", "name:pnb": "اوتینا کاؤنٹی", "name:sco": "Utena Coonty", "name:stq": "Distrikt Utena", "population": "152004", "geonames:id": "864484", "name:bat-smg": "Otenuos apskrėtės", "is_in:country": "Lithuania", "name:be-tarask": "Уцянскі павет", "is_in:continent": "Europe", "is_in:country_code": "LT"}}, "center_lat": 55.5, "center_lon": 25.71, "timezone": "Europe/Vilnius", "population": 137260, "wikidata_id": "Q188659", "wikipedia_id": "lt:Utenos apskritis"}, "geometry": {"type": "MultiPolygon", "coordinates": [[[[24.654, 55.518], [25.073, 55.313], [25.169, 55.152], [25.222, 55.043], [25.526, 55.041], [25.734, 55.305], [25.865, 55.303], [26.745, 55.255], [26.632, 55.608], [26.63, 55.681], [26.231, 55.813], [26.046, 55.945], [25.686, 55.715], [25.519, 55.72], [25.365, 55.762], [24.715, 55.721], [24.654, 55.518]]]]}}