{"type": "Feature", "properties": {"name": "Vukovar-Syrmia County", "iso2": "HR-16", "admin_level": 6, "osm_id": 222649, "countrylevel_id": "iso2:HR-16", "osm_data": {"localname": "Vukovarsko-srijemska županija", "official_name": "", "alltags": {"name:ca": "Comtat de Vukovar-Srijem", "name:en": "Vukovar-Syrmia County", "name:fr": "Comitat de Vukovar-Syrmie", "name:hr": "Vukovarsko-srijemska županija", "name:lt": "Vukovaro–Srijemo apskritis", "name:ru": "Вуковарско-Сремская жупания", "name:sr": "Вуковарско-сремска жупанија", "name:sr-Latn": "Vukovarsko-sremska županija"}}, "center_lat": 45.16, "center_lon": 18.89, "timezone": "Europe/Zagreb", "population": 179521, "wikidata_id": "Q58225", "wikipedia_id": "hr:Vukovarsko-srijemska županija"}, "geometry": {"type": "MultiPolygon", "coordinates": [[[[18.532, 45.091], [18.786, 44.966], [19.005, 44.855], [19.019, 44.855], [19.087, 45.145], [19.424, 45.167], [19.26, 45.243], [19.197, 45.265], [19.056, 45.344], [19.006, 45.357], [19.004, 45.435], [18.522, 45.232], [18.532, 45.091]]]]}}