{"type": "Feature", "properties": {"name": "Umbria", "iso2": "IT-55", "admin_level": 4, "osm_id": 42004, "countrylevel_id": "iso2:IT-55", "osm_data": {"localname": "Umbria", "official_name": "", "alltags": {"name:ca": "Úmbria", "name:cs": "Umbrie", "name:en": "Umbria", "name:eo": "Umbrio", "name:es": "Umbría", "name:fr": "Ombrie", "name:it": "Umbria", "name:ja": "ウンブリア州", "name:nl": "Umbrië", "name:pl": "Umbria", "name:pt": "Úmbria", "name:ru": "Умбрия", "name:sc": "Ùmbria", "name:sl": "Umbrija", "name:fur": "Umbrie", "ref:ISTAT": "10"}}, "center_lat": 42.97, "center_lon": 12.49, "timezone": "Europe/Rome", "population": 882015, "wikidata_id": "Q1280", "wikipedia_id": "it:Umbria"}, "geometry": {"type": "MultiPolygon", "coordinates": [[[[11.895, 42.835], [11.931, 42.778], [11.979, 42.765], [11.969, 42.735], [11.926, 42.704], [12.03, 42.643], [12.161, 42.677], [12.243, 42.628], [12.242, 42.569], [12.275, 42.56], [12.276, 42.516], [12.351, 42.474], [12.395, 42.499], [12.428, 42.487], [12.422, 42.422], [12.464, 42.429], [12.445, 42.399], [12.466, 42.395], [12.488, 42.399], [12.512, 42.403], [12.531, 42.365], [12.614, 42.414], [12.621, 42.469], [12.674, 42.442], [12.742, 42.471], [12.711, 42.501], [12.774, 42.513], [12.893, 42.564], [12.896, 42.616], [13.06, 42.624], [13.131, 42.66], [13.175, 42.667], [13.19, 42.734], [13.193, 42.759], [13.246, 42.768], [13.264, 42.81], [13.235, 42.868], [13.212, 42.842], [13.161, 42.832], [13.112, 42.889], [13.054, 42.92], [13.001, 42.913], [12.989, 42.869], [12.977, 42.926], [12.896, 42.965], [12.888, 43.01], [12.907, 43.035], [12.881, 43.121], [12.843, 43.122], [12.831, 43.147], [12.863, 43.166], [12.862, 43.211], [12.837, 43.218], [12.825, 43.267], [12.789, 43.284], [12.794, 43.334], [12.75, 43.378], [12.775, 43.402], [12.767, 43.46], [12.735, 43.464], [12.709, 43.425], [12.663, 43.437], [12.623, 43.424], [12.563, 43.461], [12.517, 43.509], [12.438, 43.538], [12.4, 43.51], [12.367, 43.534], [12.313, 43.543], [12.373, 43.584], [12.357, 43.617], [12.307, 43.59], [12.225, 43.593], [12.214, 43.611], [12.163, 43.56], [12.153, 43.532], [12.103, 43.53], [12.09, 43.503], [12.145, 43.479], [12.081, 43.433], [12.057, 43.438], [12.033, 43.4], [12.077, 43.402], [12.073, 43.37], [12.133, 43.348], [12.125, 43.306], [12.185, 43.293], [12.185, 43.294], [12.225, 43.296], [12.148, 43.254], [12.086, 43.236], [12.048, 43.253], [12.028, 43.191], [11.962, 43.167], [11.912, 43.128], [11.936, 43.056], [11.981, 43.056], [11.933, 42.908], [11.952, 42.901], [11.959, 42.874], [11.933, 42.869], [11.895, 42.835]]], [[[12.408, 43.602], [12.408, 43.602], [12.408, 43.602], [12.408, 43.602]]]]}}