{"type": "Feature", "properties": {"name": "Molise", "iso2": "IT-67", "admin_level": 4, "osm_id": 41256, "countrylevel_id": "iso2:IT-67", "osm_data": {"localname": "Molise", "official_name": "", "alltags": {"name:ca": "Molise", "name:cs": "Molise", "name:en": "Molise", "name:fr": "Molise", "name:it": "Molise", "name:ja": "モリーゼ州", "name:nl": "Molise", "name:pl": "Molise", "name:ru": "Молизе", "name:sc": "Molise", "name:sl": "Molize", "name:scn": "Mulisi", "ref:ISTAT": "14", "short_name": "MOL"}}, "center_lat": 41.69, "center_lon": 14.6, "timezone": "Europe/Rome", "population": 304285, "wikidata_id": "Q1443", "wikipedia_id": "it:Molise"}, "geometry": {"type": "MultiPolygon", "coordinates": [[[[13.941, 41.688], [14.019, 41.682], [14.053, 41.702], [14.07, 41.738], [14.108, 41.708], [14.122, 41.747], [14.16, 41.748], [14.171, 41.78], [14.148, 41.828], [14.216, 41.853], [14.23, 41.877], [14.285, 41.912], [14.325, 41.897], [14.359, 41.861], [14.378, 41.881], [14.448, 41.832], [14.485, 41.76], [14.568, 41.818], [14.619, 41.892], [14.663, 41.916], [14.67, 41.948], [14.728, 42.004], [14.783, 42.036], [14.779, 42.07], [14.867, 42.032], [14.995, 42.005], [15.081, 41.942], [15.139, 41.928], [15.14, 41.88], [15.1, 41.834], [15.116, 41.791], [15.098, 41.767], [15.121, 41.72], [15.162, 41.71], [15.105, 41.674], [15.049, 41.656], [15.027, 41.624], [14.961, 41.647], [14.935, 41.62], [14.951, 41.594], [14.941, 41.525], [15.008, 41.486], [14.952, 41.458], [14.846, 41.426], [14.785, 41.452], [14.765, 41.417], [14.717, 41.401], [14.664, 41.407], [14.603, 41.364], [14.567, 41.392], [14.505, 41.383], [14.478, 41.419], [14.383, 41.443], [14.328, 41.454], [14.28, 41.487], [14.175, 41.502], [14.167, 41.48], [14.126, 41.508], [14.079, 41.448], [14.112, 41.387], [14.043, 41.394], [13.978, 41.462], [13.978, 41.501], [14.027, 41.523], [14.024, 41.561], [13.998, 41.579], [14.012, 41.608], [13.988, 41.656], [13.941, 41.688]]]]}}