{"type": "Feature", "properties": {"name": "Abruzzo", "iso2": "IT-65", "admin_level": 4, "osm_id": 53937, "countrylevel_id": "iso2:IT-65", "osm_data": {"localname": "Abruzzo", "official_name": "", "alltags": {"name:ca": "Abruços", "name:cs": "Abruzzo", "name:en": "Abruzzo", "name:es": "Abruzos", "name:fr": "Abruzzes", "name:it": "Abruzzo", "name:ja": "アブルッツォ州", "name:nl": "Abruzzen", "name:pl": "Abruzja", "name:ru": "Абруццо", "name:sc": "Abrutzu", "name:sl": "Abruci", "name:scn": "Abbruzzi", "ref:ISTAT": "13", "short_name": "ABR"}}, "center_lat": 42.23, "center_lon": 13.85, "timezone": "Europe/Rome", "population": 1308451, "wikidata_id": "Q1284", "wikipedia_id": "it:Abruzzo"}, "geometry": {"type": "MultiPolygon", "coordinates": [[[[13.031, 42.116], [13.061, 42.124], [13.125, 42.177], [13.25, 42.128], [13.306, 42.139], [13.349, 42.177], [13.381, 42.181], [13.293, 42.233], [13.23, 42.288], [13.227, 42.32], [13.154, 42.358], [13.19, 42.401], [13.117, 42.445], [13.179, 42.48], [13.157, 42.541], [13.192, 42.588], [13.285, 42.583], [13.292, 42.572], [13.395, 42.592], [13.409, 42.644], [13.351, 42.67], [13.359, 42.695], [13.389, 42.687], [13.441, 42.727], [13.504, 42.747], [13.535, 42.817], [13.572, 42.8], [13.621, 42.816], [13.641, 42.803], [13.699, 42.823], [13.726, 42.856], [13.916, 42.895], [13.947, 42.799], [13.996, 42.709], [14.057, 42.625], [14.146, 42.53], [14.254, 42.445], [14.409, 42.358], [14.438, 42.315], [14.508, 42.253], [14.623, 42.198], [14.717, 42.172], [14.718, 42.108], [14.779, 42.07], [14.783, 42.036], [14.728, 42.004], [14.67, 41.948], [14.663, 41.916], [14.619, 41.892], [14.568, 41.818], [14.485, 41.76], [14.448, 41.832], [14.378, 41.881], [14.359, 41.861], [14.325, 41.897], [14.285, 41.912], [14.23, 41.877], [14.216, 41.853], [14.148, 41.828], [14.171, 41.78], [14.16, 41.748], [14.122, 41.747], [14.108, 41.708], [14.07, 41.738], [14.053, 41.702], [14.019, 41.682], [13.941, 41.688], [13.895, 41.734], [13.881, 41.728], [13.762, 41.75], [13.716, 41.797], [13.648, 41.811], [13.628, 41.781], [13.576, 41.755], [13.52, 41.773], [13.502, 41.801], [13.407, 41.838], [13.368, 41.83], [13.358, 41.869], [13.384, 41.904], [13.296, 41.949], [13.105, 42.027], [13.055, 42.017], [13.019, 42.076], [13.031, 42.116]]]]}}