{"type": "Feature", "properties": {"name": "Basilicata", "iso2": "IT-77", "admin_level": 4, "osm_id": 40137, "countrylevel_id": "iso2:IT-77", "osm_data": {"localname": "Basilicata", "official_name": "", "alltags": {"name:ca": "Basilicata", "name:cs": "Basilicata", "name:en": "Basilicata", "name:eo": "Basilikato", "name:fr": "Basilicate", "name:it": "Basilicata", "name:ja": "バジリカータ州", "name:nl": "Basilicata", "name:pl": "Basilicata", "name:ru": "Базиликата", "name:sc": "Basilicata", "name:sl": "Bazilikata", "name:fur": "Lucanie", "ref:ISTAT": "17", "short_name": "BAS"}}, "center_lat": 40.5, "center_lon": 16.08, "timezone": "Europe/Rome", "population": 562869, "wikidata_id": "Q1452", "wikipedia_id": "it:Basilicata"}, "geometry": {"type": "MultiPolygon", "coordinates": [[[[16.635, 40.755], [16.635, 40.755], [16.635, 40.755], [16.635, 40.755]]], [[[15.743, 39.934], [15.743, 39.934], [15.743, 39.934], [15.743, 39.934]]], [[[15.715, 39.967], [15.715, 39.967], [15.715, 39.967], [15.715, 39.967]]], [[[15.335, 40.835], [15.378, 40.841], [15.375, 40.886], [15.445, 40.877], [15.527, 40.908], [15.572, 40.999], [15.543, 41.056], [15.588, 41.099], [15.683, 41.087], [15.753, 41.098], [15.8, 41.093], [15.835, 41.131], [15.871, 41.141], [15.977, 41.095], [16, 41.055], [16.039, 41.04], [16.033, 40.999], [15.977, 40.959], [16.094, 40.921], [16.122, 40.899], [16.164, 40.93], [16.203, 40.919], [16.245, 40.839], [16.401, 40.708], [16.431, 40.706], [16.502, 40.763], [16.539, 40.726], [16.577, 40.765], [16.634, 40.755], [16.726, 40.715], [16.71, 40.633], [16.729, 40.602], [16.707, 40.551], [16.738, 40.505], [16.736, 40.469], [16.804, 40.458], [16.81, 40.434], [16.867, 40.398], [16.784, 40.299], [16.733, 40.205], [16.681, 40.143], [16.646, 40.118], [16.586, 40.134], [16.531, 40.119], [16.472, 40.135], [16.41, 40.122], [16.399, 40.057], [16.399, 40.02], [16.339, 39.937], [16.214, 39.926], [16.215, 39.896], [16.159, 39.921], [16.139, 39.902], [16.054, 39.899], [16.008, 39.958], [16.031, 39.994], [15.98, 39.983], [15.923, 40.001], [15.899, 39.983], [15.821, 40.003], [15.775, 39.963], [15.756, 39.923], [15.736, 39.957], [15.645, 40.043], [15.706, 40.118], [15.702, 40.161], [15.797, 40.225], [15.792, 40.29], [15.744, 40.301], [15.705, 40.344], [15.71, 40.377], [15.587, 40.443], [15.579, 40.469], [15.538, 40.489], [15.55, 40.509], [15.539, 40.568], [15.451, 40.608], [15.502, 40.655], [15.381, 40.724], [15.388, 40.795], [15.335, 40.835]]]]}}