{"type": "Feature", "properties": {"name": "Amazonas", "iso2": "BR-AM", "admin_level": 4, "osm_id": 332476, "countrylevel_id": "iso2:BR-AM", "osm_data": {"localname": "Amazonas", "official_name": "", "alltags": {"flag": "https://upload.wikimedia.org/wikipedia/commons/6/6b/Bandeira_do_Amazonas.svg", "name:ar": "الأمازون", "name:be": "Амазонас", "name:bg": "Амазонас", "name:ca": "Amazones", "name:en": "Amazonas", "name:eo": "Amazonio", "name:fa": "آمازوناس", "name:he": "אמזונאס", "name:hi": "आमेज़ोनास", "name:hy": "Ամազոնաս", "name:ja": "アマゾナス", "name:ka": "ამაზონასი", "name:ko": "아마조나스", "name:la": "Amazones", "name:lt": "Amazonė", "name:lv": "Amazonasa", "name:mk": "Амазон", "name:mr": "अमेझोनास", "name:os": "Амазонас", "name:pl": "Amazonas", "name:pt": "Amazonas", "name:qu": "Amarumayu", "name:ru": "Амазонас", "name:sr": "Амазонас", "name:tg": "Амазонас", "name:th": "อามาโซนัส", "name:uk": "Амазонас", "name:zh": "亚马孙", "website": "http://www.amazonas.am.gov.br/", "short_name": "AM", "is_in:country": "Brazil", "IBGE:GEOCODIGO": "13"}}, "center_lat": -4.16, "center_lon": -64.66, "timezone": "America/Manaus", "population": 4063614, "wikidata_id": "Q40040", "wikipedia_id": "pt:Amazonas"}, "geometry": {"type": "MultiPolygon", "coordinates": [[[[-73.798, -7.113], [-72.585, -7.552], [-70.055, -7.845], [-68.647, -9.049], [-67.517, -9.56], [-66.806, -9.814], [-66.409, -9.407], [-65.73, -9.563], [-65.212, -9.279], [-65.143, -9.447], [-64.808, -8.986], [-64.142, -8.945], [-63.621, -7.969], [-62.866, -7.975], [-62.359, -8.407], [-62.124, -8.801], [-61.583, -8.798], [-58.5, -8.802], [-58.286, -8.066], [-58.381, -7.824], [-58.137, -7.348], [-58.481, -6.765], [-58.26, -6.467], [-56.402, -2.456], [-56.396, -2.18], [-56.685, -2.212], [-57.094, -1.778], [-57.705, -1.571], [-58.427, -1.028], [-58.872, -0.343], [-58.895, 0.263], [-60.037, 0.264], [-60.405, -0.515], [-60.31, -0.717], [-60.669, -0.888], [-61.096, -0.499], [-61.457, -0.654], [-61.604, -1.448], [-61.883, -1.4], [-62.031, -1.127], [-62.498, -0.779], [-62.188, -0.33], [-62.518, 0.444], [-62.471, 1.087], [-62.801, 1.587], [-62.705, 1.937], [-63.379, 2.213], [-64.061, 1.925], [-64.132, 1.576], [-64.756, 1.228], [-65.158, 1.125], [-65.442, 0.693], [-65.558, 0.992], [-66.31, 0.745], [-66.851, 1.229], [-67.087, 1.167], [-67.154, 1.831], [-67.391, 2.228], [-67.902, 1.812], [-68.19, 2.032], [-68.164, 1.729], [-69.843, 1.715], [-69.843, 1.073], [-69.321, 1.089], [-69.118, 0.655], [-69.48, 0.736], [-70.047, 0.563], [-70.043, -0.19], [-69.614, -0.499], [-69.433, -1.071], [-69.45, -1.53], [-69.948, -4.232], [-70.748, -4.161], [-70.934, -4.38], [-71.919, -4.53], [-72.87, -5.178], [-73.003, -5.731], [-73.248, -6.109], [-73.207, -6.577], [-73.638, -6.755], [-73.798, -7.113]]]]}}