{"type": "Feature", "properties": {"name": "Acre", "iso2": "BR-AC", "admin_level": 4, "osm_id": 326266, "countrylevel_id": "iso2:BR-AC", "osm_data": {"localname": "Acre", "official_name": "", "alltags": {"flag": "https://upload.wikimedia.org/wikipedia/commons/4/4c/Bandeira_do_Acre.svg", "name:ar": "أكري", "name:be": "Акры", "name:bg": "Акри", "name:en": "Acre", "name:eo": "Akro", "name:fa": "اکری", "name:gn": "Akre", "name:he": "אקרי", "name:hi": "आक्री", "name:hy": "Ակրի", "name:ja": "アクレ", "name:ka": "აკრი", "name:ko": "아크리", "name:lt": "Akrė", "name:lv": "Akri", "name:mk": "Акре", "name:ml": "അക്രേ", "name:mr": "आक्रे", "name:os": "Акри", "name:pl": "Acre", "name:pt": "Acre", "name:qu": "Aqri", "name:ru": "Акри", "name:sr": "Акре", "name:tg": "Акри", "name:th": "อาเกร", "name:uk": "Акрі", "name:uz": "Akri", "name:zh": "阿克里", "website": "http://www.ac.gov.br/", "short_name": "AC", "is_in:country": "Brazil", "IBGE:GEOCODIGO": "12"}}, "center_lat": -9.22, "center_lon": -70.47, "timezone": "America/Rio_Branco", "population": 881935, "wikidata_id": "Q40780", "wikipedia_id": "pt:Acre"}, "geometry": {"type": "MultiPolygon", "coordinates": [[[[-70.614, -9.917], [-70.614, -10.997], [-70.157, -11.042], [-69.572, -10.946], [-68.748, -11.009], [-68.715, -11.147], [-68.236, -10.961], [-68.002, -10.648], [-67.707, -10.71], [-66.62, -9.894], [-66.806, -9.814], [-67.517, -9.56], [-68.647, -9.049], [-70.055, -7.845], [-72.585, -7.552], [-73.798, -7.113], [-73.7, -7.321], [-73.983, -7.534], [-72.94, -9.093], [-73.2, -9.411], [-72.281, -9.542], [-72.181, -10], [-71.378, -10], [-70.998, -9.818], [-70.562, -9.429], [-70.614, -9.917]]]]}}