{"type": "Feature", "properties": {"name": "Goiás", "iso2": "BR-GO", "admin_level": 4, "osm_id": 334443, "countrylevel_id": "iso2:BR-GO", "osm_data": {"localname": "Goiás", "official_name": "", "alltags": {"flag": "https://upload.wikimedia.org/wikipedia/commons/0/0e/Bandeira_de_Goi%C3%A1s.svg", "name:ar": "غوياس", "name:be": "Гаяс", "name:bg": "Гояс", "name:en": "Goiás", "name:eo": "Gojaso", "name:fa": "گوییاس", "name:he": "גויאס", "name:hi": "गोइयास", "name:hy": "Գոյաս", "name:ja": "ゴイアス", "name:ka": "გოიასი", "name:ko": "고이아스", "name:la": "Goyas", "name:lt": "Gojasas", "name:lv": "Gojasa", "name:mk": "Гојаш", "name:mr": "गोयाएस", "name:os": "Гояс", "name:pl": "Goiás", "name:pt": "Goiás", "name:ru": "Гояс", "name:sh": "Gojas", "name:sr": "Гојас", "name:tg": "Гояс", "name:th": "โกยาส", "name:uk": "Гояс", "name:uz": "Goyas", "name:zh": "戈亚斯", "website": "http://www.goias.gov.br/", "short_name": "GO", "is_in:country": "Brazil", "IBGE:GEOCODIGO": "52"}}, "center_lat": -16.05, "center_lon": -49.63, "timezone": "America/Sao_Paulo", "population": 6778772, "wikidata_id": "Q41587", "wikipedia_id": "pt:Goiás"}, "geometry": {"type": "MultiPolygon", "coordinates": [[[[-53.073, -18.035], [-53.101, -18.31], [-52.761, -18.344], [-52.964, -18.55], [-51.056, -19.332], [-50.934, -19.467], [-50.496, -19.035], [-50.312, -18.69], [-49.376, -18.641], [-48.936, -18.306], [-48.279, -18.331], [-47.962, -18.496], [-47.284, -18.059], [-47.265, -17.612], [-47.541, -17.455], [-47.167, -17.048], [-47.446, -16.537], [-47.308, -16.05], [-48.278, -16.05], [-48.201, -15.5], [-47.417, -15.5], [-47.31, -16.036], [-46.824, -15.885], [-46.948, -15.557], [-46.918, -15.049], [-46.503, -15.052], [-46.503, -14.704], [-46.037, -14.874], [-45.907, -14.358], [-46.265, -14.096], [-46.276, -13.011], [-46.115, -12.917], [-46.75, -12.969], [-47.424, -13.289], [-47.646, -13.12], [-47.679, -13.467], [-48.143, -13.153], [-48.458, -13.282], [-48.87, -12.803], [-49.121, -12.79], [-49.369, -13.274], [-50.289, -12.835], [-50.219, -12.492], [-50.51, -12.862], [-50.665, -13.442], [-50.871, -13.733], [-50.831, -14.072], [-51.088, -14.922], [-51.65, -15.174], [-51.88, -15.825], [-52.254, -15.893], [-52.683, -16.302], [-52.605, -16.466], [-53.015, -16.862], [-53.25, -17.644], [-53.073, -18.035]]]]}}