{"type": "Feature", "properties": {"name": "Minas Gerais", "iso2": "BR-MG", "admin_level": 4, "osm_id": 315173, "countrylevel_id": "iso2:BR-MG", "osm_data": {"localname": "Minas Gerais", "official_name": "", "alltags": {"flag": "https://upload.wikimedia.org/wikipedia/commons/f/f4/Bandeira_de_Minas_Gerais.svg", "name:ar": "ميناس جيرايس", "name:be": "Мінас-Жэрайс", "name:bg": "Минас Жерайс", "name:en": "Minas Gerais", "name:eo": "Minas-Ĝerajso", "name:fa": "میناس گرایس", "name:gl": "Minas Xerais", "name:he": "מינאס ז'ראיס", "name:hi": "मिनास जेरायज़", "name:hy": "Մինաս Ժերայս", "name:ja": "ミナス ジェライス", "name:ka": "მინას-ჟერაისი", "name:ko": "미나스제라이스", "name:ku": "Minas Grais", "name:la": "Fodinae Generales", "name:lt": "Minas Žeraisas", "name:lv": "Minasžeraisa", "name:mk": "Минаш Жераис", "name:mr": "मिनास जेराईस", "name:os": "Минас-Жерайс", "name:pl": "Minas Gerais", "name:pt": "Minas Gerais", "name:ru": "Минас-Жерайс", "name:sr": "Минас Жераис", "name:tg": "Минас Жерайс", "name:th": "มีนัสเชไรส์", "name:uk": "Мінас-Жерайс", "name:uz": "Minas-Jerays", "name:zh": "米纳斯吉拉斯", "website": "https://www.mg.gov.br/", "short_name": "MG", "is_in:country": "Brazil", "IBGE:GEOCODIGO": "31"}}, "center_lat": -18.45, "center_lon": -44.67, "timezone": "America/Sao_Paulo", "population": 21119536, "wikidata_id": "Q39109", "wikipedia_id": "pt:Minas Gerais"}, "geometry": {"type": "MultiPolygon", "coordinates": [[[[-50.998, -20.089], [-50.466, -19.782], [-49.855, -19.946], [-49.246, -19.976], [-49.226, -20.305], [-48.984, -20.173], [-47.875, -20.099], [-47.465, -19.963], [-47.152, -20.521], [-47.24, -20.885], [-47.013, -21.421], [-46.52, -21.447], [-46.723, -22.306], [-46.456, -22.522], [-46.345, -22.905], [-45.767, -22.841], [-45.736, -22.61], [-45.411, -22.652], [-44.809, -22.405], [-43.775, -22.066], [-43.128, -22.029], [-42.27, -21.717], [-42.208, -21.178], [-41.875, -20.766], [-41.758, -20.207], [-41.411, -20.207], [-40.908, -19.309], [-41.232, -18.797], [-40.917, -18.816], [-41.182, -18.441], [-41.052, -18.165], [-40.527, -17.892], [-40.223, -17.98], [-40.222, -17.735], [-40.599, -17.39], [-40.571, -17.062], [-39.857, -16.113], [-40.231, -15.803], [-40.817, -15.647], [-41.33, -15.742], [-41.356, -15.498], [-41.802, -15.1], [-42.096, -15.182], [-42.98, -14.699], [-42.982, -14.7], [-43.047, -14.687], [-43.048, -14.688], [-43.881, -14.658], [-43.777, -14.338], [-44.316, -14.239], [-45.674, -15.08], [-45.972, -15.152], [-46.037, -14.874], [-46.503, -14.704], [-46.503, -15.052], [-46.918, -15.049], [-46.948, -15.557], [-46.824, -15.885], [-47.31, -16.036], [-47.308, -16.05], [-47.446, -16.537], [-47.167, -17.048], [-47.541, -17.455], [-47.265, -17.612], [-47.284, -18.059], [-47.962, -18.496], [-48.279, -18.331], [-48.936, -18.306], [-49.376, -18.641], [-50.312, -18.69], [-50.496, -19.035], [-50.934, -19.467], [-50.998, -20.089]]]]}}