{"type": "Feature", "properties": {"name": "Mato Grosso", "iso2": "BR-MT", "admin_level": 4, "osm_id": 333597, "countrylevel_id": "iso2:BR-MT", "osm_data": {"localname": "Mato Grosso", "official_name": "", "alltags": {"flag": "https://upload.wikimedia.org/wikipedia/commons/0/0b/Bandeira_de_Mato_Grosso.svg", "name:ar": "ماتو غروسو", "name:be": "Мату-Гросу", "name:bg": "Мато Гросо", "name:en": "Mato Grosso", "name:eo": "Mato-Groso", "name:fa": "ماتو گروسو", "name:gl": "Mato Groso", "name:he": "מאטו גרוסו", "name:hi": "मातो ग्रोसो", "name:hy": "Մատու Գրոսու", "name:ja": "マット グロッソ", "name:ka": "მატუ-გროსუ", "name:ko": "마투그로수", "name:la": "Silva Crassa", "name:lt": "Mato Grosas", "name:lv": "Matugrosu", "name:mk": "Мато Грошо", "name:mr": "मातो ग्रोसो", "name:os": "Мату-Гросу", "name:pl": "Mato Grosso", "name:pt": "Mato Grosso", "name:ru": "Мату-Гросу", "name:sh": "Matu Grosu", "name:sr": "Мато Гросо", "name:tg": "Мату Гросу", "name:th": "มาตูโกรสซู", "name:uk": "Мату-Гросу", "name:uz": "Matu-Grosu", "name:zh": "马托格罗索", "website": "http://www.mt.gov.br/", "short_name": "MT", "is_in:country": "Brazil", "IBGE:GEOCODIGO": "51"}}, "center_lat": -12.93, "center_lon": -55.91, "timezone": "America/Cuiaba", "population": 3344544, "wikidata_id": "Q42824", "wikipedia_id": "pt:Mato Grosso"}, "geometry": {"type": "MultiPolygon", "coordinates": [[[[-60.71, -13.691], [-60.464, -13.8], [-60.454, -14.313], [-60.274, -14.621], [-60.245, -15.097], [-60.575, -15.098], [-60.239, -15.475], [-60.174, -16.267], [-58.431, -16.322], [-58.396, -17.181], [-57.746, -17.551], [-57.516, -17.863], [-57.046, -17.73], [-56.735, -17.31], [-56.142, -17.18], [-55.125, -17.654], [-54.582, -17.467], [-54.077, -17.616], [-53.68, -17.254], [-53.704, -17.663], [-53.951, -17.915], [-53.073, -18.035], [-53.25, -17.644], [-53.015, -16.862], [-52.605, -16.466], [-52.683, -16.302], [-52.254, -15.893], [-51.88, -15.825], [-51.65, -15.174], [-51.088, -14.922], [-50.831, -14.072], [-50.871, -13.733], [-50.665, -13.442], [-50.51, -12.862], [-50.708, -12.608], [-50.638, -11.894], [-50.742, -11.466], [-50.632, -10.932], [-50.208, -9.839], [-56.671, -9.367], [-57.032, -9.215], [-57.205, -8.922], [-57.595, -8.695], [-57.639, -8.212], [-58.137, -7.348], [-58.381, -7.824], [-58.286, -8.066], [-58.5, -8.802], [-61.583, -8.798], [-61.628, -9.257], [-61.461, -10.42], [-61.55, -10.986], [-60.46, -10.989], [-59.997, -11.148], [-60.114, -11.59], [-59.886, -12.245], [-60.079, -12.881], [-60.381, -13.445], [-60.71, -13.691]]]]}}