{"type": "Feature", "properties": {"name": "Rio Grande do Norte", "iso2": "BR-RN", "admin_level": 4, "osm_id": 301079, "countrylevel_id": "iso2:BR-RN", "osm_data": {"localname": "Rio Grande do Norte", "official_name": "", "alltags": {"flag": "https://upload.wikimedia.org/wikipedia/commons/3/30/Bandeira_do_Rio_Grande_do_Norte.svg", "name:ar": "ريو غراندي دو نورتي", "name:be": "Рыу-Гранды-ду-Норты", "name:bg": "Рио Гранди до Норти", "name:en": "Rio Grande do Norte", "name:eo": "Norda Rio-Grando", "name:es": "Río Grande del Norte", "name:eu": "Iparraldeko Rio Grande", "name:fa": "ریو گرانده شمالی", "name:gl": "Río Grande do Norte", "name:he": "ריו גראנדה דו נורטה", "name:hi": "रियो ग्रांदे दो नॉर्ते", "name:hy": "Ռիու Գրանդի դու Նորտի", "name:ja": "リオグランデ・ド・ノルテ", "name:ka": "რიუ-გრანდი-დუ-ნორტი", "name:ko": "히우그란지두노르치", "name:la": "Flumen Magnum Septentrionale", "name:lt": "Šiaurės Rio Grandė", "name:lv": "Riugrandi du Norti", "name:mk": "Северна Рио Гранџе", "name:mr": "Северна Рио Гранџе", "name:os": "Риу-Гранди-ду-Норти", "name:pl": "Rio Grande do Norte", "name:pt": "Rio Grande do Norte", "name:qu": "Chinchay Hatunmayu", "name:ru": "Риу-Гранди-ду-Норти", "name:sh": "Rio Grandi du Norti", "name:sr": "Рио Гранде до Норте", "name:tg": "Риу Гранди ду Норти", "name:th": "รีโอกรันดีโดนอร์เต", "name:uk": "Ріу-Гранді-ду-Норті", "name:uz": "Riu-Grandi-du-Norti", "name:zh": "北里约格朗德", "website": "http://www.rn.gov.br/", "short_name": "RN", "is_in:country": "Brazil", "IBGE:GEOCODIGO": "24"}}, "center_lat": -5.83, "center_lon": -36.66, "timezone": "America/Fortaleza", "population": 3507003, "wikidata_id": "Q43255", "wikipedia_id": "pt:Rio Grande do Norte"}, "geometry": {"type": "MultiPolygon", "coordinates": [[[[-36.58, -5.104], [-36.58, -5.104], [-36.58, -5.104], [-36.58, -5.104]]], [[[-36.599, -5.098], [-36.599, -5.098], [-36.599, -5.098], [-36.599, -5.098]]], [[[-37.045, -4.819], [-37.045, -4.819], [-37.045, -4.819], [-37.045, -4.819]]], [[[-33.816, -3.864], [-33.816, -3.864], [-33.816, -3.864], [-33.816, -3.864]]], [[[-33.818, -3.856], [-33.818, -3.856], [-33.818, -3.856], [-33.818, -3.856]]], [[[-34.968, -6.488], [-35.146, -6.553], [-36.5, -6.358], [-36.604, -6.93], [-36.835, -6.731], [-37.193, -6.826], [-37.485, -6.71], [-37.256, -6.028], [-37.742, -6.189], [-38.117, -6.523], [-38.563, -6.356], [-38.122, -5.881], [-37.64, -4.926], [-37.252, -4.83], [-36.718, -5.092], [-35.949, -5.044], [-35.489, -5.158], [-35.228, -5.576], [-34.968, -6.488]]], [[[-36.608, -5.093], [-36.608, -5.093], [-36.608, -5.093], [-36.608, -5.093]]], [[[-36.717, -5.092], [-36.717, -5.092], [-36.717, -5.092], [-36.717, -5.092]]], [[[-36.582, -5.086], [-36.582, -5.086], [-36.582, -5.086], [-36.582, -5.086]]]]}}