{"type": "Feature", "properties": {"name": "Rondônia", "iso2": "BR-RO", "admin_level": 4, "osm_id": 325866, "countrylevel_id": "iso2:BR-RO", "osm_data": {"localname": "Rondônia", "official_name": "", "alltags": {"flag": "https://upload.wikimedia.org/wikipedia/commons/f/fa/Bandeira_de_Rond%C3%B4nia.svg", "name:ar": "روندونيا", "name:be": "Рандонія", "name:bg": "Рондония", "name:en": "Rondônia", "name:eo": "Rondonio", "name:es": "Rondonia", "name:fa": "روندونیا", "name:gl": "Rondonia", "name:he": "רונדוניה", "name:hi": "रोन्डोनिया", "name:hy": "Ռոնդոնիա", "name:io": "Rondonia", "name:ja": "ロンドニア", "name:ka": "რონდონია", "name:ko": "혼도니아", "name:la": "Rondonia", "name:lt": "Rondonija", "name:lv": "Rondonija", "name:mk": "Рондонија", "name:mr": "रोन्द्योनिया", "name:os": "Рондони", "name:pl": "Rondônia", "name:pt": "Rondônia", "name:ru": "Рондония", "name:sh": "Rondonija", "name:sr": "Рондонија", "name:tg": "Рондония", "name:th": "รอนโดเนีย", "name:uk": "Рондонія", "name:uz": "Pondoniya", "name:zh": "朗多尼亚", "website": "http://www.rondonia.ro.gov.br/", "short_name": "RO", "is_in:country": "Brazil", "IBGE:GEOCODIGO": "11"}}, "center_lat": -10.92, "center_lon": -62.85, "timezone": "America/Porto_Velho", "population": 1590011, "wikidata_id": "Q43235", "wikipedia_id": "pt:Rondônia"}, "geometry": {"type": "MultiPolygon", "coordinates": [[[[-66.806, -9.814], [-66.62, -9.894], [-65.92, -9.753], [-65.552, -9.837], [-65.393, -9.687], [-65.288, -10.215], [-65.391, -10.381], [-65.35, -10.779], [-65.341, -10.809], [-65.253, -11.718], [-65.035, -11.994], [-64.509, -12.229], [-64.428, -12.432], [-63.783, -12.428], [-63.388, -12.65], [-63.115, -12.625], [-62.796, -12.993], [-62.121, -13.151], [-61.852, -13.539], [-61.528, -13.531], [-61.086, -13.492], [-60.71, -13.691], [-60.381, -13.445], [-60.079, -12.881], [-59.886, -12.245], [-60.114, -11.59], [-59.997, -11.148], [-60.46, -10.989], [-61.55, -10.986], [-61.461, -10.42], [-61.628, -9.257], [-61.583, -8.798], [-62.124, -8.801], [-62.359, -8.407], [-62.866, -7.975], [-63.621, -7.969], [-64.142, -8.945], [-64.808, -8.986], [-65.143, -9.447], [-65.212, -9.279], [-65.73, -9.563], [-66.409, -9.407], [-66.806, -9.814]]]]}}