{"type": "Feature", "properties": {"name": "Tocantins", "iso2": "BR-TO", "admin_level": 4, "osm_id": 336819, "countrylevel_id": "iso2:BR-TO", "osm_data": {"localname": "Tocantins", "official_name": "", "alltags": {"flag": "https://upload.wikimedia.org/wikipedia/commons/f/ff/Bandeira_do_Tocantins.svg", "name:ar": "توكانتينس", "name:be": "Такантынс", "name:bg": "Токантинс", "name:en": "Tocantins", "name:eo": "Tokantinso", "name:fa": "توکانتینس", "name:gn": "Tukãtĩ", "name:he": "טוקנטינס", "name:hi": "टोकाचिस", "name:hy": "Տոկանտինս", "name:ja": "トカンティンス", "name:ka": "ტოკანტინსი", "name:ko": "토칸칭스", "name:lt": "Tokantinsas", "name:lv": "Tokantinsa", "name:mk": "Токантинс", "name:mr": "तोकांतिन्स", "name:os": "Токантинс", "name:pl": "Tocantins", "name:pt": "Tocantins", "name:ru": "Токантинс", "name:sh": "Tokantins", "name:sr": "Токантинс", "name:tg": "Токантинс", "name:th": "โตกันตินส์", "name:uk": "Токантінс", "name:uz": "Tokantins", "name:zh": "托坎廷斯", "website": "http://www.to.gov.br/", "short_name": "TO", "is_in:country": "Brazil", "IBGE:GEOCODIGO": "17"}}, "center_lat": -10.15, "center_lon": -48.33, "timezone": "America/Araguaina", "population": 1550194, "wikidata_id": "Q43695", "wikipedia_id": "pt:Tocantins"}, "geometry": {"type": "MultiPolygon", "coordinates": [[[[-50.51, -12.862], [-50.219, -12.492], [-50.289, -12.835], [-49.369, -13.274], [-49.121, -12.79], [-48.87, -12.803], [-48.458, -13.282], [-48.143, -13.153], [-47.679, -13.467], [-47.646, -13.12], [-47.424, -13.289], [-46.75, -12.969], [-46.115, -12.917], [-46.303, -12.95], [-46.285, -12.379], [-46.397, -12.04], [-46.256, -11.621], [-46.52, -11.483], [-46.182, -10.639], [-45.845, -10.488], [-45.723, -10.155], [-45.946, -10.259], [-46.327, -10.183], [-46.94, -9.063], [-46.912, -8.591], [-46.543, -8.319], [-46.597, -7.899], [-47.107, -7.99], [-47.643, -7.144], [-47.377, -6.266], [-47.483, -5.565], [-47.872, -5.272], [-48.523, -5.193], [-48.756, -5.35], [-48.382, -5.396], [-48.273, -5.726], [-48.386, -6.38], [-48.652, -6.64], [-49.209, -6.925], [-49.378, -7.497], [-49.148, -7.807], [-49.283, -8.38], [-50.039, -9.294], [-50.208, -9.839], [-50.632, -10.932], [-50.742, -11.466], [-50.638, -11.894], [-50.708, -12.608], [-50.51, -12.862]]]]}}