{"type": "Feature", "properties": {"name": "Zanzibar Urban/West", "iso2": "TZ-15", "admin_level": 4, "osm_id": 1614023, "countrylevel_id": "iso2:TZ-15", "osm_data": {"localname": "Unguja Mjini Magharibi", "official_name": "", "alltags": {"name:ar": "زنجبار الحضرية / المقاطعة الغربية", "name:cs": "Zanzibar město a západ", "name:en": "Zanzibar Urban/West", "name:fa": "استان زنگبار شهری غربی", "name:pl": "Zanzibar Zachodni", "name:ru": "Занзибар Западный", "name:uk": "Занзібар Західний", "name:ur": "مجینی مغربی علاقہ", "wikipedia:en": "Mjini Magharibi Region"}}, "center_lat": -6.19, "center_lon": 39.25, "timezone": "Africa/Dar_es_Salaam", "wikidata_id": "Q180822"}, "geometry": {"type": "MultiPolygon", "coordinates": [[[[39.212, -6.076], [39.233, -6.082], [39.281, -6.084], [39.284, -6.102], [39.282, -6.117], [39.27, -6.152], [39.281, -6.195], [39.286, -6.237], [39.292, -6.25], [39.303, -6.264], [39.305, -6.272], [39.302, -6.263], [39.289, -6.25], [39.279, -6.257], [39.284, -6.278], [39.296, -6.296], [39.3, -6.317], [39.282, -6.32], [39.273, -6.316], [39.26, -6.299], [39.246, -6.27], [39.233, -6.263], [39.226, -6.254], [39.216, -6.253], [39.21, -6.227], [39.2, -6.22], [39.207, -6.191], [39.2, -6.179], [39.186, -6.164], [39.2, -6.153], [39.214, -6.133], [39.211, -6.119], [39.215, -6.1], [39.212, -6.076]]]]}}