{"type": "Feature", "properties": {"name": "Navoiy Region", "iso2": "UZ-NW", "admin_level": 4, "osm_id": 196246, "countrylevel_id": "iso2:UZ-NW", "osm_data": {"localname": "Navoiy Viloyati", "official_name": "", "alltags": {"name:en": "Navoiy Region", "name:es": "Provincia de Navoi", "name:fr": "Province de Navoï", "name:ja": "ナヴァーイー州", "name:ko": "나보이 주", "name:lt": "Navojo vilajetas", "name:ru": "Навоийская область", "name:uz": "Navoiy Viloyati", "is_in:country": "Uzbekistan", "is_in:continent": "Asia", "is_in:country_code": "UZ"}}, "center_lat": 41.97, "center_lon": 64.36, "timezone": "Asia/Samarkand", "population": 767500, "wikidata_id": "Q487570", "wikipedia_id": "uz:Navoiy viloyati"}, "geometry": {"type": "MultiPolygon", "coordinates": [[[[62.068, 41.384], [62.585, 41.468], [62.984, 41.027], [63.835, 40.716], [63.952, 40.916], [64.429, 40.763], [65.369, 40.655], [65.159, 40.336], [64.606, 39.916], [65.105, 39.449], [65.255, 39.492], [65.241, 39.808], [65.533, 40.171], [66.076, 40.033], [66.245, 40.613], [66.654, 40.492], [66.752, 41.142], [66.533, 41.877], [65.999, 41.937], [66.071, 42.338], [66.097, 42.938], [65.844, 42.858], [65.532, 43.315], [64.932, 43.735], [64.535, 43.571], [63.349, 43.65], [62.004, 43.505], [62.483, 43.255], [61.919, 42.336], [61.794, 41.945], [62.068, 41.384]]]]}}