{"type": "Feature", "properties": {"name": "Republic of Karakalpakstan", "iso2": "UZ-QR", "admin_level": 4, "osm_id": 196241, "countrylevel_id": "iso2:UZ-QR", "osm_data": {"localname": "Qaraqalpaqstan Respublikasi", "official_name": "", "alltags": {"int_ref": "UZ-QR", "name:en": "Republic of Karakalpakstan", "name:es": "Republica Autónoma de Karakalpakistan", "name:fr": "République du Karakalpakistan", "name:ja": "カラカルパクスタン共和国", "name:lt": "Karakalpakistano Respublika", "name:nl": "Karakalpakië", "name:ru": "Республика Каракалпакстан", "name:uk": "Республіка Каракалпакстан.", "name:uz": "Qoraqalpogʻiston Respublikasi", "name:kaa": "Qaraqalpaqstan Respublikası", "alt_name:kaa": "Каракалпакстан Республикаси", "is_in:country": "Uzbekistan", "is_in:continent": "Asia", "is_in:country_code": "UZ"}}, "center_lat": 43.41, "center_lon": 58.87, "timezone": "Asia/Samarkand", "population": 1817500, "wikidata_id": "Q484245", "wikipedia_id": "uz:Qoraqalpogʻiston"}, "geometry": {"type": "MultiPolygon", "coordinates": [[[[57.052, 41.921], [57.042, 41.263], [56.429, 41.3], [55.999, 41.32], [55.999, 45], [56.744, 45.177], [58.605, 45.582], [58.217, 44.859], [58.232, 44.466], [58.587, 44.57], [58.746, 45.504], [59.099, 45.326], [59.56, 45.138], [59.862, 45.014], [60.745, 44.644], [62.004, 43.505], [62.483, 43.255], [61.919, 42.336], [61.794, 41.945], [62.068, 41.384], [62.45, 41.097], [62.235, 41.015], [61.765, 41.307], [61.406, 41.221], [61.397, 41.211], [60.696, 41.659], [60.433, 41.958], [60.15, 41.863], [59.891, 42.302], [59.434, 42.293], [58.627, 42.797], [58.156, 42.621], [57.858, 42.182], [57.633, 42.156], [57.342, 42.359], [57.052, 41.921]]]]}}