{"type": "Feature", "properties": {"name": "Badakhshan", "iso2": "AF-BDS", "admin_level": 4, "osm_id": 1674535, "countrylevel_id": "iso2:AF-BDS", "osm_data": {"localname": "ولایت بدخشان", "official_name": "", "alltags": {"name:ar": "ولاية بدخشان", "name:az": "Bədəxşan", "name:be": "Правінцыя Бадахшан", "name:bg": "Бадахшан", "name:bn": "বাদাখশন প্রদেশ", "name:ca": "Província de Badakhxan", "name:cs": "Badachšán", "name:cy": "Badakhshan", "name:da": "Badakhshan", "name:el": "Μπανταχσάν", "name:en": "Badakhshan", "name:eo": "Provinco Badaĥŝan", "name:es": "Provincia de Badajshán", "name:et": "Badakhshāni provints", "name:eu": "Badakhshan probintzia", "name:fa": "ولایت بدخشان", "name:fi": "Badahšan", "name:fr": "Badakhchan", "name:gl": "Badaghxán", "name:hi": "बदख़्शान प्रान्त", "name:hr": "Provincija Badakhšan", "name:id": "Provinsi Badakhshan", "name:ja": "バダフシャーン州", "name:ko": "바다흐샨 주", "name:lt": "Badachšanas", "name:nl": "Badachsjan", "name:no": "Badakhshan", "name:pl": "Badachszan", "name:ps": "بدخشان ولايت", "name:pt": "Badakhshan", "name:ru": "Бадахшан", "name:sr": "Провинција Бадахсан", "name:su": "Propinsi Badakhshan", "name:sv": "Badakhshan", "name:tg": "Вилояти Бадахшон", "name:th": "จังหวัดบาดัคชาน", "name:tr": "Badahşan Vilayeti", "name:uk": "Бадахшан", "name:vi": "Badakhshan", "name:zh": "巴达赫尚省", "is_in:country": "Afghanistan", "is_in:continent": "Asia", "is_in:country_code": "AF"}}, "center_lat": 37.04, "center_lon": 71.46, "timezone": "Asia/Dushanbe", "population": 823000, "wikidata_id": "Q165376", "wikipedia_id": "en:Badakhshan Province"}, "geometry": {"type": "MultiPolygon", "coordinates": [[[[70.254, 35.875], [70.278, 35.836], [70.262, 35.755], [70.264, 35.671], [70.251, 35.664], [70.301, 35.653], [70.341, 35.7], [70.374, 35.717], [70.461, 35.674], [70.497, 35.683], [70.504, 35.625], [70.556, 35.589], [70.56, 35.532], [70.535, 35.524], [70.545, 35.45], [70.571, 35.443], [70.648, 35.464], [70.636, 35.515], [70.687, 35.546], [70.752, 35.493], [70.779, 35.506], [70.805, 35.485], [70.861, 35.475], [70.89, 35.519], [70.873, 35.571], [70.88, 35.636], [70.952, 35.62], [70.977, 35.675], [71.007, 35.68], [71.015, 35.74], [70.985, 35.757], [70.995, 35.79], [71.029, 35.809], [71.021, 35.854], [71.068, 35.871], [71.081, 35.931], [71.129, 35.979], [71.122, 36.005], [71.195, 36.039], [71.251, 36.129], [71.319, 36.169], [71.347, 36.168], [71.361, 36.204], [71.436, 36.233], [71.443, 36.266], [71.521, 36.31], [71.527, 36.335], [71.577, 36.327], [71.558, 36.373], [71.616, 36.403], [71.657, 36.484], [71.732, 36.447], [71.793, 36.402], [71.822, 36.417], [71.798, 36.483], [71.81, 36.508], [71.917, 36.509], [71.936, 36.546], [72.003, 36.557], [72.03, 36.592], [72.08, 36.588], [72.097, 36.647], [72.21, 36.664], [72.185, 36.711], [72.231, 36.729], [72.247, 36.752], [72.298, 36.74], [72.335, 36.767], [72.376, 36.758], [72.395, 36.775], [72.503, 36.784], [72.59, 36.838], [72.653, 36.852], [72.718, 36.837], [72.768, 36.854], [72.818, 36.842], [72.93, 36.843], [72.943, 36.868], [73.029, 36.862], [73.083, 36.887], [73.148, 36.895], [73.177, 36.879], [73.269, 36.893], [73.309, 36.87], [73.414, 36.894], [73.509, 36.893], [73.541, 36.873], [73.601, 36.909], [73.654, 36.909], [73.753, 36.912], [73.8, 36.891], [73.836, 36.925], [73.907, 36.901], [73.892, 36.88], [73.932, 36.875], [73.957, 36.843], [74.048, 36.826], [74.121, 36.838], [74.153, 36.898], [74.181, 36.916], [74.237, 36.895], [74.309, 36.919], [74.349, 36.962], [74.416, 36.975], [74.419, 37.007], [74.456, 37.004], [74.534, 36.957], [74.517, 37.011], [74.565, 37.031], [74.533, 37.051], [74.533, 37.077], [74.495, 37.065], [74.491, 37.118], [74.456, 37.143], [74.49, 37.178], [74.468, 37.197], [74.501, 37.239], [74.543, 37.249], [74.586, 37.238], [74.63, 37.265], [74.658, 37.234], [74.715, 37.282], [74.749, 37.285], [74.798, 37.245], [74.809, 37.215], [74.888, 37.222], [74.89, 37.234], [74.887, 37.258], [74.832, 37.334], [74.804, 37.355], [74.707, 37.384], [74.692, 37.405], [74.632, 37.377], [74.566, 37.372], [74.528, 37.409], [74.495, 37.396], [74.44, 37.417], [74.402, 37.392], [74.375, 37.424], [74.321, 37.4], [74.239, 37.414], [74.251, 37.373], [74.185, 37.335], [74.155, 37.342], [74.095, 37.318], [74.061, 37.324], [73.999, 37.289], [73.965, 37.299], [73.852, 37.257], [73.843, 37.234], [73.761, 37.222], [73.725, 37.247], [73.651, 37.238], [73.618, 37.273], [73.656, 37.314], [73.733, 37.316], [73.771, 37.344], [73.776, 37.44], [73.72, 37.447], [73.64, 37.434], [73.583, 37.444], [73.53, 37.473], [73.452, 37.474], [73.368, 37.444], [73.365, 37.462], [73.301, 37.462], [73.21, 37.404], [73.15, 37.404], [73.107, 37.363], [73.094, 37.325], [72.952, 37.291], [72.891, 37.243], [72.818, 37.233], [72.776, 37.195], [72.739, 37.119], [72.702, 37.08], [72.663, 37.018], [72.622, 37.029], [72.57, 37.008], [72.474, 36.994], [72.427, 37.006], [72.326, 36.981], [72.209, 36.925], [72.122, 36.868], [72.112, 36.847], [72.069, 36.84], [72.018, 36.811], [71.958, 36.756], [71.903, 36.734], [71.844, 36.681], [71.676, 36.671], [71.635, 36.69], [71.563, 36.764], [71.542, 36.846], [71.468, 36.951], [71.459, 37.029], [71.432, 37.056], [71.454, 37.207], [71.485, 37.245], [71.496, 37.369], [71.475, 37.387], [71.527, 37.48], [71.495, 37.533], [71.504, 37.607], [71.526, 37.631], [71.551, 37.736], [71.532, 37.762], [71.596, 37.807], [71.585, 37.847], [71.598, 37.874], [71.591, 37.923], [71.526, 37.952], [71.329, 37.885], [71.289, 37.933], [71.261, 37.922], [71.267, 37.984], [71.295, 38.018], [71.284, 38.042], [71.321, 38.067], [71.317, 38.098], [71.347, 38.146], [71.377, 38.161], [71.364, 38.198], [71.374, 38.256], [71.334, 38.271], [71.333, 38.304], [71.252, 38.311], [71.183, 38.347], [71.163, 38.388], [71.105, 38.422], [71.046, 38.41], [71.031, 38.461], [70.988, 38.488], [70.946, 38.476], [70.956, 38.439], [70.906, 38.439], [70.871, 38.468], [70.856, 38.442], [70.77, 38.456], [70.757, 38.428], [70.674, 38.405], [70.684, 38.364], [70.611, 38.346], [70.602, 38.28], [70.546, 38.244], [70.5, 38.146], [70.506, 38.122], [70.432, 38.099], [70.377, 38.055], [70.329, 37.999], [70.262, 37.979], [70.276, 37.944], [70.171, 37.93], [70.185, 37.85], [70.279, 37.816], [70.298, 37.768], [70.287, 37.716], [70.303, 37.691], [70.261, 37.639], [70.266, 37.611], [70.214, 37.606], [70.213, 37.568], [70.173, 37.532], [70.112, 37.524], [70.035, 37.552], [69.98, 37.436], [70.008, 37.387], [70.009, 37.281], [70.02, 37.228], [70.042, 37.211], [70.05, 37.159], [70.079, 37.129], [70.113, 37.033], [70.108, 37], [70.057, 36.983], [70.038, 36.937], [70.001, 36.932], [70.033, 36.892], [70.01, 36.874], [70.01, 36.811], [69.988, 36.783], [70.04, 36.694], [70.009, 36.661], [70.1, 36.614], [70.116, 36.556], [70.105, 36.519], [70.117, 36.484], [70.08, 36.452], [70.113, 36.404], [70.146, 36.395], [70.189, 36.333], [70.221, 36.323], [70.293, 36.327], [70.437, 36.315], [70.478, 36.27], [70.456, 36.243], [70.493, 36.138], [70.425, 36.046], [70.46, 36.019], [70.439, 35.97], [70.328, 35.904], [70.254, 35.875]]]]}}