{"type": "Feature", "properties": {"name": "Logar", "iso2": "AF-LOG", "admin_level": 4, "osm_id": 1674874, "countrylevel_id": "iso2:AF-LOG", "osm_data": {"localname": "لوګر", "official_name": "", "alltags": {"is_in": "Afghanistan", "name:ar": "ولاية لوكر", "name:en": "Logar", "name:es": "Provincia de Lawgar", "name:fa": "ولایت لوگر", "name:fr": "Lôgar", "name:hi": "लोगर प्रान्त", "name:ja": "ローガル州", "name:lt": "Logaro provincija", "name:nl": "Lowgar", "name:ps": "لوگر ولايت", "name:ru": "Логар", "name:tr": "Lovgar", "name:uk": "Логар", "name:ur": "صوبہ لوگر", "name:uz": "Luvgar", "alt_name": "لوگ;لوګر", "alt_name:en": "Logar Province", "description": "Logar Province", "is_in:country": "Afghanistan", "is_in:continent": "Asia", "is_in:country_code": "AF"}}, "center_lat": 34.01, "center_lon": 69.17, "timezone": "Asia/Kabul", "wikidata_id": "Q6667298", "wikipedia_id": "ps:لوگر ولايت"}, "geometry": {"type": "MultiPolygon", "coordinates": [[[[68.713, 33.793], [68.761, 33.77], [68.784, 33.704], [68.755, 33.704], [68.745, 33.668], [68.787, 33.621], [68.833, 33.606], [68.908, 33.623], [68.987, 33.596], [69.026, 33.613], [69.057, 33.65], [69.065, 33.704], [69.094, 33.728], [69.193, 33.769], [69.18, 33.79], [69.236, 33.799], [69.308, 33.834], [69.297, 33.858], [69.376, 33.891], [69.406, 33.927], [69.46, 33.95], [69.492, 33.983], [69.499, 34.043], [69.629, 34.068], [69.698, 34.038], [69.713, 34.006], [69.779, 34.044], [69.807, 34.086], [69.883, 34.058], [69.882, 34.097], [69.856, 34.115], [69.815, 34.187], [69.771, 34.21], [69.735, 34.256], [69.681, 34.245], [69.624, 34.208], [69.558, 34.202], [69.507, 34.15], [69.483, 34.158], [69.458, 34.147], [69.412, 34.205], [69.375, 34.189], [69.377, 34.224], [69.287, 34.368], [69.187, 34.305], [69.127, 34.304], [69.045, 34.335], [68.964, 34.337], [68.929, 34.324], [68.897, 34.268], [68.903, 34.235], [68.83, 34.183], [68.805, 34.093], [68.816, 34.042], [68.867, 34.042], [68.901, 33.981], [68.801, 33.976], [68.761, 33.945], [68.754, 33.906], [68.787, 33.852], [68.778, 33.829], [68.731, 33.818], [68.713, 33.793]]]]}}