{"type": "Feature", "properties": {"name": "Samangan", "iso2": "AF-SAM", "admin_level": 4, "osm_id": 1674791, "countrylevel_id": "iso2:AF-SAM", "osm_data": {"localname": "سمنگان‎", "official_name": "", "alltags": {"is_in": "Afghanistan", "name:ar": "ولاية سمنكان", "name:el": "Σαμανγκάν", "name:en": "Samangan", "name:es": "Samangān", "name:fa": "ولایت سمنگان", "name:fr": "Samangân", "name:it": "Samangan", "name:ja": "サマンガーン州", "name:lt": "Samangano provincija", "name:ps": "سمنگان ولايت", "name:ru": "Саманган", "name:tg": "Вилояти Самангон", "name:uk": "Саманган", "description": "Samangan Province", "is_in:country": "Afghanistan", "is_in:continent": "Asia", "is_in:country_code": "AF"}}, "center_lat": 35.97, "center_lon": 67.7, "timezone": "Asia/Kabul", "wikidata_id": "Q183015", "wikipedia_id": "en:Samangan Province"}, "geometry": {"type": "MultiPolygon", "coordinates": [[[[66.876, 35.382], [66.964, 35.347], [67.12, 35.386], [67.169, 35.408], [67.232, 35.411], [67.376, 35.467], [67.419, 35.451], [67.474, 35.464], [67.494, 35.442], [67.544, 35.474], [67.618, 35.469], [67.711, 35.448], [67.772, 35.449], [67.817, 35.481], [67.862, 35.467], [67.895, 35.476], [67.903, 35.446], [67.957, 35.457], [68.029, 35.451], [68.088, 35.467], [68.108, 35.467], [68.158, 35.517], [68.154, 35.547], [68.21, 35.595], [68.152, 35.642], [68.135, 35.632], [68.154, 35.703], [68.228, 35.753], [68.247, 35.786], [68.28, 35.795], [68.319, 35.847], [68.33, 35.917], [68.324, 35.96], [68.34, 35.987], [68.461, 36.098], [68.526, 36.118], [68.56, 36.114], [68.545, 36.15], [68.49, 36.199], [68.379, 36.25], [68.372, 36.286], [68.314, 36.341], [68.254, 36.414], [68.228, 36.406], [68.191, 36.442], [68.163, 36.5], [68.185, 36.544], [68.105, 36.558], [68.039, 36.554], [67.98, 36.572], [67.925, 36.569], [67.903, 36.586], [67.825, 36.564], [67.767, 36.573], [67.706, 36.627], [67.654, 36.623], [67.596, 36.641], [67.547, 36.619], [67.391, 36.598], [67.354, 36.586], [67.4, 36.527], [67.394, 36.44], [67.405, 36.41], [67.386, 36.363], [67.387, 36.324], [67.333, 36.269], [67.369, 36.243], [67.361, 36.205], [67.411, 36.185], [67.447, 36.187], [67.424, 36.148], [67.34, 36.184], [67.315, 36.164], [67.201, 36.153], [67.136, 36.109], [67.098, 36.06], [67.093, 35.996], [67.152, 35.962], [67.14, 35.929], [67.05, 35.906], [67.048, 35.851], [66.957, 35.802], [66.951, 35.753], [66.927, 35.718], [67.03, 35.676], [67.033, 35.652], [66.97, 35.59], [67.018, 35.561], [66.997, 35.509], [66.937, 35.478], [66.937, 35.428], [66.876, 35.382]]]]}}