{"type": "Feature", "properties": {"name": "Martinique", "iso2": "FR-MQ", "admin_level": 3, "osm_id": 1891495, "countrylevel_id": "iso2:FR-MQ", "osm_data": {"localname": "Martinique", "official_name": "", "alltags": {"flag": "http://upload.wikimedia.org/wikipedia/commons/c/c3/Flag_of_France.svg", "name:ak": "Matinik", "name:am": "ማርቲኒክ", "name:ar": "مارتينيك", "name:az": "Martiniqu", "name:be": "Марцініка", "name:bg": "Мартиника", "name:bm": "Maritiniki", "name:bn": "মার্টিনিক", "name:br": "Martinik", "name:bs": "Martinik", "name:ca": "Martinica", "name:cs": "Martinik", "name:da": "Martinique", "name:dz": "མཱར་ཊི་ནིཀ", "name:ee": "Martiniki nutome", "name:el": "Μαρτινίκα", "name:en": "Martinique", "name:eo": "Martiniko", "name:es": "Martinica", "name:eu": "Martinika", "name:fa": "مارتینیک", "name:ff": "Martinik", "name:fi": "Martinique", "name:fr": "Martinique", "name:fy": "Martinyk", "name:ga": "Martainíc", "name:gd": "Mairtinic", "name:gl": "Martinica", "name:gu": "માર્ટીનીક", "name:ha": "Martinik", "name:he": "מרטיניק", "name:hi": "मार्टीनिक", "name:hr": "Martinik", "name:hu": "Martinique", "name:id": "Martinik", "name:is": "Martinique", "name:it": "Martinica", "name:ja": "マルティニーク", "name:ka": "მარტინიკი", "name:ki": "Martiniki", "name:km": "ម៉ាទីនីក", "name:kn": "ಮಾರ್ಟಿನಿಕ್", "name:ko": "말티니크", "name:ks": "مارٹِنِک", "name:la": "Martinica", "name:lg": "Maritiniiki", "name:ln": "Martiniki", "name:lo": "ມາຕິນິກ", "name:lt": "Martinika", "name:lv": "Martinika", "name:mg": "Martinika", "name:mk": "Мартиник", "name:ml": "മാർട്ടീനിക്", "name:mn": "Мартиник", "name:mr": "मार्टिनिक", "name:mt": "Martinik", "name:ne": "मार्टिनिक", "name:no": "Martinique", "name:oc": "Martinica", "name:or": "ମାର୍ଟିନିକ୍ୟୁ", "name:pl": "Martynika", "name:pt": "Martinica", "name:rn": "Maritiniki", "name:ro": "Martinica", "name:ru": "Мартиника", "name:sg": "Märtïnîki", "name:si": "මර්ටිනික්", "name:sk": "Martinik", "name:sl": "Martinik", "name:sr": "Мартиник", "name:sv": "Martinique", "name:sw": "Martiniki", "name:ta": "மார்டினிக்", "name:te": "మార్టినిక్", "name:th": "มาร์ตินีก", "name:ti": "ማርቲኒክ", "name:to": "Mateniki", "name:tr": "Martinik", "name:uk": "Мартиніка", "name:ur": "مارٹینک", "name:vi": "Martinique", "name:yo": "Orílẹ́ède Matinikuwi", "name:zh": "馬提尼克", "name:zu": "i-Martinique", "currency": "EUR", "int_name": "Martinique", "name:ast": "La Martinica", "name:chr": "ᎹᏘᏂᎨ", "name:fur": "Martiniche", "name:gcf": "Matinik", "name:kab": "Martinik", "name:ksh": "Machtinik", "is_in:sea": "Caribbean", "population": "392291", "border_type": "territorial", "description": "France, départements et régions d'outre-mer, territoires régis par l’article 73 de la Constitution", "is_in:country": "France", "description:en": "French overseas region and departement", "is_in:continent": "North America", "official_name:cs": "Region Martinik", "country_code_fips": "MB", "is_in:country_code": "FR"}, "iso1": "MQ"}, "center_lat": 14.66, "center_lon": -61.02, "timezone": "America/Martinique", "population": 372594, "wikidata_id": "Q17054", "wikipedia_id": "fr:Martinique"}, "geometry": {"type": "MultiPolygon", "coordinates": [[[[-60.869, 14.391], [-60.869, 14.391], [-60.869, 14.391], [-60.869, 14.391]]], [[[-60.862, 14.392], [-60.862, 14.392], [-60.862, 14.392], [-60.862, 14.392]]], [[[-60.884, 14.671], [-60.884, 14.671], [-60.884, 14.671], [-60.884, 14.671]]], [[[-60.881, 14.674], [-60.881, 14.674], [-60.881, 14.674], [-60.881, 14.674]]], [[[-60.865, 14.619], [-60.865, 14.619], [-60.865, 14.619], [-60.865, 14.619]]], [[[-60.85, 14.625], [-60.85, 14.625], [-60.85, 14.625], [-60.85, 14.625]]], [[[-60.89, 14.633], [-60.89, 14.633], [-60.89, 14.633], [-60.89, 14.633]]], [[[-60.855, 14.627], [-60.855, 14.627], [-60.855, 14.627], [-60.855, 14.627]]], [[[-60.885, 14.633], [-60.885, 14.633], [-60.885, 14.633], [-60.885, 14.633]]], [[[-60.849, 14.683], [-60.849, 14.683], [-60.849, 14.683], [-60.849, 14.683]]], [[[-60.911, 14.685], [-60.911, 14.685], [-60.911, 14.685], [-60.911, 14.685]]], [[[-60.899, 14.684], [-60.899, 14.684], [-60.899, 14.684], [-60.899, 14.684]]], [[[-60.881, 14.685], [-60.881, 14.685], [-60.881, 14.685], [-60.881, 14.685]]], [[[-60.902, 14.686], [-60.902, 14.686], [-60.902, 14.686], [-60.902, 14.686]]], [[[-60.885, 14.69], [-60.885, 14.69], [-60.885, 14.69], [-60.885, 14.69]]], [[[-60.899, 14.696], [-60.88, 14.693], [-60.889, 14.69], [-60.899, 14.696]]], [[[-60.934, 14.731], [-60.934, 14.731], [-60.934, 14.731], [-60.934, 14.731]]], [[[-60.879, 14.756], [-60.879, 14.756], [-60.879, 14.756], [-60.879, 14.756]]], [[[-60.88, 14.757], [-60.88, 14.757], [-60.88, 14.757], [-60.88, 14.757]]], [[[-60.873, 14.758], [-60.873, 14.758], [-60.873, 14.758], [-60.873, 14.758]]], [[[-60.923, 14.765], [-60.923, 14.765], [-60.923, 14.765], [-60.923, 14.765]]], [[[-60.965, 14.774], [-60.965, 14.774], [-60.965, 14.774], [-60.965, 14.774]]], [[[-60.873, 14.775], [-60.873, 14.775], [-60.873, 14.775], [-60.873, 14.775]]], [[[-60.991, 14.788], [-60.991, 14.788], [-60.991, 14.788], [-60.991, 14.788]]], [[[-60.88, 14.807], [-60.88, 14.807], [-60.88, 14.807], [-60.88, 14.807]]], [[[-61.228, 14.842], [-61.228, 14.842], [-61.228, 14.842], [-61.228, 14.842]]], [[[-60.876, 14.776], [-60.876, 14.776], [-60.876, 14.776], [-60.876, 14.776]]], [[[-60.834, 14.411], [-60.834, 14.411], [-60.834, 14.411], [-60.834, 14.411]]], [[[-60.84, 14.417], [-60.84, 14.417], [-60.84, 14.417], [-60.84, 14.417]]], [[[-60.833, 14.416], [-60.833, 14.416], [-60.833, 14.416], [-60.833, 14.416]]], [[[-60.83, 14.431], [-60.83, 14.431], [-60.83, 14.431], [-60.83, 14.431]]], [[[-60.833, 14.412], [-60.833, 14.412], [-60.833, 14.412], [-60.833, 14.412]]], [[[-60.834, 14.413], [-60.834, 14.413], [-60.834, 14.413], [-60.834, 14.413]]], [[[-60.829, 14.434], [-60.829, 14.434], [-60.829, 14.434], [-60.829, 14.434]]], [[[-61.041, 14.443], [-61.041, 14.443], [-61.041, 14.443], [-61.041, 14.443]]], [[[-60.816, 14.445], [-60.816, 14.445], [-60.816, 14.445], [-60.816, 14.445]]], [[[-60.886, 14.459], [-60.886, 14.459], [-60.886, 14.459], [-60.886, 14.459]]], [[[-60.886, 14.462], [-60.886, 14.462], [-60.886, 14.462], [-60.886, 14.462]]], [[[-60.828, 14.523], [-60.828, 14.523], [-60.828, 14.523], [-60.828, 14.523]]], [[[-61.012, 14.54], [-61.012, 14.54], [-61.012, 14.54], [-61.012, 14.54]]], [[[-61.08, 14.544], [-61.08, 14.544], [-61.08, 14.544], [-61.08, 14.544]]], [[[-61.035, 14.544], [-61.035, 14.544], [-61.035, 14.544], [-61.035, 14.544]]], [[[-61.038, 14.543], [-61.038, 14.543], [-61.038, 14.543], [-61.038, 14.543]]], [[[-61.022, 14.547], [-61.022, 14.547], [-61.022, 14.547], [-61.022, 14.547]]], [[[-61.004, 14.55], [-61.004, 14.55], [-61.004, 14.55], [-61.004, 14.55]]], [[[-60.839, 14.567], [-60.839, 14.567], [-60.839, 14.567], [-60.839, 14.567]]], [[[-61.038, 14.545], [-61.038, 14.545], [-61.038, 14.545], [-61.038, 14.545]]], [[[-61.01, 14.58], [-61.01, 14.58], [-61.01, 14.58], [-61.01, 14.58]]], [[[-60.865, 14.606], [-60.865, 14.606], [-60.865, 14.606], [-60.865, 14.606]]], [[[-61.022, 14.609], [-61.022, 14.609], [-61.022, 14.609], [-61.022, 14.609]]], [[[-61.022, 14.605], [-61.022, 14.605], [-61.022, 14.605], [-61.022, 14.605]]], [[[-60.862, 14.608], [-60.862, 14.608], [-60.862, 14.608], [-60.862, 14.608]]], [[[-60.849, 14.615], [-60.849, 14.615], [-60.849, 14.615], [-60.849, 14.615]]], [[[-60.967, 14.755], [-60.967, 14.755], [-60.967, 14.755], [-60.967, 14.755], [-60.967, 14.754], [-60.957, 14.736], [-60.953, 14.748], [-60.932, 14.763], [-60.92, 14.759], [-60.902, 14.768], [-60.889, 14.78], [-60.873, 14.772], [-60.878, 14.758], [-60.884, 14.768], [-60.897, 14.759], [-60.889, 14.753], [-60.901, 14.734], [-60.911, 14.736], [-60.913, 14.745], [-60.913, 14.745], [-60.914, 14.745], [-60.915, 14.746], [-60.925, 14.751], [-60.938, 14.749], [-60.945, 14.738], [-60.944, 14.722], [-60.928, 14.715], [-60.933, 14.707], [-60.914, 14.716], [-60.915, 14.706], [-60.902, 14.695], [-60.926, 14.689], [-60.93, 14.679], [-60.937, 14.683], [-60.941, 14.673], [-60.941, 14.673], [-60.943, 14.673], [-60.943, 14.673], [-60.93, 14.654], [-60.92, 14.655], [-60.916, 14.664], [-60.906, 14.667], [-60.891, 14.659], [-60.882, 14.665], [-60.886, 14.653], [-60.906, 14.646], [-60.893, 14.641], [-60.891, 14.631], [-60.898, 14.62], [-60.887, 14.616], [-60.877, 14.622], [-60.88, 14.613], [-60.87, 14.606], [-60.873, 14.596], [-60.857, 14.587], [-60.852, 14.593], [-60.842, 14.578], [-60.854, 14.576], [-60.847, 14.557], [-60.831, 14.569], [-60.826, 14.568], [-60.838, 14.55], [-60.83, 14.543], [-60.83, 14.543], [-60.829, 14.542], [-60.829, 14.541], [-60.828, 14.54], [-60.836, 14.533], [-60.827, 14.532], [-60.835, 14.523], [-60.834, 14.51], [-60.825, 14.515], [-60.822, 14.494], [-60.815, 14.493], [-60.811, 14.48], [-60.82, 14.477], [-60.815, 14.461], [-60.824, 14.452], [-60.83, 14.435], [-60.83, 14.435], [-60.835, 14.423], [-60.849, 14.427], [-60.845, 14.415], [-60.864, 14.396], [-60.864, 14.397], [-60.864, 14.397], [-60.864, 14.397], [-60.864, 14.397], [-60.866, 14.397], [-60.867, 14.396], [-60.867, 14.396], [-60.867, 14.396], [-60.874, 14.397], [-60.874, 14.397], [-60.885, 14.406], [-60.889, 14.424], [-60.889, 14.424], [-60.888, 14.425], [-60.887, 14.426], [-60.887, 14.426], [-60.887, 14.426], [-60.886, 14.428], [-60.886, 14.429], [-60.882, 14.435], [-60.882, 14.435], [-60.881, 14.435], [-60.884, 14.448], [-60.873, 14.449], [-60.873, 14.457], [-60.863, 14.45], [-60.86, 14.468], [-60.876, 14.472], [-60.899, 14.448], [-60.901, 14.453], [-60.902, 14.453], [-60.909, 14.46], [-60.91, 14.46], [-60.91, 14.46], [-60.911, 14.46], [-60.912, 14.469], [-60.932, 14.463], [-60.956, 14.465], [-60.965, 14.477], [-60.974, 14.468], [-60.983, 14.485], [-60.984, 14.474], [-60.991, 14.466], [-61.006, 14.48], [-61.008, 14.471], [-61.018, 14.481], [-61.019, 14.481], [-61.045, 14.47], [-61.055, 14.454], [-61.067, 14.46], [-61.068, 14.467], [-61.082, 14.471], [-61.08, 14.489], [-61.09, 14.493], [-61.085, 14.505], [-61.1, 14.507], [-61.094, 14.524], [-61.078, 14.541], [-61.067, 14.54], [-61.058, 14.552], [-61.037, 14.556], [-61.043, 14.544], [-61.043, 14.544], [-61.037, 14.54], [-61.037, 14.54], [-61.035, 14.54], [-61.035, 14.54], [-61.035, 14.54], [-61.035, 14.541], [-61.035, 14.541], [-61.035, 14.541], [-61.035, 14.541], [-61.025, 14.537], [-61.025, 14.537], [-60.988, 14.529], [-60.978, 14.544], [-60.988, 14.547], [-60.977, 14.554], [-60.987, 14.558], [-60.994, 14.574], [-61.002, 14.562], [-61.004, 14.58], [-61.009, 14.589], [-61.023, 14.583], [-61.022, 14.59], [-61.006, 14.595], [-61.003, 14.602], [-61.013, 14.602], [-61.005, 14.616], [-61.022, 14.617], [-61.031, 14.606], [-61.031, 14.606], [-61.039, 14.601], [-61.039, 14.601], [-61.043, 14.599], [-61.043, 14.599], [-61.043, 14.598], [-61.043, 14.598], [-61.06, 14.595], [-61.06, 14.596], [-61.061, 14.597], [-61.058, 14.602], [-61.058, 14.602], [-61.058, 14.602], [-61.059, 14.605], [-61.059, 14.605], [-61.059, 14.604], [-61.059, 14.604], [-61.063, 14.602], [-61.063, 14.601], [-61.063, 14.601], [-61.063, 14.601], [-61.065, 14.603], [-61.065, 14.603], [-61.065, 14.603], [-61.065, 14.603], [-61.065, 14.603], [-61.065, 14.603], [-61.066, 14.603], [-61.065, 14.598], [-61.066, 14.597], [-61.067, 14.598], [-61.067, 14.598], [-61.067, 14.601], [-61.068, 14.601], [-61.068, 14.601], [-61.069, 14.602], [-61.074, 14.601], [-61.074, 14.601], [-61.092, 14.6], [-61.104, 14.617], [-61.104, 14.618], [-61.113, 14.627], [-61.136, 14.633], [-61.141, 14.644], [-61.152, 14.65], [-61.158, 14.661], [-61.158, 14.661], [-61.183, 14.702], [-61.184, 14.713], [-61.177, 14.745], [-61.185, 14.757], [-61.199, 14.768], [-61.205, 14.779], [-61.214, 14.782], [-61.227, 14.802], [-61.229, 14.822], [-61.22, 14.845], [-61.205, 14.862], [-61.176, 14.874], [-61.149, 14.879], [-61.115, 14.871], [-61.098, 14.863], [-61.089, 14.853], [-61.065, 14.843], [-61.061, 14.837], [-61.029, 14.83], [-61.016, 14.808], [-61.002, 14.808], [-61.005, 14.8], [-60.997, 14.788], [-60.975, 14.769], [-60.967, 14.755]]]]}}