{"type": "Feature", "properties": {"name": "Saint Pierre and Miquelon", "iso2": "FR-PM", "admin_level": 3, "osm_id": 3406826, "countrylevel_id": "iso2:FR-PM", "osm_data": {"localname": "Saint-Pierre-et-Miquelon", "official_name": "", "alltags": {"flag": "http://upload.wikimedia.org/wikipedia/commons/c/c3/Flag_of_France.svg", "name:af": "Saint-Pierre et Miquelon", "name:ak": "Saint Pierre ne Miquelon", "name:am": "ቅዱስ ፒዬር እና ሚኩኤሎን", "name:ar": "سان بيار وميكلون", "name:az": "Seynt Piyer və Mikelon", "name:be": "Святы П’ер і Міквелон", "name:bg": "Сен Пиер и Мигелон", "name:bm": "Piyɛri-Senu-ni-Mikelɔŋ", "name:bn": "সেন্ট পিয়ের ও মিকুয়েলন", "name:br": "Sant-Pêr-ha-Mikelon", "name:bs": "Sen Pjer i Mikelon", "name:ca": "Saint-Pierre i Miquelon", "name:cs": "Saint-Pierre a Miquelon", "name:cy": "Saint Pierre a Miquelon", "name:da": "Saint Pierre og Miquelon", "name:dz": "སིནཊ་པི་ཡེར་ ཨེནཌ་ མིཀོ་ལེན", "name:ee": "Saint Pierre kple Mikelɔn nutome", "name:el": "Άγιος Πέτρος και Μικελόν", "name:en": "Saint Pierre and Miquelon", "name:eo": "Sankta-Piero kaj Mikelono", "name:es": "San Pedro y Miguelón", "name:et": "Saint Pierre ja Miquelon", "name:eu": "Saint-Pierre eta Mikelune", "name:fa": "سنت پیر و میکلون", "name:ff": "See Piyeer e Mikeloo", "name:fi": "Saint-Pierre ja Miquelon", "name:fo": "Saint Pierre og Miquelon", "name:fr": "Saint-Pierre-et-Miquelon", "name:ga": "Saint Pierre agus Miquelon", "name:gd": "Saint Pierre is Miquelon", "name:gl": "San Pedro e Miguelón", "name:gu": "સેંટ પીએરે એન્ડ મિકીલોન", "name:ha": "San Piyar Da Mikelan", "name:he": "סנט פייר ומיקלון", "name:hi": "सेंट पिएरे और मिक्वेलन", "name:hr": "Sveti Petar i Mikelon", "name:hu": "Saint-Pierre és Miquelon", "name:id": "Saint Pierre dan Miquelon", "name:is": "Sankti Pierre og Miquelon", "name:it": "Saint-Pierre e Miquelon", "name:ja": "サンピエール島・ミクロン島", "name:ka": "სენტ-პიერი და მიქელონი", "name:ki": "Santapieri na Mikeloni", "name:kl": "Saint Pierre aamma Miquelon", "name:km": "សង់ព្យែរ និង​មីគីឡុង", "name:kn": "ಸೇಂಟ್ ಪಿಯರೆ ಮತ್ತು ಮಿಕೆಲನ್", "name:ko": "세인트피에르-미케롱", "name:ks": "سینٛٹ پیٖری تہٕ موکیلِیَن", "name:lg": "Senti Piyere ne Mikeloni", "name:ln": "Sántu pététo mpé Mikelɔ", "name:lo": "ເຊັ້ນ ປີແອ ແລະ ມິເກວລອນ", "name:lt": "Sen Pjeras ir Mikelonas", "name:lv": "Senpjēra un Mikelona", "name:mk": "Сент Пјер и Микелан", "name:ml": "സെൻറ് പിറേയും മിക്വലണും", "name:mn": "Сент Пьер ба Микелон", "name:mr": "सेंट पियरे आणि मिक्वेलोन", "name:ms": "Saint Pierre and Miquelon", "name:mt": "Saint Pierre and Miquelon", "name:ne": "सेन्ट पिर्रे र मिक्केलोन", "name:nl": "Saint-Pierre en Miquelon", "name:nn": "St. Pierre og Miquelon", "name:no": "Saint-Pierre og Miquelon", "name:or": "ସେଣ୍ଟ ପିଏରେ ଏବଂ ମିକ୍ବାଲୋନ୍", "name:pl": "Saint-Pierre i Miquelon", "name:pt": "Saint-Pierre e Miquelon", "name:rm": "Saint Pierre e Miquelon", "name:rn": "Sempiyeri na Mikeloni", "name:ro": "Sfântul Pierre și Miquelon", "name:ru": "Сен-Пьер и Микелон", "name:se": "Saint Pierre ja Miquelon", "name:sg": "Sên-Pyêre na Mikelöon", "name:si": "ශාන්ත පියරේ සහ මැකෝලන්", "name:sk": "Saint Pierre a Miquelon", "name:sl": "Saint Pierre in Miquelon", "name:sn": "Saint Pierre and Miquelon", "name:so": "Saint Pierre and Miquelon", "name:sr": "Сен Пјер и Микелон", "name:sv": "Saint-Pierre och Miquelon", "name:sw": "Santapieri na Mikeloni", "name:ta": "செயின்ட் பியர் மற்றும் மிக்வேலான்", "name:te": "సెంట్ పియెర్ మరియు మికెలాన్", "name:th": "แซงปีแยร์และมีเกอลง", "name:ti": "ቅዱስ ፒዬር እና ሚኩኤሎን", "name:tl": "Santa Pierre at Miquelon", "name:to": "Seini Piea mo Mikaloni", "name:tr": "Saint-Pierre ve Miquelon", "name:uk": "Сен-П’єр і Мікелон", "name:ur": "سینٹ پیئر اور میکلیئون", "name:vi": "Saint-Pierre và Miquelon", "name:yo": "Orílẹ́ède Pẹẹri ati mikuloni", "name:zh": "圣皮埃尔和密克隆群岛", "name:zu": "i-Saint Pierre kanye ne-Miquelon", "currency": "EUR", "name:ast": "Saint Pierre y Miquelon", "name:chr": "ᏎᏂᏘ ᏈᏓ ᎠᎴ ᎻᏇᎶᏂ", "name:fur": "San Pierre e Miquelon", "name:kab": "San Pyar d Miklun", "name:ksh": "Zint Pjäär un Mikelong", "ref:INSEE": "975", "population": "6080", "border_type": "territorial", "description": "France, collectivités d'outre-mer, territoires régis par l’article 74 de la Constitution", "official_name:cs": "Územní společenství Saint Pierre a Miquelon"}, "iso1": "PM"}, "center_lat": 46.93, "center_lon": -56.31, "timezone": "America/Miquelon", "population": 6057, "wikidata_id": "Q34617", "wikipedia_id": "fr:Saint-Pierre-et-Miquelon"}, "geometry": {"type": "MultiPolygon", "coordinates": [[[[-56.222, 46.75], [-56.222, 46.75], [-56.222, 46.75], [-56.222, 46.75]]], [[[-56.177, 46.756], [-56.177, 46.756], [-56.177, 46.756], [-56.177, 46.756]]], [[[-56.225, 46.75], [-56.225, 46.75], [-56.225, 46.75], [-56.225, 46.75]]], [[[-56.127, 46.788], [-56.127, 46.788], [-56.127, 46.788], [-56.127, 46.788]]], [[[-56.133, 46.789], [-56.133, 46.789], [-56.133, 46.789], [-56.133, 46.789]]], [[[-56.133, 46.797], [-56.133, 46.797], [-56.133, 46.797], [-56.133, 46.797]]], [[[-56.159, 46.826], [-56.159, 46.826], [-56.159, 46.826], [-56.159, 46.826]]], [[[-56.174, 46.821], [-56.174, 46.821], [-56.174, 46.821], [-56.174, 46.821]]], [[[-56.242, 46.766], [-56.234, 46.767], [-56.214, 46.794], [-56.193, 46.81], [-56.166, 46.816], [-56.155, 46.808], [-56.154, 46.797], [-56.17, 46.786], [-56.177, 46.775], [-56.157, 46.775], [-56.151, 46.765], [-56.173, 46.762], [-56.188, 46.756], [-56.195, 46.767], [-56.214, 46.762], [-56.223, 46.751], [-56.228, 46.762], [-56.242, 46.766]]], [[[-56.163, 46.782], [-56.163, 46.782], [-56.163, 46.782], [-56.163, 46.782]]], [[[-56.159, 46.786], [-56.159, 46.786], [-56.159, 46.786], [-56.159, 46.786]]], [[[-56.156, 46.784], [-56.156, 46.784], [-56.156, 46.784], [-56.156, 46.784]]], [[[-56.406, 46.835], [-56.381, 46.857], [-56.35, 46.868], [-56.342, 46.89], [-56.33, 46.897], [-56.329, 46.935], [-56.338, 46.966], [-56.359, 47.005], [-56.383, 47.021], [-56.389, 47.054], [-56.384, 47.065], [-56.389, 47.097], [-56.402, 47.105], [-56.392, 47.125], [-56.344, 47.144], [-56.343, 47.133], [-56.362, 47.122], [-56.38, 47.117], [-56.378, 47.102], [-56.367, 47.095], [-56.385, 47.094], [-56.381, 47.067], [-56.364, 47.094], [-56.352, 47.099], [-56.331, 47.091], [-56.298, 47.073], [-56.271, 47.067], [-56.254, 47.06], [-56.25, 47.04], [-56.27, 46.999], [-56.279, 46.99], [-56.308, 46.981], [-56.294, 46.992], [-56.296, 47.003], [-56.316, 46.998], [-56.358, 47.005], [-56.338, 46.974], [-56.317, 46.981], [-56.304, 46.977], [-56.318, 46.959], [-56.326, 46.927], [-56.319, 46.907], [-56.289, 46.891], [-56.27, 46.895], [-56.255, 46.885], [-56.248, 46.887], [-56.239, 46.871], [-56.238, 46.854], [-56.243, 46.844], [-56.274, 46.824], [-56.313, 46.807], [-56.35, 46.783], [-56.35, 46.794], [-56.366, 46.8], [-56.372, 46.793], [-56.37, 46.823], [-56.378, 46.828], [-56.399, 46.826], [-56.406, 46.835]]]]}}