{"type": "Feature", "properties": {"name": "French Southern and Antarctic Lands", "iso2": "FR-TF", "admin_level": 3, "osm_id": 2186658, "countrylevel_id": "iso2:FR-TF", "osm_data": {"localname": "Terres australes et antarctiques françaises", "official_name": "", "alltags": {"flag": "http://upload.wikimedia.org/wikipedia/commons/c/c3/Flag_of_France.svg", "name:af": "Franse Suidelike en Antarktiese Gebiede", "name:am": "የፈረንሳይ ደቡባዊ ግዛቶች", "name:an": "Territorios Australs Franzeses", "name:ar": "الأراضي الجنوبية الفرنسية", "name:az": "Fransız Cənub teritoriyası", "name:be": "Французскія Паўднёвыя тэрыторыі", "name:bg": "Френски южни и антарктически територии", "name:bn": "ফরাসী দক্ষিণাঞ্চল", "name:br": "Douaroù Aostral hag Antarktikel Frañs", "name:bs": "Francuske Južne Teritorije", "name:ca": "Terres Australs i Antàrtiques Franceses", "name:cs": "Francouzská jižní a antarktická území", "name:cy": "Tiriogaethau Ffrengig y De", "name:da": "Franske sydlige og Antarktiske territorier", "name:dz": "ཕྲནཅ་གི་ལྷོ་ཕྱོགས་མངའ་ཁོངས", "name:ee": "Anyiehe Franseme nutome", "name:el": "Γαλλικά νότια και ανταρκτικά εδάφη", "name:en": "French Southern and Antarctic Lands", "name:eo": "Francaj Sudaj Teritorioj", "name:es": "Tierras Australes y Antárticas Francesas", "name:et": "Prantsuse Lõunaalad", "name:eu": "Frantziaren lurralde austral eta antartikoak", "name:fa": "مستعمره‌های جنوبی فرانسه", "name:fi": "Ranskan eteläiset ja antarktiset alueet", "name:fr": "Terres australes et antarctiques françaises", "name:fy": "Frânske Súdlike en Antarktyske Lannen", "name:ga": "Críocha Deisceartacha na Fraince", "name:gd": "Ranntairean a Deas na Frainge", "name:gl": "Terras Austrais e Antárticas Francesas", "name:gu": "ફ્રેંચ સદર્ન ટેરિટરીઝ", "name:he": "טריטוריות דרומיות של צרפת", "name:hi": "फ़्रांसीसी दक्षिणी क्षेत्र", "name:hr": "Francuski Južni i Antarktički Teritoriji", "name:hu": "Francia déli és antarktiszi területek", "name:ia": "Territorios meridional francese", "name:id": "Daratan Selatan dan Antarktika Perancis", "name:is": "Frönsku suðlægu landsvæðin", "name:it": "Terre Australi e Antartiche Francesi", "name:ja": "フランス領南方・南極地域", "name:ka": "ფრანგული სამხრეთის ტერიტორიები", "name:km": "ដែន​​ហ្វ្រេន​ខាង​ត្បូង", "name:kn": "ಫ್ರೆಂಚ್ ದಕ್ಷಿಣ ಪ್ರದೇಶಗಳು", "name:ko": "프랑스령 남부와 남극 지역", "name:ks": "فرٛانسِسی جَنوٗبی عَلاقہٕ", "name:ku": "Xakên Başûr û Antarktîk ên Fransayê", "name:kw": "Tiryow Deghow hag Antarktik Frynkek", "name:lo": "ອານາເຂດທາງໃຕ້ຂອງຝລັ່ງເສດ", "name:lt": "Prancūzijos Pietų Sritys", "name:lv": "Francijas Dienvidjūru un Antarktikas Zemes", "name:mk": "Француски Јужни територии", "name:ml": "ഫ്രഞ്ച് ദക്ഷിണ ഭൂപ്രദേശം", "name:mn": "Францын өмнөд газар нутаг", "name:mr": "फ्रेंच दाक्षिणात्य प्रदेश", "name:ms": "French Southern Territories", "name:mt": "Territorji Franċiżi ta’ Nofsinhar", "name:my": "ပြင်သစ် တောင်ပိုင်း ပိုင်နက်များ", "name:ne": "फ्रान्सेली दक्षिणी क्षेत्र", "name:nl": "Franse Zuidelijke en Antarctische Gebieden", "name:nn": "Franske sørområde", "name:no": "De franske sørterritorier", "name:oc": "Tèrras Australas e Antarticas Francesas", "name:or": "ଫରାସୀ ଦକ୍ଷିଣ କ୍ଷେତ୍ର", "name:pl": "Francuskie Terytoria Południowe i Antarktyczne", "name:pt": "Terras Austrais e Antárticas Francesas", "name:rm": "Territoris Franzos Meridiunals", "name:ro": "Teritoriile australe şi antarctice franceze", "name:ru": "Французские Южные и Антарктические территории", "name:sh": "Francuske Južne Teritorije", "name:si": "දකුණු ප්‍රංශ දූපත් සමූහය", "name:sk": "Francúzske južné a antarktické územia", "name:sl": "Francoske južne in antarktične dežele", "name:sr": "Француске јужне и антарктичке земље", "name:sv": "Franska sydterritorierna", "name:sw": "Maeneo ya Kusini ya Ufaransa", "name:ta": "பிரெஞ்சு தென்னக நிலங்களும் அண்டாடிக் நிலமும்", "name:te": "ఫ్రెంచ్ దక్షిణ ప్రాంతాలు", "name:th": "เฟรนช์เซาเทิร์นเทร์ริทอรีส์", "name:ti": "የፈረንሳይ ደቡባዊ ግዛቶች", "name:to": "Potu fonua tonga fakafalanisē", "name:tr": "Fransız Güney ve Antarktika Toprakları", "name:uk": "Французькі Південні території", "name:ur": "فرانسیسی جنوبی خطے", "name:vi": "Vùng đất phía Nam và châu Nam Cực thuộc Pháp", "name:zh": "法属南部领地", "name:zu": "e-French Southern Territories", "currency": "EUR", "name:ast": "Tierres Australes Franceses", "name:fur": "Teritoris meridionâi francês", "name:ksh": "Franzüüsesche Södsee-Enselle", "name:lij": "Tæritöi Françèisi Meridionâ e dell'Antartigo", "ref:INSEE": "984", "border_type": "territorial", "description": "France, collectivités d'outre-mer, territoires régis par l’article 74 de la Constitution", "is_in:ocean": "Indian", "is_in:country": "France", "name:be-tarask": "Францускія Паўднёвыя Тэрыторыі", "is_in:continent": "Africa;Antarctica", "official_name:cs": "Teritorium Francouzská jižní a antarktická území", "is_in:country_code": "FR"}, "iso1": "TF"}, "center_lat": -43.88, "center_lon": 54.27, "population": 196, "wikidata_id": "Q129003", "wikipedia_id": "fr:Terres australes et antarctiques françaises"}, "geometry": {"type": "MultiPolygon", "coordinates": [[[[52.255, -46.48], [52.255, -46.48], [52.255, -46.48], [52.255, -46.48]]], [[[52.328, -46.441], [52.328, -46.441], [52.328, -46.441], [52.328, -46.441]]], [[[52.317, -46.455], [52.317, -46.455], [52.317, -46.455], [52.317, -46.455]]], [[[50.411, -46.429], [50.411, -46.429], [50.411, -46.429], [50.411, -46.429]]], [[[51.793, -46.468], [51.793, -46.468], [51.793, -46.468], [51.793, -46.468]]], [[[51.871, -46.421], [51.871, -46.421], [51.871, -46.421], [51.871, -46.421]]], [[[52.211, -46.476], [52.211, -46.476], [52.211, -46.476], [52.211, -46.476]]], [[[52.214, -46.477], [52.214, -46.477], [52.214, -46.477], [52.214, -46.477]]], [[[52.215, -46.475], [52.215, -46.475], [52.215, -46.475], [52.215, -46.475]]], [[[51.8, -46.474], [51.8, -46.474], [51.8, -46.474], [51.8, -46.474]]], [[[51.8, -46.473], [51.8, -46.473], [51.8, -46.473], [51.8, -46.473]]], [[[51.799, -46.471], [51.799, -46.471], [51.799, -46.471], [51.799, -46.471]]], [[[51.799, -46.471], [51.799, -46.471], [51.799, -46.471], [51.799, -46.471]]], [[[52.091, -46.42], [52.092, -46.411], [52.119, -46.401], [52.158, -46.396], [52.189, -46.382], [52.217, -46.382], [52.218, -46.389], [52.232, -46.393], [52.243, -46.389], [52.265, -46.391], [52.318, -46.42], [52.316, -46.434], [52.324, -46.442], [52.304, -46.462], [52.26, -46.475], [52.231, -46.465], [52.216, -46.466], [52.209, -46.475], [52.183, -46.472], [52.156, -46.456], [52.131, -46.447], [52.116, -46.45], [52.114, -46.442], [52.091, -46.42]]], [[[50.295, -46.109], [50.287, -46.13], [50.272, -46.133], [50.266, -46.143], [50.253, -46.147], [50.237, -46.131], [50.222, -46.131], [50.189, -46.122], [50.169, -46.104], [50.165, -46.088], [50.175, -46.076], [50.193, -46.064], [50.267, -46.059], [50.275, -46.075], [50.292, -46.083], [50.295, -46.109]]], [[[50.377, -45.975], [50.377, -45.975], [50.377, -45.975], [50.377, -45.975]]], [[[50.391, -45.976], [50.391, -45.976], [50.391, -45.976], [50.391, -45.976]]], [[[50.419, -46.429], [50.391, -46.42], [50.391, -46.403], [50.403, -46.413], [50.416, -46.413], [50.426, -46.425], [50.419, -46.429]]], [[[51.861, -46.408], [51.875, -46.418], [51.861, -46.427], [51.868, -46.438], [51.852, -46.443], [51.828, -46.465], [51.815, -46.465], [51.807, -46.474], [51.793, -46.464], [51.749, -46.46], [51.726, -46.469], [51.722, -46.453], [51.7, -46.451], [51.674, -46.429], [51.667, -46.417], [51.651, -46.407], [51.656, -46.399], [51.641, -46.391], [51.644, -46.385], [51.668, -46.378], [51.704, -46.358], [51.717, -46.36], [51.731, -46.353], [51.734, -46.341], [51.767, -46.347], [51.776, -46.358], [51.79, -46.352], [51.784, -46.368], [51.799, -46.376], [51.803, -46.389], [51.818, -46.39], [51.83, -46.4], [51.846, -46.394], [51.861, -46.408]]], [[[51.859, -46.407], [51.859, -46.407], [51.859, -46.407], [51.859, -46.407]]], [[[50.387, -46.403], [50.387, -46.403], [50.387, -46.403], [50.387, -46.403]]], [[[51.813, -46.388], [51.813, -46.388], [51.813, -46.388], [51.813, -46.388]]], [[[51.804, -46.382], [51.804, -46.382], [51.804, -46.382], [51.804, -46.382]]], [[[51.806, -46.376], [51.806, -46.376], [51.806, -46.376], [51.806, -46.376]]], [[[51.645, -46.375], [51.645, -46.375], [51.645, -46.375], [51.645, -46.375]]], [[[51.687, -46.366], [51.687, -46.366], [51.687, -46.366], [51.687, -46.366]]], [[[51.77, -46.356], [51.77, -46.356], [51.77, -46.356], [51.77, -46.356]]], [[[51.781, -46.352], [51.781, -46.352], [51.781, -46.352], [51.781, -46.352]]], [[[51.773, -46.352], [51.773, -46.352], [51.773, -46.352], [51.773, -46.352]]], [[[50.392, -45.969], [50.392, -45.969], [50.392, -45.969], [50.392, -45.969]]], [[[50.393, -45.969], [50.393, -45.969], [50.393, -45.969], [50.393, -45.969]]], [[[50.397, -45.968], [50.397, -45.968], [50.397, -45.968], [50.397, -45.968]]], [[[50.396, -45.968], [50.396, -45.968], [50.396, -45.968], [50.396, -45.968]]], [[[50.402, -45.966], [50.402, -45.966], [50.402, -45.966], [50.402, -45.966]]], [[[50.396, -45.966], [50.396, -45.966], [50.396, -45.966], [50.396, -45.966]]], [[[50.416, -45.966], [50.416, -45.966], [50.416, -45.966], [50.416, -45.966]]], [[[50.414, -45.965], [50.414, -45.965], [50.414, -45.965], [50.414, -45.965]]], [[[50.397, -45.967], [50.397, -45.967], [50.397, -45.967], [50.397, -45.967]]], [[[50.396, -45.965], [50.396, -45.965], [50.396, -45.965], [50.396, -45.965]]], [[[50.406, -45.964], [50.406, -45.964], [50.406, -45.964], [50.406, -45.964]]], [[[50.41, -45.962], [50.41, -45.962], [50.41, -45.962], [50.41, -45.962]]], [[[50.421, -45.955], [50.421, -45.955], [50.421, -45.955], [50.421, -45.955]]], [[[50.435, -45.943], [50.435, -45.943], [50.435, -45.943], [50.435, -45.943]]], [[[50.435, -45.946], [50.435, -45.946], [50.435, -45.946], [50.435, -45.946]]], [[[50.452, -45.953], [50.452, -45.953], [50.452, -45.953], [50.452, -45.953]]], [[[50.451, -45.953], [50.451, -45.953], [50.451, -45.953], [50.451, -45.953]]], [[[50.423, -45.95], [50.423, -45.95], [50.423, -45.95], [50.423, -45.95]]], [[[50.453, -45.949], [50.453, -45.949], [50.453, -45.949], [50.453, -45.949]]], [[[50.433, -45.945], [50.433, -45.945], [50.433, -45.945], [50.433, -45.945]]], [[[50.436, -45.946], [50.436, -45.946], [50.436, -45.946], [50.436, -45.946]]], [[[50.436, -45.941], [50.436, -45.941], [50.436, -45.941], [50.436, -45.941]]], [[[77.522, -38.719], [77.536, -38.719], [77.548, -38.735], [77.51, -38.735], [77.505, -38.706], [77.52, -38.704], [77.533, -38.714], [77.522, -38.719]]], [[[77.535, -38.712], [77.535, -38.712], [77.535, -38.712], [77.535, -38.712]]], [[[77.52, -38.702], [77.52, -38.702], [77.52, -38.702], [77.52, -38.702]]], [[[77.546, -37.797], [77.559, -37.792], [77.576, -37.796], [77.59, -37.814], [77.597, -37.854], [77.571, -37.876], [77.559, -37.881], [77.536, -37.872], [77.532, -37.864], [77.516, -37.849], [77.513, -37.837], [77.529, -37.8], [77.546, -37.797]]], [[[40.373, -22.368], [40.373, -22.368], [40.373, -22.368], [40.373, -22.368]]], [[[40.384, -22.355], [40.384, -22.355], [40.384, -22.355], [40.384, -22.355]]], [[[40.383, -22.352], [40.383, -22.352], [40.383, -22.352], [40.383, -22.352]]], [[[39.729, -21.477], [39.729, -21.477], [39.729, -21.477], [39.729, -21.477]]], [[[39.739, -21.475], [39.739, -21.475], [39.739, -21.475], [39.739, -21.475]]], [[[40.382, -22.351], [40.382, -22.351], [40.382, -22.351], [40.382, -22.351]]], [[[40.379, -22.346], [40.379, -22.346], [40.379, -22.346], [40.379, -22.346]]], [[[40.367, -22.375], [40.367, -22.375], [40.367, -22.375], [40.367, -22.375]]], [[[40.368, -22.373], [40.368, -22.373], [40.368, -22.373], [40.368, -22.373]]], [[[40.368, -22.372], [40.368, -22.372], [40.368, -22.372], [40.368, -22.372]]], [[[40.375, -22.37], [40.375, -22.37], [40.375, -22.37], [40.375, -22.37]]], [[[40.392, -22.367], [40.399, -22.37], [40.377, -22.395], [40.368, -22.398], [40.35, -22.393], [40.33, -22.373], [40.332, -22.347], [40.351, -22.339], [40.372, -22.342], [40.377, -22.358], [40.354, -22.372], [40.357, -22.383], [40.381, -22.384], [40.392, -22.367]]], [[[39.645, -21.461], [39.645, -21.461], [39.645, -21.461], [39.645, -21.461]]], [[[42.732, -17.06], [42.723, -17.064], [42.712, -17.059], [42.699, -17.046], [42.732, -17.05], [42.75, -17.06], [42.732, -17.06]]], [[[54.527, -15.897], [54.527, -15.897], [54.527, -15.897], [54.527, -15.897]]], [[[47.298, -11.593], [47.298, -11.593], [47.298, -11.593], [47.298, -11.593]]], [[[47.301, -11.59], [47.29, -11.586], [47.286, -11.574], [47.297, -11.568], [47.311, -11.579], [47.301, -11.59]]], [[[47.332, -11.571], [47.332, -11.571], [47.332, -11.571], [47.332, -11.571]]], [[[47.379, -11.525], [47.379, -11.525], [47.379, -11.525], [47.379, -11.525]]], [[[47.377, -11.519], [47.377, -11.519], [47.377, -11.519], [47.377, -11.519]]], [[[47.381, -11.515], [47.381, -11.515], [47.381, -11.515], [47.381, -11.515]]], [[[50.419, -45.958], [50.419, -45.958], [50.419, -45.958], [50.419, -45.958]]], [[[50.402, -45.959], [50.402, -45.959], [50.402, -45.959], [50.402, -45.959]]], [[[50.404, -45.959], [50.404, -45.959], [50.404, -45.959], [50.404, -45.959]]], [[[50.406, -45.963], [50.406, -45.963], [50.406, -45.963], [50.406, -45.963]]], [[[50.409, -45.958], [50.409, -45.958], [50.409, -45.958], [50.409, -45.958]]], [[[50.397, -45.957], [50.397, -45.957], [50.397, -45.957], [50.397, -45.957]]], [[[50.409, -45.958], [50.409, -45.958], [50.409, -45.958], [50.409, -45.958]]], [[[50.418, -45.957], [50.418, -45.957], [50.418, -45.957], [50.418, -45.957]]], [[[50.433, -45.949], [50.454, -45.952], [50.436, -45.956], [50.432, -45.962], [50.42, -45.954], [50.433, -45.949]]]]}}