{"type": "Feature", "properties": {"name": "Mayotte", "iso2": "FR-YT", "admin_level": 6, "osm_id": 3388394, "countrylevel_id": "iso2:FR-YT", "osm_data": {"localname": "Mayotte", "official_name": "Département de Mayotte", "alltags": {"name:ak": "Mayɔte", "name:am": "ሜይኦቴ", "name:ar": "مايوت", "name:az": "Mayot", "name:be": "Маёта", "name:bg": "Мейот", "name:bm": "Mayoti", "name:bn": "মায়োত্তে", "name:bs": "Majote", "name:dz": "མེ་ཡོཊ", "name:ee": "Mayotte nutome", "name:el": "Μαγιότ", "name:en": "Mayotte", "name:eo": "Majoto", "name:fa": "مایوت", "name:ff": "Mayoot", "name:fr": "Mayotte", "name:gu": "મેયોટ", "name:ha": "Mayoti", "name:he": "מאיוט", "name:hi": "मैयट", "name:hr": "Majote", "name:ja": "マヨット", "name:km": "ម៉ាយុត", "name:kn": "ಮಯೊಟ್ಟೆ", "name:ko": "마요트", "name:ks": "مَییٹ", "name:ln": "Mayotɛ", "name:lo": "ມາຢອດ", "name:lt": "Majotas", "name:lv": "Majota", "name:mg": "Mayôty", "name:mk": "Мајоте", "name:ml": "മയോട്ട്", "name:mr": "मायोट्टे", "name:mt": "Majotte", "name:ne": "मायोट्ट", "name:or": "ମାୟୋଟେ", "name:pl": "Majotta", "name:rn": "Mayote", "name:ru": "Майотта", "name:sg": "Mäyôte", "name:si": "මයෝටි", "name:sr": "Мајоте", "name:ta": "மயோத்", "name:te": "మాయొట్టి", "name:th": "มายอต", "name:ti": "ሜይኦቴ", "name:to": "Meioti", "name:uk": "Майотта", "name:ur": "مایوٹ", "name:yo": "Orílẹ́ède Mayote", "name:zh": "马约特", "name:zu": "i-Mayotte", "name:kab": "Mayuṭ", "name:ksh": "Majott", "ref:NUTS": "FRA50", "ref:INSEE": "976", "description": "French overseas department", "official_name": "Département de Mayotte"}, "iso1": "YT"}, "center_lat": -12.82, "center_lon": 45.15, "timezone": "Indian/Mayotte", "population": 256518, "wikidata_id": "Q17063", "wikipedia_id": "fr:Mayotte"}, "geometry": {"type": "MultiPolygon", "coordinates": [[[[45.227, -13.021], [45.227, -13.021], [45.227, -13.021], [45.227, -13.021]]], [[[45.137, -13.004], [45.137, -13.004], [45.137, -13.004], [45.137, -13.004]]], [[[45.284, -12.828], [45.284, -12.828], [45.284, -12.828], [45.284, -12.828]]], [[[45.252, -12.827], [45.252, -12.827], [45.252, -12.827], [45.252, -12.827]]], [[[45.089, -12.847], [45.089, -12.847], [45.089, -12.847], [45.089, -12.847]]], [[[45.248, -12.839], [45.248, -12.839], [45.248, -12.839], [45.248, -12.839]]], [[[45.243, -12.839], [45.243, -12.839], [45.243, -12.839], [45.243, -12.839]]], [[[45.233, -12.837], [45.233, -12.837], [45.233, -12.837], [45.233, -12.837]]], [[[45.215, -12.986], [45.215, -12.986], [45.215, -12.986], [45.215, -12.986]]], [[[45.161, -12.975], [45.161, -12.975], [45.161, -12.975], [45.161, -12.975]]], [[[45.198, -12.932], [45.198, -12.932], [45.198, -12.932], [45.198, -12.932]]], [[[45.139, -12.921], [45.139, -12.921], [45.139, -12.921], [45.139, -12.921]]], [[[45.23, -12.899], [45.23, -12.899], [45.23, -12.899], [45.23, -12.899]]], [[[45.205, -12.92], [45.205, -12.92], [45.205, -12.92], [45.205, -12.92]]], [[[45.027, -12.657], [45.027, -12.657], [45.027, -12.657], [45.027, -12.657]]], [[[45.231, -12.814], [45.236, -12.805], [45.24, -12.812], [45.231, -12.814]]], [[[45.04, -12.722], [45.048, -12.716], [45.053, -12.7], [45.066, -12.7], [45.073, -12.683], [45.083, -12.679], [45.082, -12.672], [45.105, -12.651], [45.102, -12.662], [45.09, -12.672], [45.104, -12.677], [45.103, -12.684], [45.114, -12.688], [45.115, -12.696], [45.127, -12.701], [45.124, -12.712], [45.131, -12.731], [45.142, -12.734], [45.151, -12.729], [45.155, -12.737], [45.167, -12.722], [45.179, -12.73], [45.183, -12.727], [45.202, -12.729], [45.214, -12.741], [45.226, -12.744], [45.24, -12.761], [45.234, -12.776], [45.238, -12.782], [45.227, -12.786], [45.216, -12.801], [45.203, -12.81], [45.204, -12.82], [45.196, -12.823], [45.189, -12.839], [45.201, -12.863], [45.212, -12.863], [45.214, -12.873], [45.222, -12.874], [45.212, -12.891], [45.197, -12.898], [45.197, -12.914], [45.204, -12.92], [45.188, -12.916], [45.176, -12.935], [45.179, -12.943], [45.169, -12.95], [45.177, -12.965], [45.197, -12.976], [45.204, -12.975], [45.192, -12.987], [45.181, -12.985], [45.175, -12.995], [45.17, -12.977], [45.158, -12.976], [45.158, -12.989], [45.148, -13], [45.133, -12.99], [45.126, -12.996], [45.125, -12.983], [45.12, -12.98], [45.106, -12.987], [45.111, -12.96], [45.105, -12.958], [45.092, -12.967], [45.083, -12.961], [45.1, -12.947], [45.104, -12.933], [45.096, -12.925], [45.083, -12.922], [45.071, -12.899], [45.094, -12.898], [45.103, -12.905], [45.102, -12.918], [45.107, -12.924], [45.125, -12.93], [45.132, -12.936], [45.145, -12.936], [45.154, -12.925], [45.154, -12.917], [45.138, -12.891], [45.119, -12.877], [45.111, -12.864], [45.093, -12.853], [45.103, -12.844], [45.121, -12.84], [45.101, -12.834], [45.106, -12.814], [45.1, -12.798], [45.113, -12.794], [45.098, -12.792], [45.102, -12.766], [45.095, -12.77], [45.079, -12.767], [45.06, -12.751], [45.05, -12.752], [45.043, -12.744], [45.058, -12.728], [45.055, -12.723], [45.04, -12.722]]], [[[45.264, -12.785], [45.264, -12.785], [45.264, -12.785], [45.264, -12.785]]], [[[45.266, -12.781], [45.266, -12.781], [45.266, -12.781], [45.266, -12.781]]], [[[45.27, -12.778], [45.27, -12.778], [45.27, -12.778], [45.27, -12.778]]], [[[45.25, -12.772], [45.25, -12.772], [45.25, -12.772], [45.25, -12.772]]], [[[45.066, -12.76], [45.066, -12.76], [45.066, -12.76], [45.066, -12.76]]], [[[45.25, -12.759], [45.25, -12.759], [45.25, -12.759], [45.25, -12.759]]], [[[45.269, -12.75], [45.269, -12.75], [45.269, -12.75], [45.269, -12.75]]], [[[45.146, -12.726], [45.146, -12.726], [45.146, -12.726], [45.146, -12.726]]], [[[45.173, -12.719], [45.173, -12.719], [45.173, -12.719], [45.173, -12.719]]], [[[45.128, -12.689], [45.128, -12.689], [45.128, -12.689], [45.128, -12.689]]], [[[45.046, -12.672], [45.046, -12.672], [45.046, -12.672], [45.046, -12.672]]], [[[45.055, -12.677], [45.055, -12.677], [45.055, -12.677], [45.055, -12.677]]], [[[45.111, -12.676], [45.111, -12.676], [45.111, -12.676], [45.111, -12.676]]], [[[45.018, -12.644], [45.027, -12.637], [45.042, -12.648], [45.033, -12.656], [45.018, -12.644]]], [[[45.254, -12.783], [45.266, -12.789], [45.285, -12.759], [45.293, -12.768], [45.3, -12.784], [45.297, -12.794], [45.285, -12.804], [45.288, -12.817], [45.268, -12.79], [45.254, -12.783]]], [[[45.26, -12.774], [45.26, -12.774], [45.26, -12.774], [45.26, -12.774]]], [[[45.258, -12.771], [45.258, -12.771], [45.258, -12.771], [45.258, -12.771]]]]}}