{"type": "Feature", "properties": {"name": "Amhara Region", "iso2": "ET-AM", "admin_level": 4, "osm_id": 1707264, "countrylevel_id": "iso2:ET-AM", "osm_data": {"localname": "አማራ ክልል", "official_name": "", "alltags": {"name:am": "አማራ ክልል", "name:ar": "ولاية أمهرة", "name:en": "Amhara Region", "name:es": "Amhara", "name:fa": "منطقه امهارا", "name:fr": "Amhara", "name:ru": "Амхара", "name:uk": "Амхара", "name:ur": "امہارا علاقہ", "name:pnb": "صوبہ امہارا", "is_in:country": "Ethiopia", "is_in:continent": "Africa", "is_in:country_code": "ET"}}, "center_lat": 11.57, "center_lon": 38.05, "timezone": "Africa/Addis_Ababa", "population": 19120005, "wikidata_id": "Q203009", "wikipedia_id": "en:Amhara Region"}, "geometry": {"type": "MultiPolygon", "coordinates": [[[[35.268, 11.936], [35.549, 11.804], [35.953, 12.013], [36.169, 11.68], [36.532, 11.436], [36.286, 10.615], [36.523, 10.404], [37.035, 10.288], [37.697, 9.843], [38.431, 10.179], [38.477, 10.364], [38.847, 10.363], [38.834, 9.766], [39.082, 9.557], [39.342, 9.789], [39.251, 9.32], [39.313, 8.749], [39.769, 8.877], [39.811, 9.139], [39.847, 9.736], [40.023, 9.727], [40.141, 10.115], [40.181, 11.2], [39.877, 11.773], [39.78, 12.325], [39.293, 12.297], [39.175, 12.646], [39.323, 12.863], [38.731, 13.263], [38.681, 13.515], [38.052, 13.47], [37.778, 13.642], [37.629, 13.409], [37.011, 13.362], [36.454, 13.767], [36.427, 13.702], [36.249, 13.368], [36.14, 12.704], [35.699, 12.666], [35.268, 11.936]]]]}}