{"type": "Feature", "properties": {"name": "Southern Nations", "iso2": "ET-SN", "admin_level": 4, "osm_id": 1707657, "countrylevel_id": "iso2:ET-SN", "osm_data": {"localname": "ደቡብ ብሔሮች ብሔረሰቦችና ሕዝቦች ክልል", "official_name": "", "alltags": {"name:am": "ደቡብ ብሔሮች ብሔረሰቦችና ሕዝቦች ክልል", "name:ar": "الأمم الجنوبية", "name:en": "Southern Nations", "name:es": "Pueblos del Sur", "name:fr": "Nations du Sud", "name:pl": "Narodowości i Ludów Południa", "name:ru": "Народов юга", "name:uk": "Народів півдня", "long_name:ar": "منطقة الأمم الجنوبية", "is_in:country": "Ethiopia", "is_in:continent": "Africa", "is_in:country_code": "ET"}}, "center_lat": 6.48, "center_lon": 36.78, "timezone": "Africa/Addis_Ababa", "population": 14929548, "wikidata_id": "Q203193", "wikipedia_id": "en:Southern Nations, Nationalities, and Peoples' Region"}, "geometry": {"type": "MultiPolygon", "coordinates": [[[[34.192, 7.109], [34.627, 7.008], [35.334, 7.13], [35.263, 7.54], [35.361, 7.846], [35.803, 7.936], [36.035, 7.594], [36.936, 7.224], [37.448, 7.568], [37.395, 7.997], [37.604, 7.968], [37.615, 8.357], [38.481, 8.45], [38.72, 8.223], [38.12, 6.984], [38.326, 7.166], [38.646, 7.099], [38.639, 6.775], [39.068, 6.602], [39.135, 6.162], [38.775, 6.403], [38.43, 6.388], [38.218, 5.897], [38.083, 6.121], [38.249, 6.472], [37.811, 6.504], [37.805, 5.995], [38.078, 5.692], [37.904, 5.248], [36.972, 5.186], [36.715, 4.44], [36.213, 4.449], [36.015, 4.474], [35.955, 4.537], [35.954, 4.57], [35.944, 4.619], [35.818, 4.774], [35.862, 5.32], [35.126, 5.624], [35.001, 6.027], [35.022, 6.435], [34.192, 7.109]]]]}}