{"type": "Feature", "properties": {"name": "Tigray", "iso2": "ET-TI", "admin_level": 4, "osm_id": 1707148, "countrylevel_id": "iso2:ET-TI", "osm_data": {"localname": "ትግራይ", "official_name": "", "alltags": {"name:am": "ትግራይ", "name:ar": "تغراي", "name:en": "Tigray", "name:es": "Tigray", "name:fr": "Tigré", "name:ru": "Тыграй", "name:uk": "Тиграй", "official_name:am": "ትግራይ ክልል", "official_name:ar": "إقليم تغراي", "official_name:en": "Tigray Region"}}, "center_lat": 13.79, "center_lon": 38.48, "timezone": "Africa/Addis_Ababa", "population": 4960003, "wikidata_id": "Q200127"}, "geometry": {"type": "MultiPolygon", "coordinates": [[[[36.454, 13.767], [37.011, 13.362], [37.629, 13.409], [37.778, 13.642], [38.052, 13.47], [38.681, 13.515], [38.731, 13.263], [39.323, 12.863], [39.175, 12.646], [39.293, 12.297], [39.78, 12.325], [39.888, 12.79], [39.716, 13.252], [39.797, 14.052], [39.664, 14.154], [39.982, 14.448], [39.639, 14.604], [39.266, 14.413], [39.169, 14.649], [38.455, 14.413], [38.262, 14.674], [37.913, 14.894], [37.528, 14.185], [37.312, 14.447], [37.096, 14.274], [36.56, 14.257], [36.454, 13.767]]]]}}