{"type": "Feature", "properties": {"name": "Tochigi Prefecture", "iso2": "JP-09", "admin_level": 4, "osm_id": 1800742, "countrylevel_id": "iso2:JP-09", "osm_data": {"localname": "栃木県", "official_name": "", "alltags": {"name:cs": "prefektura Točigi", "name:en": "Tochigi Prefecture", "name:es": "Prefectura de Tochigi", "name:fr": "Préfecture de Tochigi", "name:it": "Prefettura di Tochigi", "name:ja": "栃木県", "name:ko": "도치기현", "name:pl": "Prefektura Tochigi", "name:ru": "Тотиги", "name:uk": "Префектура Тотіґі", "name:ja_rm": "Tochigi-ken", "name:ja_kana": "とちぎけん", "is_in:country": "Japan", "is_in:continent": "Asia", "sorting_name:cs": "Točigi", "is_in:country_code": "JP"}}, "center_lat": 36.68, "center_lon": 139.8, "timezone": "Asia/Tokyo", "population": 1942312, "wikidata_id": "Q44843", "wikipedia_id": "ja:栃木県"}, "geometry": {"type": "MultiPolygon", "coordinates": [[[[139.664, 36.208], [139.688, 36.2], [140.26, 36.518], [140.264, 36.933], [139.902, 37.154], [139.393, 36.911], [139.361, 36.384], [139.664, 36.208]]]]}}