{"type": "Feature", "properties": {"name": "Geneva", "iso2": "CH-GE", "admin_level": 4, "osm_id": 1702419, "countrylevel_id": "iso2:CH-GE", "osm_data": {"localname": "Genève", "official_name": "", "alltags": {"name:an": "Chinebra", "name:ar": "جنيف", "name:az": "Cenevrə", "name:be": "Жэнева", "name:bg": "Женева", "name:bo": "རི་ནོས་ཝ", "name:bs": "Ženeva", "name:ca": "Cantó de Ginebra", "name:cs": "Ženeva", "name:cy": "Genefa", "name:da": "Geneve", "name:el": "Γενεύη", "name:en": "Geneva", "name:eo": "Ĝenevo", "name:es": "Ginebra", "name:et": "Genf", "name:eu": "Geneva", "name:fa": "ژنو", "name:fi": "Geneve", "name:fr": "Genève", "name:he": "ז'נבה", "name:hu": "Genf", "name:id": "Jenewa", "name:it": "Ginevra", "name:ja": "ジュネーヴ", "name:lv": "Ženēva", "name:nl": "Genève", "name:pl": "Genewa", "name:rm": "Genevra", "name:ru": "Женева", "name:sk": "Ženeva", "name:sl": "Ženeva", "name:sr": "Женева", "name:th": "เจนีวา", "name:tr": "Cenevre", "name:vi": "Giơ-ne-vơ", "name:zh": "日內瓦", "alt_name": "Canton de Genève", "border_type": "region", "name:prefix": "Kanton", "old_name:vi": "Nhật Nội Ngỏa", "is_in:country": "Switzerland", "name:zh_pinyin": "Rìnèiwǎ", "is_in:continent": "Europe", "is_in:country_code": "CH", "swisstopo:KANTONSNUM": "25"}}, "center_lat": 46.21, "center_lon": 6.12, "timezone": "Europe/Zurich", "population": 499480, "wikidata_id": "Q11917", "wikipedia_id": "fr:Canton de Genève"}, "geometry": {"type": "MultiPolygon", "coordinates": [[[[6.17, 46.272], [6.17, 46.272], [6.17, 46.272], [6.17, 46.272]]], [[[6.153, 46.21], [6.153, 46.21], [6.153, 46.21], [6.153, 46.21]]], [[[6.242, 46.304], [6.253, 46.29], [6.238, 46.278], [6.267, 46.248], [6.285, 46.255], [6.31, 46.256], [6.31, 46.244], [6.295, 46.225], [6.277, 46.215], [6.247, 46.205], [6.233, 46.206], [6.205, 46.192], [6.186, 46.178], [6.189, 46.166], [6.174, 46.158], [6.149, 46.15], [6.136, 46.142], [6.099, 46.144], [6.092, 46.152], [6.075, 46.149], [6.052, 46.151], [6.036, 46.137], [6.015, 46.143], [5.982, 46.142], [5.973, 46.132], [5.956, 46.132], [5.984, 46.174], [5.995, 46.183], [5.964, 46.197], [5.979, 46.217], [5.993, 46.215], [6.013, 46.231], [6.034, 46.239], [6.046, 46.231], [6.063, 46.246], [6.067, 46.242], [6.088, 46.247], [6.101, 46.238], [6.124, 46.251], [6.103, 46.279], [6.102, 46.285], [6.12, 46.294], [6.126, 46.317], [6.141, 46.305], [6.17, 46.295], [6.172, 46.274], [6.152, 46.251], [6.149, 46.227], [6.154, 46.204], [6.173, 46.212], [6.191, 46.233], [6.198, 46.263], [6.213, 46.268], [6.243, 46.299], [6.242, 46.304]]], [[[6.167, 46.343], [6.167, 46.343], [6.167, 46.343], [6.167, 46.343]]], [[[6.207, 46.339], [6.195, 46.349], [6.173, 46.355], [6.18, 46.365], [6.213, 46.353], [6.207, 46.339]]]]}}