{"type": "Feature", "properties": {"name": "Jönköping County", "iso2": "SE-F", "admin_level": 4, "osm_id": 54374, "countrylevel_id": "iso2:SE-F", "osm_data": {"localname": "Jönköpings län", "official_name": "", "alltags": {"name:ar": "محافظة يونشوبينغ", "name:bs": "Kotar Jönköping", "name:ca": "Comtat de Jönköping", "name:en": "Jönköping County", "name:es": "Provincia de Jönköping", "name:et": "Jönköpingi lään", "name:eu": "Jönköpingeko konderria", "name:fa": "شهرستان یونشوپینگ", "name:fi": "Jönköpingin lääni", "name:fr": "Comté de Jönköping", "name:gl": "Condado de Jönköping", "name:he": "מחוז ינשפינג", "name:hi": "योनशोपिंग लैन", "name:hr": "Županija Jönköping", "name:hu": "Jönköping megye", "name:id": "Daerah Jönköping", "name:it": "Contea di Jönköping", "name:ja": "ヨンショーピング県", "name:ko": "옌셰핑 주", "name:kw": "Konteth Jönköping", "name:la": "Iunecopiae Comitatus", "name:lt": "Jonšiopingo lėnas", "name:lv": "Jenšēpingas lēne", "name:ms": "Daerah Jönköping", "name:ru": "Йёнчёпинг", "name:tr": "Jönköping ili", "name:ur": "یونشوپنگ کاؤنٹی", "name:vo": "Yönköpingiän", "name:zh": "延雪平省", "ref:fips": "SW08", "ref:nuts:1": "SE2", "ref:nuts:2": "SE21", "ref:nuts:3": "SE211", "ref:se:scb": "06"}}, "center_lat": 57.53, "center_lon": 14.38, "timezone": "Europe/Stockholm", "population": 363599, "wikidata_id": "Q103672", "wikipedia_id": "sv:Jönköpings län"}, "geometry": {"type": "MultiPolygon", "coordinates": [[[[13.681, 56.972], [14.256, 56.887], [14.348, 57.145], [15.515, 57.202], [15.421, 57.705], [15.128, 57.717], [14.978, 58.152], [14.418, 58.191], [13.805, 58.055], [13.689, 57.558], [13.1, 57.146], [13.681, 56.972]], [[13.625, 56.999], [13.625, 56.999], [13.625, 56.999], [13.625, 56.999]]], [[[13.194, 57.056], [13.194, 57.056], [13.194, 57.056], [13.194, 57.056]]], [[[13.637, 57.594], [13.637, 57.594], [13.637, 57.594], [13.637, 57.594]], [[13.646, 57.602], [13.646, 57.602], [13.646, 57.602], [13.646, 57.602]]], [[[14.14, 57.009], [14.14, 57.009], [14.14, 57.009], [14.14, 57.009]]]]}}