{"type": "Feature", "properties": {"name": "Kelantan", "iso2": "MY-03", "admin_level": 4, "osm_id": 4443571, "countrylevel_id": "iso2:MY-03", "osm_data": {"localname": "Kelantan", "official_name": "", "alltags": {"name:ar": "كلنتن", "name:bg": "Келантан", "name:en": "Kelantan", "name:eo": "Kelantano", "name:et": "Kelantani osariik", "name:fa": "کلانتان", "name:he": "קלנטן", "name:hi": "केलंतन", "name:ja": "クランタン", "name:ko": "클란탄", "name:lt": "Kelantanas", "name:mk": "Келантан", "name:mr": "कलांतान", "name:ms": "Kelantan", "name:qu": "Kelantan suyu", "name:ru": "Келантан", "name:ta": "கிளாந்தான்", "name:th": "รัฐกลันตัน", "name:uk": "Келантан", "name:ur": "کیلانتن", "name:zh": "吉兰丹", "alt_name": "Negeri Kelantan Darul Naim"}}, "center_lat": 5.28, "center_lon": 102.03, "timezone": "Asia/Kuala_Lumpur", "population": 1459994, "wikidata_id": "Q185944", "wikipedia_id": "en:Kelantan"}, "geometry": {"type": "MultiPolygon", "coordinates": [[[[102.536, 5.846], [102.488, 5.791], [102.431, 5.746], [102.398, 5.697], [102.38, 5.692], [102.396, 5.582], [102.408, 5.545], [102.381, 5.518], [102.402, 5.438], [102.384, 5.416], [102.438, 5.355], [102.419, 5.306], [102.411, 5.182], [102.474, 5.158], [102.528, 5.108], [102.498, 5.073], [102.52, 5.025], [102.5, 5.007], [102.521, 4.96], [102.505, 4.902], [102.573, 4.894], [102.592, 4.872], [102.651, 4.845], [102.644, 4.824], [102.666, 4.781], [102.658, 4.762], [102.611, 4.781], [102.595, 4.739], [102.604, 4.688], [102.55, 4.711], [102.53, 4.677], [102.501, 4.668], [102.446, 4.713], [102.379, 4.714], [102.344, 4.642], [102.318, 4.636], [102.272, 4.662], [102.222, 4.627], [102.175, 4.658], [102.175, 4.677], [102.124, 4.722], [102.117, 4.761], [102.051, 4.726], [101.964, 4.765], [101.95, 4.758], [101.953, 4.712], [101.939, 4.659], [101.912, 4.61], [101.894, 4.616], [101.888, 4.673], [101.847, 4.688], [101.822, 4.749], [101.779, 4.759], [101.764, 4.622], [101.674, 4.595], [101.652, 4.557], [101.551, 4.576], [101.533, 4.605], [101.48, 4.6], [101.452, 4.575], [101.426, 4.606], [101.374, 4.614], [101.377, 4.631], [101.334, 4.683], [101.343, 4.712], [101.388, 4.721], [101.374, 4.761], [101.415, 4.812], [101.399, 4.834], [101.446, 4.858], [101.454, 4.894], [101.445, 4.959], [101.424, 4.984], [101.448, 4.997], [101.478, 5.111], [101.485, 5.174], [101.51, 5.199], [101.521, 5.269], [101.573, 5.292], [101.574, 5.325], [101.621, 5.351], [101.669, 5.326], [101.737, 5.352], [101.753, 5.374], [101.739, 5.398], [101.736, 5.459], [101.748, 5.502], [101.697, 5.5], [101.655, 5.52], [101.687, 5.587], [101.655, 5.621], [101.66, 5.669], [101.694, 5.703], [101.692, 5.755], [101.718, 5.787], [101.754, 5.797], [101.793, 5.751], [101.819, 5.754], [101.836, 5.789], [101.866, 5.791], [101.88, 5.832], [101.917, 5.843], [101.944, 5.872], [101.93, 5.91], [101.94, 5.973], [101.971, 6.018], [102.052, 6.078], [102.093, 6.146], [102.078, 6.173], [102.091, 6.244], [102.156, 6.21], [102.185, 6.227], [102.242, 6.216], [102.345, 6.169], [102.372, 6.13], [102.459, 5.936], [102.483, 5.898], [102.536, 5.846]]]]}}