{"type": "Feature", "properties": {"name": "Brandenburg", "iso2": "DE-BB", "admin_level": 4, "osm_id": 62504, "countrylevel_id": "iso2:DE-BB", "osm_data": {"localname": "Brandenburg", "official_name": "", "alltags": {"name:am": "ብራንደንቡርግ", "name:an": "Brandemburgo", "name:ar": "براندنبورغ", "name:ay": "Brandenburg suyu", "name:az": "Brandenburq", "name:ba": "Бранденбург", "name:be": "Брандэнбург", "name:bg": "Бранденбург", "name:bn": "ব্রান্ডেনবুর্গ", "name:ca": "Brandenburg", "name:ce": "Бранденбург", "name:cs": "Braniborsko", "name:cv": "Бранденбург", "name:el": "Βρανδεμβούργο", "name:eo": "Brandenburgio", "name:es": "Brandemburgo", "name:eu": "Brandenburgo", "name:fa": "براندنبورگ", "name:fr": "Brandebourg", "name:fy": "Brandenburch", "name:gl": "Brandeburgo", "name:gn": "Brandeburgo", "name:he": "ברנדנבורג", "name:hi": "ब्रैंडेनबर्ग", "name:hy": "Բրանդենբուրգ", "name:ia": "Brandeburgo", "name:ie": "Brandenburgia", "name:is": "Brandenborg", "name:it": "Brandeburgo", "name:ja": "ブランデンブルク州", "name:ka": "ბრანდენბურგი", "name:kk": "Бранденбург", "name:ko": "브란덴부르크 주", "name:la": "Brandenburgum", "name:lb": "Brandenburg", "name:li": "Brandeburg", "name:lt": "Brandenburgas", "name:lv": "Brandenburga", "name:mk": "Бранденбург", "name:mn": "Бранденбург", "name:mr": "ब्रांडेनबुर्ग", "name:ne": "ब्रान्डेनबर्ग", "name:nl": "Brandenburg", "name:oc": "Brandeborg", "name:os": "Бранденбург", "name:pa": "ਬ੍ਰਾਂਡਨਬੁਰਕ", "name:pl": "Brandenburgia", "name:ps": "براندنبورگ", "name:pt": "Brandemburgo", "name:ru": "Бранденбург", "name:sk": "Brandenbursko", "name:sq": "Brandenburgu", "name:sr": "Бранденбург", "name:th": "รัฐบรันเดินบวร์ค", "name:tl": "Brandeburgo", "name:uk": "Бранденбург", "name:ur": "برندنبرگ", "name:vo": "Brandänburgän", "name:yi": "בראנדנבורג", "name:zh": "勃兰登堡", "name:hsb": "Braniborska", "alt_name:cs": "Země Braniborsko", "border_type": "state", "name:prefix": "Bundesland", "TMC:cid_58:tabcd_1:Class": "Area", "TMC:cid_58:tabcd_1:LCLversion": "12.0", "TMC:cid_58:tabcd_1:LocationCode": "267"}}, "center_lat": 52.47, "center_lon": 13.43, "timezone": "Europe/Berlin", "population": 2449193, "wikidata_id": "Q1208", "wikipedia_id": "de:Brandenburg"}, "geometry": {"type": "MultiPolygon", "coordinates": [[[[11.266, 53.122], [11.598, 53.036], [12.258, 52.805], [12.216, 52.171], [13.132, 51.882], [13.051, 51.648], [13.213, 51.398], [13.997, 51.385], [14.73, 51.582], [14.759, 52.066], [14.564, 52.625], [14.124, 52.844], [14.412, 53.33], [13.784, 53.552], [13.002, 53.169], [12.245, 53.333], [11.266, 53.122]], [[12.284, 52.236], [12.284, 52.236], [12.284, 52.236], [12.284, 52.236]], [[13.088, 52.42], [13.523, 52.645], [13.647, 52.37], [13.088, 52.42]], [[13.503, 52.619], [13.503, 52.619], [13.503, 52.619], [13.503, 52.619]]], [[[12.218, 52.861], [12.218, 52.861], [12.218, 52.861], [12.218, 52.861]]], [[[12.26, 52.23], [12.26, 52.23], [12.26, 52.23], [12.26, 52.23]]], [[[12.265, 52.232], [12.265, 52.232], [12.265, 52.232], [12.265, 52.232]]], [[[12.276, 52.228], [12.276, 52.228], [12.276, 52.228], [12.276, 52.228]]], [[[12.283, 52.227], [12.283, 52.227], [12.283, 52.227], [12.283, 52.227]]], [[[12.286, 52.226], [12.286, 52.226], [12.286, 52.226], [12.286, 52.226]]]]}}