{"type": "Feature", "properties": {"name": "Saxony-Anhalt", "iso2": "DE-ST", "admin_level": 4, "osm_id": 62607, "countrylevel_id": "iso2:DE-ST", "osm_data": {"localname": "Sachsen-Anhalt", "official_name": "", "alltags": {"name:ar": "سكسونيا أنهالت", "name:ca": "Saxònia-Anhalt", "name:cs": "Sasko-Anhaltsko", "name:en": "Saxony-Anhalt", "name:eo": "Saksujo-Anhalto", "name:es": "Sajonia-Anhalt", "name:fa": "زاکسن-آنهالت", "name:fr": "Saxe-Anhalt", "name:hr": "Saska-Anhalt", "name:ia": "Saxonia-Anhaltinia", "name:io": "Saxonia-Anhalt", "name:lt": "Saksonija-Anhaltas", "name:mk": "Саксонија-Анхалт", "name:nl": "Saksen-Anhalt", "name:pl": "Saksonia-Anhalt", "name:ru": "Саксония-Анхальт", "name:sk": "Sasko-Anhaltsko", "name:sl": "Saška-Anhalt", "name:sr": "Саксонија-Анхалт", "name:uk": "Саксонія-Ангальт", "name:ur": "زاکسن-آنہالت", "name:vo": "Saxän-Lanhaltän", "name:hsb": "Saksko-Anhaltska", "alt_name:eo": "Saksio-Anhalto", "border_type": "state", "name:prefix": "Bundesland", "TMC:cid_58:tabcd_1:Class": "Area", "TMC:cid_58:tabcd_1:LCLversion": "12.0", "TMC:cid_58:tabcd_1:LocationCode": "270"}}, "center_lat": 52.02, "center_lon": 11.7, "timezone": "Europe/Berlin", "population": 2245470, "wikidata_id": "Q1206", "wikipedia_id": "de:Sachsen-Anhalt"}, "geometry": {"type": "MultiPolygon", "coordinates": [[[[10.702, 51.641], [11.322, 51.41], [11.464, 51.113], [12.011, 50.97], [12.283, 51.092], [12.233, 51.561], [13.051, 51.648], [13.132, 51.882], [12.216, 52.171], [12.258, 52.805], [11.598, 53.036], [10.765, 52.842], [11.086, 52.229], [10.561, 52.004], [10.702, 51.641]], [[12.218, 52.861], [12.218, 52.861], [12.218, 52.861], [12.218, 52.861]], [[12.26, 52.23], [12.26, 52.23], [12.26, 52.23], [12.26, 52.23]], [[12.265, 52.232], [12.265, 52.232], [12.265, 52.232], [12.265, 52.232]], [[12.276, 52.228], [12.276, 52.228], [12.276, 52.228], [12.276, 52.228]], [[12.283, 52.227], [12.283, 52.227], [12.283, 52.227], [12.283, 52.227]], [[12.286, 52.226], [12.286, 52.226], [12.286, 52.226], [12.286, 52.226]]], [[[11.414, 51.333], [11.414, 51.333], [11.414, 51.333], [11.414, 51.333]]], [[[11.44, 51.199], [11.44, 51.199], [11.44, 51.199], [11.44, 51.199]]], [[[12.284, 52.236], [12.284, 52.236], [12.284, 52.236], [12.284, 52.236]]]]}}