{"type": "Feature", "properties": {"name": "Daegu", "iso2": "KR-27", "admin_level": 4, "osm_id": 2395674, "countrylevel_id": "iso2:KR-27", "osm_data": {"localname": "대구", "official_name": "대구광역시", "alltags": {"name:af": "Daegu", "name:ar": "ديغو", "name:bg": "Тегу", "name:ca": "Daegu", "name:cs": "Tegu", "name:da": "Daegu", "name:el": "Νταεγού", "name:en": "Daegu", "name:eo": "Taeguo", "name:es": "Daegu", "name:et": "Daegu", "name:eu": "Daegu", "name:fa": "دائجو", "name:fi": "Daegu", "name:fr": "Daegu", "name:he": "טגו", "name:id": "Daegu", "name:io": "Daegu", "name:it": "Daegu", "name:ja": "大邱", "name:kl": "Daegu", "name:ko": "대구", "name:la": "Daegu", "name:lt": "Tegu", "name:lv": "Tegu", "name:mi": "Daegu", "name:ml": "ദേഗു", "name:mn": "Тэгү", "name:mr": "दैगू", "name:ms": "Daegu", "name:nl": "Daegu", "name:nn": "Daegu", "name:no": "Daegu", "name:os": "Тэгу", "name:pl": "Daegu", "name:pt": "Daegu", "name:ro": "Daegu", "name:ru": "Тэгу", "name:sk": "Tägu", "name:sr": "Тегу", "name:sv": "Daegu", "name:sw": "Daegu", "name:th": "แทกู", "name:tl": "Daegu", "name:tr": "Daegu", "name:uk": "Тегу", "name:vi": "Daegu", "name:zh": "大邱", "population": "2528933", "loc_name:en": "Daegu city", "loc_name:ja": "大邱市", "loc_name:ko": "대구시", "loc_name:zh": "大邱市", "old_name:en": "Taegu", "name:ko-Latn": "Daegu", "name:zh-Hant": "大邱", "name:ko_hanja": "大邱", "official_name": "대구광역시", "short_name:ja": "大邱", "short_name:ko": "대구", "short_name:zh": "大邱", "loc_name:ko-Latn": "Daegu-si", "official_name:en": "Daegu Metropolitan City", "official_name:ja": "大邱広域市", "official_name:ko": "대구광역시", "official_name:zh": "大邱广域市", "loc_name:ko_hanja": "大邱市", "short_name:ko-Latn": "Daegu", "short_name:ko_hanja": "大邱", "official_name:zh-Hant": "大邱廣域市"}}, "center_lat": 35.79, "center_lon": 128.55, "timezone": "Asia/Seoul", "population": 2461002, "wikidata_id": "Q20927", "wikipedia_id": "ko:대구광역시"}, "geometry": {"type": "MultiPolygon", "coordinates": [[[[128.371, 35.611], [128.526, 35.682], [128.718, 35.835], [128.72, 35.836], [128.555, 35.965], [128.553, 35.963], [128.371, 35.611]]]]}}