{"type": "Feature", "properties": {"name": "Chiang Mai Province", "iso2": "TH-50", "admin_level": 4, "osm_id": 1908771, "countrylevel_id": "iso2:TH-50", "osm_data": {"localname": "จังหวัดเชียงใหม่", "official_name": "", "alltags": {"name:en": "Chiang Mai Province", "name:fr": "Province de Chiang Mai", "name:ja": "チエンマイ県", "name:pl": "Chiang Mai", "name:ru": "Чиангмай", "name:th": "จังหวัดเชียงใหม่", "name:uk": "Чіангмай", "name:th-Latn": "Changwat Chiang Mai"}}, "center_lat": 18.77, "center_lon": 98.72, "timezone": "Asia/Bangkok", "population": 1763742, "wikidata_id": "Q233588", "wikipedia_id": "en:Chiang Mai Province"}, "geometry": {"type": "MultiPolygon", "coordinates": [[[[98.302, 17.696], [98.337, 17.301], [98.563, 17.288], [98.704, 17.752], [98.911, 17.82], [98.668, 18.306], [99.005, 18.663], [99.315, 18.53], [99.401, 19], [99.266, 19.656], [99.513, 20.148], [99.159, 20.133], [98.991, 19.742], [98.467, 19.693], [98.649, 19.067], [98.116, 19.081], [98.086, 17.997], [98.302, 17.696]]]]}}