{"type": "Feature", "properties": {"name": "Songkhla Province", "iso2": "TH-90", "admin_level": 4, "osm_id": 1908822, "countrylevel_id": "iso2:TH-90", "osm_data": {"localname": "จังหวัดสงขลา", "official_name": "", "alltags": {"name:en": "Songkhla Province", "name:ja": "ソンクラー県", "name:pl": "Songkhla", "name:ru": "Сонгкхла", "name:th": "จังหวัดสงขลา", "name:uk": "Сонгкхла", "name:zh": "宋卡府", "name:th-Latn": "Changwat Songkhla"}}, "center_lat": 6.95, "center_lon": 100.55, "timezone": "Asia/Bangkok", "population": 1432628, "wikidata_id": "Q235574", "wikipedia_id": "en:Songkhla Province"}, "geometry": {"type": "MultiPolygon", "coordinates": [[[[101.055, 6.855], [101.101, 6.638], [100.842, 6.302], [100.709, 6.471], [100.708, 6.47], [100.367, 6.54], [100.327, 6.664], [100.327, 6.664], [100.205, 6.726], [100.046, 7.063], [100.031, 7.092], [100.429, 7.307], [100.129, 7.802], [100.336, 7.931], [100.508, 7.318], [101.055, 6.855]]], [[[100.596, 7.239], [100.596, 7.239], [100.596, 7.239], [100.596, 7.239]]], [[[100.588, 7.262], [100.588, 7.262], [100.588, 7.262], [100.588, 7.262]]]]}}