{"type": "Feature", "properties": {"name": "Lisbon", "iso2": "PT-11", "admin_level": 6, "osm_id": 2897141, "countrylevel_id": "iso2:PT-11", "osm_data": {"localname": "Lisboa", "official_name": "Distrito de Lisboa", "alltags": {"name:en": "Lisbon", "name:es": "Lisboa", "name:fr": "Lisbonne", "name:it": "Lisbona", "name:la": "Olisipo", "name:nl": "Lissabon", "name:pt": "Lisboa", "name:ro": "Lisabona", "name:ru": "Лиссабон", "ine:code": "11", "population": "2250533", "start_date": "1835", "border_type": "distrito", "official_name": "Distrito de Lisboa", "population:date": "2011", "official_name:en": "Lisbon District", "official_name:fr": "District de Lisbonne", "official_name:pt": "Distrito de Lisboa"}}, "center_lat": 39.03, "center_lon": -9.19, "timezone": "Europe/Lisbon", "population": 2135992, "wikidata_id": "Q207199", "wikipedia_id": "pt:Distrito de Lisboa"}, "geometry": {"type": "MultiPolygon", "coordinates": [[[[-8.999, 38.885], [-8.999, 38.885], [-8.999, 38.885], [-8.999, 38.885]]], [[[-9, 38.922], [-9, 38.922], [-9, 38.922], [-9, 38.922]]], [[[-9.478, 38.754], [-9.478, 38.754], [-9.478, 38.754], [-9.478, 38.754]]], [[[-9.48, 38.756], [-9.48, 38.756], [-9.48, 38.756], [-9.48, 38.756]]], [[[-9.483, 38.757], [-9.483, 38.757], [-9.483, 38.757], [-9.483, 38.757]]], [[[-8.974, 38.83], [-8.974, 38.83], [-8.974, 38.83], [-8.974, 38.83]]], [[[-9.047, 38.861], [-9.047, 38.861], [-9.047, 38.861], [-9.047, 38.861]]], [[[-9.341, 39.292], [-8.995, 39.297], [-8.895, 38.92], [-9.486, 38.708], [-9.341, 39.292]]]]}}