{"type": "Feature", "properties": {"name": "Kansas", "iso2": "US-KS", "admin_level": 4, "osm_id": 161644, "countrylevel_id": "iso2:US-KS", "osm_data": {"localname": "Kansas", "official_name": "", "alltags": {"name:ar": "كانساس", "name:az": "Kanzas", "name:bn": "ক্যানসাস", "name:br": "Kansas", "name:el": "Κάνσας", "name:en": "Kansas", "name:eo": "Kansaso", "name:fa": "کانزاس", "name:he": "קנזס", "name:hi": "कैंसास", "name:ht": "Kènsas", "name:hy": "Կանզաս", "name:ja": "カンザス州", "name:ka": "კანზასი", "name:kn": "ಕ್ಯಾನ್ಸಸ್", "name:ko": "캔자스", "name:lt": "Kanzasas", "name:lv": "Kanzasa", "name:ml": "കാന്സസ്", "name:mr": "कॅन्सस", "name:nv": "Kénsis Hahoodzo", "name:pl": "Kansas", "name:qu": "Kansas suyu", "name:ru": "Канзас", "name:sa": "केन्सास", "name:sh": "Kanzas", "name:sr": "Канзас", "name:ta": "கேன்சஸ்", "name:th": "รัฐแคนซัส", "name:uk": "Канзас", "name:ur": "کنساس", "name:uz": "Kanzas", "name:yi": "קענזעס", "name:zh": "堪萨斯州", "name:arc": "ܟܐܢܣܐܣ", "ref:fips": "20", "is_in:country_code": "US"}}, "center_lat": 38.48, "center_lon": -98.38, "timezone": "America/Chicago", "population": 2913314, "wikidata_id": "Q1558", "wikipedia_id": "en:Kansas"}, "geometry": {"type": "MultiPolygon", "coordinates": [[[[-102.052, 40.003], [-102.051, 39.843], [-102.047, 39.045], [-102.045, 38.813], [-102.045, 38.269], [-102.042, 37.644], [-102.042, 37.389], [-102.042, 36.993], [-101.905, 36.994], [-101.485, 36.996], [-101.343, 36.996], [-100.946, 36.998], [-100.633, 37], [-100.089, 37.002], [-99.995, 37.002], [-99.875, 37.002], [-99.558, 37], [-99.375, 37], [-99.337, 37], [-99.05, 36.999], [-99.029, 37], [-98.698, 36.999], [-98.409, 36.999], [-98.354, 36.998], [-98.112, 36.998], [-97.462, 36.999], [-97.03, 36.999], [-96.528, 36.999], [-96.141, 36.999], [-95.787, 36.999], [-95.408, 36.999], [-94.995, 37], [-94.841, 36.999], [-94.618, 36.999], [-94.618, 37.189], [-94.617, 37.522], [-94.618, 37.722], [-94.618, 37.773], [-94.615, 37.944], [-94.614, 38.15], [-94.613, 38.215], [-94.613, 38.458], [-94.612, 38.635], [-94.608, 38.828], [-94.608, 38.98], [-94.607, 39.12], [-94.592, 39.135], [-94.589, 39.153], [-94.609, 39.161], [-94.628, 39.155], [-94.653, 39.155], [-94.662, 39.164], [-94.66, 39.175], [-94.674, 39.184], [-94.689, 39.183], [-94.714, 39.171], [-94.736, 39.169], [-94.764, 39.18], [-94.773, 39.197], [-94.787, 39.208], [-94.804, 39.206], [-94.827, 39.212], [-94.835, 39.221], [-94.828, 39.234], [-94.827, 39.25], [-94.844, 39.267], [-94.879, 39.281], [-94.898, 39.298], [-94.908, 39.323], [-94.91, 39.351], [-94.903, 39.361], [-94.889, 39.365], [-94.88, 39.381], [-94.888, 39.392], [-94.905, 39.392], [-94.922, 39.384], [-94.94, 39.388], [-94.952, 39.412], [-94.972, 39.421], [-94.987, 39.445], [-95.028, 39.458], [-95.042, 39.467], [-95.048, 39.479], [-95.05, 39.495], [-95.059, 39.506], [-95.08, 39.515], [-95.105, 39.535], [-95.113, 39.552], [-95.108, 39.573], [-95.09, 39.581], [-95.065, 39.576], [-95.054, 39.582], [-95.047, 39.605], [-95.054, 39.616], [-95.05, 39.638], [-95.031, 39.662], [-95.01, 39.675], [-94.984, 39.678], [-94.969, 39.69], [-94.971, 39.732], [-94.963, 39.742], [-94.949, 39.746], [-94.915, 39.728], [-94.901, 39.724], [-94.883, 39.727], [-94.862, 39.742], [-94.859, 39.759], [-94.87, 39.773], [-94.906, 39.759], [-94.917, 39.761], [-94.934, 39.774], [-94.926, 39.79], [-94.893, 39.791], [-94.881, 39.797], [-94.877, 39.824], [-94.887, 39.833], [-94.917, 39.836], [-94.943, 39.857], [-94.931, 39.873], [-94.928, 39.886], [-94.944, 39.898], [-94.959, 39.902], [-94.987, 39.897], [-95.006, 39.901], [-95.024, 39.892], [-95.025, 39.877], [-95.036, 39.866], [-95.082, 39.862], [-95.128, 39.873], [-95.141, 39.882], [-95.144, 39.902], [-95.16, 39.907], [-95.177, 39.9], [-95.193, 39.9], [-95.204, 39.907], [-95.201, 39.935], [-95.213, 39.943], [-95.24, 39.944], [-95.254, 39.952], [-95.269, 39.969], [-95.305, 39.987], [-95.308, 40], [-95.565, 40], [-95.883, 40], [-96.163, 40.001], [-96.483, 40.001], [-96.881, 40.002], [-97.069, 40.002], [-97.463, 40.002], [-97.822, 40.002], [-97.876, 40.002], [-98.1, 40.002], [-98.505, 40.002], [-98.935, 40.002], [-99.254, 40.002], [-99.403, 40.002], [-99.817, 40.002], [-100.094, 40.002], [-100.272, 40.002], [-100.645, 40.002], [-101.004, 40.002], [-101.411, 40.002], [-101.783, 40.003], [-102.052, 40.003]]]]}}