{"type": "Feature", "properties": {"name": "Nevada", "iso2": "US-NV", "admin_level": 4, "osm_id": 165473, "countrylevel_id": "iso2:US-NV", "osm_data": {"localname": "Nevada", "official_name": "", "alltags": {"name:ar": "نيفادا", "name:bn": "নেভাডা", "name:br": "Nevada", "name:el": "Νεβάδα", "name:en": "Nevada", "name:eo": "Nevado", "name:fa": "نوادا", "name:he": "נבדה", "name:hi": "नेवाडा", "name:hy": "Նևադա", "name:ja": "ネバダ州", "name:ka": "ნევადა", "name:ko": "네바다", "name:ml": "നെവാഡ", "name:mr": "नेव्हाडा", "name:nv": "Ná'aazhoozh Hahoodzo", "name:os": "Невадæ", "name:pl": "Nevada", "name:qu": "Nevada suyu", "name:ru": "Невада", "name:sr": "Невада", "name:ta": "நெவாடா", "name:th": "มลรัฐเนวาดา", "name:tl": "Nebada", "name:uk": "Невада", "name:ur": "نیواڈا", "name:yi": "נעוואדא", "name:zh": "内华达州", "name:arc": "ܢܝܒܐܕܐ", "name:hak": "Nui-fà-tha̍t", "name:szl": "Newada", "ref:fips": "32", "is_in:country_code": "US"}}, "center_lat": 39.36, "center_lon": -116.66, "timezone": "America/Los_Angeles", "population": 3080156, "wikidata_id": "Q1227", "wikipedia_id": "en:Nevada"}, "geometry": {"type": "MultiPolygon", "coordinates": [[[[-114.633, 35.002], [-114.638, 35.025], [-114.63, 35.041], [-114.61, 35.056], [-114.603, 35.065], [-114.607, 35.078], [-114.646, 35.102], [-114.624, 35.12], [-114.588, 35.124], [-114.577, 35.132], [-114.569, 35.171], [-114.572, 35.2], [-114.58, 35.212], [-114.587, 35.264], [-114.596, 35.292], [-114.596, 35.328], [-114.61, 35.365], [-114.666, 35.464], [-114.679, 35.498], [-114.676, 35.514], [-114.664, 35.535], [-114.663, 35.562], [-114.675, 35.58], [-114.657, 35.594], [-114.653, 35.606], [-114.69, 35.654], [-114.681, 35.684], [-114.702, 35.705], [-114.703, 35.719], [-114.697, 35.738], [-114.695, 35.759], [-114.701, 35.769], [-114.7, 35.792], [-114.711, 35.808], [-114.703, 35.815], [-114.696, 35.832], [-114.705, 35.851], [-114.689, 35.86], [-114.663, 35.87], [-114.664, 35.874], [-114.696, 35.897], [-114.707, 35.91], [-114.707, 35.927], [-114.729, 35.941], [-114.728, 35.955], [-114.744, 35.984], [-114.74, 35.993], [-114.74, 36.014], [-114.723, 36.027], [-114.725, 36.033], [-114.744, 36.041], [-114.735, 36.055], [-114.756, 36.087], [-114.736, 36.104], [-114.71, 36.108], [-114.667, 36.117], [-114.632, 36.142], [-114.617, 36.13], [-114.597, 36.142], [-114.572, 36.152], [-114.512, 36.151], [-114.505, 36.146], [-114.506, 36.131], [-114.487, 36.129], [-114.47, 36.139], [-114.458, 36.139], [-114.447, 36.126], [-114.417, 36.146], [-114.405, 36.147], [-114.372, 36.143], [-114.363, 36.13], [-114.337, 36.108], [-114.329, 36.106], [-114.308, 36.082], [-114.306, 36.075], [-114.314, 36.058], [-114.28, 36.046], [-114.263, 36.026], [-114.239, 36.015], [-114.214, 36.016], [-114.177, 36.028], [-114.154, 36.024], [-114.138, 36.041], [-114.137, 36.059], [-114.115, 36.095], [-114.123, 36.105], [-114.121, 36.115], [-114.1, 36.122], [-114.068, 36.181], [-114.06, 36.189], [-114.047, 36.194], [-114.048, 36.296], [-114.046, 36.383], [-114.046, 36.456], [-114.049, 36.521], [-114.051, 36.709], [-114.05, 36.799], [-114.05, 37], [-114.051, 37.075], [-114.053, 37.104], [-114.052, 37.176], [-114.052, 37.418], [-114.053, 37.434], [-114.053, 37.594], [-114.052, 37.746], [-114.048, 37.81], [-114.05, 37.824], [-114.05, 38], [-114.05, 38.149], [-114.05, 38.237], [-114.049, 38.265], [-114.05, 38.5], [-114.049, 38.678], [-114.049, 38.875], [-114.048, 38.879], [-114.049, 39.006], [-114.047, 39.5], [-114.048, 39.543], [-114.047, 39.821], [-114.046, 40.098], [-114.048, 40.119], [-114.046, 40.232], [-114.046, 40.398], [-114.044, 40.699], [-114.044, 40.756], [-114.04, 41], [-114.041, 41.208], [-114.04, 41.492], [-114.041, 41.5], [-114.04, 41.625], [-114.04, 41.754], [-114.041, 41.851], [-114.04, 41.885], [-114.042, 41.994], [-114.282, 41.994], [-114.468, 41.995], [-114.598, 41.995], [-114.721, 41.998], [-114.806, 42.002], [-114.876, 42.001], [-115.032, 41.996], [-115.314, 41.996], [-115.587, 41.997], [-115.626, 41.997], [-115.87, 41.997], [-115.88, 41.998], [-115.987, 41.999], [-116.039, 41.997], [-116.333, 41.997], [-116.368, 41.996], [-116.5, 41.997], [-116.636, 41.998], [-116.969, 41.999], [-117.009, 41.998], [-117.026, 42], [-117.624, 41.998], [-117.873, 41.998], [-118.124, 41.997], [-118.501, 41.995], [-118.696, 41.992], [-119.001, 41.994], [-119.208, 41.993], [-119.324, 41.994], [-119.445, 41.995], [-119.726, 41.996], [-119.79, 41.998], [-119.987, 41.996], [-119.999, 41.995], [-120, 41.893], [-119.999, 41.785], [-120, 41.335], [-120, 41], [-119.999, 40.774], [-119.996, 40.571], [-119.996, 40.382], [-119.997, 40.324], [-119.998, 40.011], [-120.001, 39.797], [-120.002, 39.534], [-120.005, 39.316], [-120.006, 39.223], [-120.001, 39], [-119.376, 38.568], [-119.126, 38.393], [-119.062, 38.348], [-118.589, 38.011], [-118.232, 37.755], [-117.98, 37.572], [-117.911, 37.521], [-116.647, 36.58], [-116.429, 36.414], [-115.912, 36.015], [-115.847, 35.962], [-115.819, 35.942], [-115.472, 35.671], [-115.255, 35.5], [-115.001, 35.297], [-114.633, 35.002]]]]}}