{"type": "Feature", "properties": {"name": "North Dakota", "iso2": "US-ND", "admin_level": 4, "osm_id": 161653, "countrylevel_id": "iso2:US-ND", "osm_data": {"localname": "North Dakota", "official_name": "", "alltags": {"name:af": "Noord-Dakota", "name:an": "Dakota d'o Norte", "name:ar": "داكوتا الشمالية", "name:az": "Şimali Dakota", "name:bn": "নর্থ ডাকোটা", "name:br": "Norzh Dakota", "name:bs": "Sjeverna Dakota", "name:ca": "Dakota del Nord", "name:cs": "Severní Dakota", "name:cv": "Çурçĕр Дакота", "name:cy": "Gogledd Dakota", "name:el": "Βόρεια Ντακότα", "name:en": "North Dakota", "name:eo": "Norda Dakoto", "name:es": "Dakota del Norte", "name:et": "Põhja-Dakota", "name:eu": "Ipar Dakota", "name:fa": "داکوتای شمالی", "name:fi": "Pohjois-Dakota", "name:fr": "Dakota du Nord", "name:fy": "Noard Dakota", "name:ga": "Dakota Thuaidh", "name:gd": "Dakota a Tuath", "name:gl": "Dacota do Norte", "name:gn": "Yvate Dakota", "name:gv": "Dakota Hwoaie", "name:he": "דקוטה הצפונית", "name:hi": "उत्तर डेकोटा", "name:hr": "Sjeverna Dakota", "name:ht": "Dakota dinò", "name:hu": "Észak-Dakota", "name:hy": "Հյուսիսային Դակոտա", "name:id": "Dakota Utara", "name:ie": "Nord-Dakota", "name:is": "Norður-Dakóta", "name:it": "Dakota del Nord", "name:ja": "ノースダコタ州", "name:ka": "ჩრდილოეთი დაკოტა", "name:kn": "ನಾರ್ತ್ ಡಕೋಟ", "name:ko": "노스다코타", "name:kw": "Dakota Gledh", "name:la": "Dacota Septentrionalis", "name:lt": "Šiaurės Dakota", "name:lv": "Ziemeļdakota", "name:mg": "Dakôta Avaratra", "name:ml": "വടക്കന്‍ ഡക്കോട്ട", "name:mn": "Хойд Дакота", "name:mr": "नॉर्थ डकोटा", "name:ms": "Dakota Utara", "name:nl": "Noord-Dakota", "name:no": "Nord-Dakota", "name:nv": "Náhookǫsjí Díkóodah Hahoodzo", "name:oc": "Dakota del Nòrd", "name:os": "Цæгат Дакотæ", "name:pl": "Dakota Północna", "name:pt": "Dakota do Norte", "name:ro": "Dakota de Nord", "name:ru": "Северная Дакота", "name:sa": "नार्थ डेकोटा", "name:sk": "Severná Dakota", "name:sl": "Severna Dakota", "name:sq": "Dakota e veriut", "name:sr": "Северна Дакота", "name:sv": "Norddakota", "name:ta": "வடக்கு டகோட்டா", "name:th": "รัฐนอร์ทดาโคตา", "name:tr": "Kuzey Dakota", "name:uk": "Північна Дакота", "name:ur": "شمالی ڈکوٹا", "name:uz": "Shimoliy Dakota", "name:vi": "Bắc Dakota", "name:yi": "צפון דעקאטע", "name:zh": "北达科他州", "name:ang": "Norþ Dakota", "name:arc": "ܢܘܪܬ ܕܐܟܘܬܐ", "name:diq": "Dakota Zımey", "name:hak": "Pet Tha̍t-khô-thâ", "name:haw": "Kakoka ‘Ākau", "name:nah": "Dakota Mictlāmpa", "name:nds": "Noord-Dakota", "name:pms": "Dakota dël Nòrd", "name:scn": "Dakota dû Nord", "ref:fips": "38", "is_in:country_code": "US"}}, "center_lat": 47.45, "center_lon": -100.47, "timezone": "America/Chicago", "population": 762062, "wikidata_id": "Q1207", "wikipedia_id": "en:North Dakota"}, "geometry": {"type": "MultiPolygon", "coordinates": [[[[-104.045, 45.945], [-103.799, 45.945], [-103.559, 45.945], [-103.284, 45.945], [-102.92, 45.945], [-102.551, 45.945], [-102.177, 45.945], [-101.723, 45.944], [-101.42, 45.944], [-101.272, 45.944], [-100.936, 45.944], [-100.628, 45.944], [-100.294, 45.943], [-100.171, 45.943], [-99.75, 45.941], [-99.589, 45.941], [-99.49, 45.94], [-99.258, 45.94], [-99.093, 45.94], [-98.415, 45.937], [-98.186, 45.936], [-97.785, 45.935], [-97.492, 45.935], [-97.145, 45.935], [-97.103, 45.936], [-96.805, 45.935], [-96.701, 45.936], [-96.561, 45.935], [-96.571, 45.964], [-96.574, 46.016], [-96.578, 46.028], [-96.557, 46.065], [-96.554, 46.084], [-96.56, 46.116], [-96.58, 46.152], [-96.577, 46.174], [-96.586, 46.177], [-96.59, 46.191], [-96.584, 46.201], [-96.596, 46.22], [-96.599, 46.242], [-96.586, 46.247], [-96.6, 46.262], [-96.597, 46.291], [-96.602, 46.301], [-96.597, 46.318], [-96.6, 46.33], [-96.62, 46.34], [-96.617, 46.347], [-96.629, 46.354], [-96.644, 46.35], [-96.643, 46.361], [-96.667, 46.376], [-96.668, 46.388], [-96.694, 46.422], [-96.703, 46.418], [-96.703, 46.437], [-96.72, 46.45], [-96.712, 46.46], [-96.739, 46.486], [-96.733, 46.497], [-96.74, 46.501], [-96.734, 46.512], [-96.75, 46.545], [-96.742, 46.564], [-96.757, 46.578], [-96.749, 46.584], [-96.763, 46.589], [-96.755, 46.595], [-96.772, 46.597], [-96.773, 46.616], [-96.781, 46.626], [-96.796, 46.631], [-96.786, 46.64], [-96.799, 46.655], [-96.784, 46.686], [-96.791, 46.704], [-96.78, 46.724], [-96.787, 46.742], [-96.783, 46.759], [-96.776, 46.767], [-96.797, 46.778], [-96.794, 46.788], [-96.799, 46.822], [-96.786, 46.833], [-96.787, 46.841], [-96.775, 46.852], [-96.784, 46.861], [-96.781, 46.88], [-96.771, 46.881], [-96.776, 46.897], [-96.759, 46.917], [-96.763, 46.935], [-96.785, 46.924], [-96.792, 46.928], [-96.791, 46.945], [-96.809, 46.964], [-96.823, 46.971], [-96.822, 47.004], [-96.839, 47.007], [-96.828, 47.022], [-96.815, 47.024], [-96.825, 47.034], [-96.818, 47.046], [-96.826, 47.077], [-96.817, 47.079], [-96.821, 47.115], [-96.835, 47.124], [-96.821, 47.131], [-96.841, 47.153], [-96.828, 47.155], [-96.819, 47.165], [-96.828, 47.193], [-96.839, 47.196], [-96.831, 47.209], [-96.843, 47.231], [-96.829, 47.235], [-96.837, 47.253], [-96.835, 47.266], [-96.844, 47.293], [-96.831, 47.307], [-96.847, 47.316], [-96.829, 47.328], [-96.843, 47.332], [-96.831, 47.338], [-96.846, 47.347], [-96.843, 47.355], [-96.857, 47.369], [-96.846, 47.375], [-96.837, 47.39], [-96.849, 47.393], [-96.839, 47.4], [-96.852, 47.405], [-96.864, 47.429], [-96.855, 47.434], [-96.86, 47.446], [-96.855, 47.459], [-96.861, 47.472], [-96.853, 47.477], [-96.864, 47.49], [-96.849, 47.498], [-96.853, 47.513], [-96.863, 47.517], [-96.869, 47.529], [-96.851, 47.552], [-96.865, 47.57], [-96.85, 47.591], [-96.858, 47.595], [-96.859, 47.612], [-96.88, 47.62], [-96.888, 47.638], [-96.882, 47.649], [-96.886, 47.664], [-96.897, 47.675], [-96.899, 47.689], [-96.907, 47.694], [-96.923, 47.72], [-96.919, 47.725], [-96.933, 47.737], [-96.929, 47.745], [-96.939, 47.768], [-96.965, 47.785], [-96.958, 47.792], [-96.981, 47.806], [-96.979, 47.825], [-96.993, 47.838], [-97.005, 47.87], [-97.021, 47.873], [-97.024, 47.894], [-97.015, 47.909], [-97.018, 47.92], [-97.037, 47.931], [-97.036, 47.939], [-97.051, 47.943], [-97.054, 47.96], [-97.061, 47.964], [-97.054, 47.988], [-97.064, 47.999], [-97.063, 48.015], [-97.076, 48.053], [-97.104, 48.072], [-97.1, 48.086], [-97.11, 48.105], [-97.123, 48.107], [-97.122, 48.117], [-97.147, 48.171], [-97.146, 48.186], [-97.135, 48.208], [-97.138, 48.246], [-97.127, 48.253], [-97.132, 48.266], [-97.117, 48.28], [-97.126, 48.292], [-97.136, 48.287], [-97.122, 48.308], [-97.138, 48.312], [-97.118, 48.321], [-97.14, 48.33], [-97.126, 48.341], [-97.155, 48.363], [-97.155, 48.37], [-97.137, 48.372], [-97.162, 48.391], [-97.131, 48.408], [-97.14, 48.419], [-97.123, 48.421], [-97.145, 48.432], [-97.126, 48.432], [-97.125, 48.441], [-97.149, 48.444], [-97.129, 48.454], [-97.129, 48.462], [-97.145, 48.465], [-97.144, 48.475], [-97.163, 48.479], [-97.133, 48.488], [-97.149, 48.501], [-97.15, 48.512], [-97.136, 48.512], [-97.133, 48.523], [-97.149, 48.519], [-97.152, 48.531], [-97.141, 48.535], [-97.163, 48.544], [-97.163, 48.554], [-97.141, 48.551], [-97.146, 48.557], [-97.165, 48.557], [-97.17, 48.565], [-97.154, 48.567], [-97.142, 48.593], [-97.153, 48.594], [-97.135, 48.608], [-97.135, 48.62], [-97.12, 48.622], [-97.129, 48.633], [-97.109, 48.633], [-97.116, 48.645], [-97.099, 48.659], [-97.102, 48.681], [-97.09, 48.683], [-97.107, 48.69], [-97.12, 48.704], [-97.11, 48.708], [-97.136, 48.726], [-97.131, 48.734], [-97.142, 48.736], [-97.137, 48.749], [-97.152, 48.751], [-97.146, 48.765], [-97.159, 48.776], [-97.148, 48.779], [-97.158, 48.791], [-97.172, 48.792], [-97.162, 48.8], [-97.181, 48.8], [-97.158, 48.808], [-97.19, 48.816], [-97.179, 48.82], [-97.185, 48.832], [-97.174, 48.837], [-97.182, 48.848], [-97.173, 48.851], [-97.19, 48.866], [-97.178, 48.874], [-97.199, 48.881], [-97.194, 48.899], [-97.208, 48.903], [-97.219, 48.92], [-97.214, 48.931], [-97.225, 48.934], [-97.234, 48.949], [-97.228, 48.962], [-97.238, 48.965], [-97.238, 48.983], [-97.227, 48.993], [-97.229, 49], [-97.482, 49], [-97.953, 49], [-98.211, 49], [-98.561, 49], [-98.98, 49], [-99.003, 49], [-99.328, 49], [-99.779, 48.999], [-100.262, 48.999], [-100.471, 48.999], [-100.854, 49], [-101.17, 48.999], [-101.362, 48.999], [-101.457, 48.999], [-101.482, 48.999], [-101.497, 48.999], [-101.529, 48.999], [-101.559, 48.999], [-101.588, 48.999], [-101.617, 48.999], [-101.631, 48.999], [-101.647, 48.999], [-101.698, 48.999], [-101.754, 48.999], [-101.811, 48.999], [-101.857, 48.999], [-101.899, 48.999], [-101.931, 48.999], [-101.957, 48.999], [-101.981, 48.999], [-102.006, 48.999], [-102.012, 48.999], [-102.024, 48.999], [-102.047, 48.999], [-102.076, 48.999], [-102.113, 48.999], [-102.147, 48.999], [-102.181, 48.999], [-102.219, 48.999], [-102.275, 48.999], [-102.315, 48.999], [-102.378, 48.999], [-102.415, 48.999], [-102.457, 48.999], [-102.544, 48.999], [-102.55, 48.999], [-102.552, 48.999], [-102.566, 48.999], [-102.595, 48.999], [-102.687, 48.999], [-102.748, 48.999], [-102.78, 48.999], [-102.799, 48.999], [-102.813, 48.999], [-102.828, 48.999], [-102.851, 48.999], [-102.883, 48.999], [-102.91, 48.999], [-102.939, 48.999], [-102.981, 48.999], [-103.005, 48.999], [-103.049, 48.999], [-103.092, 48.999], [-103.114, 48.999], [-103.125, 48.999], [-103.18, 48.999], [-103.25, 48.999], [-103.29, 48.999], [-103.378, 48.999], [-103.564, 48.999], [-103.575, 48.999], [-103.596, 48.999], [-103.609, 48.999], [-103.625, 48.999], [-103.643, 48.999], [-103.702, 48.999], [-103.75, 49], [-103.807, 48.999], [-103.809, 48.999], [-103.856, 49], [-104.02, 49], [-104.049, 49], [-104.049, 48.838], [-104.048, 48.599], [-104.046, 48.374], [-104.046, 48.257], [-104.044, 47.972], [-104.042, 47.862], [-104.043, 47.747], [-104.044, 47.524], [-104.045, 47.343], [-104.046, 47.216], [-104.045, 47.127], [-104.046, 46.831], [-104.045, 46.51], [-104.046, 46.384], [-104.045, 46.367], [-104.045, 46.125], [-104.047, 46], [-104.045, 45.945]]]]}}