{"type": "Feature", "properties": {"name": "South Dakota", "iso2": "US-SD", "admin_level": 4, "osm_id": 161652, "countrylevel_id": "iso2:US-SD", "osm_data": {"localname": "South Dakota", "official_name": "", "alltags": {"name:af": "Suid-Dakota", "name:an": "Dakota d'o Sur", "name:ar": "داكوتا الجنوبية", "name:az": "Cənubi Dakota", "name:be": "Паўднёвая Дакота", "name:bg": "Южна Дакота", "name:bn": "সাউথ ডাকোটা", "name:br": "Su Dakota", "name:bs": "Južna Dakota", "name:ca": "Dakota del Sud", "name:cs": "Jižní Dakota", "name:cv": "Кăнтăр Дакота", "name:cy": "De Dakota", "name:el": "Νότια Ντακότα", "name:en": "South Dakota", "name:eo": "Suda Dakoto", "name:es": "Dakota del Sur", "name:et": "Lõuna-Dakota", "name:eu": "Hego Dakota", "name:fa": "داکوتای جنوبی", "name:fi": "Etelä-Dakota", "name:fr": "Dakota du Sud", "name:fy": "Súd Dakota", "name:ga": "Dakota Theas", "name:gd": "Dakota a Deas", "name:gl": "Dacota do Sur", "name:gn": "Ñemby Dakota", "name:gv": "Dakota Yiass", "name:he": "דקוטה הדרומית", "name:hr": "Južna Dakota", "name:ht": "Dakota disid", "name:hu": "Dél-Dakota", "name:hy": "Հարավային Դակոտա", "name:is": "Suður-Dakóta", "name:it": "Dakota del Sud", "name:ja": "サウスダコタ州", "name:ka": "სამხრეთი დაკოტა", "name:kn": "ಸೌತ್ ಡಕೋಟ", "name:ko": "사우스다코타", "name:kw": "Dakota Dheghow", "name:la": "Dacota Meridionalis", "name:lt": "Pietų Dakota", "name:lv": "Dienviddakota", "name:mg": "Dakota Antsimo", "name:ml": "തെക്കന്‍ ഡക്കോട്ട", "name:mn": "Өмнөд Дакота", "name:mr": "साउथ डकोटा", "name:ms": "Dakota Selatan", "name:nl": "Zuid-Dakota", "name:no": "Sør-Dakota", "name:nv": "Shádiʼááhjí Dikóodah Hahoodzo", "name:oc": "Dakota del Sud", "name:os": "Хуссар Дакотæ", "name:pl": "Dakota Południowa", "name:pt": "Dakota do Sul", "name:ro": "Dakota de Sud", "name:ru": "Южная Дакота", "name:sk": "Južná Dakota", "name:sl": "Južna Dakota", "name:sq": "Dakota e jugut", "name:sr": "Јужна Дакота", "name:sv": "Syddakota", "name:ta": "தெற்கு டகோட்டா", "name:tl": "Timog Dakota", "name:tr": "Güney Dakota", "name:uk": "Південна Дакота", "name:ur": "جنوبی ڈکوٹا", "name:uz": "Janubiy Dakota", "name:vi": "Nam Dakota", "name:yi": "סאוט-דעקאטע", "name:zh": "南达科他州", "name:ang": "Sūþ Dakota", "name:arc": "ܣܐܘܬ ܕܐܟܘܬܐ", "name:hak": "Nàm Tha̍t-khô-thâ", "name:haw": "Kakoka Hema", "name:nah": "Dakota Huitztlāmpa", "name:nds": "Süüd-Dakota", "name:pms": "Dakota dël Sud", "name:scn": "Dakota dû Sud", "ref:fips": "46", "is_in:country_code": "US"}}, "center_lat": 44.44, "center_lon": -100.23, "timezone": "America/Chicago", "population": 884659, "wikidata_id": "Q1211", "wikipedia_id": "en:South Dakota"}, "geometry": {"type": "MultiPolygon", "coordinates": [[[[-104.058, 44.997], [-104.056, 44.867], [-104.056, 44.691], [-104.056, 44.518], [-104.055, 44.25], [-104.055, 44.18], [-104.055, 43.853], [-104.055, 43.416], [-104.053, 43.001], [-103.506, 43.001], [-102.792, 43], [-102.487, 43], [-102.083, 42.999], [-101.85, 42.999], [-101.714, 42.997], [-101.625, 42.996], [-101.5, 42.997], [-100.888, 42.998], [-100.671, 42.998], [-100.473, 42.999], [-100.35, 42.999], [-99.918, 42.998], [-99.699, 42.998], [-99.471, 42.998], [-99.195, 42.998], [-98.9, 42.998], [-98.499, 42.999], [-98.49, 42.978], [-98.467, 42.948], [-98.44, 42.928], [-98.421, 42.932], [-98.342, 42.901], [-98.326, 42.887], [-98.28, 42.875], [-98.258, 42.874], [-98.22, 42.853], [-98.171, 42.837], [-98.147, 42.84], [-98.129, 42.821], [-98.108, 42.811], [-98.095, 42.799], [-98.063, 42.781], [-98.06, 42.773], [-98.035, 42.764], [-98, 42.763], [-97.978, 42.77], [-97.95, 42.77], [-97.933, 42.778], [-97.905, 42.799], [-97.889, 42.817], [-97.876, 42.848], [-97.875, 42.859], [-97.845, 42.868], [-97.828, 42.869], [-97.817, 42.862], [-97.774, 42.85], [-97.72, 42.847], [-97.687, 42.842], [-97.647, 42.848], [-97.62, 42.857], [-97.604, 42.858], [-97.576, 42.844], [-97.542, 42.848], [-97.519, 42.861], [-97.484, 42.868], [-97.477, 42.856], [-97.448, 42.846], [-97.43, 42.853], [-97.409, 42.869], [-97.382, 42.864], [-97.362, 42.855], [-97.318, 42.863], [-97.295, 42.861], [-97.277, 42.853], [-97.246, 42.854], [-97.234, 42.851], [-97.222, 42.838], [-97.202, 42.806], [-97.172, 42.802], [-97.135, 42.782], [-97.13, 42.772], [-97.085, 42.769], [-97.077, 42.772], [-97.052, 42.772], [-97.013, 42.763], [-97.004, 42.754], [-96.965, 42.754], [-96.957, 42.726], [-96.943, 42.717], [-96.908, 42.733], [-96.866, 42.729], [-96.846, 42.718], [-96.835, 42.704], [-96.813, 42.704], [-96.803, 42.694], [-96.803, 42.677], [-96.793, 42.666], [-96.755, 42.66], [-96.73, 42.664], [-96.697, 42.652], [-96.696, 42.637], [-96.712, 42.611], [-96.704, 42.597], [-96.684, 42.577], [-96.658, 42.566], [-96.639, 42.553], [-96.629, 42.52], [-96.617, 42.508], [-96.605, 42.504], [-96.587, 42.506], [-96.566, 42.518], [-96.538, 42.517], [-96.521, 42.505], [-96.514, 42.492], [-96.493, 42.48], [-96.472, 42.481], [-96.44, 42.49], [-96.456, 42.493], [-96.476, 42.49], [-96.474, 42.505], [-96.493, 42.519], [-96.48, 42.525], [-96.477, 42.556], [-96.499, 42.558], [-96.5, 42.569], [-96.486, 42.576], [-96.5, 42.594], [-96.51, 42.613], [-96.532, 42.615], [-96.52, 42.618], [-96.515, 42.628], [-96.526, 42.641], [-96.537, 42.646], [-96.537, 42.655], [-96.556, 42.663], [-96.567, 42.676], [-96.586, 42.683], [-96.586, 42.69], [-96.606, 42.702], [-96.619, 42.701], [-96.624, 42.708], [-96.624, 42.726], [-96.636, 42.74], [-96.626, 42.753], [-96.636, 42.765], [-96.62, 42.784], [-96.595, 42.793], [-96.59, 42.808], [-96.596, 42.816], [-96.577, 42.828], [-96.582, 42.838], [-96.569, 42.838], [-96.564, 42.828], [-96.559, 42.84], [-96.549, 42.84], [-96.556, 42.849], [-96.545, 42.85], [-96.543, 42.884], [-96.527, 42.89], [-96.539, 42.9], [-96.541, 42.925], [-96.507, 42.947], [-96.499, 42.957], [-96.506, 42.971], [-96.516, 42.973], [-96.509, 42.996], [-96.498, 42.998], [-96.492, 43.009], [-96.511, 43.025], [-96.511, 43.05], [-96.492, 43.051], [-96.478, 43.062], [-96.46, 43.065], [-96.455, 43.088], [-96.463, 43.091], [-96.45, 43.101], [-96.437, 43.121], [-96.45, 43.142], [-96.469, 43.152], [-96.465, 43.182], [-96.474, 43.189], [-96.471, 43.205], [-96.476, 43.222], [-96.497, 43.224], [-96.52, 43.218], [-96.527, 43.224], [-96.555, 43.227], [-96.558, 43.223], [-96.571, 43.239], [-96.549, 43.248], [-96.555, 43.26], [-96.583, 43.267], [-96.578, 43.279], [-96.581, 43.288], [-96.573, 43.299], [-96.565, 43.294], [-96.541, 43.295], [-96.527, 43.304], [-96.526, 43.318], [-96.535, 43.336], [-96.525, 43.347], [-96.531, 43.369], [-96.521, 43.375], [-96.525, 43.396], [-96.537, 43.395], [-96.573, 43.419], [-96.575, 43.431], [-96.594, 43.434], [-96.601, 43.456], [-96.583, 43.467], [-96.585, 43.489], [-96.599, 43.5], [-96.453, 43.5], [-96.453, 43.805], [-96.453, 43.993], [-96.453, 44.283], [-96.452, 44.46], [-96.451, 44.718], [-96.452, 44.963], [-96.452, 45.209], [-96.453, 45.298], [-96.489, 45.357], [-96.522, 45.376], [-96.546, 45.381], [-96.618, 45.408], [-96.68, 45.41], [-96.693, 45.417], [-96.731, 45.457], [-96.745, 45.489], [-96.765, 45.521], [-96.794, 45.551], [-96.802, 45.555], [-96.858, 45.606], [-96.841, 45.645], [-96.8, 45.668], [-96.761, 45.688], [-96.75, 45.699], [-96.711, 45.718], [-96.673, 45.732], [-96.652, 45.747], [-96.639, 45.772], [-96.627, 45.787], [-96.617, 45.789], [-96.596, 45.812], [-96.579, 45.824], [-96.575, 45.844], [-96.568, 45.894], [-96.57, 45.914], [-96.561, 45.935], [-96.701, 45.936], [-96.805, 45.935], [-97.103, 45.936], [-97.145, 45.935], [-97.492, 45.935], [-97.785, 45.935], [-98.186, 45.936], [-98.415, 45.937], [-99.093, 45.94], [-99.258, 45.94], [-99.49, 45.94], [-99.589, 45.941], [-99.75, 45.941], [-100.171, 45.943], [-100.294, 45.943], [-100.628, 45.944], [-100.936, 45.944], [-101.272, 45.944], [-101.42, 45.944], [-101.723, 45.944], [-102.177, 45.945], [-102.551, 45.945], [-102.92, 45.945], [-103.284, 45.945], [-103.559, 45.945], [-103.799, 45.945], [-104.045, 45.945], [-104.044, 45.868], [-104.043, 45.75], [-104.042, 45.647], [-104.04, 45.374], [-104.04, 45], [-104.058, 44.997]]]]}}