{"type": "Feature", "properties": {"name": "Gorno-Badakhshan Autonomous Region", "iso2": "TJ-GB", "admin_level": 4, "osm_id": 3279614, "countrylevel_id": "iso2:TJ-GB", "osm_data": {"localname": "Вилояти Мухтори Кӯҳистони Бадахшон", "official_name": "", "alltags": {"name:en": "Gorno-Badakhshan Autonomous Region", "name:es": "Provincia de Alto Badajshán", "name:fr": "Haut-Badakhchan", "name:ja": "ゴルノ・バダフシャン自治州", "name:lt": "Kalnų Badachšano autonominė provincija", "name:ru": "Горно-Бадахшанская автономная область", "name:tg": "Вилояти Мухтори Кӯҳистони Бадахшон", "name:short": "GBAO", "addr:province": "Вилояти Мухтори Кӯҳистони Бадахшон", "is_in:country": "Tadjikistan", "is_in:continent": "Asia", "is_in:country_code": "TJ"}}, "center_lat": 38.12, "center_lon": 72.9, "timezone": "Asia/Dushanbe", "population": 216900, "wikidata_id": "Q207319", "wikipedia_id": "ru:Горно-Бадахшанская автономная область"}, "geometry": {"type": "MultiPolygon", "coordinates": [[[[70.262, 37.979], [70.77, 38.456], [71.374, 38.256], [71.261, 37.922], [71.596, 37.807], [71.432, 37.056], [71.844, 36.681], [73.301, 37.462], [73.776, 37.44], [73.761, 37.222], [74.239, 37.414], [74.89, 37.234], [75.154, 37.41], [74.698, 38.228], [74.695, 38.425], [74.121, 38.642], [73.804, 38.612], [73.854, 38.952], [73.6, 39.46], [72.621, 39.399], [72.226, 39.177], [72.071, 38.811], [71.299, 38.489], [70.937, 38.796], [70.49, 38.538], [70.262, 37.979]]]]}}