{"type": "Feature", "properties": {"name": "Districts of Republican Subordination", "iso2": "TJ-RA", "admin_level": 4, "osm_id": 3279615, "countrylevel_id": "iso2:TJ-RA", "osm_data": {"localname": "Ноҳияҳои тобеи ҷумҳурӣ", "official_name": "", "alltags": {"name:en": "Districts of Republican Subordination", "name:es": "Región bajo subordinación republicana", "name:fa": "ناحیه های تابع جمهوری", "name:fr": "Nohiyahoi tobei Jumhurii", "name:ja": "共和国直轄地", "name:lt": "Tiesioginio pavaldumo regionas", "name:ru": "Районы республиканского подчинения", "name:tg": "Ноҳияҳои тобеи ҷумҳурӣ", "int_name": "Districts of Republican Subordination", "name:short": "RRP", "population": "1600000", "addr:province": "Ноҳияҳои тобеи ҷумҳурӣ", "is_in:country": "Tadjikistan", "is_in:continent": "Asia", "is_in:country_code": "TJ"}}, "center_lat": 38.91, "center_lon": 70.14, "timezone": "Asia/Dushanbe", "population": 1971600, "wikidata_id": "Q633490", "wikipedia_id": "en:Districts of Republican Subordination"}, "geometry": {"type": "MultiPolygon", "coordinates": [[[[68.27, 37.913], [68.604, 38.282], [69.173, 38.432], [69.383, 38.332], [70.059, 38.789], [70.49, 38.538], [70.937, 38.796], [71.299, 38.489], [72.071, 38.811], [72.226, 39.177], [71.802, 39.274], [71.504, 39.611], [70.768, 39.399], [70.693, 39.52], [69.868, 39.328], [69.109, 39.04], [68.561, 39.072], [68.204, 38.925], [68.062, 38.393], [68.405, 38.181], [68.27, 37.913]], [[68.658, 38.589], [68.658, 38.589], [68.658, 38.589], [68.658, 38.589]]]]}}