{"type": "Feature", "properties": {"name": "Minsk Region", "iso2": "BY-MI", "admin_level": 4, "osm_id": 59752, "countrylevel_id": "iso2:BY-MI", "osm_data": {"localname": "Минская область", "official_name": "", "alltags": {"name:be": "Мінская вобласць", "name:en": "Minsk Region", "name:eo": "Minska regiono", "name:es": "Provincia de Minsk", "name:fi": "Minskin alue", "name:fr": "Voblast de Minsk", "name:ja": "ミンスク州", "name:lt": "Minsko sritis", "name:pl": "obwód miński", "name:ru": "Минская область", "name:sk": "Minská oblasť", "name:uk": "Мінська область", "website": "http://minsk-region.gov.by/", "int_name": "Minskaja voblasć", "population": "1426525", "addr:country": "BY", "wikipedia:pl": "Obwód miński", "is_in:country": "Belarus", "name:be-tarask": "Менская вобласьць", "is_in:continent": "Europe", "population:date": "2018-01-01", "is_in:country_code": "BY"}}, "center_lat": 53.77, "center_lon": 27.68, "timezone": "Europe/Minsk", "population": 1417303, "wikidata_id": "Q192959", "wikipedia_id": "ru:Минская область"}, "geometry": {"type": "MultiPolygon", "coordinates": [[[[26.358, 53.364], [26.587, 52.894], [27.275, 52.391], [28.345, 52.487], [28.468, 52.68], [28.427, 53.278], [28.619, 53.613], [28.917, 53.53], [29.493, 53.806], [29.399, 54.245], [29.463, 54.622], [28.01, 54.591], [27.257, 54.998], [26.282, 54.941], [26.649, 54.446], [26.203, 54.238], [26.235, 53.866], [26.58, 53.4], [26.358, 53.364]], [[27.374, 53.872], [27.374, 53.872], [27.374, 53.872], [27.374, 53.872]], [[27.88, 53.874], [27.88, 53.874], [27.88, 53.874], [27.88, 53.874]], [[28, 53.901], [28, 53.901], [28, 53.901], [28, 53.901]]], [[[27.409, 53.874], [27.409, 53.874], [27.409, 53.874], [27.409, 53.874]]], [[[27.466, 53.839], [27.466, 53.839], [27.466, 53.839], [27.466, 53.839]]], [[[27.672, 53.81], [27.672, 53.81], [27.672, 53.81], [27.672, 53.81]]], [[[27.684, 53.861], [27.684, 53.861], [27.684, 53.861], [27.684, 53.861]]], [[[27.702, 53.818], [27.702, 53.818], [27.702, 53.818], [27.702, 53.818]]], [[[27.728, 53.887], [27.728, 53.887], [27.728, 53.887], [27.728, 53.887]]]]}}