{"type": "Feature", "properties": {"name": "Vitsebsk Region", "iso2": "BY-VI", "admin_level": 4, "osm_id": 59506, "countrylevel_id": "iso2:BY-VI", "osm_data": {"localname": "Витебская область", "official_name": "", "alltags": {"name:be": "Віцебская вобласць", "name:ca": "Província de Vítsiebsk", "name:en": "Vitsebsk Region", "name:eo": "Vicebska regiono", "name:es": "Provincia de Vítebsk", "name:fr": "Voblast de Vitsebsk", "name:ja": "ヴィーツェプスク州", "name:lt": "Vitebsko sritis", "name:pl": "obwód witebski", "name:ru": "Витебская область", "name:sk": "Vicebská oblasť", "name:uk": "Вітебська область", "website": "http://vitebsk-region.gov.by/", "int_name": "Viciebskaja voblasć", "population": "1180202", "old_name:en": "Vitebsk region", "old_name:fr": "Voblast de Vitebsk", "addr:country": "BY", "is_in:country": "Belarus", "name:be-tarask": "Віцебская вобласьць", "is_in:continent": "Europe", "population:date": "2018-01-01", "is_in:country_code": "BY"}}, "center_lat": 55.22, "center_lon": 28.95, "timezone": "Europe/Minsk", "population": 1171523, "wikidata_id": "Q185700", "wikipedia_id": "ru:Витебская область"}, "geometry": {"type": "MultiPolygon", "coordinates": [[[[26.209, 54.997], [26.282, 54.941], [27.257, 54.998], [28.01, 54.591], [29.463, 54.622], [29.399, 54.245], [31.205, 54.47], [30.755, 54.805], [31.016, 55.029], [30.925, 55.623], [30.239, 55.872], [29.515, 55.702], [29.45, 55.958], [28.737, 55.967], [28.151, 56.17], [28.064, 56.137], [27.748, 55.975], [27.616, 55.787], [26.978, 55.815], [26.63, 55.681], [26.632, 55.608], [26.745, 55.255], [26.209, 54.997]]]]}}