{"type": "Feature", "properties": {"name": "West Herzegovina Canton", "iso2": "BA-08", "admin_level": 5, "osm_id": 2528154, "countrylevel_id": "iso2:BA-08", "osm_data": {"localname": "Županija zapadnohercegovačka", "official_name": "", "alltags": {"name:bs": "Zapadnohercegovački kanton", "name:ca": "Cantó d'Hercegovina Occidental", "name:en": "West Herzegovina Canton", "name:fr": "Canton de l'Herzégovine de l'Ouest", "name:hr": "Županija zapadnohercegovačka", "name:ro": "Cantonul Herțegovina de Vest", "name:ru": "Западногерцеговинский кантон"}}, "center_lat": 43.39, "center_lon": 17.46, "timezone": "Europe/Sarajevo", "wikidata_id": "Q18275", "wikipedia_id": "en:West Herzegovina Canton"}, "geometry": {"type": "MultiPolygon", "coordinates": [[[[17.084, 43.538], [17.155, 43.493], [17.223, 43.499], [17.286, 43.463], [17.252, 43.401], [17.297, 43.32], [17.342, 43.26], [17.428, 43.218], [17.449, 43.177], [17.631, 43.093], [17.649, 43.144], [17.633, 43.166], [17.666, 43.184], [17.565, 43.244], [17.566, 43.28], [17.624, 43.307], [17.702, 43.284], [17.735, 43.312], [17.689, 43.338], [17.681, 43.38], [17.722, 43.4], [17.672, 43.427], [17.624, 43.428], [17.617, 43.464], [17.491, 43.553], [17.513, 43.549], [17.608, 43.576], [17.577, 43.594], [17.592, 43.63], [17.535, 43.655], [17.462, 43.574], [17.415, 43.602], [17.332, 43.547], [17.195, 43.56], [17.088, 43.555], [17.084, 43.538]]]]}}