{"type": "Feature", "properties": {"name": "Al Anbar", "iso2": "IQ-AN", "admin_level": 4, "osm_id": 3242292, "countrylevel_id": "iso2:IQ-AN", "osm_data": {"localname": "الأنبار", "official_name": "", "alltags": {"name:ar": "الأنبار", "name:cs": "Anbár", "name:en": "Al Anbar", "name:es": "Gobernación de Ambar", "name:fr": "Al-Anbar", "name:he": "אל-אנבר", "name:ja": "アンバール", "name:ku": "Enbar", "name:pl": "Al-Anbar", "name:ru": "Анбар", "name:uk": "Анбар", "alt_name": "al-’Anbār", "name:ckb": "پارێزگای ئەنبار", "alt_name:en": "Anbar", "old_name:en": "Dulaim"}}, "center_lat": 32.96, "center_lon": 41.62, "timezone": "Asia/Baghdad", "population": 1483359, "wikidata_id": "Q187334", "wikipedia_id": "en:Al Anbar Governorate"}, "geometry": {"type": "MultiPolygon", "coordinates": [[[[38.794, 33.375], [39.086, 32.502], [38.986, 32.478], [39.043, 32.304], [39.26, 32.355], [39.301, 32.231], [39.201, 32.154], [40.413, 31.948], [41.441, 31.373], [42.086, 31.112], [42.706, 30.673], [42.946, 31.026], [43.007, 31.129], [43.096, 31.18], [43.113, 31.22], [43.104, 31.295], [43.137, 31.375], [43.213, 31.483], [43.221, 31.601], [43.255, 31.623], [43.407, 31.833], [43.457, 31.88], [43.594, 31.933], [43.687, 31.961], [43.757, 32.003], [43.825, 32.066], [43.812, 32.093], [43.737, 32.159], [43.276, 32.568], [43.653, 32.644], [43.73, 32.67], [43.88, 32.741], [43.924, 32.767], [44.061, 32.775], [44.074, 32.849], [44.109, 32.919], [44.094, 33.018], [44.112, 33.087], [44.077, 33.091], [44.017, 33.164], [43.97, 33.15], [43.924, 33.205], [43.904, 33.19], [43.853, 33.19], [43.849, 33.256], [43.867, 33.267], [43.933, 33.233], [43.974, 33.24], [43.931, 33.264], [43.872, 33.278], [43.869, 33.356], [43.979, 33.343], [43.984, 33.371], [44.03, 33.393], [44.053, 33.425], [44.077, 33.418], [44.084, 33.474], [44.159, 33.474], [44.155, 33.523], [44.085, 33.647], [44.062, 33.689], [44.029, 33.71], [43.965, 33.72], [43.769, 33.721], [43.727, 33.726], [43.658, 33.762], [43.423, 33.771], [43.304, 33.809], [42.929, 34.217], [42.927, 34.5], [42.779, 34.354], [42.448, 34.539], [42.429, 34.905], [41.938, 34.898], [41.554, 35.004], [41.435, 35.007], [41.413, 35.034], [41.323, 35.082], [41.219, 35.109], [41.219, 35.014], [41.227, 34.974], [41.223, 34.894], [41.235, 34.82], [41.228, 34.778], [41.122, 34.654], [41.017, 34.448], [40.978, 34.398], [40.64, 34.315], [40.163, 34.076], [38.794, 33.375]]]]}}