{"type": "Feature", "properties": {"name": "Baghdad", "iso2": "IQ-BG", "admin_level": 4, "osm_id": 3242293, "countrylevel_id": "iso2:IQ-BG", "osm_data": {"localname": "محافظة بغداد", "official_name": "", "alltags": {"name:ar": "محافظة بغداد", "name:cs": "Bagdád", "name:en": "Baghdad", "name:es": "Gobernación de Bagdad", "name:fr": "Bagdad", "name:ja": "バグダード", "name:ku": "Bexda", "name:pl": "Bagdad", "name:ru": "Багдад", "name:uk": "Багдад", "alt_name": "Muḥāfaẓät Baġdād", "name:ckb": "پارێزگای بەغدا"}}, "center_lat": 33.28, "center_lon": 44.4, "timezone": "Asia/Baghdad", "population": 9500000, "wikidata_id": "Q191075", "wikipedia_id": "en:Baghdad Governorate"}, "geometry": {"type": "MultiPolygon", "coordinates": [[[[44.112, 33.087], [44.113, 33.066], [44.164, 32.995], [44.293, 32.938], [44.316, 32.949], [44.355, 32.899], [44.459, 32.891], [44.477, 32.835], [44.584, 32.835], [44.584, 32.894], [44.584, 32.934], [44.554, 32.935], [44.552, 32.984], [44.534, 33.019], [44.578, 32.997], [44.594, 33.071], [44.614, 33.082], [44.626, 33.042], [44.666, 32.999], [44.734, 33.031], [44.757, 33.1], [44.833, 33.13], [44.88, 33.13], [44.884, 33.181], [44.913, 33.221], [44.932, 33.277], [44.962, 33.374], [44.969, 33.426], [44.579, 33.428], [44.491, 33.439], [44.459, 33.421], [44.455, 33.448], [44.38, 33.447], [44.387, 33.519], [44.489, 33.557], [44.483, 33.571], [44.417, 33.563], [44.385, 33.592], [44.403, 33.616], [44.4, 33.681], [44.434, 33.698], [44.418, 33.727], [44.382, 33.773], [44.295, 33.738], [44.252, 33.745], [44.171, 33.737], [44.158, 33.706], [44.085, 33.647], [44.155, 33.523], [44.159, 33.474], [44.084, 33.474], [44.077, 33.418], [44.053, 33.425], [44.03, 33.393], [43.984, 33.371], [43.979, 33.343], [43.869, 33.356], [43.872, 33.278], [43.931, 33.264], [43.974, 33.24], [43.933, 33.233], [43.867, 33.267], [43.849, 33.256], [43.853, 33.19], [43.904, 33.19], [43.924, 33.205], [43.97, 33.15], [44.017, 33.164], [44.077, 33.091], [44.112, 33.087]]]]}}