{"type": "Feature", "properties": {"name": "Maysan", "iso2": "IQ-MA", "admin_level": 4, "osm_id": 3244382, "countrylevel_id": "iso2:IQ-MA", "osm_data": {"localname": "ميسان", "official_name": "", "alltags": {"name:ar": "ميسان", "name:cs": "Majsán", "name:en": "Maysan", "name:es": "Gobernación de Mesena", "name:fr": "Maysan", "name:ja": "マイサーン", "name:ku": "Meysan", "name:pl": "Majsan", "name:ru": "Майсан", "name:uk": "Майсан", "alt_name": "Maysān"}}, "center_lat": 31.91, "center_lon": 47.05, "timezone": "Asia/Baghdad", "population": 922890, "wikidata_id": "Q213170", "wikipedia_id": "en:Maysan Governorate"}, "geometry": {"type": "MultiPolygon", "coordinates": [[[[47.139, 31.14], [47.165, 31.216], [47.25, 31.267], [47.329, 31.281], [47.411, 31.284], [47.683, 31.245], [47.683, 31.395], [47.866, 31.784], [47.851, 31.82], [47.805, 31.843], [47.81, 31.881], [47.761, 31.912], [47.712, 31.97], [47.715, 31.999], [47.664, 32.049], [47.651, 32.082], [47.6, 32.116], [47.559, 32.115], [47.529, 32.142], [47.529, 32.17], [47.565, 32.193], [47.564, 32.229], [47.504, 32.274], [47.519, 32.305], [47.463, 32.314], [47.436, 32.351], [47.465, 32.391], [47.395, 32.462], [47.283, 32.496], [47.252, 32.466], [47.168, 32.457], [47.092, 32.498], [46.956, 32.598], [46.887, 32.632], [46.826, 32.695], [46.721, 32.786], [46.623, 32.822], [46.565, 32.868], [46.545, 32.837], [46.552, 32.783], [46.481, 32.578], [46.497, 32.527], [46.474, 32.514], [46.398, 32.382], [46.42, 32.332], [46.455, 32.306], [46.463, 32.252], [46.523, 32.208], [46.5, 32.161], [46.447, 32.153], [46.359, 32.124], [46.359, 32.102], [46.402, 32.042], [46.366, 31.997], [46.371, 31.963], [46.322, 31.946], [46.388, 31.893], [46.442, 31.815], [46.455, 31.688], [46.525, 31.635], [46.555, 31.582], [46.616, 31.547], [46.628, 31.51], [46.608, 31.421], [46.638, 31.383], [46.763, 31.323], [46.762, 31.238], [46.771, 31.199], [46.818, 31.181], [46.859, 31.124], [46.937, 31.126], [47.048, 31.144], [47.139, 31.14]]]]}}