{"type": "Feature", "properties": {"name": "Al-Qadisiyah", "iso2": "IQ-QA", "admin_level": 4, "osm_id": 3244377, "countrylevel_id": "iso2:IQ-QA", "osm_data": {"localname": "القادسية", "official_name": "", "alltags": {"name:ar": "القادسية", "name:cs": "Kádisíja", "name:en": "Al-Qadisiyah", "name:es": "Gobernación de Cadisia", "name:fr": "Al-Qadisiyya", "name:ja": "カーディーシーヤ", "name:ku": "Qadisiye", "name:pl": "Al-Kadisijja", "name:ru": "Кадисия", "name:uk": "Кадісія", "alt_name": "Al Qādisiyyah‎", "alt_name:en": "Qadisiyyah", "official_name:ar": "محافظة القادسية"}}, "center_lat": 31.89, "center_lon": 45.06, "timezone": "Asia/Baghdad", "population": 1077614, "wikidata_id": "Q62987", "wikipedia_id": "ar:محافظة القادسية"}, "geometry": {"type": "MultiPolygon", "coordinates": [[[[44.78, 31.404], [44.829, 31.387], [44.931, 31.295], [44.96, 31.301], [45.027, 31.417], [45.056, 31.504], [45.103, 31.526], [45.133, 31.61], [45.089, 31.637], [45.081, 31.669], [45.04, 31.689], [45.083, 31.702], [45.218, 31.705], [45.255, 31.755], [45.357, 31.742], [45.476, 31.717], [45.622, 31.68], [45.801, 31.624], [45.768, 31.675], [45.779, 31.784], [45.757, 31.841], [45.706, 31.925], [45.709, 31.974], [45.669, 32.072], [45.625, 32.118], [45.537, 32.163], [45.496, 32.266], [45.385, 32.328], [45.345, 32.369], [45.282, 32.396], [45.157, 32.428], [45.057, 32.358], [45.026, 32.32], [44.982, 32.314], [44.931, 32.253], [44.857, 32.245], [44.819, 32.23], [44.826, 32.126], [44.797, 32.115], [44.716, 32.125], [44.592, 32.159], [44.51, 32.109], [44.508, 31.987], [44.519, 31.952], [44.553, 31.923], [44.541, 31.869], [44.482, 31.848], [44.515, 31.757], [44.48, 31.7], [44.513, 31.655], [44.497, 31.618], [44.451, 31.616], [44.432, 31.587], [44.521, 31.488], [44.536, 31.446], [44.78, 31.404]]]]}}