{"type": "Feature", "properties": {"name": "Constanța", "iso2": "RO-CT", "admin_level": 4, "osm_id": 2367022, "countrylevel_id": "iso2:RO-CT", "osm_data": {"localname": "Constanța", "official_name": "", "alltags": {"name:ar": "كونستانتسا", "name:bg": "Констанца", "name:el": "Κωνστάντζα", "name:eo": "Konstanco", "name:es": "Constanza", "name:he": "קונסטנצה", "name:hu": "Konstanca", "name:it": "Costanza", "name:la": "Constantia", "name:lt": "Konstanca", "name:lv": "Konstanca", "name:pl": "Konstanca", "name:pt": "Constança", "name:ru": "Констанца", "name:sr": "Констанца", "name:tr": "Köstence", "name:uk": "Констанца", "place:ro": "județ", "ref:nuts:3": "RO223", "old_name:la": "Tomis", "is_in:country_code": "RO"}}, "center_lat": 44.27, "center_lon": 28.22, "timezone": "Europe/Bucharest", "population": 715151, "wikidata_id": "Q188505"}, "geometry": {"type": "MultiPolygon", "coordinates": [[[[28.658, 44.132], [28.658, 44.132], [28.658, 44.132], [28.658, 44.132]]], [[[28.579, 43.798], [28.579, 43.798], [28.579, 43.798], [28.579, 43.798]]], [[[28.579, 43.739], [27.696, 43.987], [27.268, 44.127], [28.018, 44.34], [27.881, 44.763], [28.073, 44.802], [28.467, 44.649], [28.994, 44.68], [28.639, 44.324], [28.579, 43.739]]]]}}