{"type": "Feature", "properties": {"name": "Entre Ríos Province", "iso2": "AR-E", "admin_level": 4, "osm_id": 153551, "countrylevel_id": "iso2:AR-E", "osm_data": {"localname": "Entre Ríos", "official_name": "Provincia de Entre Ríos", "alltags": {"name:ar": "إنتري ريوس", "name:ay": "Entre Ríos jisk'a suyu", "name:az": "Entre-Rios", "name:be": "Энтрэ-Рыас", "name:bg": "Ентре Риос", "name:el": "Έντρε Ρίος", "name:en": "Entre Ríos Province", "name:eo": "Provinco Entre Ríos", "name:eu": "Entre Ríosko probintzia", "name:fa": "استان انتره ریوس", "name:fi": "Entre Ríosin maakunta", "name:fr": "Province d'Entre Ríos", "name:gl": "Provincia de Entre Ríos", "name:he": "אנטרה ריוס", "name:hi": "एन्ट्रे रियोस", "name:hu": "Entre Ríos tartomány", "name:hy": "Էնտրե Ռիոս", "name:id": "Provinsi Entre Ríos", "name:io": "Provinco Entre Ríos", "name:it": "Provincia di Entre Ríos", "name:ja": "エントレ・リオス州", "name:ka": "ენტრე-რიოსის პროვინცია", "name:ko": "엔트레리오스주", "name:lt": "Entre Rioso provincija", "name:lv": "Entreriosas province", "name:mk": "Ентре Риос", "name:mr": "एंत्रे रियोस", "name:ms": "Wilayah Entre Ríos", "name:nl": "Entre Ríos", "name:os": "Энтре-Риос", "name:pl": "Entre Ríos", "name:pt": "Entre Ríos", "name:qu": "Entre Ríos wamani", "name:ro": "Provincia Entre Ríos", "name:ru": "Междуречье", "name:sr": "Ентре Риос", "name:sw": "Mkoa wa Entre Ríos", "name:tg": "Энтре-Риос", "name:th": "รัฐเอนเตรริโอส", "name:tl": "Lalawigan ng Entre Ríos", "name:tr": "Entre Ríos", "name:tt": "Энтре-Риос", "name:uk": "Ентре-Ріос", "name:ur": "صوبہ انترے ریوس", "name:vi": "Entre Ríos", "name:zh": "恩特雷里奥斯省", "short_name": "ER.", "is_in:country": "Argentina", "official_name": "Provincia de Entre Ríos"}}, "center_lat": -32.06, "center_lon": -59.2, "timezone": "America/Argentina/Cordoba", "population": 1235994, "wikidata_id": "Q44762", "wikipedia_id": "es:Provincia de Entre Ríos"}, "geometry": {"type": "MultiPolygon", "coordinates": [[[[-58.403, -33.979], [-58.403, -33.979], [-58.403, -33.979], [-58.403, -33.979]]], [[[-58.405, -33.978], [-58.405, -33.978], [-58.405, -33.978], [-58.405, -33.978]]], [[[-58.41, -33.969], [-58.41, -33.969], [-58.41, -33.969], [-58.41, -33.969]]], [[[-59.674, -30.344], [-59.635, -30.36], [-59.61, -30.426], [-59.59, -30.435], [-59.559, -30.335], [-59.481, -30.342], [-59.428, -30.317], [-59.345, -30.326], [-59.323, -30.354], [-59.228, -30.364], [-59.201, -30.335], [-59.136, -30.311], [-59.141, -30.293], [-59.051, -30.235], [-59.008, -30.219], [-58.965, -30.22], [-58.912, -30.248], [-58.831, -30.231], [-58.82, -30.217], [-58.742, -30.21], [-58.717, -30.185], [-58.649, -30.163], [-58.63, -30.177], [-58.577, -30.159], [-58.556, -30.183], [-58.414, -30.234], [-58.344, -30.272], [-58.297, -30.245], [-58.205, -30.289], [-58.192, -30.336], [-58.145, -30.409], [-58.068, -30.436], [-58.079, -30.455], [-58.059, -30.514], [-58.069, -30.545], [-58.037, -30.568], [-58.033, -30.598], [-57.975, -30.647], [-57.895, -30.669], [-57.809, -30.73], [-57.8, -30.777], [-57.799, -30.853], [-57.822, -30.908], [-57.888, -30.907], [-57.915, -30.921], [-57.861, -31.033], [-57.872, -31.071], [-57.917, -31.122], [-57.913, -31.212], [-57.939, -31.276], [-57.982, -31.321], [-57.997, -31.36], [-57.997, -31.361], [-57.992, -31.365], [-57.991, -31.365], [-57.98, -31.389], [-58.081, -31.455], [-58.075, -31.492], [-58.034, -31.51], [-58.003, -31.533], [-57.981, -31.59], [-58.038, -31.76], [-58.084, -31.82], [-58.191, -31.853], [-58.207, -31.871], [-58.19, -31.922], [-58.169, -31.932], [-58.138, -32.002], [-58.142, -32.057], [-58.168, -32.093], [-58.18, -32.165], [-58.109, -32.24], [-58.103, -32.31], [-58.125, -32.342], [-58.182, -32.374], [-58.204, -32.465], [-58.196, -32.486], [-58.186, -32.535], [-58.16, -32.572], [-58.145, -32.669], [-58.15, -32.727], [-58.121, -32.812], [-58.114, -32.924], [-58.09, -32.954], [-58.084, -33.001], [-58.176, -33.077], [-58.257, -33.103], [-58.36, -33.12], [-58.403, -33.176], [-58.41, -33.231], [-58.391, -33.277], [-58.398, -33.315], [-58.432, -33.366], [-58.441, -33.441], [-58.434, -33.495], [-58.443, -33.538], [-58.494, -33.581], [-58.475, -33.65], [-58.435, -33.72], [-58.432, -33.841], [-58.424, -33.916], [-58.408, -33.96], [-58.415, -34.002], [-58.477, -34.003], [-58.553, -34.027], [-58.633, -34.039], [-58.674, -34.027], [-58.748, -33.955], [-58.82, -33.954], [-58.862, -33.939], [-58.897, -33.892], [-58.98, -33.869], [-58.99, -33.845], [-59.043, -33.835], [-59.119, -33.849], [-59.172, -33.806], [-59.248, -33.805], [-59.234, -33.739], [-59.257, -33.723], [-59.398, -33.737], [-59.431, -33.732], [-59.469, -33.7], [-59.483, -33.647], [-59.518, -33.63], [-59.586, -33.686], [-59.614, -33.689], [-59.643, -33.635], [-59.711, -33.604], [-59.776, -33.608], [-59.81, -33.584], [-59.825, -33.532], [-59.898, -33.509], [-59.94, -33.472], [-59.996, -33.47], [-60.041, -33.448], [-60.102, -33.378], [-60.163, -33.355], [-60.196, -33.298], [-60.26, -33.262], [-60.293, -33.245], [-60.284, -33.201], [-60.327, -33.179], [-60.377, -33.181], [-60.497, -33.131], [-60.523, -33.08], [-60.555, -33.059], [-60.605, -32.998], [-60.61, -32.959], [-60.667, -32.912], [-60.702, -32.796], [-60.722, -32.757], [-60.714, -32.683], [-60.748, -32.632], [-60.752, -32.544], [-60.771, -32.522], [-60.719, -32.431], [-60.714, -32.378], [-60.737, -32.344], [-60.677, -32.317], [-60.673, -32.234], [-60.704, -32.181], [-60.704, -32.147], [-60.663, -32.096], [-60.672, -31.997], [-60.694, -31.946], [-60.652, -31.898], [-60.657, -31.842], [-60.677, -31.82], [-60.641, -31.792], [-60.636, -31.742], [-60.569, -31.7], [-60.476, -31.698], [-60.335, -31.607], [-60.341, -31.564], [-60.314, -31.538], [-60.247, -31.531], [-60.19, -31.465], [-60.147, -31.445], [-60.112, -31.408], [-60.084, -31.34], [-60.092, -31.295], [-60.004, -31.239], [-59.975, -31.175], [-59.886, -31.065], [-59.816, -30.942], [-59.76, -30.9], [-59.721, -30.849], [-59.678, -30.762], [-59.636, -30.721], [-59.628, -30.695], [-59.661, -30.63], [-59.651, -30.591], [-59.653, -30.486], [-59.69, -30.456], [-59.699, -30.421], [-59.674, -30.344]]]]}}