{"type": "Feature", "properties": {"name": "Southampton", "iso2": "GB-STH", "admin_level": 6, "osm_id": 127864, "countrylevel_id": "iso2:GB-STH", "osm_data": {"localname": "Southampton", "official_name": "", "alltags": {"borough": "yes", "name:ar": "سوثهامبتون", "name:fa": "ساوت‌همپتون", "name:ja": "サウサンプトン", "name:ru": "Саутгемптон", "name:sr": "Саутхемптон", "name:ur": "ساؤتھمپٹن", "name:zh": "修咸頓", "ref:gss": "E06000045", "website": "http://www.southampton.gov.uk/", "alt_name": "Soton", "ons_code": "00MS", "operator": "Southampton City Council", "ref:lau:1": "UKJ3200", "population": "228600", "ref:nuts:3": "UKJ32", "alt_name:ar": "ساوثهامبتون", "designation": "unitary_authority"}}, "center_lat": 50.92, "center_lon": -1.4, "timezone": "Europe/London", "population": 271173, "wikidata_id": "Q79848", "wikipedia_id": "en:Southampton"}, "geometry": {"type": "MultiPolygon", "coordinates": [[[[-1.395, 50.881], [-1.407, 50.892], [-1.439, 50.905], [-1.463, 50.907], [-1.477, 50.924], [-1.452, 50.949], [-1.424, 50.947], [-1.404, 50.952], [-1.39, 50.946], [-1.367, 50.947], [-1.355, 50.941], [-1.358, 50.931], [-1.335, 50.921], [-1.322, 50.901], [-1.335, 50.897], [-1.365, 50.88], [-1.365, 50.88], [-1.381, 50.888], [-1.395, 50.881], [-1.395, 50.881]]]]}}