{"type": "Feature", "properties": {"name": "Hamburg", "iso2": "DE-HH", "admin_level": 4, "osm_id": 62782, "countrylevel_id": "iso2:DE-HH", "osm_data": {"localname": "Hamburg", "official_name": "", "alltags": {"name:ar": "هامبورغ", "name:en": "Hamburg", "name:eo": "Hamburgo", "name:fa": "هامبورگ", "name:fr": "Hambourg", "name:lv": "Hamburga", "name:ru": "Гамбург", "name:sk": "Hamburg", "name:sr": "Хамбург", "name:uk": "Гамбурґ", "name:ur": "ہم برک", "name:zh": "汉堡", "border_type": "state", "name:prefix": "Freie und Hansestadt", "official_status": "Land", "official_name:ar": "مدينة هامبورغ الحرة الهانزية", "official_name:de": "Freie und Hansestadt Hamburg", "official_name:en": "Free and Hanseatic City of Hamburg", "official_name:nds": "Free un Hansestadt Hamborg", "official_status:ar": "ولاية", "official_status:de": "Land", "official_status:en": "State", "official_status:ru": "земля", "TMC:cid_58:tabcd_1:Class": "Area", "TMC:cid_58:tabcd_1:LCLversion": "12.0", "TMC:cid_58:tabcd_1:LocationCode": "257"}}, "center_lat": 53.55, "center_lon": 10.02, "timezone": "Europe/Berlin", "population": 1841179, "wikidata_id": "Q1055", "wikipedia_id": "de:Hamburg"}, "geometry": {"type": "MultiPolygon", "coordinates": [[[[8.575, 53.844], [8.574, 53.844], [8.575, 53.844], [8.575, 53.844]]], [[[9.73, 53.558], [9.76, 53.624], [9.825, 53.584], [9.889, 53.623], [9.907, 53.652], [9.986, 53.648], [10, 53.682], [10.069, 53.68], [10.082, 53.72], [10.121, 53.713], [10.165, 53.739], [10.194, 53.731], [10.14, 53.68], [10.222, 53.634], [10.189, 53.613], [10.201, 53.584], [10.152, 53.578], [10.162, 53.522], [10.21, 53.52], [10.239, 53.483], [10.308, 53.434], [10.232, 53.395], [10.176, 53.397], [10.052, 53.464], [9.983, 53.415], [9.904, 53.457], [9.86, 53.436], [9.8, 53.469], [9.764, 53.508], [9.774, 53.554], [9.73, 53.558]], [[10.115, 53.715], [10.115, 53.715], [10.115, 53.715], [10.115, 53.715]]], [[[10.168, 53.669], [10.168, 53.669], [10.168, 53.669], [10.168, 53.669]]], [[[8.496, 53.932], [8.496, 53.932], [8.496, 53.932], [8.496, 53.932]]], [[[8.433, 53.956], [8.433, 53.956], [8.433, 53.956], [8.433, 53.956]]]]}}