{"type": "Feature", "properties": {"name": "Saarland", "iso2": "DE-SL", "admin_level": 4, "osm_id": 62372, "countrylevel_id": "iso2:DE-SL", "osm_data": {"localname": "Saarland", "official_name": "", "alltags": {"name:ar": "سارلاند", "name:ca": "Saarland", "name:cs": "Země Sársko", "name:en": "Saarland", "name:eo": "Sarlando", "name:es": "Sarre", "name:fa": "زارلند", "name:fr": "Sarre", "name:lt": "Saro kraštas", "name:mk": "Сар", "name:pl": "Saara", "name:ru": "Саар", "name:sk": "Sársko", "name:sl": "Posarje", "name:sr": "Сарланд", "name:uk": "Саарланд", "name:ur": "سارلینڈ", "name:vo": "Saarlän", "name:zh": "萨尔", "name:hsb": "Posaarska", "alt_name:ca": "Sarre", "alt_name:cs": "Sársko", "border_type": "state", "name:prefix": "Bundesland", "TMC:cid_58:tabcd_1:Class": "Area", "TMC:cid_58:tabcd_1:LCLversion": "12.0", "TMC:cid_58:tabcd_1:LocationCode": "265"}}, "center_lat": 49.38, "center_lon": 6.95, "timezone": "Europe/Berlin", "population": 995597, "wikidata_id": "Q1201", "wikipedia_id": "de:Saarland"}, "geometry": {"type": "MultiPolygon", "coordinates": [[[[6.368, 49.469], [6.42, 49.476], [6.539, 49.434], [6.537, 49.41], [6.602, 49.367], [6.564, 49.356], [6.615, 49.302], [6.67, 49.28], [6.711, 49.188], [6.739, 49.164], [6.834, 49.151], [6.862, 49.182], [6.838, 49.213], [6.938, 49.222], [7.011, 49.188], [7.067, 49.114], [7.084, 49.153], [7.159, 49.12], [7.245, 49.13], [7.299, 49.117], [7.369, 49.162], [7.306, 49.201], [7.289, 49.236], [7.341, 49.281], [7.374, 49.281], [7.403, 49.337], [7.399, 49.372], [7.29, 49.39], [7.291, 49.416], [7.246, 49.446], [7.306, 49.474], [7.263, 49.585], [7.213, 49.566], [7.172, 49.601], [7.119, 49.596], [7.059, 49.63], [6.992, 49.635], [6.935, 49.616], [6.814, 49.592], [6.748, 49.558], [6.631, 49.541], [6.589, 49.517], [6.564, 49.541], [6.523, 49.529], [6.379, 49.551], [6.356, 49.529], [6.368, 49.469]]]]}}