{"type": "Feature", "properties": {"name": "Thuringia", "iso2": "DE-TH", "admin_level": 4, "osm_id": 62366, "countrylevel_id": "iso2:DE-TH", "osm_data": {"localname": "Thüringen", "official_name": "Freistaat Thüringen", "alltags": {"name:am": "ቲውሪንገን", "name:an": "Turinchia", "name:ar": "تورنغن", "name:ay": "Thüringen suyu", "name:az": "Türingiya", "name:be": "Цюрынгія", "name:bg": "Тюрингия", "name:bn": "টুরিঙেন", "name:bs": "Tiringija", "name:ca": "Turíngia", "name:ce": "Тюринги", "name:cs": "Durynsko", "name:el": "Θουριγγία", "name:en": "Thuringia", "name:eo": "Turingujo", "name:es": "Turingia", "name:et": "Tüüringi", "name:eu": "Turingia", "name:fa": "تورینگن", "name:fr": "Thuringe", "name:fy": "Tueringen", "name:gl": "Turinxia", "name:gn": "Turingia", "name:he": "תורינגיה", "name:hi": "ठुरुंगिया", "name:hr": "Tiringija", "name:hu": "Türingia", "name:hy": "Թյուրինգիա", "name:ia": "Thuringia", "name:ie": "Thuringia", "name:io": "Turingia", "name:is": "Þýringaland", "name:it": "Turingia", "name:ja": "テューリンゲン州", "name:ka": "თიურინგია", "name:kk": "Тюрингия", "name:ko": "튀링겐 주", "name:la": "Thuringia", "name:li": "Turinge", "name:lt": "Tiuringija", "name:lv": "Tīringene", "name:mk": "Тирингија", "name:mn": "Тюринг", "name:mr": "थ्युरिंगेन", "name:ne": "थाइरिन्जिया", "name:nl": "Thüringen", "name:oc": "Turíngia", "name:os": "Тюринги", "name:pl": "Turyngia", "name:pt": "Turíngia", "name:rm": "Turinga", "name:ro": "Turingia", "name:ru": "Тюрингия", "name:sk": "Durínsko", "name:sl": "Turingija", "name:sq": "Tyringia", "name:sr": "Тирингија", "name:sw": "Thuringia", "name:th": "รัฐทือริงเงิน", "name:tr": "Türingiya", "name:uk": "Тюрингія", "name:ur": "تورینگن", "name:uz": "Turingiya", "name:vo": "Türinän", "name:yi": "טורינגיע", "name:yo": "Thuringia", "name:zh": "图林根", "name:hsb": "Durinska", "alt_name:eo": "Turingio", "border_type": "state", "name:prefix": "Bundesland", "old_name:cs": "Durynky", "official_name": "Freistaat Thüringen", "official_name:ar": "ولاية تورنغن الحرة", "official_name:cs": "Svobodný stát Durynsko", "official_name:de": "Freistaat Thüringen", "official_name:en": "Free State of Thuringia", "official_name:eo": "Liberŝtato Turingujo", "official_name:sk": "Slobodný štát Durínsko", "official_name:sr": "Слободна држава Тирингија", "TMC:cid_58:tabcd_1:Class": "Area", "TMC:cid_58:tabcd_1:LCLversion": "12.0", "TMC:cid_58:tabcd_1:LocationCode": "271"}}, "center_lat": 50.9, "center_lon": 11.03, "timezone": "Europe/Berlin", "population": 2143145, "wikidata_id": "Q1205", "wikipedia_id": "de:Thüringen"}, "geometry": {"type": "MultiPolygon", "coordinates": [[[[10.041, 50.516], [10.106, 50.563], [10.139, 50.543], [10.204, 50.555], [10.257, 50.513], [10.331, 50.494], [10.389, 50.397], [10.453, 50.402], [10.492, 50.354], [10.545, 50.364], [10.601, 50.334], [10.594, 50.269], [10.612, 50.224], [10.66, 50.231], [10.724, 50.205], [10.732, 50.252], [10.845, 50.243], [10.847, 50.276], [10.804, 50.28], [10.716, 50.321], [10.729, 50.349], [10.786, 50.385], [10.893, 50.38], [10.933, 50.393], [10.986, 50.347], [11.037, 50.345], [11.115, 50.367], [11.16, 50.33], [11.132, 50.312], [11.154, 50.284], [11.198, 50.292], [11.247, 50.269], [11.266, 50.352], [11.284, 50.361], [11.245, 50.471], [11.321, 50.489], [11.347, 50.521], [11.423, 50.516], [11.421, 50.443], [11.482, 50.432], [11.478, 50.401], [11.521, 50.374], [11.593, 50.403], [11.626, 50.387], [11.713, 50.397], [11.795, 50.418], [11.825, 50.39], [11.92, 50.424], [11.887, 50.443], [11.962, 50.489], [11.872, 50.54], [11.921, 50.556], [11.924, 50.586], [12.005, 50.614], [12.036, 50.594], [12.033, 50.554], [12.11, 50.589], [12.152, 50.63], [12.266, 50.63], [12.322, 50.681], [12.276, 50.686], [12.262, 50.737], [12.227, 50.738], [12.287, 50.79], [12.243, 50.809], [12.347, 50.823], [12.365, 50.846], [12.44, 50.842], [12.459, 50.88], [12.507, 50.905], [12.574, 50.901], [12.654, 50.919], [12.608, 50.997], [12.526, 51.001], [12.497, 51.066], [12.459, 51.085], [12.375, 51.077], [12.332, 51.103], [12.283, 51.092], [12.258, 51.066], [12.292, 51.019], [12.214, 50.938], [12.183, 50.976], [12.158, 50.963], [12.087, 50.976], [12.011, 50.97], [11.977, 51.016], [11.918, 51.026], [11.89, 51.055], [11.771, 51.045], [11.663, 51.111], [11.572, 51.121], [11.545, 51.102], [11.464, 51.113], [11.451, 51.147], [11.479, 51.158], [11.468, 51.193], [11.365, 51.221], [11.42, 51.246], [11.475, 51.299], [11.4, 51.345], [11.397, 51.381], [11.331, 51.39], [11.322, 51.41], [11.253, 51.401], [11.224, 51.413], [11.153, 51.402], [11.071, 51.429], [11.024, 51.418], [10.967, 51.432], [10.973, 51.482], [10.905, 51.55], [10.887, 51.612], [10.859, 51.633], [10.763, 51.649], [10.702, 51.641], [10.638, 51.619], [10.657, 51.558], [10.601, 51.579], [10.559, 51.557], [10.511, 51.556], [10.43, 51.592], [10.376, 51.589], [10.379, 51.565], [10.3, 51.494], [10.217, 51.47], [10.206, 51.487], [10.143, 51.429], [10.05, 51.435], [9.928, 51.375], [9.93, 51.34], [9.973, 51.284], [10.06, 51.276], [10.067, 51.228], [10.178, 51.209], [10.236, 51.185], [10.201, 51.151], [10.209, 51.118], [10.168, 51.153], [10.119, 51.139], [10.175, 51.107], [10.146, 51.055], [10.215, 51.025], [10.145, 50.993], [10.033, 51.011], [10.02, 50.98], [10.049, 50.938], [9.989, 50.931], [10.059, 50.883], [10.023, 50.867], [10.024, 50.831], [9.952, 50.822], [9.942, 50.739], [9.881, 50.673], [9.879, 50.635], [9.961, 50.629], [9.948, 50.662], [10.051, 50.673], [10.083, 50.633], [10.037, 50.613], [10.061, 50.557], [10.041, 50.516]], [[11.414, 51.333], [11.414, 51.333], [11.414, 51.333], [11.414, 51.333]], [[11.44, 51.199], [11.44, 51.199], [11.44, 51.199], [11.44, 51.199]]]]}}