{"type": "Feature", "properties": {"name": "Kronoberg County", "iso2": "SE-G", "admin_level": 4, "osm_id": 54412, "countrylevel_id": "iso2:SE-G", "osm_data": {"localname": "Kronobergs län", "official_name": "", "alltags": {"name:ar": "محافظة كرونوبري", "name:be": "Крунуберг", "name:bs": "Kotar Kronoberg", "name:ca": "Comtat de Kronoberg", "name:cs": "Kronoberg", "name:en": "Kronoberg County", "name:es": "Provincia de Kronoberg", "name:et": "Kronobergi lään", "name:eu": "Kronobergeko konderria", "name:fa": "شهرستان کرونوبری", "name:fi": "Kronobergin lääni", "name:fr": "Comté de Kronoberg", "name:gl": "Condado de Kronoberg", "name:hi": "क्रूनुबैर्य लैन", "name:hr": "Županija Kronoberg", "name:hu": "Kronoberg megye", "name:id": "Daerah Kronoberg", "name:it": "Contea di Kronoberg", "name:ja": "クロノベリ県", "name:ko": "크로노베리 주", "name:kw": "Konteth Kronoberg", "name:la": "Cronobergiae Comitatus", "name:lt": "Kronobergo lėnas", "name:lv": "Krūnuberjas lēne", "name:ms": "Daerah Kronoberg", "name:os": "Крунуберг", "name:pl": "Kronoberg", "name:ru": "Крунуберг", "name:se": "Kronobergga leatna", "name:tr": "Kronoberg ili", "name:uk": "Крунуберг", "name:ur": "کرونوبری کاؤنٹی", "name:vo": "Kronobergiän", "name:zh": "克鲁努贝里省", "ref:fips": "SW12", "ref:nuts:1": "SE2", "ref:nuts:2": "SE21", "ref:nuts:3": "SE212", "ref:se:scb": "07"}}, "center_lat": 56.79, "center_lon": 14.57, "timezone": "Europe/Stockholm", "population": 201469, "wikidata_id": "Q104746", "wikipedia_id": "sv:Kronobergs län"}, "geometry": {"type": "MultiPolygon", "coordinates": [[[[13.311, 56.687], [13.312, 56.688], [13.364, 56.665], [13.465, 56.514], [13.462, 56.428], [13.503, 56.406], [13.689, 56.425], [13.794, 56.448], [13.877, 56.437], [13.901, 56.457], [14.025, 56.468], [14.062, 56.526], [14.091, 56.533], [14.18, 56.494], [14.276, 56.498], [14.515, 56.46], [14.615, 56.438], [14.679, 56.387], [14.78, 56.382], [14.904, 56.361], [14.971, 56.409], [14.979, 56.434], [15.033, 56.451], [15.123, 56.455], [15.18, 56.427], [15.208, 56.46], [15.264, 56.471], [15.325, 56.457], [15.365, 56.482], [15.337, 56.489], [15.357, 56.56], [15.392, 56.583], [15.367, 56.602], [15.419, 56.639], [15.4, 56.656], [15.425, 56.713], [15.392, 56.721], [15.368, 56.781], [15.445, 56.779], [15.445, 56.796], [15.537, 56.806], [15.519, 56.901], [15.555, 56.93], [15.667, 56.903], [15.693, 56.914], [15.799, 56.911], [15.834, 56.944], [15.83, 56.991], [15.721, 57.076], [15.682, 57.083], [15.576, 57.149], [15.515, 57.202], [15.381, 57.227], [15.241, 57.221], [15.2, 57.208], [15.132, 57.239], [15.154, 57.181], [15.081, 57.196], [14.979, 57.136], [14.902, 57.136], [14.87, 57.198], [14.75, 57.228], [14.612, 57.183], [14.556, 57.187], [14.539, 57.161], [14.449, 57.163], [14.348, 57.145], [14.36, 57.058], [14.331, 57.023], [14.372, 57.005], [14.395, 56.965], [14.325, 56.883], [14.256, 56.887], [14.216, 56.955], [14.153, 56.998], [14.152, 57.029], [14.017, 57.052], [13.99, 57.029], [13.925, 57.041], [13.858, 56.999], [13.804, 57.027], [13.733, 57.036], [13.681, 56.972], [13.687, 56.927], [13.577, 56.889], [13.46, 56.881], [13.359, 56.857], [13.298, 56.824], [13.315, 56.794], [13.311, 56.687]], [[14.14, 57.009], [14.14, 57.009], [14.14, 57.009], [14.14, 57.009]]]]}}