{"type": "Feature", "properties": {"name": "Cordova", "iso2": "ES-CO", "admin_level": 6, "osm_id": 349016, "countrylevel_id": "iso2:ES-CO", "osm_data": {"localname": "Córdoba", "official_name": "", "alltags": {"name:ar": "قرطبة", "name:be": "Кордава", "name:bg": "Кордоба", "name:ca": "Província de Còrdova", "name:el": "Κόρδοβα", "name:en": "Cordova", "name:es": "Córdoba", "name:eu": "Kordoba", "name:fr": "Cordoue", "name:he": "קורדובה", "name:id": "Kordoba", "name:it": "Cordova", "name:ja": "コルドバ", "name:pt": "Córdova", "name:ru": "Кордова", "name:sr": "Кордоба", "name:ext": "Córduba", "ine:provincia": "14", "official_name:be": "Правінцыя Кордава", "official_name:es": "Provincia de Córdoba"}}, "center_lat": 37.99, "center_lon": -4.81, "timezone": "Europe/Madrid", "population": 784736, "wikidata_id": "Q81972", "wikipedia_id": "es:Provincia de Córdoba (España)"}, "geometry": {"type": "MultiPolygon", "coordinates": [[[[-5.585, 38.132], [-5.582, 38.115], [-5.496, 38.043], [-5.494, 37.999], [-5.414, 37.942], [-5.421, 37.893], [-5.405, 37.862], [-5.34, 37.834], [-5.35, 37.795], [-5.31, 37.774], [-5.311, 37.698], [-5.39, 37.698], [-5.414, 37.674], [-5.412, 37.641], [-5.357, 37.588], [-5.323, 37.614], [-5.277, 37.625], [-5.177, 37.681], [-5.15, 37.661], [-5.108, 37.663], [-5.108, 37.7], [-5.047, 37.718], [-5, 37.707], [-4.954, 37.652], [-4.966, 37.611], [-4.932, 37.617], [-4.935, 37.52], [-4.903, 37.467], [-4.838, 37.423], [-4.85, 37.411], [-4.822, 37.358], [-4.782, 37.329], [-4.729, 37.336], [-4.717, 37.358], [-4.681, 37.336], [-4.68, 37.289], [-4.653, 37.256], [-4.614, 37.255], [-4.602, 37.209], [-4.51, 37.221], [-4.445, 37.278], [-4.378, 37.27], [-4.372, 37.215], [-4.323, 37.205], [-4.328, 37.184], [-4.255, 37.231], [-4.238, 37.331], [-4.21, 37.352], [-4.158, 37.342], [-4.086, 37.404], [-4.001, 37.402], [-4.048, 37.468], [-4.087, 37.487], [-4.115, 37.548], [-4.161, 37.576], [-4.178, 37.613], [-4.208, 37.61], [-4.228, 37.64], [-4.164, 37.682], [-4.184, 37.707], [-4.238, 37.72], [-4.207, 37.779], [-4.287, 37.797], [-4.261, 37.964], [-4.282, 38.023], [-4.26, 38.022], [-4.247, 38.07], [-4.192, 38.128], [-4.168, 38.137], [-4.169, 38.182], [-4.216, 38.252], [-4.21, 38.301], [-4.238, 38.342], [-4.269, 38.347], [-4.435, 38.402], [-4.452, 38.401], [-4.513, 38.464], [-4.566, 38.491], [-4.609, 38.495], [-4.624, 38.524], [-4.702, 38.552], [-4.719, 38.571], [-4.86, 38.614], [-4.869, 38.681], [-4.944, 38.682], [-5.001, 38.695], [-5.047, 38.729], [-5.101, 38.708], [-5.185, 38.72], [-5.168, 38.677], [-5.292, 38.611], [-5.308, 38.578], [-5.372, 38.584], [-5.41, 38.52], [-5.568, 38.433], [-5.585, 38.386], [-5.56, 38.368], [-5.576, 38.329], [-5.526, 38.264], [-5.52, 38.208], [-5.536, 38.169], [-5.585, 38.132]]], [[[-5.085, 37.644], [-5.04, 37.626], [-5.031, 37.642], [-5.085, 37.644]]]]}}