{"type": "Feature", "properties": {"name": "Valencia", "iso2": "ES-V", "admin_level": 6, "osm_id": 349000, "countrylevel_id": "iso2:ES-V", "osm_data": {"localname": "València / Valencia", "official_name": "Provincia de València/Valencia", "alltags": {"name:ar": "فالنسيا", "name:be": "Валенсія", "name:ca": "València", "name:el": "Βαλένθια", "name:en": "Valencia", "name:es": "Valencia", "name:eu": "Valentzia", "name:fr": "Valence", "name:it": "Valencia", "name:la": "Valentia", "name:lt": "Valensija", "name:lv": "Valensija", "name:nl": "Valencia", "name:pl": "Walencja", "name:ru": "Валенсия", "name:sr": "Валенсија", "name:uk": "Валенсія", "name:zh": "華倫西亞", "alt_name:el": "Βαλένσια", "border_type": "province", "ine:provincia": "46", "official_name": "Provincia de València/Valencia", "name:ca-valencia": "València", "official_name:be": "Правінцыя Валенсія", "official_name:ca": "Província de València", "official_name:de": "Provinz Valencia", "official_name:es": "Provincia de Valencia", "official_name:fr": "Province de Valence", "old_name:ca-valencia": "València"}}, "center_lat": 39.37, "center_lon": -0.8, "timezone": "Europe/Madrid", "wikidata_id": "Q54939", "wikipedia_id": "es:Provincia de Valencia"}, "geometry": {"type": "MultiPolygon", "coordinates": [[[[-0.038, 38.887], [-0.07, 38.886], [-0.153, 38.857], [-0.161, 38.887], [-0.228, 38.853], [-0.311, 38.882], [-0.383, 38.834], [-0.474, 38.804], [-0.535, 38.81], [-0.595, 38.795], [-0.566, 38.755], [-0.53, 38.767], [-0.507, 38.743], [-0.618, 38.687], [-0.643, 38.728], [-0.705, 38.734], [-0.746, 38.759], [-0.83, 38.732], [-0.865, 38.771], [-0.929, 38.784], [-0.935, 38.856], [-0.924, 38.892], [-0.959, 38.945], [-1.147, 38.929], [-1.227, 39.025], [-1.264, 39.045], [-1.256, 39.106], [-1.194, 39.18], [-1.162, 39.305], [-1.355, 39.342], [-1.414, 39.38], [-1.443, 39.363], [-1.453, 39.39], [-1.505, 39.418], [-1.529, 39.455], [-1.499, 39.5], [-1.518, 39.551], [-1.462, 39.577], [-1.418, 39.655], [-1.369, 39.69], [-1.313, 39.67], [-1.262, 39.699], [-1.275, 39.739], [-1.215, 39.809], [-1.196, 39.914], [-1.206, 39.948], [-1.142, 39.972], [-1.003, 39.982], [-0.905, 39.94], [-0.91, 39.868], [-0.867, 39.847], [-0.798, 39.881], [-0.737, 39.821], [-0.713, 39.817], [-0.691, 39.852], [-0.656, 39.836], [-0.652, 39.754], [-0.588, 39.742], [-0.577, 39.773], [-0.531, 39.796], [-0.498, 39.748], [-0.456, 39.715], [-0.385, 39.773], [-0.378, 39.8], [-0.318, 39.802], [-0.272, 39.75], [-0.188, 39.722], [-0.208, 39.664], [-0.266, 39.605], [-0.318, 39.518], [-0.316, 39.423], [-0.334, 39.417], [-0.293, 39.31], [-0.221, 39.188], [-0.24, 39.147], [-0.198, 39.057], [-0.136, 38.971], [-0.038, 38.887]]], [[[-1.449, 40.145], [-1.355, 40.129], [-1.32, 40.146], [-1.323, 40.185], [-1.297, 40.199], [-1.25, 40.123], [-1.207, 40.11], [-1.148, 40.114], [-1.072, 40.06], [-1.084, 40.036], [-1.165, 40.01], [-1.247, 39.995], [-1.336, 40.017], [-1.377, 40.016], [-1.443, 40.118], [-1.449, 40.145]]]]}}