{"type": "Feature", "properties": {"name": "Jufra", "iso2": "LY-JU", "admin_level": 4, "osm_id": 2060177, "countrylevel_id": "iso2:LY-JU", "osm_data": {"localname": "الجفرة", "official_name": "", "alltags": {"name:ar": "الجفرة", "name:en": "Jufra", "name:es": "Al Jufrah", "name:fr": "Al Djoufrah", "name:it": "Distretto di Giofra", "name:pl": "Al-Dżufra", "name:ru": "Эль-Джуфра", "name:uk": "Ель-Джуфра", "int_name": "Jufra", "alt_name:it": "Distretto di Al-Jufrah"}}, "center_lat": 27.93, "center_lon": 17.1, "timezone": "Africa/Tripoli", "wikidata_id": "Q48247", "wikipedia_id": "en:Jufra District"}, "geometry": {"type": "MultiPolygon", "coordinates": [[[[14.332, 28.97], [14.959, 28.408], [15.018, 28.145], [15.59, 28.215], [15.894, 27.996], [15.796, 27.721], [16.28, 27.075], [16.278, 26.846], [16.941, 26.163], [17.41, 26.052], [18.204, 26.376], [18.515, 26.15], [19.168, 26.004], [19.17, 27.013], [19.172, 28.347], [18.499, 28.502], [17.982, 28.733], [17.665, 29.329], [16.136, 29.5], [15.88, 29.377], [15.052, 29.702], [14.654, 29.971], [14.671, 29.491], [14.332, 28.97]]]]}}