{"type": "Feature", "properties": {"name": "Kufra", "iso2": "LY-KF", "admin_level": 4, "osm_id": 2060178, "countrylevel_id": "iso2:LY-KF", "osm_data": {"localname": "الكفرة", "official_name": "بلدية الكفرة", "alltags": {"name:ar": "الكفرة", "name:en": "Kufra", "name:es": "Al Kufrah", "name:fa": "کفره", "name:fr": "Al-Koufrah", "name:it": "Cufra", "name:pl": "Al-Kufra", "name:ru": "Эль-Куфра", "name:uk": "Ель-Куфра", "name:ur": "کفرہ", "int_name": "Kufra", "official_name": "بلدية الكفرة", "official_name:ar": "بلدية الكفرة", "official_name:de": "Munizip al-Kufra", "official_name:fa": "استان کفره", "official_name:it": "Distretto di Cufra", "official_name:ur": "کفرہ ضلع"}}, "center_lat": 23.79, "center_lon": 22.27, "timezone": "Africa/Tripoli", "population": 50104, "wikidata_id": "Q48200", "wikipedia_id": "ar:بلدية الكفرة"}, "geometry": {"type": "MultiPolygon", "coordinates": [[[[19.168, 26.004], [19.186, 21.99], [21.025, 21.068], [22.341, 20.387], [24, 19.501], [24.001, 20.002], [25.001, 19.999], [25, 22], [25, 27.05], [21.923, 27.008], [19.17, 27.013], [19.168, 26.004]]]]}}