{"type": "Feature", "properties": {"name": "Marj", "iso2": "LY-MJ", "admin_level": 4, "osm_id": 2060179, "countrylevel_id": "iso2:LY-MJ", "osm_data": {"localname": "المرج", "official_name": "", "alltags": {"name:ar": "المرج", "name:en": "Marj", "name:es": "Al Marj", "name:fr": "Al Marj", "name:it": "Distretto di Barce", "name:pl": "Al-Mardż", "name:ru": "Эль-Мардж", "name:uk": "Ель-Мардж", "int_name": "Marj", "alt_name:it": "Distretto di Al-Marj"}}, "center_lat": 31.96, "center_lon": 21.23, "timezone": "Africa/Tripoli", "wikidata_id": "Q26023", "wikipedia_id": "en:Marj District"}, "geometry": {"type": "MultiPolygon", "coordinates": [[[[20.949, 32.717], [20.949, 32.717], [20.949, 32.717], [20.949, 32.717]]], [[[21.206, 32.774], [21.206, 32.774], [21.206, 32.774], [21.206, 32.774]]], [[[21.406, 32.786], [21.332, 32.512], [21.632, 31.999], [21.717, 31.066], [21.319, 31.035], [21.215, 31.541], [20.809, 31.965], [20.579, 32.546], [21.406, 32.786]]], [[[21.343, 32.777], [21.343, 32.777], [21.343, 32.777], [21.343, 32.777]]], [[[21.338, 32.777], [21.338, 32.777], [21.338, 32.777], [21.338, 32.777]]], [[[21.344, 32.777], [21.344, 32.777], [21.344, 32.777], [21.344, 32.777]]], [[[21.389, 32.785], [21.389, 32.785], [21.389, 32.785], [21.389, 32.785]]]]}}