{"type": "Feature", "properties": {"name": "Al Wahat", "iso2": "LY-WA", "admin_level": 4, "osm_id": 2060169, "countrylevel_id": "iso2:LY-WA", "osm_data": {"localname": "الواحات", "official_name": "شعبية الواحات", "alltags": {"name:ar": "الواحات", "name:en": "Al Wahat", "name:es": "Al Wahat", "name:fa": "واحات", "name:fr": "Al Wahat", "name:it": "Al-Wahat", "name:pl": "Al-Wahat", "name:ru": "Эль-Вахат", "name:uk": "Ель-Вахат", "name:ur": "الواحات", "official_name": "شعبية الواحات", "official_name:ar": "شعبية الواحات", "official_name:de": "Munizip al-Wahat", "official_name:fa": "استان واحات", "official_name:it": "Distretto di Al-Wahat", "official_name:ur": "الواحات ضلع"}}, "center_lat": 28.82, "center_lon": 21.35, "timezone": "Africa/Tripoli", "wikidata_id": "Q26000", "wikipedia_id": "ar:شعبية الواحات"}, "geometry": {"type": "MultiPolygon", "coordinates": [[[[19.123, 30.291], [19.123, 30.291], [19.123, 30.291], [19.123, 30.291]]], [[[18.791, 30.375], [18.791, 30.38], [18.791, 30.375], [18.791, 30.375]]], [[[18.499, 28.502], [18.514, 29.165], [18.699, 29.517], [18.791, 30.375], [19.182, 30.266], [19.785, 30.537], [20.161, 31.055], [20.132, 31.261], [20.594, 31.007], [21.319, 31.035], [21.717, 31.066], [22.113, 31.12], [22.969, 30.799], [23.057, 30.77], [23.062, 28.139], [25.002, 28.093], [25, 27.749], [25, 27.05], [21.923, 27.008], [19.17, 27.013], [19.172, 28.347], [18.499, 28.502]]], [[[19.829, 30.601], [19.829, 30.601], [19.829, 30.601], [19.829, 30.601]]], [[[19.875, 30.758], [19.875, 30.758], [19.875, 30.758], [19.875, 30.758]]]]}}