{"type": "Feature", "properties": {"name": "Wadi al Shatii", "iso2": "LY-WS", "admin_level": 4, "osm_id": 2060188, "countrylevel_id": "iso2:LY-WS", "osm_data": {"localname": "وادي الشاطئ", "official_name": "شعبية وادي الشاطئ", "alltags": {"name:ar": "وادي الشاطئ", "name:en": "Wadi al Shatii", "name:es": "Wadi Al Shatii", "name:fr": "Wadi ach Chatii", "name:it": "Distretto di Sciati", "name:pl": "Wadi asz-Szati", "name:ru": "Вади-эш-Шати", "name:uk": "Ваді-еш-Шаті", "name:ur": "وادی الشاطی", "official_name": "شعبية وادي الشاطئ", "official_name:ar": "شعبية وادي الشاطئ", "official_name:de": "Munizip Wadi asch-Schati’", "official_name:it": "Distretto di Wadi Al-Shatii"}}, "center_lat": 27.98, "center_lon": 12.59, "timezone": "Africa/Tripoli", "wikidata_id": "Q48232", "wikipedia_id": "ar:شعبية وادي الشاطئ"}, "geometry": {"type": "MultiPolygon", "coordinates": [[[[9.945, 27.812], [10.892, 27.532], [11.164, 27.326], [11.375, 26.218], [13.012, 27.25], [13.983, 27.129], [14.421, 27.173], [14.921, 27.574], [15.796, 27.721], [15.894, 27.996], [15.59, 28.215], [15.018, 28.145], [14.959, 28.408], [14.332, 28.97], [11.947, 28.965], [9.893, 28.84], [9.833, 28.286], [9.945, 27.812]]]]}}