{"type": "Feature", "properties": {"name": "Goa", "iso2": "IN-GA", "admin_level": 4, "osm_id": 1997192, "countrylevel_id": "iso2:IN-GA", "osm_data": {"localname": "Goa", "official_name": "", "alltags": {"name:cs": "Goa", "name:en": "Goa", "name:eo": "Goao", "name:hi": "गोवा", "name:ja": "ゴア", "name:kn": "ಗೋವಾ", "name:ku": "Goa", "name:mr": "गोआ", "name:pa": "ਗੋਆ", "name:pt": "Goa", "name:ru": "Гоа", "name:ta": "கோவா", "name:uk": "Ґоа", "name:zh": "果阿邦", "name:gom": "गोंय", "is_in:country_code": "IN"}}, "center_lat": 15.37, "center_lon": 74.06, "timezone": "Asia/Kolkata", "population": 1458545, "wikidata_id": "Q1171", "wikipedia_id": "en:Goa"}, "geometry": {"type": "MultiPolygon", "coordinates": [[[[74.011, 15.009], [74.011, 15.009], [74.011, 15.009], [74.011, 15.009]]], [[[73.764, 15.349], [73.764, 15.349], [73.764, 15.349], [73.764, 15.349]]], [[[73.683, 15.722], [74.118, 15.652], [74.25, 15.658], [74.296, 15.041], [74.085, 14.9], [73.683, 15.722]]], [[[73.769, 15.352], [73.769, 15.352], [73.769, 15.352], [73.769, 15.352]]], [[[73.761, 15.353], [73.761, 15.353], [73.761, 15.353], [73.761, 15.353]]], [[[73.793, 15.375], [73.793, 15.375], [73.793, 15.375], [73.793, 15.375]]], [[[73.862, 15.406], [73.862, 15.406], [73.862, 15.406], [73.862, 15.406]]]]}}