{"type": "Feature", "properties": {"name": "Haryana", "iso2": "IN-HR", "admin_level": 4, "osm_id": 1942601, "countrylevel_id": "iso2:IN-HR", "osm_data": {"localname": "Haryana", "official_name": "", "alltags": {"name:ar": "هاريانا", "name:cs": "Harijána", "name:en": "Haryana", "name:es": "Haryana", "name:fr": "Haryana", "name:hi": "हरियाणा", "name:ja": "ハリヤーナー", "name:kn": "ಹರಿಯಾಣ", "name:ku": "Haryana", "name:pa": "ਹਰਿਆਣਾ", "name:ru": "Харьяна", "name:ta": "அரியானா", "name:uk": "Гар'яна", "name:ur": "ہریانہ", "name:zh": "哈里亚纳邦", "old_name:uk": "Хар'яна", "is_in:country": "India", "is_in:continent": "Asia", "is_in:country_code": "IN"}}, "center_lat": 29.17, "center_lon": 76.33, "timezone": "Asia/Kolkata", "population": 27761063, "wikidata_id": "Q1174", "wikipedia_id": "en:Haryana"}, "geometry": {"type": "MultiPolygon", "coordinates": [[[[77.283, 27.802], [77.527, 27.922], [77.347, 28.519], [76.846, 28.55], [77.209, 28.857], [77.085, 29.584], [77.276, 30.042], [77.585, 30.379], [77.122, 30.564], [76.778, 30.899], [76.84, 30.76], [76.832, 30.683], [76.897, 30.482], [76.51, 30.071], [76.254, 30.09], [75.984, 29.727], [75.242, 29.755], [74.806, 29.993], [74.526, 29.942], [74.607, 29.355], [75.341, 29.283], [75.562, 28.613], [76.027, 28.275], [75.972, 27.852], [76.181, 27.797], [76.357, 28.144], [76.545, 27.963], [76.97, 28.139], [76.89, 27.696], [77.283, 27.802]]]]}}