{"type": "Feature", "properties": {"name": "Jammu and Kashmir", "iso2": "IN-JK", "admin_level": 4, "osm_id": 1943188, "countrylevel_id": "iso2:IN-JK", "osm_data": {"localname": "Jammu and Kashmir", "official_name": "", "alltags": {"name:ar": "جمو وكشمير", "name:bn": "জম্মু ও কাশ্মীর", "name:cs": "Džammú a Kašmír", "name:en": "Jammu and Kashmir", "name:eo": "Ĝamuo kaj Kaŝmiro", "name:es": "Jammu y Cachemira", "name:fr": "Jammu-et-Cachemire", "name:he": "ג'אמו וקשמיר", "name:hi": "जम्मू और कश्मीर", "name:ja": "ジャンムー・カシミール", "name:kn": "ಜಮ್ಮು ಮತ್ತು ಕಾಶ್ಮೀರ", "name:ko": "잠무 카슈미르 주", "name:ku": "Cammu Kaşmîr", "name:lt": "Džamu ir Kašmyras", "name:nl": "Jammu en Kasjmir", "name:pa": "ਜੰਮੂ ਅਤੇ ਕਸ਼ਮੀਰ", "name:pl": "Dżammu i Kaszmir", "name:pt": "Jammu e Caxemira", "name:ru": "Джамму и Кашмир", "name:uk": "Джамму й Кашмір", "name:ur": "جموں و کشمیر", "name:zh": "查谟-克什米尔邦", "alt_name:ar": "جامو وكشمير", "is_in:country": "India", "is_in:continent": "Asia", "is_in:country_code": "IN"}}, "center_lat": 33.56, "center_lon": 75.1, "timezone": "Asia/Kolkata", "population": 12258433, "wikidata_id": "Q66278313"}, "geometry": {"type": "MultiPolygon", "coordinates": [[[[74.464, 32.777], [74.712, 32.479], [75.332, 32.327], [75.832, 32.51], [75.95, 32.873], [76.404, 33.185], [76.772, 33.249], [76.026, 33.994], [75.406, 34.285], [75.366, 34.538], [75.206, 34.644], [74.31, 34.783], [73.969, 34.686], [73.925, 34.024], [74.278, 33.895], [73.961, 33.723], [74.187, 33.385], [74.017, 33.205], [74.464, 32.777]]]]}}