{"type": "Feature", "properties": {"name": "Kerala", "iso2": "IN-KL", "admin_level": 4, "osm_id": 2018151, "countrylevel_id": "iso2:IN-KL", "osm_data": {"localname": "Kerala", "official_name": "", "alltags": {"name:ar": "كيرلا", "name:cs": "Kérala", "name:en": "Kerala", "name:eo": "Keralo", "name:hi": "केरल", "name:ja": "ケーララ", "name:kn": "ಕೇರಳ", "name:ku": "Kerala", "name:ml": "കേരളം", "name:pa": "ਕੇਰਲਾ", "name:ru": "Керала", "name:ta": "கேரளம்", "name:uk": "Керала", "name:ur": "کیرلا", "name:zh": "喀拉拉邦", "is_in:country_code": "IN"}}, "center_lat": 10.47, "center_lon": 76.41, "timezone": "Asia/Kolkata", "population": 34523726, "wikidata_id": "Q1186", "wikipedia_id": "en:Kerala"}, "geometry": {"type": "MultiPolygon", "coordinates": [[[[76.539, 8.935], [76.539, 8.935], [76.539, 8.935], [76.539, 8.935]]], [[[76.975, 8.386], [76.975, 8.386], [76.975, 8.386], [76.975, 8.386]]], [[[74.864, 12.761], [75.152, 12.683], [75.431, 12.308], [75.878, 11.951], [76.112, 11.979], [76.431, 11.666], [76.233, 11.568], [76.709, 11.238], [76.655, 10.94], [76.907, 10.782], [76.829, 10.307], [77.177, 10.358], [77.272, 9.964], [77.168, 9.615], [77.412, 9.511], [77.15, 9.01], [77.283, 8.548], [77.098, 8.292], [76.613, 8.857], [76.353, 9.378], [76.26, 9.881], [75.83, 11.117], [75.536, 11.692], [75.531, 11.704], [75.202, 12.005], [74.864, 12.761]], [[75.529, 11.72], [75.529, 11.72], [75.529, 11.72], [75.529, 11.72]]], [[[75.541, 11.663], [75.541, 11.663], [75.541, 11.663], [75.541, 11.663]]], [[[75.45, 11.769], [75.45, 11.769], [75.45, 11.769], [75.45, 11.769]]]]}}