{"type": "Feature", "properties": {"name": "Meghalaya", "iso2": "IN-ML", "admin_level": 4, "osm_id": 2027521, "countrylevel_id": "iso2:IN-ML", "osm_data": {"localname": "Meghalaya", "official_name": "", "alltags": {"name:ar": "ميغالايا", "name:as": "মেঘালয়", "name:bn": "মেঘালয়", "name:cs": "Méghálaja", "name:en": "Meghalaya", "name:eo": "Meghalajo", "name:es": "Megalaya", "name:fa": "مگالایا", "name:fr": "Meghalaya", "name:hi": "मेघालय", "name:ja": "メーガーラヤ", "name:kn": "ಮೆಘಾಲಯ", "name:ku": "Megalaya", "name:pa": "ਮੇਘਾਲਿਆ", "name:ru": "Мегхалая", "name:ta": "மேகாலயா", "name:uk": "Меґхалая", "name:ur": "میگھالیہ", "name:zh": "梅加拉亚邦", "is_in:country": "India", "is_in:continent": "Asia", "is_in:country_code": "IN"}}, "center_lat": 25.52, "center_lon": 91.29, "timezone": "Asia/Kolkata", "population": 3211000, "wikidata_id": "Q1195", "wikipedia_id": "en:Meghalaya"}, "geometry": {"type": "MultiPolygon", "coordinates": [[[[90.935, 25.159], [92.034, 25.188], [92.424, 25.032], [92.802, 25.22], [92.431, 25.733], [92.144, 25.718], [92.28, 26.068], [91.224, 25.723], [90.958, 25.927], [90.116, 25.957], [89.853, 25.467], [89.828, 25.412], [90.438, 25.147], [90.935, 25.159]]]]}}