{"type": "Feature", "properties": {"name": "Maharashtra", "iso2": "IN-MH", "admin_level": 4, "osm_id": 1950884, "countrylevel_id": "iso2:IN-MH", "osm_data": {"localname": "Maharashtra", "official_name": "", "alltags": {"name:ar": "ماهاراشترا", "name:cs": "Maháráštra", "name:el": "Μαχαράστρα", "name:en": "Maharashtra", "name:es": "Maharastra", "name:fr": "Maharashtra", "name:hi": "महाराष्ट्र", "name:ja": "マハーラーシュトラ", "name:kn": "ಮಹಾರಾಷ್ಟ್ರ", "name:ku": "Maharaştra", "name:mr": "महाराष्ट्र", "name:pa": "ਮਹਾਰਾਸ਼ਟਰ", "name:ru": "Махараштра", "name:ta": "மகாராட்டிரம்", "name:uk": "Махараштра", "name:zh": "马哈拉施特拉邦", "website": "http://www.maharashtra.gov.in/index.php", "alt_name": "Maharastra", "name:yue": "馬哈拉施特拉邦", "population": "96752247", "is_in:country": "India", "is_in:continent": "Asia", "population:date": "2001", "is_in:country_code": "IN"}}, "center_lat": 19.45, "center_lon": 76.11, "timezone": "Asia/Kolkata", "population": 112374333, "wikidata_id": "Q1191", "wikipedia_id": "en:Maharashtra"}, "geometry": {"type": "MultiPolygon", "coordinates": [[[[73.083, 17.818], [73.083, 17.818], [73.083, 17.818], [73.083, 17.818]]], [[[73.457, 16.041], [73.457, 16.041], [73.457, 16.041], [73.457, 16.041]]], [[[73.463, 16.046], [73.463, 16.046], [73.463, 16.046], [73.463, 16.046]]], [[[73.464, 16.048], [73.464, 16.048], [73.464, 16.048], [73.464, 16.048]]], [[[73.461, 16.052], [73.461, 16.052], [73.461, 16.052], [73.461, 16.052]]], [[[72.738, 20.129], [72.962, 20.21], [73.211, 20.121], [73.421, 20.205], [73.496, 20.654], [73.942, 20.742], [73.816, 21.174], [74.158, 21.569], [73.852, 21.498], [73.798, 21.828], [74.145, 21.953], [74.432, 22.03], [74.582, 21.665], [75.301, 21.386], [76.096, 21.371], [76.167, 21.08], [76.622, 21.186], [77.07, 21.717], [77.478, 21.77], [77.488, 21.374], [77.94, 21.386], [78.181, 21.557], [78.728, 21.462], [79.496, 21.674], [79.539, 21.543], [80.253, 21.624], [80.661, 21.334], [80.464, 21.175], [80.626, 20.336], [80.409, 19.912], [80.895, 19.519], [80.759, 19.291], [80.481, 19.336], [80.273, 18.724], [79.915, 18.833], [79.978, 19.402], [79.745, 19.609], [79.177, 19.464], [78.841, 19.762], [78.422, 19.818], [78.175, 19.238], [77.863, 19.304], [77.948, 18.83], [77.596, 18.549], [77.549, 18.292], [77.245, 18.413], [76.921, 17.917], [76.331, 17.598], [76.345, 17.355], [75.932, 17.322], [75.633, 17.478], [75.666, 16.982], [74.968, 16.951], [74.922, 16.771], [74.302, 16.53], [74.505, 16.223], [74.118, 15.652], [73.683, 15.722], [73.313, 16.536], [73.288, 17.06], [72.972, 18.131], [72.655, 19.827], [72.738, 20.129]], [[74.266, 15.827], [74.266, 15.827], [74.266, 15.827], [74.266, 15.827]], [[77.267, 18.455], [77.267, 18.455], [77.267, 18.455], [77.267, 18.455]]], [[[72.9, 18.961], [72.9, 18.961], [72.9, 18.961], [72.9, 18.961]]], [[[72.726, 19.465], [72.726, 19.465], [72.726, 19.465], [72.726, 19.465]]], [[[72.773, 19.133], [72.773, 19.133], [72.773, 19.133], [72.773, 19.133]]], [[[72.781, 19.134], [72.781, 19.134], [72.781, 19.134], [72.781, 19.134]]], [[[72.725, 19.532], [72.725, 19.532], [72.725, 19.532], [72.725, 19.532]]], [[[72.717, 19.544], [72.717, 19.544], [72.717, 19.544], [72.717, 19.544]]]]}}