{"type": "Feature", "properties": {"name": "Punjab", "iso2": "IN-PB", "admin_level": 4, "osm_id": 1942686, "countrylevel_id": "iso2:IN-PB", "osm_data": {"localname": "Punjab", "official_name": "", "alltags": {"name:ar": "بنجاب", "name:cs": "Paňdžáb", "name:en": "Punjab", "name:eo": "Panĝabo", "name:es": "Panyab", "name:fr": "Pendjab", "name:hi": "पंजाब", "name:ja": "パンジャーブ", "name:kn": "ಪಂಜಾಬ್", "name:ku": "Pencab", "name:pa": "ਪੰਜਾਬ", "name:ru": "Пенджаб", "name:ta": "பஞ்சாப்", "name:uk": "Пенджаб", "name:ur": "پنجاب", "name:zh": "旁遮普邦", "is_in:country": "India", "is_in:continent": "Asia", "is_in:country_code": "IN"}}, "center_lat": 30.85, "center_lon": 75.41, "timezone": "Asia/Kolkata", "population": 27743338, "wikidata_id": "Q22424", "wikipedia_id": "en:Punjab, India"}, "geometry": {"type": "MultiPolygon", "coordinates": [[[[73.973, 30.198], [73.894, 29.974], [74.526, 29.942], [74.806, 29.993], [75.242, 29.755], [75.984, 29.727], [76.254, 30.09], [76.51, 30.071], [76.897, 30.482], [76.832, 30.683], [76.84, 30.76], [76.778, 30.899], [76.392, 31.39], [76.181, 31.307], [75.907, 31.952], [75.601, 32.093], [75.832, 32.51], [75.332, 32.327], [74.487, 31.715], [74.653, 31.455], [74.416, 30.94], [73.88, 30.36], [73.973, 30.198]]]]}}