{"type": "Feature", "properties": {"name": "Vaud", "iso2": "CH-VD", "admin_level": 4, "osm_id": 1702421, "countrylevel_id": "iso2:CH-VD", "osm_data": {"localname": "Vaud", "official_name": "", "alltags": {"name:ar": "فود", "name:ca": "Vaud", "name:es": "Valdia", "name:fr": "Vaud", "name:it": "Vaud", "name:lt": "Vo", "name:nl": "Waadland", "name:rm": "Vad", "name:ru": "Во", "alt_name": "Canton de Vaud", "name:prefix": "Kanton", "is_in:country": "Switzerland", "is_in:continent": "Europe", "official_name:ar": "كانتون فود", "is_in:country_code": "CH", "swisstopo:KANTONSNUM": "22"}}, "center_lat": 46.57, "center_lon": 6.63, "timezone": "Europe/Zurich", "population": 799145, "wikidata_id": "Q12771", "wikipedia_id": "fr:Canton de Vaud"}, "geometry": {"type": "MultiPolygon", "coordinates": [[[[6.929, 46.953], [7.04, 46.98], [7.091, 46.904], [7.083, 46.896], [6.929, 46.953]]], [[[6.621, 46.507], [6.621, 46.507], [6.621, 46.507], [6.621, 46.507]]], [[[6.535, 46.507], [6.535, 46.507], [6.535, 46.507], [6.535, 46.507]]], [[[6.915, 46.395], [6.915, 46.395], [6.915, 46.395], [6.915, 46.395]]], [[[6.927, 46.414], [6.927, 46.414], [6.927, 46.414], [6.927, 46.414]]], [[[6.882, 46.441], [6.882, 46.441], [6.882, 46.441], [6.882, 46.441]]], [[[6.339, 46.456], [6.339, 46.456], [6.339, 46.456], [6.339, 46.456]]], [[[6.17, 46.295], [6.126, 46.317], [6.064, 46.416], [6.138, 46.558], [6.46, 46.851], [6.78, 46.853], [6.866, 46.909], [6.896, 46.925], [6.797, 46.633], [7.237, 46.554], [7.222, 46.329], [6.859, 46.395], [6.213, 46.353], [6.207, 46.339], [6.17, 46.295]], [[6.167, 46.343], [6.167, 46.343], [6.167, 46.343], [6.167, 46.343]], [[6.749, 46.732], [6.749, 46.732], [6.749, 46.732], [6.749, 46.732]], [[6.788, 46.729], [6.788, 46.729], [6.788, 46.729], [6.788, 46.729]]]]}}