{"type": "Feature", "properties": {"name": "Brussels-Capital", "iso2": "BE-BRU", "admin_level": 4, "osm_id": 54094, "countrylevel_id": "iso2:BE-BRU", "osm_data": {"localname": "Région de Bruxelles-Capitale - Brussels Hoofdstedelijk Gewest", "official_name": "", "alltags": {"name:ar": "بروكسل العاصمة", "name:ca": "Brussel·les-Capital", "name:en": "Brussels-Capital", "name:fr": "Bruxelles-Capitale", "name:nl": "Brussels Hoofdstedelijk Gewest", "name:ru": "Брюссельский столичный регион", "name:sk": "Bruselský región", "name:wa": "Brussele-Capitåle", "ref:INS": "04000", "website": "http://www.bruxelles.irisnet.be/", "name:vls": "Haaptstad Bréissel", "nat_name": "Région de Bruxelles-Capitale - Brussels Hoofdstedelijk Gewest", "nat_name:ar": "إقليم بروكسل العاصمة", "nat_name:ca": "Regió de Brussel·les-Capital", "nat_name:de": "Region Brüssel-Hauptstadt", "nat_name:en": "Brussels-Capital Region", "nat_name:fr": "Région de Bruxelles-Capitale", "nat_name:lb": "Haaptstadregioun Bréissel", "nat_name:li": "Brussels Hoofsjtaejelik Gewes", "nat_name:nl": "Brussels Hoofdstedelijk Gewest", "nat_name:wa": "Redjon d'Brussele-Capitåle", "nat_name:vls": "Brussels Oofdstedelik Gewest", "default_language": "fr - nl"}}, "center_lat": 50.82, "center_lon": 4.24, "timezone": "Europe/Brussels", "population": 1198726, "wikidata_id": "Q240", "wikipedia_id": "fr:Région de Bruxelles-Capitale"}, "geometry": {"type": "MultiPolygon", "coordinates": [[[[4.244, 50.82], [4.244, 50.82], [4.244, 50.82], [4.244, 50.82]]]]}}