{"type": "Feature", "properties": {"name": "Blida", "iso2": "DZ-09", "admin_level": 4, "osm_id": 1283683, "countrylevel_id": "iso2:DZ-09", "osm_data": {"localname": "Blida - البليدة", "official_name": "", "alltags": {"name:ar": "البليدة", "name:el": "Μπλίντα", "name:en": "Blida", "name:fa": "البلیده", "name:fr": "Blida", "name:ja": "블리다", "name:ru": "Блида", "name:uk": "Бліда", "name:zh": "卜利达", "name:ber": "ⴱⵍⵉⴷⴰ", "name:kab": "Blida", "long_name:ar": "ولاية البليدة", "long_name:en": "Blida Province", "long_name:fr": "Wilaya de Blida", "is_in:country": "Algeria", "is_in:continent": "Africa", "is_in:country_code": "DZ"}}, "center_lat": 36.49, "center_lon": 2.92, "timezone": "Africa/Algiers", "population": 1002937, "wikidata_id": "Q233637", "wikipedia_id": "fr:Wilaya de Blida"}, "geometry": {"type": "MultiPolygon", "coordinates": [[[[2.476, 36.413], [2.507, 36.391], [2.572, 36.377], [2.552, 36.361], [2.619, 36.33], [2.692, 36.373], [2.846, 36.37], [2.867, 36.393], [2.926, 36.407], [2.937, 36.35], [3.009, 36.349], [3.1, 36.424], [3.132, 36.397], [3.189, 36.441], [3.194, 36.494], [3.273, 36.484], [3.296, 36.505], [3.307, 36.553], [3.298, 36.579], [3.236, 36.667], [3.224, 36.669], [3.177, 36.64], [3.147, 36.653], [3.111, 36.582], [3.057, 36.579], [3.063, 36.621], [2.991, 36.58], [2.953, 36.61], [2.923, 36.597], [2.886, 36.632], [2.811, 36.643], [2.833, 36.621], [2.817, 36.599], [2.742, 36.573], [2.73, 36.584], [2.662, 36.54], [2.651, 36.518], [2.603, 36.514], [2.618, 36.471], [2.588, 36.455], [2.527, 36.468], [2.524, 36.441], [2.476, 36.413]]]]}}