{"type": "Feature", "properties": {"name": "Mostaganem", "iso2": "DZ-27", "admin_level": 4, "osm_id": 1259191, "countrylevel_id": "iso2:DZ-27", "osm_data": {"localname": "Mostaganem", "official_name": "", "alltags": {"name:ar": "مستغانم", "name:el": "Μοσταγκάνεμ", "name:en": "Mostaganem", "name:es": "Mostaganem", "name:fa": "مستغانم", "name:fr": "Mostaganem", "name:ks": "مستغانم", "name:lt": "Mostaganemas", "name:pl": "Mustaghanam", "name:ur": "مستغانم", "name:zh": "穆斯塔加奈姆", "name:azb": "مستغانم", "name:ber": "ⵎⵓⵙⵜⵖⴰⵏⴻⵎ", "name:kab": "Mustɣanem", "name:pnb": "مستغانم", "long_name": "ولاية مستغانم", "long_name:ar": "ولاية مستغانم", "long_name:en": "Mostaganem Province", "long_name:fr": "Wilaya de Mostaganem"}}, "center_lat": 35.99, "center_lon": 0.33, "timezone": "Africa/Algiers", "population": 737118, "wikidata_id": "Q221445", "wikipedia_id": "ar:ولاية مستغانم"}, "geometry": {"type": "MultiPolygon", "coordinates": [[[[0.74, 36.334], [0.718, 36.271], [0.693, 36.241], [0.694, 36.206], [0.655, 36.15], [0.622, 36.146], [0.604, 36.119], [0.632, 36.063], [0.65, 35.997], [0.58, 35.984], [0.46, 35.981], [0.439, 35.921], [0.471, 35.923], [0.443, 35.884], [0.463, 35.873], [0.409, 35.805], [0.359, 35.807], [0.27, 35.759], [0.227, 35.704], [0.185, 35.71], [0.156, 35.672], [0.154, 35.701], [0.103, 35.694], [0.089, 35.726], [0.053, 35.749], [-0.018, 35.719], [-0.096, 35.748], [-0.116, 35.785], [-0.114, 35.789], [-0.051, 35.813], [0.025, 35.86], [0.058, 35.924], [0.072, 35.925], [0.129, 36.034], [0.211, 36.111], [0.288, 36.135], [0.338, 36.19], [0.383, 36.211], [0.43, 36.214], [0.557, 36.276], [0.589, 36.283], [0.649, 36.325], [0.74, 36.334]]], [[[0.301, 36.15], [0.301, 36.15], [0.301, 36.15], [0.301, 36.15]]]]}}