{"type": "Feature", "properties": {"name": "Ghardaia", "iso2": "DZ-47", "admin_level": 4, "osm_id": 1279666, "countrylevel_id": "iso2:DZ-47", "osm_data": {"localname": "غرداية", "official_name": "", "alltags": {"name:ar": "غرداية", "name:el": "Γκαρντάια", "name:en": "Ghardaia", "name:fa": "غردایه", "name:fr": "Ghardaïa", "name:lt": "Gardaja", "name:ru": "Гардая", "name:ur": "غرادیہ", "name:azb": "غردایه", "name:ber": "ⵜⴰⵖⴻⵔⴷⴰⵢⵜ", "name:kab": "Taɣerdayt", "long_name": "ولاية غرداية", "long_name:ar": "ولاية غرداية", "long_name:en": "Ghardaia Province", "long_name:fr": "Wilaya de Ghardaïa"}}, "center_lat": 32.54, "center_lon": 3.68, "timezone": "Africa/Algiers", "wikidata_id": "Q17601", "wikipedia_id": "ar:ولاية غرداية"}, "geometry": {"type": "MultiPolygon", "coordinates": [[[[2.24, 32.804], [2.277, 32.55], [2.523, 32.341], [2.957, 32.181], [3.263, 32.119], [3.316, 32.09], [3.354, 32.096], [3.817, 32.018], [3.868, 32.021], [3.929, 31.989], [4.024, 31.978], [4.027, 31.956], [4.164, 31.936], [4.232, 31.877], [4.298, 31.862], [4.369, 31.822], [4.387, 31.831], [4.419, 31.798], [4.433, 32.03], [4.456, 32.177], [4.47, 32.214], [4.563, 32.306], [4.781, 32.495], [5.025, 32.853], [4.945, 32.87], [4.482, 32.987], [4.48, 32.99], [4.359, 33.001], [3.884, 33.03], [3.839, 33.02], [3.774, 33.054], [3.714, 33.065], [3.634, 33.041], [3.59, 33.043], [3.57, 33.026], [3.212, 33.017], [3.241, 32.996], [3.38, 32.928], [3.393, 32.814], [2.999, 32.898], [2.884, 32.882], [2.75, 32.838], [2.723, 32.84], [2.52, 32.823], [2.24, 32.804]]]]}}