{"type": "Feature", "properties": {"name": "Chongqing", "iso2": "CN-CQ", "admin_level": 4, "osm_id": 913069, "countrylevel_id": "iso2:CN-CQ", "osm_data": {"localname": "重庆市", "official_name": "", "alltags": {"name:af": "Chongqing", "name:am": "ቾንግጪንግ", "name:ar": "تشونغتشينغ", "name:az": "Çuntsin", "name:be": "Чунцын", "name:bg": "Чунцин", "name:bm": "Chongqing", "name:bn": "ছুংছিং", "name:bo": "ཁྲུང་ཆིན་གྲོང་ཁྱེར།", "name:br": "Chongqing", "name:ca": "Txungking", "name:ce": "Чунцин", "name:cs": "Čchung-čching", "name:cy": "Chongqing", "name:da": "Chongqing", "name:el": "Τσονγκτσίνγκ", "name:en": "Chongqing", "name:eo": "Ĉongĉingo", "name:es": "Chongqing", "name:et": "Chongqing Shi", "name:eu": "Chongqing", "name:fa": "چونگ‌کینگ", "name:fi": "Chongqing", "name:fr": "Chongqing", "name:ga": "Chongqing", "name:gl": "Chongqing", "name:gv": "Chongqing", "name:ha": "Chongqing", "name:he": "צ'ונגצ'ינג", "name:hi": "चॊंग्किंग", "name:hr": "Chongqing", "name:hu": "Csungking", "name:hy": "Չունցին", "name:id": "Chongqing", "name:ie": "Chongqing", "name:is": "Chongqing", "name:it": "Chongqing", "name:ja": "重慶市", "name:ka": "ჩუნცინი", "name:kg": "Chongqing (kizunga)", "name:ki": "Chongqing", "name:kl": "Chongqing", "name:kn": "ಚೊಂಗ್ಕಿಂಗ್", "name:ko": "충칭시", "name:kw": "Chongqing", "name:ky": "Чунцин", "name:la": "Chungkina", "name:lt": "Čongčingas", "name:lv": "Čuncjina", "name:mg": "Chongqing", "name:mi": "Chongqing", "name:ml": "ചോങ്ചിങ്", "name:mn": "Чунчин", "name:mr": "चोंगछिंग", "name:ms": "Chongqing", "name:my": "ချုံချင့်မြို့", "name:nl": "Chongqing", "name:nn": "Chongqing", "name:no": "Chongqing", "name:ny": "Chongqing", "name:oc": "Chongqing", "name:pa": "ਚੌਂਗਕਿੰਗ", "name:pl": "Chongqing", "name:pt": "Chongqing", "name:qu": "Chongqing", "name:ro": "Chongqing", "name:ru": "Чунцин", "name:sk": "Čchung-čching", "name:sq": "Çongqing", "name:sr": "Чунгкинг", "name:sv": "Chongqing", "name:sw": "Chongqing", "name:ta": "சோங்கிங்", "name:th": "ฉงชิ่ง", "name:tl": "Chongqing", "name:tn": "Chongqing", "name:tr": "Çongçing", "name:tt": "Чуңчиң", "name:ug": "چۇڭچىڭ شەھىرى", "name:uk": "Чунцін", "name:ur": "چونگ چنگ", "name:uz": "Chunsin", "name:vi": "Trùng Khánh", "name:wo": "Chongqing", "name:za": "Cungzcing", "name:zh": "重庆市", "name:lzh": "重慶市", "name:nan": "Tiông-khèng-chhī", "name:yue": "重慶市", "alt_name:eo": "Chongqing", "name:zh-Hans": "重庆市", "name:zh-Hant": "重慶市", "is_in:country_code": "CN"}}, "center_lat": 30.04, "center_lon": 107.87, "timezone": "Asia/Chongqing", "population": 7990000, "wikidata_id": "Q11725", "wikipedia_id": "zh:重庆市"}, "geometry": {"type": "MultiPolygon", "coordinates": [[[[106.37, 28.528], [106.863, 28.628], [107.051, 28.897], [107.381, 28.851], [107.401, 29.191], [107.845, 28.965], [108.265, 29.094], [108.328, 28.683], [108.633, 28.627], [108.736, 28.229], [109.006, 28.164], [109.27, 28.498], [109.229, 29.122], [108.599, 29.868], [108.396, 30.377], [108.687, 30.59], [109.356, 30.553], [109.888, 30.902], [110.077, 30.802], [110.153, 31.335], [109.58, 31.728], [109.293, 31.713], [108.504, 32.204], [108.256, 31.968], [108.515, 31.668], [108.221, 31.509], [107.991, 30.911], [107.513, 30.858], [107.513, 30.65], [107.029, 30.033], [106.769, 30.016], [106.556, 30.319], [106.246, 30.191], [105.814, 30.439], [105.533, 30.156], [105.734, 29.866], [105.293, 29.573], [105.69, 29.295], [105.802, 28.951], [106.17, 28.925], [106.37, 28.528]], [[105.575, 30.13], [105.575, 30.13], [105.575, 30.13], [105.575, 30.13]], [[106.127, 30.29], [106.127, 30.29], [106.127, 30.29], [106.127, 30.29]]], [[[105.551, 30.195], [105.551, 30.195], [105.551, 30.195], [105.551, 30.195]]], [[[106.208, 30.256], [106.208, 30.256], [106.208, 30.256], [106.208, 30.256]]], [[[106.25, 30.21], [106.25, 30.21], [106.25, 30.21], [106.25, 30.21]]], [[[106.267, 30.219], [106.267, 30.219], [106.267, 30.219], [106.267, 30.219]]]]}}