{"type": "Feature", "properties": {"name": "Ningxia", "iso2": "CN-NX", "admin_level": 4, "osm_id": 913101, "countrylevel_id": "iso2:CN-NX", "osm_data": {"localname": "宁夏回族自治区", "official_name": "", "alltags": {"name:af": "Ningxia", "name:ar": "نينغشيا", "name:az": "Ninsya-Huey Muxtar Rayonu", "name:be": "Нінся-Хуэйскі аўтаномны раён", "name:bg": "Нинся-хуейски автономен регион", "name:bn": "নিংশিয়া", "name:bo": "ཉིང་ཤ་ཧུའི་རིགས་རང་སྐྱོང་ལྗོངས།", "name:br": "Ningxia", "name:ca": "Ningxia", "name:cs": "Ning-sia", "name:cy": "Ningxia", "name:da": "Ningxia", "name:el": "Αυτόνομη Περιοχή Νινγκσιά Χούι", "name:en": "Ningxia", "name:eo": "Ningŝjao", "name:es": "Ningxia", "name:et": "Ningxia", "name:eu": "Ningxia Hui Eskualde Autonomoa", "name:fa": "نینگ‌شیا", "name:fi": "Ningxia", "name:fr": "Ningxia", "name:ga": "Ningxia", "name:gl": "Ningxia", "name:gv": "Ningxia", "name:he": "נינגשיה", "name:hi": "निंगशिया", "name:hr": "Ningxia", "name:hu": "Ninghszia-Huj Autonóm Terület", "name:hy": "Նինսյա-Հուեյ", "name:ia": "Ningxia", "name:id": "Ningxia", "name:it": "Ningxia", "name:ja": "寧夏回族自治区", "name:jv": "Ningxia", "name:ka": "ნინსია-ხუეი", "name:kg": "Ningxia Hui", "name:kk": "Нинся", "name:ko": "닝샤 후이족 자치구", "name:la": "Ningxia", "name:lt": "Ningsia", "name:lv": "Ninsjas Hueju autonomais reģions", "name:ml": "നിൻഗ്സിയ", "name:mn": "Ниншя - Хотонгийн өөртөө засах орон", "name:mr": "निंग्स्या", "name:ms": "Ningxia", "name:nl": "Ningxia", "name:nn": "Ningxia", "name:no": "Ningxia", "name:oc": "Ningxia", "name:pl": "Ningxia", "name:pt": "Ningxia", "name:qu": "Ningxia", "name:ro": "Ningxia", "name:ru": "Нинся-Хуэйский автономный район", "name:sr": "Нингсја", "name:su": "Ningxia", "name:sv": "Ningxia", "name:sw": "Ningxia", "name:ta": "நின்ஷியா தன்னாட்சிப் பகுதி", "name:tg": "Нинсиа", "name:th": "เขตปกครองตนเองหนิงเซี่ยหุย", "name:tl": "Ningxia", "name:tr": "Ningksia Huy Özerk Bölgesi", "name:tt": "Ниңчә-Хуэй мөхтәри районы", "name:ug": "نىڭشيا خۇيزۇ ئاپتونۇم رايونى", "name:uk": "Нінся-Хуейський автономний район", "name:ur": "نینگشیا", "name:uz": "Ninsya-Xuey muxtor rayoni", "name:vi": "Ninh Hạ", "name:za": "Ningzha Veizcuz Swcigih", "name:zh": "宁夏回族自治区", "name:nan": "Lêng-hā Hoê-cho̍k Chū-tī-khu", "name:yue": "寧夏回族自治區", "name:zh-Hans": "宁夏回族自治区", "name:zh-Hant": "寧夏回族自治區", "name:zh_pinyin": "Níngxià Huízú Zìzhìqū", "name:xiaoerjing": "نٍ ﺷﯿَا ﺧُﻮِ ذُﻮْ ذِ جِ ﺛُﻮْ", "official_name:cs": "Chuejská autonomní oblast Ning-sia", "official_name:en": "Ningxia Hui Autonomous Region", "official_name:es": "egión Autónoma Hui de Ningxia", "official_name:fr": "Région autonome hui du Ningxia", "official_name:pl": "Region Autonomiczny Ningxia Hui", "official_name:vi": "Khu tự trị dân tộc Hồi Ninh Hạ", "is_in:country_code": "CN"}}, "center_lat": 37.28, "center_lon": 106.19, "timezone": "Asia/Shanghai", "population": 6301350, "wikidata_id": "Q57448", "wikipedia_id": "zh:宁夏回族自治区"}, "geometry": {"type": "MultiPolygon", "coordinates": [[[[104.284, 37.428], [104.678, 37.406], [105.337, 36.765], [105.199, 36.705], [105.511, 36.147], [105.478, 35.728], [106.359, 35.238], [106.43, 35.688], [106.923, 35.807], [106.936, 36.128], [106.555, 36.292], [106.601, 37.128], [107.265, 37.099], [107.278, 37.481], [107.647, 37.864], [107.167, 38.158], [106.478, 38.318], [106.949, 38.944], [106.747, 39.382], [106.283, 39.271], [105.891, 38.781], [105.801, 37.859], [105.568, 37.7], [104.284, 37.428]]], [[[105.887, 35.44], [105.887, 35.44], [105.887, 35.44], [105.887, 35.44]]], [[[106.059, 35.438], [106.059, 35.438], [106.059, 35.438], [106.059, 35.438]]]]}}