{"type": "Feature", "properties": {"name": "Sichuan", "iso2": "CN-SC", "admin_level": 4, "osm_id": 913068, "countrylevel_id": "iso2:CN-SC", "osm_data": {"localname": "四川省", "official_name": "", "alltags": {"name:af": "Sichuan", "name:ar": "سيتشوان", "name:az": "Siçuan Çin", "name:be": "Правінцыя Сычуань", "name:bg": "Съчуан", "name:bh": "सिचुआन", "name:bn": "সিছুয়ান", "name:bo": "སི་ཁྲོན་ཞིང་ཆེན།", "name:br": "Sichuan", "name:ca": "Sichuan", "name:ce": "Сычуань", "name:cs": "S’-čchuan", "name:cy": "Sichuan", "name:da": "Sichuan", "name:el": "Σετσουάν", "name:en": "Sichuan", "name:eo": "Siĉuano", "name:es": "Sichuan", "name:et": "Sichuan", "name:eu": "Sichuan", "name:fa": "سیچوآن", "name:fi": "Sichuan", "name:fr": "Sichuan", "name:ga": "Sichuan", "name:gl": "Sichuan", "name:gv": "Sichuan", "name:he": "סצ'ואן", "name:hi": "सिचुआन", "name:hr": "Sečuan", "name:hu": "Szecsuan", "name:ia": "Sichuan", "name:id": "Sichuan", "name:is": "Sesúan", "name:it": "Sichuan", "name:ja": "四川省", "name:ka": "სიჩუანი", "name:kg": "Sichuan", "name:kk": "Сычуань", "name:kn": "ಸಿಚುವಾನ್", "name:ko": "쓰촨 성", "name:la": "Sichuan", "name:lt": "Sičuanas", "name:lv": "Sičuaņa", "name:mg": "Sichuan", "name:ml": "സിഷ്വാൻ", "name:mn": "Сычуань муж", "name:mr": "स-च्वान", "name:ms": "Sichuan", "name:nl": "Sichuan", "name:nn": "Sichuan", "name:no": "Sichuan", "name:oc": "Sichuan", "name:os": "Сычуань", "name:pl": "Syczuan", "name:pt": "Sujuão", "name:qu": "Sichuan pruwinsya", "name:ro": "Sichuan", "name:ru": "Сычуань", "name:sk": "S’-čchuan", "name:sr": "Сичуан", "name:sv": "Sichuan", "name:sw": "Sichuan", "name:ta": "சிச்சுவான்", "name:tg": "Сичуан", "name:th": "มณฑลเสฉวน", "name:tl": "Sichuan", "name:tr": "Siçuan", "name:tt": "Сычуань", "name:ug": "سىچۈەن ئۆلكىسى", "name:uk": "Сичуань", "name:ur": "سیچوان", "name:uz": "Sichuan", "name:vi": "Tứ Xuyên", "name:wa": "Sichouan", "name:za": "Swconh", "name:zh": "四川省", "name:nan": "Sù-chhoan-séng", "name:yue": "四川省", "alt_name:cs": "Sečuán", "name:zh-Hans": "四川省", "name:zh-Hant": "四川省", "division_code": "510000", "name:zh_pinyin": "Sìchuān", "is_in:country_code": "CN"}}, "center_lat": 30.62, "center_lon": 102.7, "timezone": "Asia/Chongqing", "population": 81100000, "wikidata_id": "Q19770", "wikipedia_id": "zh:四川省"}, "geometry": {"type": "MultiPolygon", "coordinates": [[[[97.731, 32.53], [98.217, 32.347], [98.414, 31.835], [98.887, 31.378], [98.601, 31.194], [98.807, 30.997], [99.053, 29.898], [99.113, 29.225], [99.174, 28.406], [99.404, 28.16], [99.624, 28.817], [100.174, 28.328], [100.032, 28.188], [100.294, 27.873], [100.678, 27.928], [101.135, 27.026], [101.51, 26.757], [101.584, 26.284], [102.093, 26.066], [102.564, 26.368], [102.672, 26.209], [103.055, 26.533], [102.869, 27.03], [103.497, 27.816], [103.446, 28.119], [103.871, 28.306], [103.847, 28.669], [104.248, 28.534], [104.459, 28.245], [104.298, 28.047], [104.572, 27.844], [105.041, 28.1], [105.305, 27.708], [105.621, 27.669], [106.333, 27.829], [106.258, 28.078], [105.636, 28.326], [105.962, 28.764], [106.37, 28.528], [106.17, 28.925], [105.802, 28.951], [105.69, 29.295], [105.293, 29.573], [105.734, 29.866], [105.533, 30.156], [105.814, 30.439], [106.246, 30.191], [106.556, 30.319], [106.769, 30.016], [107.029, 30.033], [107.513, 30.65], [107.513, 30.858], [107.991, 30.911], [108.221, 31.509], [108.515, 31.668], [108.256, 31.968], [108.504, 32.204], [107.83, 32.226], [107.267, 32.407], [107.062, 32.71], [106.413, 32.616], [106.043, 32.866], [105.554, 32.736], [105.495, 32.913], [105.105, 32.599], [104.292, 32.838], [104.413, 33.034], [104.033, 33.69], [103.15, 33.817], [103.114, 34.176], [102.859, 34.304], [102.134, 33.968], [102.476, 33.545], [101.864, 33.105], [101.767, 33.54], [101.632, 33.102], [101.114, 33.197], [101.158, 32.662], [100.399, 32.751], [100.087, 32.672], [99.878, 33.048], [99.763, 32.779], [98.86, 33.151], [98.401, 34.089], [97.898, 34.211], [97.395, 33.891], [97.758, 33.405], [97.361, 32.949], [97.731, 32.53]], [[105.551, 30.195], [105.551, 30.195], [105.551, 30.195], [105.551, 30.195]], [[106.208, 30.256], [106.208, 30.256], [106.208, 30.256], [106.208, 30.256]], [[106.25, 30.21], [106.25, 30.21], [106.25, 30.21], [106.25, 30.21]], [[106.267, 30.219], [106.267, 30.219], [106.267, 30.219], [106.267, 30.219]]], [[[105.575, 30.13], [105.575, 30.13], [105.575, 30.13], [105.575, 30.13]]], [[[106.072, 32.76], [106.072, 32.76], [106.072, 32.76], [106.072, 32.76]]], [[[106.127, 30.29], [106.127, 30.29], [106.127, 30.29], [106.127, 30.29]]]]}}