{"type": "Feature", "properties": {"name": "Tibet", "iso2": "CN-XZ", "admin_level": 4, "osm_id": 153292, "countrylevel_id": "iso2:CN-XZ", "osm_data": {"localname": "西藏自治区", "official_name": "", "alltags": {"name:af": "Outonome Gewes Tibet", "name:ar": "منطقة التبت ذاتية الحكم", "name:as": "তিব্বত স্বায়ত্তশাসিত অঞ্চল", "name:az": "Tibet Muxtar Vilayəti", "name:be": "Тыбецкі аўтаномны раён", "name:bg": "Тибетски автономен регион", "name:bn": "তিব্বত স্বায়ত্তশাসিত অঞ্চল", "name:bo": "བོད་རང་སྐྱོང་ལྗོངས།", "name:br": "Rannvro Emren Tibet", "name:bs": "Tibet (autonomna regija)", "name:ca": "Regió Autònoma del Tibet", "name:cs": "Tibet", "name:da": "Autonom Region Tibet", "name:dz": "བོད།", "name:el": "Αυτόνομη Περιφέρεια του Θιβέτ", "name:en": "Tibet", "name:eo": "Tibeto", "name:es": "Tibet", "name:et": "Tiibeti autonoomne piirkond", "name:eu": "Tibeteko eskualde autonomoa", "name:fa": "منطقه خودمختار تبت", "name:fi": "Tiibetin autonominen alue", "name:fr": "Tibet", "name:gl": "Rexión Autónoma do Tíbet", "name:gv": "Tibet (ard hene-reiltagh)", "name:he": "המחוז האוטונומי הטיבטי", "name:hi": "तिब्बत", "name:hr": "Tibet", "name:hu": "Tibet", "name:hy": "Տիբեթի ինքնավար շրջան", "name:ia": "Xizang", "name:id": "Tibet", "name:is": "Tíbet", "name:it": "Tibet", "name:ja": "チベット自治区", "name:ka": "ტიბეტის ავტონომიური რეგიონი", "name:kg": "Xizang", "name:kn": "ಟಿಬೆಟ್", "name:ko": "티베트 자치구", "name:ku": "Tîbet", "name:lt": "Tibetas", "name:lv": "Tibetas autonomais reģions", "name:ml": "തിബെത്ത് സ്വയംഭരണപ്രദേശം", "name:mn": "Төвөдийн өөртөө засах орон", "name:mr": "तिबेट स्वायत्त प्रदेश", "name:ms": "Kawasan Autonomi Tibet", "name:nl": "Tibet", "name:nn": "Den autonome regionen Tibet", "name:no": "Den autonome region Tibet", "name:or": "ତିବ୍ବତ", "name:os": "Тибеты автономон район", "name:pa": "ਤਿੱਬਤ ਖ਼ੁਦਮੁਖ਼ਤਿਆਰ ਸੂਬਾ", "name:pl": "Tybet", "name:pt": "Tibete", "name:qu": "Tibet Awtunumu Suyu", "name:ro": "Tibet", "name:ru": "Тибет", "name:sk": "Tibet", "name:sq": "Tibet", "name:sr": "Тибет", "name:su": "Tibét", "name:sv": "Autonoma regionen Tibet", "name:ta": "திபெத் தன்னாட்சிப் பகுதி", "name:te": "టిబెట్ స్వాధికార ప్రాంతం", "name:tg": "Тибет (Чин)", "name:th": "เขตปกครองตนเองทิเบต", "name:tl": "Awtonomong Rehiyon ng Tibet", "name:tr": "Tibet Özerk Bölgesi", "name:ug": "شىزاڭ ئاپتونوم رايونى", "name:uk": "Тибет", "name:ur": "تبت خود مختار علاقہ", "name:uz": "Tibet muxtor rayoni", "name:vi": "Khu tự trị Tây Tạng", "name:yo": "Agbègbè Aladawa Tibet", "name:za": "Sihcang Swcigih", "name:zh": "西藏自治区", "alt_name": "西藏", "int_name": "Tibet", "name:hsb": "Tibet", "name:nan": "Se-chōng Chū-tī-khu", "name:yue": "西藏自治區", "alt_name:vi": "Tây Tạng", "name:zh-Hans": "西藏自治区", "name:zh-Hant": "西藏自治區", "name:zh_pinyin": "Xīzàng Zìzhìqū", "official_name:cs": "Tibetská autonomní oblast", "official_name:de": "Autonomes Gebiet Tibet", "official_name:en": "Tibet Autonomous Region", "official_name:es": "Región Autónoma del Tíbet", "official_name:fr": "Région autonome du Tibet", "official_name:hr": "Autonomna regija Tibet", "official_name:hu": "Tibeti Autonóm Terület", "official_name:it": "Regione Autonoma del Tibet", "official_name:lt": "Tibeto autonominis regionas", "official_name:nl": "Tibetaanse Autonome Regio", "official_name:pl": "Tybetański Region Autonomiczny", "official_name:pt": "Região Autónoma do Tibete", "official_name:ro": "Regiunea Autonomă Tibet", "official_name:ru": "Тибетский автономный район", "official_name:sk": "Autonómna oblasť Tibet", "official_name:uk": "Тибетський автономний район", "official_name:hsb": "Awtonomny region Tibet"}}, "center_lat": 31.69, "center_lon": 88.12, "timezone": "Asia/Shanghai", "population": 3180000, "wikidata_id": "Q17269", "wikipedia_id": "zh:西藏自治区"}, "geometry": {"type": "MultiPolygon", "coordinates": [[[[78.395, 32.531], [78.769, 31.929], [78.883, 31.286], [79.142, 31.432], [79.601, 30.939], [80.249, 30.72], [80.209, 30.588], [81.031, 30.247], [81.219, 30.007], [81.408, 30.421], [82.127, 30.304], [82.167, 30.076], [82.693, 29.761], [83.217, 29.605], [83.632, 29.159], [84.202, 29.236], [84.226, 28.893], [84.857, 28.571], [85.198, 28.628], [85.108, 28.346], [85.712, 28.386], [85.948, 27.942], [86.188, 28.173], [86.442, 27.906], [86.563, 28.11], [87.157, 27.825], [88.135, 27.882], [88.633, 28.123], [88.881, 27.892], [88.777, 27.469], [88.921, 27.327], [89.128, 27.615], [89.229, 27.731], [89.451, 27.988], [89.793, 28.247], [90.443, 28.064], [90.447, 28.054], [90.755, 28.05], [91.453, 28.009], [91.569, 27.817], [91.925, 27.716], [92.723, 27.973], [92.678, 28.151], [93.149, 28.366], [93.23, 28.591], [93.707, 28.664], [94.261, 28.932], [94.694, 29.318], [95.104, 29.096], [96.054, 29.382], [96.261, 29.245], [96.977, 28.33], [97.346, 28.215], [97.566, 28.546], [98.138, 28.146], [98.713, 28.232], [98.595, 28.686], [98.786, 29.002], [98.97, 28.831], [99.113, 29.225], [99.053, 29.898], [98.807, 30.997], [98.601, 31.194], [98.887, 31.378], [98.414, 31.835], [98.217, 32.347], [97.731, 32.53], [97.334, 32.517], [97.308, 32.077], [96.973, 32.071], [96.774, 31.676], [96.253, 31.933], [96.206, 31.602], [95.983, 31.819], [95.513, 31.75], [95.207, 32.391], [94.614, 32.676], [94.137, 32.437], [93.238, 32.665], [92.354, 32.767], [91.26, 33.144], [90.403, 33.263], [90.007, 33.559], [89.634, 34.052], [89.868, 34.331], [89.452, 35.232], [89.8, 35.849], [89.426, 35.918], [89.709, 36.094], [88.571, 36.461], [86.453, 36.222], [85.958, 35.789], [85.613, 35.653], [85.267, 35.79], [84.451, 35.548], [84.179, 35.359], [83.124, 35.399], [82.965, 35.668], [82.422, 35.713], [81.861, 35.261], [80.697, 35.338], [80.421, 35.443], [80.031, 35.041], [79.766, 34.471], [79.037, 34.335], [78.678, 33.667], [79.461, 32.71], [78.968, 32.336], [78.723, 32.674], [78.395, 32.531]]]]}}