{"type": "Feature", "properties": {"name": "Opole Voivodeship", "iso2": "PL-OP", "admin_level": 4, "osm_id": 224460, "countrylevel_id": "iso2:PL-OP", "osm_data": {"localname": "województwo opolskie", "official_name": "", "alltags": {"name:be": "Апольскае ваяводства", "name:cs": "Opolské vojvodství", "name:en": "Opole Voivodeship", "name:eo": "Opola Provinco", "name:es": "Voivodato de Opole", "name:et": "Opole vojevoodkond", "name:fr": "Voïvodie d'Opole", "name:hr": "Opolsko vojvodstvo", "name:ja": "オポーレ県", "name:ka": "ოპოლეს სავოევოდო", "name:lt": "Opolės vaivadija", "name:nl": "Woiwodschap Opole", "name:pl": "województwo opolskie", "name:pt": "Voivodia de Opole", "name:ru": "Опольское воеводство", "name:sk": "Opolské vojvodstvo", "name:sl": "Opoljsko vojvodstvo", "name:uk": "Опольське воєводство", "name:zh": "奧波萊省", "loc_name": "Opolskie", "name:szl": "uopolske wojewůdztwo", "short_name": "opolskie", "teryt:terc": "16", "alt_name:en": "Opole Province", "long_name:fr": "Voïvodie d'Opole", "name:be-tarask": "Апольскае ваяводзтва", "license_plate_code": "O"}}, "center_lat": 50.65, "center_lon": 17.9, "timezone": "Europe/Warsaw", "population": 1010203, "wikidata_id": "Q54171", "wikipedia_id": "pl:Województwo opolskie"}, "geometry": {"type": "MultiPolygon", "coordinates": [[[[16.908, 50.449], [16.974, 50.418], [16.998, 50.428], [17.053, 50.407], [17.111, 50.405], [17.143, 50.38], [17.204, 50.386], [17.201, 50.364], [17.29, 50.318], [17.349, 50.328], [17.343, 50.281], [17.421, 50.277], [17.43, 50.254], [17.496, 50.275], [17.592, 50.279], [17.617, 50.267], [17.689, 50.302], [17.687, 50.328], [17.751, 50.3], [17.725, 50.257], [17.765, 50.236], [17.759, 50.207], [17.705, 50.185], [17.601, 50.17], [17.611, 50.14], [17.677, 50.103], [17.705, 50.114], [17.773, 50.042], [17.777, 50.02], [17.828, 50.011], [17.869, 49.973], [17.925, 49.982], [18.044, 50.037], [18.004, 50.038], [18.035, 50.066], [18.073, 50.109], [18.05, 50.138], [18.079, 50.174], [18.249, 50.193], [18.236, 50.213], [18.369, 50.255], [18.426, 50.249], [18.358, 50.357], [18.394, 50.391], [18.38, 50.482], [18.44, 50.481], [18.436, 50.545], [18.478, 50.553], [18.559, 50.54], [18.605, 50.553], [18.602, 50.604], [18.518, 50.625], [18.484, 50.708], [18.548, 50.732], [18.55, 50.76], [18.505, 50.801], [18.562, 50.809], [18.558, 50.834], [18.616, 50.854], [18.655, 50.917], [18.612, 50.955], [18.664, 50.971], [18.656, 51.005], [18.695, 51.016], [18.673, 51.057], [18.578, 51.082], [18.554, 51.139], [18.521, 51.14], [18.489, 51.091], [18.465, 51.12], [18.367, 51.138], [18.315, 51.134], [18.259, 51.158], [18.164, 51.173], [18.039, 51.131], [17.886, 51.104], [17.82, 51.121], [17.851, 51.172], [17.795, 51.194], [17.669, 51.161], [17.612, 51.191], [17.545, 51.154], [17.576, 51.129], [17.534, 51.069], [17.514, 51.012], [17.538, 50.989], [17.431, 50.967], [17.427, 50.911], [17.369, 50.926], [17.352, 50.901], [17.398, 50.889], [17.384, 50.862], [17.328, 50.851], [17.345, 50.784], [17.285, 50.792], [17.254, 50.772], [17.298, 50.753], [17.22, 50.701], [17.236, 50.613], [17.122, 50.608], [17.061, 50.537], [17.062, 50.476], [17.042, 50.463], [16.97, 50.488], [16.908, 50.449]]]]}}