{"type": "Feature", "properties": {"name": "Zeeland", "iso2": "NL-ZE", "admin_level": 4, "osm_id": 47806, "countrylevel_id": "iso2:NL-ZE", "osm_data": {"localname": "Zeeland", "official_name": "Provincie Zeeland", "alltags": {"name:ar": "زيلند", "name:ca": "Zelanda", "name:en": "Zeeland", "name:eo": "Zelando", "name:es": "Zelanda", "name:fr": "Zélande", "name:fy": "Seelân", "name:nl": "Zeeland", "name:pl": "Zelandia", "name:ru": "Зеландия", "name:tzl": "Zaiphäts", "population": "382335", "is_in:country": "The Netherlands", "official_name": "Provincie Zeeland", "note:ISO3166-2": "Zeeland is a subset (type Province) of the Kingdom of the Netherlands (ISO3166-1 country code NL)", "is_in:continent": "Europe", "population:date": "2018-01-01", "official_name:nl": "Provincie Zeeland", "ref:provinciecode": "29", "is_in:country_code": "NL"}}, "center_lat": 51.49, "center_lon": 3.86, "timezone": "Europe/Amsterdam", "population": 380726, "wikidata_id": "Q705", "wikipedia_id": "nl:Zeeland (provincie)"}, "geometry": {"type": "MultiPolygon", "coordinates": [[[[3.623, 51.398], [3.623, 51.398], [3.623, 51.398], [3.623, 51.398]]], [[[4.187, 51.384], [4.187, 51.384], [4.187, 51.384], [4.187, 51.384]]], [[[3.689, 51.385], [3.689, 51.385], [3.689, 51.385], [3.689, 51.385]]], [[[3.837, 51.759], [4.243, 51.647], [4.277, 51.376], [4.242, 51.354], [3.381, 51.274], [3.366, 51.369], [3.837, 51.759]]]]}}