{"type": "Feature", "properties": {"name": "South Holland", "iso2": "NL-ZH", "admin_level": 4, "osm_id": 47772, "countrylevel_id": "iso2:NL-ZH", "osm_data": {"localname": "Zuid-Holland", "official_name": "", "alltags": {"name:ar": "جنوب هولندا", "name:ca": "Holanda Meridional", "name:en": "South Holland", "name:es": "Holanda Meridional", "name:fr": "Hollande-Méridionale", "name:lt": "Pietų Olandija", "name:nl": "Zuid-Holland", "name:pl": "Holandia Północna", "name:ru": "Южная Голландия", "population": "3680652", "is_in:country": "The Netherlands", "note:ISO3166-2": "Zuid-Holland is a subset (type Province) of the Kingdom of the Netherlands (ISO3166-1 country code NL)", "is_in:continent": "Europe", "population:date": "2018-01-01", "ref:provinciecode": "28", "is_in:country_code": "NL"}}, "center_lat": 51.95, "center_lon": 4.48, "timezone": "Europe/Amsterdam", "population": 3577032, "wikidata_id": "Q694", "wikipedia_id": "nl:Zuid-Holland"}, "geometry": {"type": "MultiPolygon", "coordinates": [[[[4.494, 52.328], [4.795, 52.227], [5.027, 51.859], [5, 51.821], [4.243, 51.647], [3.837, 51.759], [4.494, 52.328]]]]}}