{"type": "Feature", "properties": {"name": "Bamako", "iso2": "ML-BKO", "admin_level": 4, "osm_id": 2105525, "countrylevel_id": "iso2:ML-BKO", "osm_data": {"localname": "Bamako", "official_name": "District de Bamako", "alltags": {"name:am": "ባማኮ", "name:ar": "باماكو", "name:be": "Бамако", "name:bg": "Бамако", "name:bm": "Bamakɔ", "name:bo": "བ་མ་ཀོ།", "name:cv": "Бамако", "name:el": "Μπαμάκο", "name:en": "Bamako", "name:eo": "Bamako", "name:fa": "باماکو", "name:fr": "Bamako", "name:gl": "Bamaco", "name:he": "במקו", "name:hi": "बमाको", "name:hu": "Bamako", "name:hy": "Բամակո", "name:is": "Bamakó", "name:ja": "バマコ", "name:ka": "ბამაკო", "name:ko": "바마코", "name:ky": "Бамако", "name:lt": "Bamakas", "name:mk": "Бамако", "name:mr": "बमाको", "name:os": "Бамако", "name:pl": "Bamako", "name:ru": "Бамако", "name:sr": "Бамако", "name:sv": "Bamako", "name:ta": "பமாக்கோ", "name:tg": "Бамако", "name:th": "บามาโก", "name:uk": "Бамако", "name:ur": "بماکو", "name:zh": "巴馬科", "name:arc": "ܒܡܩܘ", "name:ckb": "باماکۆ", "name:kab": "Bamaku", "name:mrj": "Бамако", "name:pnb": "بماکو", "name:udm": "Бамако", "admin_type:ML": "district", "official_name": "District de Bamako", "name:be-tarask": "Бамака"}}, "center_lat": 12.61, "center_lon": -7.98, "timezone": "Africa/Bamako", "population": 2009109, "wikidata_id": "Q3703", "wikipedia_id": "fr:Bamako"}, "geometry": {"type": "MultiPolygon", "coordinates": [[[[-8.074, 12.578], [-8.065, 12.561], [-8.045, 12.571], [-8.037, 12.57], [-8.04, 12.583], [-8.036, 12.594], [-8.017, 12.576], [-8.006, 12.572], [-7.987, 12.521], [-7.933, 12.505], [-7.916, 12.516], [-7.922, 12.584], [-7.906, 12.607], [-7.905, 12.654], [-7.911, 12.658], [-7.914, 12.679], [-7.932, 12.678], [-7.943, 12.705], [-7.982, 12.676], [-8.008, 12.676], [-8.02, 12.672], [-8.018, 12.66], [-8.033, 12.658], [-8.042, 12.672], [-8.047, 12.67], [-8.074, 12.578]]]]}}