{"type": "Feature", "properties": {"name": "Hama", "iso2": "SY-HM", "admin_level": 4, "osm_id": 184880, "countrylevel_id": "iso2:SY-HM", "osm_data": {"localname": "حماة", "official_name": "محافظة حماة", "alltags": {"name:ar": "حماة", "name:cs": "guvernorát Hamá", "name:en": "Hama", "name:es": "Hama", "name:fa": "حمات", "name:fr": "Hama", "name:ja": "ハマー県", "name:pl": "Hama", "name:ru": "Хама", "name:uk": "Хама мухафаза", "name:ur": "حماہ", "name:zh": "哈马省", "name:azb": "حماه", "name:mzn": "حماه", "name:pnb": "حماہ", "official_name": "محافظة حماة", "sorting_name:cs": "Hamá", "official_name:ar": "محافظة حماة", "official_name:fa": "استان حمات", "official_name:ur": "محافظہ حماہ"}}, "center_lat": 35.23, "center_lon": 37.15, "timezone": "Asia/Damascus", "population": 1628000, "wikidata_id": "Q232355", "wikipedia_id": "ar:محافظة حماة"}, "geometry": {"type": "MultiPolygon", "coordinates": [[[[36.313, 34.902], [37.003, 34.858], [37.739, 35.119], [37.984, 34.899], [38.301, 35.382], [38.235, 35.436], [37.216, 35.551], [36.532, 35.409], [36.255, 35.756], [36.253, 35.223], [36.313, 34.902]]]]}}