{"type": "Feature", "properties": {"name": "Rif Dimashq", "iso2": "SY-RD", "admin_level": 4, "osm_id": 184884, "countrylevel_id": "iso2:SY-RD", "osm_data": {"localname": "ريف دمشق", "official_name": "محافظة ريف دمشق", "alltags": {"name:ar": "ريف دمشق", "name:cs": "guvernorát Ríf Dimašq", "name:en": "Rif Dimashq", "name:es": "Gobernacion de Rif Dimashq", "name:fr": "Gouvernorat de Rif Dimachq", "name:ja": "リーフ・ディマシュク県", "name:pl": "Damaszek", "name:ru": "Дамаск", "name:zh": "大马士革农村省", "official_name": "محافظة ريف دمشق", "sorting_name:cs": "Ríf Dimašq", "official_name:ar": "محافظة ريف دمشق"}}, "center_lat": 33.46, "center_lon": 37.01, "timezone": "Asia/Damascus", "population": 2836000, "wikidata_id": "Q232399", "wikipedia_id": "ar:محافظة ريف دمشق"}, "geometry": {"type": "MultiPolygon", "coordinates": [[[[35.962, 33.205], [36.571, 33.195], [36.814, 33.228], [37.494, 32.693], [38.318, 33.123], [37.645, 33.53], [36.867, 34.23], [36.625, 34.204], [36.131, 33.839], [35.901, 33.443], [35.962, 33.205]], [[36.197, 33.525], [36.197, 33.525], [36.197, 33.525], [36.197, 33.525]]]]}}