{"type": "Feature", "properties": {"name": "Afghanistan", "iso1": "AF", "admin_level": 2, "osm_id": 303427, "countrylevel_id": "iso1:AF", "osm_data": {"localname": "افغانستان", "official_name": "Cộng hòa Hồi giáo Afghanistan", "alltags": {"flag": "http://upload.wikimedia.org/wikipedia/commons/9/9a/Flag_of_Afghanistan.svg", "name:af": "Afghanistan", "name:ak": "Afganistan", "name:am": "አፍጋኒስታን", "name:an": "Afganistán", "name:ar": "أفغانستان", "name:as": "আফগানিস্তান", "name:az": "Əfqanıstan", "name:ba": "Афғанстан", "name:be": "Афганістан", "name:bg": "Афганистан", "name:bh": "अफ़ग़ानिस्तान", "name:bm": "Afiganistaŋ", "name:bn": "আফগানিস্তান", "name:bo": "ཨ་ཧྥུའུ་རྒན་སི་ཐན།", "name:br": "Afghanistan", "name:bs": "Afganistan", "name:ca": "Afganistan", "name:ce": "АфгIанистан", "name:co": "Afghanistan", "name:cs": "Afghánistán", "name:cv": "Афганистан", "name:cy": "Affganistan", "name:da": "Afghanistan", "name:dv": "އަފްޣާނިސްތާން", "name:dz": "ཨཕ་ག་ནིསི་ཏཱན་", "name:ee": "Afghanistan nutome", "name:el": "Αφγανιστάν", "name:en": "Afghanistan", "name:eo": "Afganujo", "name:es": "Afganistán", "name:et": "Afganistan", "name:eu": "Afganistan", "name:fa": "افغانستان", "name:ff": "Afganistaan", "name:fi": "Afganistan", "name:fo": "Afghanistan", "name:fr": "Afghanistan", "name:fy": "Afganistan", "name:ga": "An Afganastáin", "name:gd": "Afganastan", "name:gl": "Afganistán - افغانستان", "name:gn": "Ahyganitã", "name:gu": "અફઘાનિસ્તાન", "name:gv": "Yn Afghanistaan", "name:ha": "Afghanistan", "name:he": "אפגניסטן", "name:hi": "अफ़्गानिस्तान", "name:hr": "Afganistan", "name:ht": "Afganistan", "name:hu": "Afganisztán", "name:hy": "Աֆղանստան", "name:ia": "Afghanistan", "name:id": "Afganistan", "name:ie": "Afghanistan", "name:io": "Afganistan", "name:is": "Afganistan", "name:it": "Afghanistan", "name:ja": "アフガニスタン", "name:jv": "Afganistan", "name:ka": "ავღანეთი", "name:kg": "Afghanistan", "name:ki": "Afghanistan", "name:kk": "Ауғанстан", "name:kl": "Afghanistan", "name:km": "សាធារណរដ្ឋឥស្លាមអាហ្វហ្កានីស្ថាន", "name:kn": "ಅಫ್ಘಾನಿಸ್ತಾನ", "name:ko": "아프가니스탄", "name:ks": "اَفغانَستان", "name:ku": "Afxanistan", "name:kv": "Афганистан", "name:kw": "Afghanistan", "name:ky": "Ооганстан", "name:la": "Afgania", "name:lb": "Afghanistan", "name:lg": "Afaganisitani", "name:li": "Afghanistan", "name:ln": "Afganistáni", "name:lo": "ອັບການິສະຖານ", "name:lt": "Afganistanas", "name:lv": "Afganistāna", "name:mg": "Afganistana", "name:mi": "Āwhekenetāna", "name:mk": "Авганистан", "name:ml": "അഫ്ഗാനിസ്താൻ", "name:mn": "Афганистан", "name:mo": "Афганистан", "name:mr": "अफगाणिस्तान", "name:ms": "Afghanistan", "name:mt": "Afganistan", "name:my": "အာဖဂန်နစ္စတန်နိုင်ငံ", "name:na": "Apeganitan", "name:ne": "अफगानिस्तान", "name:nl": "Afghanistan", "name:nn": "Afghanistan", "name:no": "Afghanistan", "name:oc": "Afganistan", "name:om": "Afgaanistaan", "name:or": "ଆଫଗାନିସ୍ତାନ", "name:os": "Афгъанистан", "name:pa": "ਅਫ਼ਗ਼ਾਨਿਸਤਾਨ", "name:pi": "अफगानस्थान", "name:pl": "Afganistan", "name:ps": "افغانستان", "name:pt": "Afeganistão", "name:qu": "Afgansuyu", "name:rm": "Afganistan", "name:rn": "Afuganisitani", "name:ro": "Afganistan", "name:ru": "Афганистан", "name:rw": "Afuganisitani", "name:sa": "अफगानस्थान", "name:sd": "افغانستان", "name:se": "Afganistána", "name:sg": "Faganïta, Afganïstäan", "name:sh": "Afganistan", "name:si": "ඇෆ්ගනිස්ථානය", "name:sk": "Afganistan", "name:sl": "Afganistan", "name:sm": "Afakanisitana", "name:sn": "Afghanistan", "name:so": "Afgaanistan", "name:sq": "Afganistani", "name:sr": "Авганистан", "name:ss": "I-Afugani", "name:su": "Apganistan", "name:sv": "Afghanistan", "name:sw": "Afghanistan", "name:ta": "ஆப்கானித்தான்", "name:te": "ఆఫ్ఘనిస్తాన్", "name:tg": "Афғонистон", "name:th": "ประเทศอัฟกานิสถาน", "name:ti": "አፍጋኒስታን", "name:tk": "Owganystan", "name:tl": "Apganistan", "name:to": "ʻAfukanisitani", "name:tr": "Afganistan", "name:tt": "Әфганстан", "name:ug": "ئافغانىستان", "name:uk": "Афганістан", "name:ur": "افغانستان", "name:uz": "Afgʻoniston", "name:vi": "Afghanistan", "name:vo": "Lafganistän", "name:wo": "Afganistaan", "name:yi": "אפגאניסטאן", "name:yo": "Afghanístàn", "name:za": "Afghanistan", "name:zh": "阿富汗", "name:zu": "I-Afganistani", "int_name": "Afghanistan", "name:ace": "Afghanistan", "name:ady": "Афганистан", "name:als": "Afghanischtan", "name:ang": "Afghanistan", "name:arc": "ܐܦܓܐܢܣܛܐܢ", "name:arz": "افغانستان", "name:ast": "Afganistán", "name:azb": "افغانیستان", "name:bar": "Afghanistan", "name:bcl": "Apganistan", "name:bpy": "আফগানিস্তান", "name:bug": "Afghanistan", "name:bxr": "Афганистан", "name:cdo": "Afghanistan", "name:ceb": "Apganistan", "name:chr": "ᎠᏫᎨᏂᏍᏖᏂ", "name:ckb": "ئەفغانستان", "name:crh": "Afğanistan", "name:csb": "Afganistón", "name:diq": "Efğanıstan", "name:dsb": "Afghanistan", "name:dty": "अफगानिस्तान", "name:ext": "Afganistán", "name:frp": "Afganistan", "name:frr": "Afghanistan", "name:fur": "Afghanistan", "name:gag": "Afganistan", "name:gom": "अफगाणिस्तान", "name:got": "𐌰𐍆𐌲𐌰𐌽𐌹𐍃𐍄𐌰𐌽", "name:hak": "Â-fu-hon", "name:haw": "‘Apekanikana", "name:hif": "Afghanistan", "name:hsb": "Afghanistan", "name:ilo": "Apganistán", "name:jam": "Afganistan", "name:jbo": "afyganisTAN", "name:kaa": "Afg'anstan", "name:kab": "Afɣanistan", "name:kbd": "Афганистэн", "name:kbp": "Afganistani", "name:krc": "Афганистан", "name:ksh": "Afghanistan", "name:lad": "Afganistan", "name:lez": "Афганистан", "name:lij": "Afghanistan", "name:lmo": "Afghanistan", "name:lrc": "أفغانستان", "name:lzh": "阿富汗", "name:mai": "अफगानिस्तान", "name:mdf": "Афганистан", "name:mhr": "Афганистан", "name:min": "Afganistan", "name:mwl": "Afeganistan", "name:myv": "Афганистан Мастор", "name:mzn": "افغانستان", "name:nah": "Afganistan", "name:nan": "Afghanistan", "name:nds": "Afghanistan", "name:new": "अफगानिस्तान", "name:nov": "Afganistan", "name:olo": "Afganistuanu", "name:pag": "Afghanistan", "name:pam": "Afganistan", "name:pap": "Afganistán", "name:pdc": "Afganischtaan", "name:pih": "Afganistaan", "name:pms": "Afgànistan", "name:pnb": "افغانستان", "name:rue": "Афґаністан", "name:sah": "Афганистаан", "name:scn": "Afganistàn", "name:sco": "Afghanistan", "name:stq": "Afghanistan", "name:szl": "Afgańistan", "name:tet": "Afeganistaun", "name:tok": "ma Akanisan", "name:tpi": "Afghanistan", "name:tum": "Afghanistan", "name:udm": "Афганистан", "name:vec": "Afganistan", "name:vep": "Afganistan", "name:vls": "Afghanistan", "name:war": "Afganistan", "name:wuu": "阿富汗", "name:xal": "Сарта Апганмудин Орн", "name:xmf": "ავღანეთი", "name:yue": "阿富汗", "name:zea": "Afghanistan", "name:UN:ar": "أفغانستان", "name:UN:en": "Afghanistan", "name:UN:es": "Afganistán (el)", "name:UN:fr": "Afghanistan (l')", "name:UN:ru": "Афганистан", "name:UN:zh": "阿富汗", "alt_name:af": "Afganistan", "alt_name:eo": "Afganistano;Afganio", "alt_name:gd": "Afghanastàn", "alt_name:io": "Afgania", "alt_name:it": "Afganistan", "alt_name:la": "Afghanistania", "alt_name:li": "Afganistan", "alt_name:mn": "Афган улс", "alt_name:sh": "Avganistan", "alt_name:so": "Afqaanistan", "alt_name:vi": "Áp-ga-nít-xtăng", "name:nds-nl": "Afghanistan", "old_name:vi": "A Phú Hãn", "alt_name:mzn": "افغانستون", "alt_name:vec": "Afghanistan", "alt_name:war": "Afghanistan", "name:bat-smg": "Afganėstans", "name:cbk-zam": "Afghanistan", "name:fiu-vro": "Afganistan", "name:roa-rup": "Afganistan", "name:roa-tara": "Afghanistan", "official_name": "Cộng hòa Hồi giáo Afghanistan", "name:be-tarask": "Аўганістан", "name:zh_pinyin": "Āfùhàn", "is_in:continent": "Asia", "default_language": "fa", "official_name:af": "Islamitiese Republiek van Afghanistan", "official_name:an": "Republica Islamica d'Afganistán", "official_name:ar": "جمهورية أفغانستان الإسلامية", "official_name:az": "Əfqanıstan İslam Respublikası", "official_name:ba": "Афғанстан Ислам Республикаһы", "official_name:be": "Ісламская Рэспубліка Афганістан", "official_name:bg": "Ислямска република Афганистан", "official_name:bn": "আফগানিস্তান ইসলামী প্রজাতন্ত্র", "official_name:br": "Republik Islamek Afghanistan", "official_name:bs": "Islamska Republika Afganistan", "official_name:ce": "Исламан Республика ОвхӀан", "official_name:cs": "Afghánská islámská republika", "official_name:cv": "Ислам патшалăхĕ Афганистан", "official_name:cy": "Gweriniaeth Islamaidd Affganistan", "official_name:da": "Den Islamiske Republik Afghanistan", "official_name:de": "Islamische Republik Afghanistan", "official_name:el": "Ισλαμική Δημοκρατία του Αφγανιστάν", "official_name:en": "Islamic Republic of Afghanistan", "official_name:eo": "Islama Respubliko Afganistano", "official_name:es": "República Islámica de Afganistán", "official_name:et": "Afganistani Islamivabariik", "official_name:eu": "Afganistango Estatu Islamiarra", "official_name:fa": "جمهوری اسلامی افغانستان", "official_name:fi": "Afganistanin islamilainen tasavalta", "official_name:fo": "Tað Islamska Lýðveldið Afghanistan", "official_name:fr": "République islamique d'Afghanistan", "official_name:fy": "Islamityske Republyk Afganistan", "official_name:ga": "Poblacht Ioslamach na Afganastáin", "official_name:gd": "Poblachd Ioslamach Afghanastàn", "official_name:gl": "República Islámica de Afganistán", "official_name:gn": "Tetã Islãrehegua Ahyganitã", "official_name:he": "הרפובליקה האסלאמית של אפגניסטן", "official_name:hi": "अफ़्ग़ानिस्तान इस्लामिक गणराज्य", "official_name:hr": "Islamska Republika Afganistan", "official_name:hu": "Afganisztáni Iszlám Köztársaság", "official_name:hy": "Աֆղանստանի Իսլամական Հանրապետություն", "official_name:id": "Republik Islam Afganistan", "official_name:is": "Íslamska lýðveldið Afganistan", "official_name:it": "Repubblica Islamica dell'Afghanistan", "official_name:ja": "アフガニスタン・イスラム共和国", "official_name:ka": "ავღანეთის ისლამური რესპუბლიკა", "official_name:kk": "Ауғанстан Ислам Республикасы", "official_name:km": "សាធារណរដ្ឋឥស្លាមអាហ្វហ្គានីស្ថាន", "official_name:kn": "ಅಫ್ಘಾನಿಸ್ತಾನ ಇಸ್ಲಾಮೀಯ ಗಣರಾಜ್ಯ", "official_name:ko": "아프가니스탄 이슬람 공화국", "official_name:ku": "Komara Îslamî ya Efxanistanê", "official_name:ky": "Афганстан Ислам өлкөсү", "official_name:la": "Res Publica Islamica Afganiae", "official_name:lt": "Afganistãno Islãmo Respùblika", "official_name:lv": "Afganistānas Islāma Republika", "official_name:mg": "Repoblika islamikan' Afganistana", "official_name:mi": "Ihirama o Repupirita o Āwhekenetāna", "official_name:mk": "Исламска Република Авганистан", "official_name:ml": "ഇസ്ലാമിക്‌ റിപബ്ലിക്‌ ഓഫ്‌ അഫ്ഗാനിസ്താൻ", "official_name:mn": "Исламын Бүгд Найрамдах Афган Улс", "official_name:mr": "अफगाणिस्तानचे इस्लामी प्रजासत्ताक", "official_name:ms": "Republik Islam Afghanistan", "official_name:mt": "Repubblika Iżlamika tal-Afganistan", "official_name:my": "အာဖဂန်နစ္စတန် အစ္စလာမ် သမ္မတနိုင်ငံ", "official_name:ne": "इस्लामिक गणतन्त्र अफगानिस्तान", "official_name:nl": "Islamitische Republiek Afghanistan", "official_name:nn": "Den islamske republikken Afghanistan", "official_name:no": "Den islamske republikken Afghanistan", "official_name:oc": "Republica islamica d'Afganistan", "official_name:or": "ଆଫଗାନିସ୍ତାନ ଇସଲାମିକ ଗଣତନ୍ତ୍ର", "official_name:os": "Афгъанистаны пысылмон республикæ", "official_name:pa": "ਅਫ਼ਗ਼ਾਨਿਸਤਾਨ ਇਸਲਾਮੀ ਗਣਰਾਜ", "official_name:pl": "Islamska Republika Afganistanu", "official_name:ps": "د افغانستان اسلامي جمهوريت", "official_name:pt": "República Islâmica do Afeganistão", "official_name:qu": "Muslim Ripuwlika Afgansuyu", "official_name:rm": "República Islámica de Afganistán", "official_name:ro": "Republica Islamică Afghanistan", "official_name:ru": "Исла́мская Респу́блика Афганиста́н", "official_name:rw": "Repebulika y’Ubuyisilamu ya Afuganisitani", "official_name:se": "Afganistana islamlaš dásseváldi", "official_name:sh": "Islamska Republika Avganistan", "official_name:si": "ඇෆ්ගනිස්ථාන ඉස්ලාමික ජනරජය", "official_name:sk": "Afganská islamská republika", "official_name:sl": "Islamska republika Afganistan", "official_name:so": "Jamuuriyadda islaamiga Afqaanistan", "official_name:sq": "Republika Islamike e Afganistanit", "official_name:sr": "Исламска Република Авганистан", "official_name:su": "Républik Islam Apganistan", "official_name:sv": "Islamiska republiken Afghanistan", "official_name:sw": "Jamhuri ya Kiislamu ya Afghanistan", "official_name:ta": "அப்கானித்தான் இசுலாமியக் குடியரசு", "official_name:te": "ఇస్లామిక్ రిపబ్లిక్ ఆఫ్ ఆఫ్ఘనిస్తాన్", "official_name:tg": "Ҷумҳурии Исломии Афғонистон", "official_name:th": "สาธารณรัฐอิสลามอัฟกานิสถาน", "official_name:tk": "Owganystan Yslam Respublikasy", "official_name:tl": "Republikang Islamiko ng Afghanistan", "official_name:tr": "Afganistan İslam Cumhuriyeti", "official_name:tt": "Әфганстан Ислам Җөмһүрияте", "official_name:ug": "ئافغانىستان ئىسلام جۇمھۇرىيىتى", "official_name:uk": "Ісла́мська Респу́бліка Афганіста́н", "official_name:ur": "اسلامی جمہوریہ افغانستان", "official_name:uz": "Afgʻoniston Islom Respublikasi", "official_name:vi": "Cộng hòa Hồi giáo Afghanistan", "official_name:wo": "Etaa Islaamik u Taraansisoŋ bu Afganistaan", "official_name:yi": "איסלאמישע רעפובליק פון אַפֿגאַניסטאַן", "official_name:zh": "阿富汗伊斯兰共和国", "official_name:ace": "Republik Islam Afghanistan", "official_name:ady": "Ислъам Республикэу Афганистан", "official_name:azb": "افغانیستان ایسلام جومهوریتی", "official_name:bar": "Islamische Republik Afghanistan", "official_name:bcl": "Islamikong Republika kan Apganistan", "official_name:bpy": "ইসলামিক প্রজাতন্ত্রি আফগানিস্তান", "official_name:bxr": "Лалын Бүгэдэ Найрамдаха Афган Улас", "official_name:ceb": "Islamikong Republika sa Apganistan", "official_name:chr": "ᎢᏍᎳᎻᎩ ᏍᎦᏚᎩ ᎾᎿ ᎠᏫᎨᏂᏍᏖᏂ", "official_name:ckb": "کۆماری ئیسلامیی ئەفغانستان", "official_name:crh": "Afğanistan İslâm Cumhuriyeti", "official_name:diq": "Cumhuriyetê Efğanıstano İslami", "official_name:dsb": "Islamska republika Afghanistan", "official_name:dty": "इस्लामिक गणतन्त्र अफगानिस्तान", "official_name:ext": "Repúbrica Islámica d'Afganistán", "official_name:frp": "Rèpublica islamica d’Afganistan", "official_name:frr": "Islamisk Republik faan Afghanistan", "official_name:hsb": "Islamski stat Afghanistan", "official_name:ilo": "Islamiko a Republibka iti Apganistan", "official_name:jam": "Izlamik Ripoblik a Afganistan", "official_name:kbd": "Афганистэн Мыслимэн Республикэ", "official_name:krc": "Афганистан Ислам Республика", "official_name:ksh": "Islamische Republik Afghanistan", "official_name:lez": "Исламдин Респу́блика Афгъаниста́н", "official_name:lzh": "阿富汗伊斯蘭共和國", "official_name:mai": "अफगानिस्तान इस्लामिक गणतन्त्र", "official_name:mdf": "Исламонь Республик Афганистан", "official_name:mhr": "Афганиста́н Ислам Респу́блик", "official_name:min": "Republik Islam Afganistan", "official_name:mwl": "República Eislámica de l Afeganistan", "official_name:myv": "Исламонь Республикась Афганистан", "official_name:nah": "Islantlācatlahtohcāyōtl Afganistan", "official_name:nan": "Afghanistan Islam Kiōng-hô-kok", "official_name:nds": "Islaamsche Republik Afghanistan", "official_name:new": "इस्लामी गणतन्त्र अफगानिस्तान", "official_name:pam": "Islamicung Republica ning Afghanistan", "official_name:pap": "República Islámica de Afganistán", "official_name:pnb": "اسلامی لوکراج افغانستان", "official_name:sah": "Афганистаан Ислам Өрөспүүбүлүкэтэ", "official_name:scn": "Ripùbblica Islamica di Afghanistan", "official_name:sco": "Islamic Republic o Afghanistan", "official_name:szl": "Islamskŏ Rebublika Afganistanu", "official_name:udm": "Исла́м Кун Афганиста́н", "official_name:vec": "Republica Islamica de ł'Afghanistan", "official_name:vep": "Afganistanan Islamine Tazovaldkund", "official_name:vls": "Islamitische Republiek Afghanistan", "official_name:war": "Republika Islamika han Afganistan", "official_name:xmf": "ავღანეთიშ ისლამური რესპუბლიკა", "official_name:yue": "阿富汗伊斯蘭共和國", "official_name:zea": "Islamitische Rippubliek van Afghanistan", "official_name:nds-nl": "islamietiese republiek Afghanistan", "official_name:bat-smg": "Afganėstana Ėslamā Respublika", "official_name:cbk-zam": "Estado Islimico del Afganistan", "official_name:fiu-vro": "Afganistani Islamivabariik", "official_name:roa-tara": "Repubbleche Islameche de ll'Afghanistan", "official_name:be-tarask": "Ісла́мская Рэспу́бліка Аўганіста́н"}}, "center_lat": 33.83, "center_lon": 66.02, "timezone": "Asia/Kabul", "population": 34940837, "wikidata_id": "Q889", "wikipedia_id": "fa:افغانستان"}, "geometry": {"type": "MultiPolygon", "coordinates": [[[[60.873, 29.859], [62.471, 29.39], [63.577, 29.487], [64.16, 29.391], [64.571, 29.586], [65.065, 29.529], [66.25, 29.85], [66.392, 30.941], [67.038, 31.31], [67.4, 31.211], [67.787, 31.333], [67.716, 31.514], [68.171, 31.835], [68.576, 31.834], [68.79, 31.622], [69.324, 31.928], [69.24, 32.464], [69.583, 33.103], [70.309, 33.338], [69.905, 34.04], [70.547, 33.943], [71.083, 34.064], [71.089, 34.673], [71.681, 35.216], [71.37, 35.966], [71.195, 36.04], [71.657, 36.484], [72.247, 36.752], [73.836, 36.925], [74.121, 36.838], [74.565, 37.031], [74.89, 37.234], [74.239, 37.414], [73.761, 37.222], [73.776, 37.44], [73.301, 37.462], [71.844, 36.681], [71.432, 37.056], [71.596, 37.807], [71.261, 37.922], [71.374, 38.256], [70.77, 38.456], [70.276, 37.944], [70.266, 37.611], [69.511, 37.581], [69.256, 37.093], [68.809, 37.322], [68.016, 36.925], [67.787, 37.186], [67.27, 37.182], [67.045, 37.38], [66.551, 37.354], [65.706, 37.539], [65.556, 37.241], [64.99, 37.218], [64.58, 36.352], [63.989, 36.036], [63.108, 35.822], [63.099, 35.418], [62.306, 35.129], [62.064, 35.434], [61.274, 35.605], [60.984, 34.62], [60.742, 34.527], [60.518, 34.062], [60.581, 33.597], [60.903, 33.54], [60.583, 33.13], [60.883, 32.198], [60.856, 31.487], [61.707, 31.376], [61.772, 30.809], [60.873, 29.859]]]]}}