{"type": "Feature", "properties": {"name": "Barbados", "iso1": "BB", "admin_level": 2, "osm_id": 547511, "countrylevel_id": "iso1:BB", "osm_data": {"localname": "Barbados", "official_name": "", "alltags": {"flag": "http://upload.wikimedia.org/wikipedia/commons/e/ef/Flag_of_Barbados.svg", "name:af": "Barbados", "name:am": "ባርቤዶስ", "name:an": "Barbados", "name:ar": "باربادوس", "name:ay": "Barbados", "name:az": "Barbados", "name:ba": "Барба́дос", "name:be": "Барба́дас", "name:bg": "Барбадос", "name:bn": "বার্বাডোস", "name:bo": "བར་བ་ཌོ་སི།", "name:br": "Barbados", "name:bs": "Barbados", "name:ca": "Barbados", "name:ce": "Барбадос", "name:cs": "Barbados", "name:cy": "Barbados", "name:da": "Barbados", "name:dv": "ބާބަޑޮސް", "name:ee": "Barbados", "name:el": "Μπαρμπάντος", "name:en": "Barbados", "name:eo": "Barbado", "name:es": "Barbados", "name:et": "Barbados", "name:eu": "Barbados", "name:fa": "باربادوس", "name:fi": "Barbados", "name:fo": "Barbados", "name:fr": "Barbade", "name:fy": "Barbados", "name:ga": "Barbadós", "name:gd": "Barbados", "name:gl": "Barbados", "name:gn": "Varvado", "name:gv": "Barbados", "name:he": "ברבדוס", "name:hi": "बारबाडोस", "name:hr": "Barbados", "name:ht": "Lababad", "name:hu": "Barbados", "name:hy": "Բարբադոսը", "name:ia": "Barbados", "name:id": "Barbados", "name:ie": "Barbados", "name:ig": "Barbados", "name:io": "Barbados", "name:is": "Barbados", "name:it": "Barbados", "name:ja": "バルバドス", "name:jv": "Barbadhos", "name:ka": "ბარბადოსი", "name:kk": "Барба́дос", "name:kn": "ಬಾರ್ಬಡೋಸ್", "name:ko": "바베이도스", "name:ku": "Barbados", "name:kv": "Барбадос", "name:kw": "Barbados", "name:ky": "Барбадос", "name:la": "Barbata", "name:lb": "Barbados", "name:li": "Barbados", "name:ln": "Barbados", "name:lt": "Barbadòsas", "name:lv": "Barbadosa", "name:mg": "Barbady", "name:mk": "Барбадос", "name:ml": "ബർബാഡോസ്", "name:mn": "Барбадос", "name:mr": "बार्बाडोस", "name:ms": "Barbados", "name:mt": "Barbados", "name:my": "ဘာဘေးဒိုးစ်နိုင်ငံ", "name:na": "Barbadot", "name:ne": "बार्बाडोस", "name:nl": "Barbados", "name:nn": "Barbados", "name:no": "Barbados", "name:oc": "Barbados", "name:om": "Baarbeedoos", "name:or": "ବାରବାଡୋସ", "name:os": "Барбадос", "name:pa": "ਬਾਰਬਾਡੋਸ", "name:pi": "बार्बाडोस", "name:pl": "Barbados", "name:ps": "بارباډوس", "name:pt": "Barbados", "name:rm": "Barbados", "name:ro": "Barbados", "name:ru": "Барбадос", "name:rw": "Barubadosi", "name:sa": "बार्बाडोस", "name:se": "Barbados", "name:sh": "Barbados", "name:sk": "Barbados", "name:sl": "Barbados", "name:sn": "Barbados", "name:so": "Barbados", "name:sq": "Barbadosi", "name:sr": "Барбадос", "name:ss": "iBhadosi", "name:su": "Barbados", "name:sv": "Barbados", "name:sw": "Barbados", "name:ta": "பார்படோசு", "name:te": "బార్బడోస్", "name:tg": "Барбáдос", "name:th": "บาร์เบโดส", "name:tl": "Barbados", "name:tr": "Barbados", "name:tt": "Барба́дос", "name:ug": "باربادوس", "name:uk": "Барба́дос", "name:ur": "بارباڈوس", "name:uz": "Barbados", "name:vi": "Barbados", "name:vo": "Barbadeän", "name:wa": "Barbåde", "name:wo": "Barbados", "name:yi": "באַרבאַדאס", "name:yo": "Bárbádọ̀s", "name:zh": "巴巴多斯", "name:als": "Barbados", "name:ang": "Barbados", "name:arz": "باربيدوس", "name:ast": "Barbados", "name:azb": "باربادوس", "name:bar": "Barbados", "name:bcl": "Barbados", "name:bpy": "বার্বাডোস", "name:bxr": "Барба́дос", "name:cdo": "Barbados", "name:ceb": "Barbados", "name:chr": "ᏆᏇᏙᏍ", "name:ckb": "باربادۆس", "name:crh": "Barbados", "name:diq": "Barbados", "name:dsb": "Barbados", "name:dty": "बार्बाडोस", "name:ext": "Barbaus", "name:frp": "Barbâda", "name:frr": "Barbados", "name:gag": "Barbados", "name:gom": "बार्बाडोस", "name:hak": "Barbados", "name:hif": "Barbados", "name:hsb": "Barbados", "name:ilo": "Barbados", "name:jam": "Baabiedoz", "name:jbo": "barbados", "name:kaa": "Barbados", "name:kab": "Barbados", "name:lad": "Barbados", "name:lij": "Barbados", "name:lmo": "Barbados", "name:mdf": "Барбадос", "name:mhr": "Барбадос", "name:mrj": "Барбадос", "name:mzn": "باربادوس", "name:nah": "Barbados", "name:nan": "Barbados", "name:nds": "Barbados", "name:new": "बार्बाडोस", "name:nov": "Barbados", "name:olo": "Barbados", "name:pam": "Barbados", "name:pap": "Barbados", "name:pih": "Barbados", "name:pms": "Barbados", "name:pnb": "باربادوس", "name:rue": "Барбадос", "name:sah": "Барбадос", "name:scn": "Barbados", "name:sco": "Barbados", "name:szl": "Barbados", "name:tet": "Barbadus", "name:tzl": "Barviada", "name:vec": "Barbados", "name:vep": "Barbados", "name:war": "Barbados", "name:wuu": "巴巴多斯", "name:xal": "Барбадосин Орн", "name:xmf": "ბარბადოსი", "name:yue": "巴巴多斯", "name:zea": "Barbados", "alt_name:eo": "Barbadoso", "alt_name:jv": "Barbados", "alt_name:la": "Barabata", "alt_name:sk": "Barbudos", "alt_name:ta": "பார்படோஸ்", "alt_name:ckb": "باربادۆس", "driving_side": "left", "name:bat-smg": "Barbaduosos", "name:cbk-zam": "Barbados", "name:fiu-vro": "Barbados", "name:be-tarask": "Барбадас", "is_in:continent": "North America", "default_language": "en"}}, "center_lat": 13.22, "center_lon": -59.55, "timezone": "America/Barbados", "population": 285719, "wikidata_id": "Q244", "wikipedia_id": "en:Barbados"}, "geometry": {"type": "MultiPolygon", "coordinates": [[[[-59.443, 13.166], [-59.443, 13.166], [-59.443, 13.166], [-59.443, 13.166]]], [[[-59.479, 13.19], [-59.479, 13.19], [-59.479, 13.19], [-59.479, 13.19]]], [[[-59.644, 13.264], [-59.644, 13.264], [-59.644, 13.264], [-59.644, 13.264]]], [[[-59.644, 13.265], [-59.644, 13.265], [-59.644, 13.265], [-59.644, 13.265]]]]}}