{"type": "Feature", "properties": {"name": "Caribbean Netherlands", "iso1": "BQ", "admin_level": 4, "osm_id": 1216720, "countrylevel_id": "iso1:BQ", "osm_data": {"localname": "Caribisch Nederland", "official_name": "Caribisch Nederland", "alltags": {"note:2": "Although it is assigned level 4 here, it is not officially a province of the state", "name:ca": "Carib neerlandès", "name:cs": "Karibské Nizozemsko", "name:en": "Caribbean Netherlands", "name:eo": "Karibia Nederlando", "name:es": "Países Baixos Caribenhos", "name:fr": "Pays-Bas carribéens", "name:hr": "Karipska Nizozemska", "name:lt": "Karibų Nyderlandai", "name:mk": "Карипска Холандија", "name:nl": "Caribisch Nederland", "name:pt": "Países Baixos Caribenhos", "name:ru": "Кари́бские Нидерла́нды", "name:uk": "Нідерландські Карибські острови", "alt_name": "Bonaire, Sint Eustatius en Saba", "name:pap": "Hulanda Karibe", "population": "21133", "alt_name:ca": "Illes BES", "alt_name:de": "Bonaire, Sint Eustatius und Saba", "alt_name:en": "Bonaire, Sint Eustatius and Saba;BES Islands", "alt_name:es": "Bonaire, San Eustaquio y Saba", "alt_name:fr": "Bonaire, Saint-Eustache et Saba;Îles BES", "alt_name:ru": "Бонэйр, Синт-Эстатиус и Саба", "description": "Overseas dependencies of the State of Netherlands in the Carribean, excluding autonomous the 3 other states within the Kingdom of the Netherlands", "is_in:country": "Nederland", "official_name": "Caribisch Nederland", "is_in:continent": "North America", "population:date": "2010"}}, "center_lat": 15.41, "center_lon": -65.2, "population": 25019, "wikidata_id": "Q27561", "wikipedia_id": "nl:Caribisch Nederland"}, "geometry": {"type": "MultiPolygon", "coordinates": [[[[-63.001, 17.5], [-63.001, 17.5], [-63.001, 17.5], [-63.001, 17.5]]], [[[-68.309, 12.168], [-68.309, 12.168], [-68.309, 12.168], [-68.309, 12.168]]], [[[-68.243, 12.097], [-68.243, 12.097], [-68.243, 12.097], [-68.243, 12.097]]], [[[-63.216, 17.632], [-63.216, 17.632], [-63.216, 17.632], [-63.216, 17.632]]], [[[-63.23, 17.649], [-63.23, 17.649], [-63.23, 17.649], [-63.23, 17.649]]]]}}