{"type": "Feature", "properties": {"name": "Bhutan", "iso1": "BT", "admin_level": 2, "osm_id": 184629, "countrylevel_id": "iso1:BT", "osm_data": {"localname": "འབྲུག་ཡུལ་", "official_name": "འབྲུག་རྒྱལ་ཁབ་", "alltags": {"flag": "http://upload.wikimedia.org/wikipedia/commons/9/91/Flag_of_Bhutan.svg", "name:ab": "Бутан", "name:af": "Bhoetan", "name:ak": "Butan", "name:am": "ቡታን", "name:an": "Bután", "name:ar": "بوتان", "name:as": "ভূটান", "name:az": "Butan", "name:ba": "Бута́н", "name:be": "Бута́н", "name:bg": "Бутан", "name:bh": "भूटान", "name:bi": "Bhutan", "name:bn": "ভুটান", "name:bo": "འབྲུག་ཡུལ།", "name:br": "Bhoutan", "name:bs": "Butan", "name:ca": "Bhutan", "name:ce": "Бутан", "name:cs": "Bhútán", "name:cv": "Бутан", "name:cy": "Bhwtan", "name:da": "Bhutan", "name:dv": "ބޫޓާން", "name:dz": "འབྲུགཡུལ་", "name:el": "Μπουτάν", "name:en": "Bhutan", "name:eo": "Butano", "name:es": "Bután", "name:et": "Bhutan", "name:eu": "Bhutan", "name:fa": "بوتان", "name:ff": "Butaan", "name:fi": "Bhutan", "name:fo": "Butan", "name:fr": "Bhoutan", "name:fy": "Bûtan", "name:ga": "an Bhútáin", "name:gd": "Butàn", "name:gl": "Bután", "name:gn": "Vutã", "name:gu": "ભૂતાન", "name:gv": "yn Vutaan", "name:ha": "Bhutan", "name:he": "בהוטן", "name:hi": "भूटान", "name:hr": "Butan", "name:ht": "Boutan", "name:hu": "Bhután", "name:hy": "Բութան", "name:ia": "Bhutan", "name:id": "Bhutan", "name:ie": "Bhutan", "name:io": "Bhutan", "name:is": "Bútan", "name:it": "Bhutan", "name:ja": "ブータン", "name:jv": "Bhutan", "name:ka": "ბჰუტანი", "name:kg": "Bhutan", "name:ki": "Bhutan", "name:kk": "Бутан", "name:kl": "Bhutan", "name:km": "ប៊ូតាន", "name:kn": "ಭೂತಾನ್", "name:ko": "부탄", "name:ks": "بوٗٹان", "name:ku": "Bûtan", "name:kv": "Бутан", "name:kw": "Bhoutan", "name:ky": "Бутан", "name:la": "Butania", "name:lb": "Bhutan", "name:lg": "Butaani", "name:li": "Bhutan", "name:ln": "Butáni", "name:lo": "ບູຕານ", "name:lt": "Butanas", "name:lv": "Butāna", "name:mg": "Botàna", "name:mi": "Putāna", "name:mk": "Бутан", "name:ml": "ഭൂട്ടാൻ", "name:mn": "Бутан", "name:mr": "भूतान", "name:ms": "Bhutan", "name:mt": "Butan", "name:my": "ဘူတန်နိုင်ငံ", "name:na": "Butan", "name:ne": "भूटान", "name:nl": "Bhutan", "name:nn": "Bhutan", "name:no": "Bhutan", "name:nv": "Bikéyah", "name:oc": "Botan", "name:om": "Buutan", "name:or": "ଭୁଟାନ", "name:os": "Бутан", "name:pa": "ਭੂਟਾਨ", "name:pi": "भूटान", "name:pl": "Bhutan", "name:ps": "بوتان", "name:pt": "Butão", "name:qu": "Butan", "name:rm": "Bhutan", "name:rn": "Butani", "name:ro": "Bhutan", "name:ru": "Бутан", "name:rw": "Butani", "name:sa": "भूटान", "name:se": "Bhutan", "name:sg": "Butäan", "name:sh": "Butan", "name:si": "භූතානය", "name:sk": "Bhután", "name:sl": "Butan", "name:sn": "Bhutan", "name:so": "Butaan", "name:sq": "Butani", "name:sr": "Бутан", "name:ss": "iBhuthani", "name:su": "Butan", "name:sv": "Bhutan", "name:sw": "Bhutan", "name:ta": "பூட்டான்", "name:te": "భూటాన్", "name:tg": "Бутан", "name:th": "ประเทศภูฏาน", "name:ti": "ቡህታን", "name:tk": "Butan", "name:tl": "Butan", "name:to": "Pūtani", "name:tr": "Bhutan", "name:tt": "Бутан", "name:tw": "Butan", "name:ug": "بۇتان", "name:uk": "Бута́н", "name:ur": "بھوٹان", "name:uz": "Butan", "name:vi": "Bhutan", "name:vo": "Butän", "name:wo": "Butaan", "name:yi": "בהוטאן", "name:yo": "Bhùtán", "name:za": "Budanh", "name:zh": "不丹", "name:zu": "i-Bhutan", "int_name": "Bhutan", "name:ace": "Bhutan", "name:ady": "Бутан", "name:als": "Bhutan", "name:ang": "Bhutan", "name:arz": "بوتان", "name:ast": "Bután", "name:azb": "بوتان", "name:bar": "Bhutan", "name:bcl": "Butan", "name:bjn": "Bhutan", "name:bpy": "ভুটান", "name:bxr": "Бутан", "name:cdo": "Bhutan", "name:ceb": "Bhutan", "name:chr": "ᏊᏔᏂ", "name:ckb": "بووتان", "name:crh": "Butan", "name:csb": "Bhutan", "name:diq": "Butan", "name:dsb": "Bhutan", "name:dty": "भूटान", "name:ext": "Bhután", "name:frp": "Botan", "name:frr": "Bhuutaan", "name:fur": "Bhutan", "name:gag": "Butan", "name:gom": "भूतान", "name:hak": "Bhutan", "name:haw": "Butana", "name:hif": "Bhutan", "name:hsb": "Bhutan", "name:ilo": "Butan", "name:jam": "Buutan", "name:jbo": "butyn", "name:kaa": "Butan", "name:kab": "Butan", "name:ksh": "Buttaan", "name:lez": "Бутан", "name:lij": "Bhutan", "name:lmo": "Bhutan", "name:lrc": "بوٙتان", "name:lzh": "不丹", "name:mai": "भुटान", "name:mwl": "Buton", "name:mzn": "بوتان", "name:nah": "Butan", "name:nan": "Bhutan", "name:nap": "Bhutan", "name:nds": "Bhutan", "name:new": "भुटान", "name:nov": "Butan", "name:olo": "Butan", "name:pag": "Bhutan", "name:pam": "Butan", "name:pap": "Bhutan", "name:pcd": "Bhoutan", "name:pih": "Buuten", "name:pms": "Bhutan", "name:pnb": "بھوٹان", "name:rue": "Бгутан", "name:sah": "Бутан", "name:scn": "Bhutan", "name:sco": "Bhutan", "name:srn": "Butankondre", "name:stq": "Bhutan", "name:szl": "Bhutan", "name:tcy": "ಭೂತಾನ್", "name:tet": "Butaun", "name:tpi": "Bhutan", "name:tum": "Bhutan", "name:tzl": "Bhutà", "name:udm": "Бутан", "name:vec": "Butan", "name:vep": "Butan", "name:war": "Butan", "name:wuu": "不丹", "name:xal": "Бутанмудин Нутг", "name:xmf": "ბჰუტანი", "name:yue": "不丹", "name:zea": "Bhutan", "alt_name:gd": "Butan", "alt_name:it": "Butan", "alt_name:nl": "Bhoetan", "alt_name:uz": "Butan Qirolligi", "alt_name:war": "Bhutan", "driving_side": "left", "name:bat-smg": "Butans", "name:cbk-zam": "Bután", "name:fiu-vro": "Bhutan", "name:roa-rup": "Bhutan", "official_name": "འབྲུག་རྒྱལ་ཁབ་", "name:be-tarask": "Бута́н", "name:zh_pinyin": "Bùdān", "is_in:continent": "Asia", "default_language": "dz", "official_name:ab": "Бутан акра́лра", "official_name:af": "Koninkryk van Bhoetan", "official_name:am": "ቡታን መንግሥቱ", "official_name:an": "Reino de Bután", "official_name:ar": "مملكة بوتان", "official_name:as": "ভুটান সম্ৰাজ্য", "official_name:az": "Butan Krallığı", "official_name:ba": "Королевство Бутан", "official_name:be": "Карале́ўства Бута́н", "official_name:bg": "Кралство Бутан", "official_name:bh": "भूटान राजतंत्र", "official_name:bn": "ভূটান সাম্রাজ্য", "official_name:bs": "Kraljevina Butan", "official_name:cs": "Bhútánské království", "official_name:cv": "Бутан патшалăхĕ", "official_name:cy": "Teyrnas Bhwtan", "official_name:da": "Kongedømmet Bhutan", "official_name:de": "Königreich Bhutan", "official_name:dz": "འབྲུག་རྒྱལ་ཁབ་", "official_name:el": "Βασίλειο του Μπουτάν", "official_name:en": "Kingdom of Bhutan", "official_name:eo": "Reĝlando Butano", "official_name:es": "Reino de Bután", "official_name:et": "Bhutani Kuningriik", "official_name:eu": "Bhutango Erresuma", "official_name:fa": "پادشاهی بوتان", "official_name:fi": "Bhutanin kuningaskunta", "official_name:fo": "Kongaríkið Bhutan", "official_name:fr": "Royaume du Bhoutan", "official_name:fy": "keninkryk Bûtan", "official_name:ga": "Ríocht na Bútáine", "official_name:gd": "Rìoghachd Bhutàin", "official_name:gl": "Reino de Bután", "official_name:gn": "Tetã Vutã", "official_name:gu": "ભૂતાનનું રાજ્ય", "official_name:gv": "Reeriaght ny Butaan", "official_name:he": "ממלכת בְּהוּטָן", "official_name:hi": "भूटान का राजतंत्र", "official_name:hr": "Kraljevina Butan", "official_name:hu": "Bhutáni Királyság", "official_name:hy": "Բութանի Թագավորություն", "official_name:id": "Kerajaan Bhutan", "official_name:is": "Konungsríkið Bútan", "official_name:it": "Regno del Bhutan", "official_name:ja": "ブータン王国", "official_name:jv": "Karajan Bhutan", "official_name:ka": "ბჰუტანის სამეფო", "official_name:kk": "Бутан корольдігі", "official_name:kn": "ಭೂತಾನ್ ರಾಜ್ಯ", "official_name:ko": "부탄 왕국", "official_name:ku": "Keyatiya Bûtanê", "official_name:kv": "Бутан корольув", "official_name:kw": "Rywvaneth Bhoutan", "official_name:ky": "Бутан Королдугу", "official_name:la": "Regnum Butaniae", "official_name:lb": "Kinnekräich Bhutan", "official_name:lt": "Butano Karalystė", "official_name:lv": "Butānas Karaliste", "official_name:mk": "Кралството Бутан", "official_name:mn": "Бутаны Вант Улс", "official_name:mr": "भूतानचे राजसत्ताक", "official_name:ms": "Kerajaan Bhutan", "official_name:mt": "Renju tal-Butan", "official_name:my": "ဘူတန် ဘုရင့်နိုင်ငံ", "official_name:nl": "Koninkrijk Bhutan", "official_name:no": "Kongeriket Bhutan", "official_name:nv": "Iiʼniʼ Tłʼiishtsoh Bikéyah", "official_name:pa": "ਭੂਟਾਨ ਬਾਦਸ਼ਾਹੀ", "official_name:pl": "Królestwo Bhutanu", "official_name:ps": "د بوتان پادشاهي", "official_name:pt": "Reino do Butão", "official_name:qu": "Butan Qhapaq Suyu", "official_name:ro": "Regatul Bhutanului", "official_name:ru": "Королевство Бутан", "official_name:se": "Bhutana gonagasriika", "official_name:sh": "Kraljevina Butan", "official_name:si": "භූතාන රාජධානිය", "official_name:sk": "Bhutánske kráľovstvo", "official_name:sl": "Kraljevina Butan", "official_name:so": "Boqortooyada Butaan", "official_name:sq": "Mbretëria e Butanit", "official_name:sr": "Краљевина Бутан", "official_name:su": "Karajaan Butan", "official_name:sv": "Konungariket Bhutan", "official_name:sw": "Ufalme wa Bhutan", "official_name:ta": "பூட்டான் இராச்சியம்", "official_name:te": "భూటన్ రాజ్యము", "official_name:tg": "Шоҳигарии Бутан", "official_name:th": "ราชอาณาจักรภูฏาน", "official_name:tk": "Butan Korollygy", "official_name:tl": "Kaharian ng Bhutan", "official_name:tr": "Bhutan Krallığı", "official_name:tt": "Бутан Патшалыгы", "official_name:uk": "Королівство Бутан", "official_name:ur": "مملکتِ بھوٹان", "official_name:uz": "Butan podsholigi", "official_name:vi": "Vương quốc Bhutan", "official_name:vo": "Regän Butäna", "official_name:wo": "Ruwaayom bu Butaan", "official_name:yi": "מלכות פון בהוטאן", "official_name:yo": "Ilẹ̀ọba ilẹ̀ Bhùtán", "official_name:zh": "不丹王国", "official_name:ace": "Keurajeuën Bhutan", "official_name:ady": "Пачъыхьыгъоу Бутан", "official_name:als": "Königreich Bhutan", "official_name:arz": "مملكة بوتان", "official_name:ast": "Reinu de Bután", "official_name:azb": "بوتان کراللیگی", "official_name:bar": "Kenigreich Bhutan", "official_name:bjn": "Karajaan Bhutan", "official_name:bpy": "রাজতান্ত্রিক ভুটান", "official_name:bxr": "Бутанын Вант Улас", "official_name:ceb": "Gingharian sa Bhutan", "official_name:chr": "ᎤᎬᏫᏳᎯ ᎨᏒ ᎾᎿ ᏊᏔᏂ", "official_name:ckb": "شانشینی بووتان", "official_name:crh": "Butan Qırallığı", "official_name:dsb": "Bhutanske kralojstwo", "official_name:dty": "राजतन्त्र भूटान", "official_name:ext": "Réinu de Bután", "official_name:frr": "Köningrik faan Bhuutaan", "official_name:hak": "Bhutan Vòng-koet", "official_name:hsb": "Kralestwo Bhutan", "official_name:ilo": "Pagarian ti Butan", "official_name:jam": "Kindom ah Buutan", "official_name:lzh": "不丹王國", "official_name:mwl": "Reino de l Buton", "official_name:mzn": "بوتان سلطنت", "official_name:nah": "Huēyitlahtohcāyōtl Butan", "official_name:nan": "Bhutan Ông-kok", "official_name:nap": "Regno 'e Bhutan", "official_name:new": "भुटान राजतन्त्र", "official_name:olo": "Kuningasvaldu Butan", "official_name:pam": "Kaarian ning Bhutan", "official_name:pcd": "Roéyôme du Bhoutan", "official_name:sah": "Бутан Хоруоллуга", "official_name:sco": "Kinrick o Bhutan", "official_name:szl": "Krůlestwo Bhutanu", "official_name:tcy": "ಭೂತಾನ್ ರಾಜ್ಯ", "official_name:vec": "Regno de el Butan", "official_name:vep": "Butanan Kunigahuz", "official_name:war": "Ginhadi-an han Bhutan", "official_name:wuu": "不丹王国", "official_name:xmf": "ბჰუტანიშ ომაფე", "official_name:yue": "不丹王國", "official_name:bat-smg": "Butana Karalīste", "official_name:fiu-vro": "Bhutani Kuningriik", "official_name:roa-rup": "Vãsilia Bhutan", "official_name:be-tarask": "Каралеўства Бута́н"}}, "center_lat": 27.39, "center_lon": 90.43, "timezone": "Asia/Thimphu", "population": 807610, "wikidata_id": "Q917", "wikipedia_id": "dz:འབྲུག་ཡུལ་"}, "geometry": {"type": "MultiPolygon", "coordinates": [[[[91.569, 27.817], [91.465, 28.006], [90.38, 28.062], [89.793, 28.247], [89.128, 27.615], [88.909, 27.279], [88.746, 27.142], [89.141, 26.812], [89.771, 26.702], [90.418, 26.905], [90.691, 26.772], [92.104, 26.869], [92.017, 27.48], [91.652, 27.484], [91.569, 27.817]]]]}}