{"type": "Feature", "properties": {"name": "Belize", "iso1": "BZ", "admin_level": 2, "osm_id": 287827, "countrylevel_id": "iso1:BZ", "osm_data": {"localname": "Belize", "official_name": "Commonwealth of Belize", "alltags": {"flag": "http://upload.wikimedia.org/wikipedia/commons/e/e7/Flag_of_Belize.svg", "name:af": "Belize", "name:ak": "Beliz", "name:am": "ቤሊዝ", "name:an": "Belize", "name:ar": "بليز", "name:ay": "Wilisi", "name:az": "Beliz", "name:ba": "Белиз", "name:be": "Белі́з", "name:bg": "Белиз", "name:bm": "Belizi", "name:bn": "বেলিজ", "name:bo": "བེ་ལི་ཛི།", "name:br": "Belize", "name:bs": "Beliz", "name:ca": "Belize", "name:ce": "Бели́з", "name:cs": "Belize", "name:cv": "Белиз", "name:cy": "Belîs", "name:da": "Belize", "name:dv": "ބެލީޒު", "name:dz": "བེ་ལིཛ།", "name:ee": "Belize", "name:el": "Μπελίζ", "name:en": "Belize", "name:eo": "Belizo", "name:es": "Belice", "name:et": "Belize", "name:eu": "Belize", "name:fa": "بلیز", "name:ff": "Beliise", "name:fi": "Belize", "name:fo": "Belis", "name:fr": "Belize", "name:fy": "Belize", "name:ga": "an Bheilís", "name:gd": "Beilise", "name:gl": "Belice", "name:gn": "Mbelise", "name:gu": "બેલીઝ", "name:gv": "yn Veleesh", "name:ha": "Beliz", "name:he": "בליז", "name:hi": "बेलीज़", "name:hr": "Belize", "name:ht": "Beliz", "name:hu": "Belize", "name:hy": "Բելիզ", "name:ia": "Belize", "name:id": "Belize", "name:ie": "Belize", "name:io": "Belize", "name:is": "Belís", "name:it": "Belize", "name:ja": "ベリーズ", "name:jv": "Belize", "name:ka": "ბელიზი", "name:kk": "Бели́з", "name:km": "បេលីហ្ស", "name:kn": "ಬೆಲೀಜ್", "name:ko": "벨리즈", "name:ks": "بیلِج", "name:ku": "Belîze", "name:kw": "Belisa", "name:ky": "Белиз", "name:la": "Beliza", "name:lb": "Belize", "name:li": "Belize", "name:ln": "Belize", "name:lo": "ເບຊີວ", "name:lt": "Belizas", "name:lv": "Beliza", "name:mg": "Belizy", "name:mk": "Белизе", "name:ml": "ബെലീസ്", "name:mn": "Белиз", "name:mr": "बेलिझ", "name:ms": "Belize", "name:mt": "Beliże", "name:my": "ဘလိဇ်", "name:na": "Berij", "name:ne": "बेलिज", "name:nl": "Belize", "name:nn": "Belize", "name:no": "Belize", "name:oc": "Belize", "name:om": "Beliiz", "name:or": "ବେଲିଜ", "name:os": "Белиз", "name:pa": "ਬੇਲੀਜ਼", "name:pi": "बेलीज", "name:pl": "Belize", "name:ps": "بېلیز", "name:pt": "Belize", "name:qu": "Bilisi", "name:rm": "Belize", "name:ro": "Belize", "name:ru": "Белиз", "name:rw": "Belize", "name:sa": "बेलीज", "name:sc": "Belize", "name:se": "Belize", "name:sg": "Belîzi", "name:sh": "Belize", "name:si": "බෙලීස්", "name:sk": "Belize", "name:sl": "Belize", "name:sm": "Pelisi", "name:sn": "Belize", "name:so": "Belise", "name:sq": "Beliza", "name:sr": "Белизе", "name:ss": "iBhelizi", "name:su": "Bélis", "name:sv": "Belize", "name:sw": "Belize", "name:ta": "பெலீசு", "name:te": "బెలిజ్", "name:tg": "Белѝз", "name:th": "เบลีซ", "name:ti": "ቤሊዘ", "name:tl": "Belise", "name:to": "Pelise", "name:tr": "Belize", "name:tt": "Бели́з", "name:ug": "بېلىز", "name:uk": "Белі́з", "name:ur": "بیلیز", "name:uz": "Beliz", "name:vi": "Belize", "name:vo": "Belisän", "name:wo": "Beliis", "name:yi": "בעליז", "name:yo": "Bẹ̀lísè", "name:za": "Belize", "name:zh": "伯利兹", "name:zu": "Belize", "name:ace": "Belize", "name:ady": "Белиз", "name:als": "Belize", "name:ang": "Belīs", "name:arz": "بيليز", "name:ast": "Belize", "name:azb": "بلیز", "name:bar": "Belize", "name:bcl": "Belisa", "name:bpy": "বেলিজ", "name:bxr": "Белиз", "name:cdo": "Belize", "name:ceb": "Belize", "name:chr": "ᏇᎵᏍ", "name:ckb": "بەلیز", "name:crh": "Beliz", "name:diq": "Beliz", "name:dsb": "Belize", "name:dty": "बेलिज", "name:ext": "Belici", "name:frp": "Belize", "name:frr": "Belize", "name:gag": "Beliz", "name:gom": "बेलिझ", "name:hak": "Belize", "name:hif": "Belize", "name:hsb": "Belize", "name:ilo": "Belis", "name:jam": "Biliiz", "name:jbo": "beliz", "name:kaa": "Beliz", "name:kab": "Belize", "name:kbp": "Peliizi", "name:lad": "Belize", "name:lij": "Belize", "name:lmo": "Belize", "name:lzh": "伯利兹", "name:mai": "बेलिज", "name:mhr": "Белиз", "name:mrj": "Белиз", "name:mzn": "بلیز", "name:nah": "Belice", "name:nan": "Belize", "name:nds": "Belize", "name:new": "बेलिज", "name:nov": "Beliz", "name:olo": "Belize", "name:pam": "Belize", "name:pap": "Belize", "name:pih": "Beles", "name:pms": "Belize", "name:pnb": "بیلیز", "name:rue": "Беліз", "name:sah": "Белиз", "name:scn": "Belizi", "name:sco": "Belize", "name:szl": "Belize", "name:tet": "Belize", "name:tzl": "Beliça", "name:vec": "Belize", "name:vep": "Beliz", "name:war": "Belize", "name:wuu": "伯利茲", "name:xal": "Белсин", "name:xmf": "ბელიზი", "name:yue": "伯利茲", "name:zea": "Belize", "alt_name:bg": "Белийз", "alt_name:fr": "Bélize", "alt_name:gd": "A' Bheilìs;Belìos", "alt_name:gn": "Velíse", "alt_name:mk": "Белисе", "alt_name:pa": "ਬਲੀਜ਼", "border_type": "nation", "description": "Belize is an independent and sovereign country located on the north eastern coast of Central America.", "name:simple": "Belize", "old_name:af": "Brits-Honduras", "old_name:an": "Honduras Britanica", "old_name:ar": "هندوراس البريطانية", "old_name:az": "Britaniya Hondurası", "old_name:ba": "Британия Гондурасы", "old_name:bg": "Британски Хондурас", "old_name:br": "Honduras Breizh-Veur", "old_name:bs": "Britanski Honduras", "old_name:ca": "Hondures Britànica", "old_name:ce": "Брита́нски Гондура́с", "old_name:cs": "Britský Honduras", "old_name:da": "Britisk Honduras", "old_name:de": "Britisch-Honduras", "old_name:el": "Βρετανική Ονδούρα", "old_name:eo": "Brita Honduro", "old_name:es": "Honduras Británica", "old_name:et": "Briti Honduras", "old_name:eu": "Britainiar Honduras", "old_name:fi": "Brittiläinen Honduras", "old_name:fo": "Bretska Honduras", "old_name:fr": "Honduras britannique", "old_name:fy": "Britsk-Hondûras", "old_name:gd": "Hondùras Bhreatannaich", "old_name:gl": "Honduras Británica", "old_name:he": "הונדורס הבריטית", "old_name:hr": "Britanski Honduras", "old_name:hu": "Brit Honduras", "old_name:ia": "Honduras Britannic", "old_name:id": "Honduras Britania", "old_name:ie": "Britannic Honduras", "old_name:io": "Britaniana Honduras", "old_name:is": "Breska Hondúras", "old_name:it": "Honduras Britannico", "old_name:ja": "イギリス領ホンジュラス", "old_name:jv": "Honduras Britania", "old_name:ku": "Honûrasa Brîtanî", "old_name:la": "Honduria Britannica", "old_name:li": "Brits Honduras", "old_name:lt": "Britų Hondūru", "old_name:lv": "Britu Hondurasu", "old_name:ml": "ബ്രിട്ടീഷ് ഹോണ്ടുറാസ്", "old_name:ms": "Honduras British", "old_name:nl": "Brits-Honduras", "old_name:nn": "Britisk Honduras", "old_name:no": "Britisk Honduras", "old_name:pl": "Honduras Brytyjski", "old_name:pt": "Honduras Britânicas", "old_name:ro": "Hondurasul Britanic", "old_name:ru": "Британский Гондурас", "old_name:sc": "Honduras Britànnicu", "old_name:sh": "Britanski Honduras", "old_name:sk": "Britský Honduras", "old_name:sl": "Britanski Honduras", "old_name:sq": "Hondurasi britanik", "old_name:su": "Honduras Britania", "old_name:sv": "Brittiska Honduras", "old_name:sw": "Honduras ya Kiingereza", "old_name:tr": "Britanya Hondurası", "old_name:uk": "Британський Гондурас", "old_name:vi": "Honduras thuộc Anh", "old_name:zh": "英属洪都拉斯", "alt_name:mzn": "بلز", "alt_name:war": "Belice", "name:bat-smg": "Belėzos", "name:cbk-zam": "Belice", "name:fiu-vro": "Belize", "name:roa-rup": "Belize", "old_name:als": "britischi Chronkolonii", "old_name:ang": "Bryttisc Honduras", "old_name:ast": "Hondures Británica", "old_name:bar": "Britisch-Honduras", "old_name:ceb": "British Honduras", "old_name:ckb": "ھۆندووراسی بریتانی", "old_name:ext": "Honduras Británica", "old_name:hif": "British Honduras", "old_name:lij": "Honduras Britannego", "old_name:lmo": "Honduras Britànich", "old_name:nds": "Britisch-Honduras", "old_name:nov": "Honduras Britanic", "old_name:pms": "Honduras Britànich", "old_name:sco": "British Honduras", "old_name:szl": "Brytyjski Hůnduras", "old_name:vep": "Britanijan Gonduras:aks", "old_name:wuu": "英屬洪都拉斯", "old_name:xmf": "ბრიტანეთიშ ჰონდურასი", "old_name:yue": "英屬洪都拉斯", "old_name:zea": "Brits-Honduras", "official_name": "Commonwealth of Belize", "name:be-tarask": "Бэліз", "is_in:continent": "North America", "default_language": "en", "official_name:ay": "Wilisi Suyu", "official_name:en": "Commonwealth of Belize", "official_name:kk": "Белиз Республикасы", "official_name:mn": "Белиз улс", "official_name:my": "ဘလိဇ်နိုင်ငံ", "official_name:nah": "Tlacatlahtohcayotl Belice", "official_name:xal": "Белсин Орн"}}, "center_lat": 17.18, "center_lon": -88.7, "timezone": "America/Belize", "population": 374681, "wikidata_id": "Q242", "wikipedia_id": "en:Belize"}, "geometry": {"type": "MultiPolygon", "coordinates": [[[[-87.53, 17.204], [-87.53, 17.204], [-87.53, 17.204], [-87.53, 17.204]]], [[[-87.535, 17.204], [-87.535, 17.204], [-87.535, 17.204], [-87.535, 17.204]]], [[[-87.878, 17.186], [-87.878, 17.186], [-87.878, 17.186], [-87.878, 17.186]]], [[[-87.911, 17.192], [-87.911, 17.192], [-87.911, 17.192], [-87.911, 17.192]]], [[[-87.918, 17.202], [-87.918, 17.202], [-87.918, 17.202], [-87.918, 17.202]]], [[[-87.913, 17.204], [-87.913, 17.204], [-87.913, 17.204], [-87.913, 17.204]]], [[[-87.603, 17.195], [-87.603, 17.195], [-87.603, 17.195], [-87.603, 17.195]]], [[[-87.907, 17.228], [-87.907, 17.228], [-87.907, 17.228], [-87.907, 17.228]]], [[[-88.085, 17.237], [-88.085, 17.237], [-88.085, 17.237], [-88.085, 17.237]]], [[[-87.919, 17.213], [-87.919, 17.213], [-87.919, 17.213], [-87.919, 17.213]]], [[[-87.915, 17.233], [-87.915, 17.233], [-87.915, 17.233], [-87.915, 17.233]]], [[[-87.892, 17.234], [-87.892, 17.234], [-87.892, 17.234], [-87.892, 17.234]]], [[[-87.93, 17.212], [-87.93, 17.212], [-87.93, 17.212], [-87.93, 17.212]]], [[[-87.919, 17.237], [-87.919, 17.237], [-87.919, 17.237], [-87.919, 17.237]]], [[[-87.912, 17.237], [-87.912, 17.237], [-87.912, 17.237], [-87.912, 17.237]]], [[[-87.899, 17.243], [-87.899, 17.243], [-87.899, 17.243], [-87.899, 17.243]]], [[[-87.917, 17.257], [-87.917, 17.257], [-87.917, 17.257], [-87.917, 17.257]]], [[[-87.934, 17.25], [-87.934, 17.25], [-87.934, 17.25], [-87.934, 17.25]]], [[[-87.875, 17.27], [-87.875, 17.27], [-87.875, 17.27], [-87.875, 17.27]]], [[[-87.841, 17.252], [-87.841, 17.252], [-87.841, 17.252], [-87.841, 17.252]]], [[[-88.08, 17.295], [-88.08, 17.295], [-88.08, 17.295], [-88.08, 17.295]]], [[[-87.908, 17.295], [-87.908, 17.295], [-87.908, 17.295], [-87.908, 17.295]]], [[[-87.848, 17.277], [-87.848, 17.277], [-87.848, 17.277], [-87.848, 17.277]]], [[[-87.814, 17.287], [-87.814, 17.287], [-87.814, 17.287], [-87.814, 17.287]]], [[[-87.89, 17.284], [-87.89, 17.284], [-87.89, 17.284], [-87.89, 17.284]]], [[[-87.807, 17.281], [-87.807, 17.281], [-87.807, 17.281], [-87.807, 17.281]]], [[[-87.812, 17.288], [-87.812, 17.288], [-87.812, 17.288], [-87.812, 17.288]]], [[[-87.861, 17.294], [-87.861, 17.294], [-87.861, 17.294], [-87.861, 17.294]]], [[[-87.848, 17.277], [-87.848, 17.277], [-87.848, 17.277], [-87.848, 17.277]]], [[[-87.832, 17.289], [-87.832, 17.289], [-87.832, 17.289], [-87.832, 17.289]]], [[[-87.789, 17.324], [-87.789, 17.324], [-87.789, 17.324], [-87.789, 17.324]]], [[[-87.787, 17.326], [-87.787, 17.326], [-87.787, 17.326], [-87.787, 17.326]]], [[[-88.188, 17.357], [-88.188, 17.357], [-88.188, 17.357], [-88.188, 17.357]]], [[[-88.196, 17.364], [-88.196, 17.364], [-88.196, 17.364], [-88.196, 17.364]]], [[[-88.174, 17.364], [-88.174, 17.364], [-88.174, 17.364], [-88.174, 17.364]]], [[[-88.192, 17.35], [-88.192, 17.35], [-88.192, 17.35], [-88.192, 17.35]]], [[[-88.195, 17.35], [-88.195, 17.35], [-88.195, 17.35], [-88.195, 17.35]]], [[[-88.168, 17.318], [-88.168, 17.318], [-88.168, 17.318], [-88.168, 17.318]]], [[[-88.17, 17.321], [-88.17, 17.321], [-88.17, 17.321], [-88.17, 17.321]]], [[[-88.166, 17.322], [-88.166, 17.322], [-88.166, 17.322], [-88.166, 17.322]]], [[[-87.898, 17.328], [-87.898, 17.328], [-87.898, 17.328], [-87.898, 17.328]]], [[[-87.866, 17.305], [-87.866, 17.305], [-87.866, 17.305], [-87.866, 17.305]]], [[[-87.866, 17.307], [-87.866, 17.307], [-87.866, 17.307], [-87.866, 17.307]]], [[[-88.166, 17.319], [-88.166, 17.319], [-88.166, 17.319], [-88.166, 17.319]]], [[[-87.899, 17.317], [-87.899, 17.317], [-87.899, 17.317], [-87.899, 17.317]]], [[[-87.891, 17.31], [-87.891, 17.31], [-87.891, 17.31], [-87.891, 17.31]]], [[[-87.876, 17.315], [-87.876, 17.315], [-87.876, 17.315], [-87.876, 17.315]]], [[[-87.866, 17.315], [-87.866, 17.315], [-87.866, 17.315], [-87.866, 17.315]]], [[[-87.885, 17.316], [-87.885, 17.316], [-87.885, 17.316], [-87.885, 17.316]]], [[[-87.869, 17.322], [-87.869, 17.322], [-87.869, 17.322], [-87.869, 17.322]]], [[[-88.177, 17.357], [-88.177, 17.357], [-88.177, 17.357], [-88.177, 17.357]]], [[[-87.866, 17.327], [-87.866, 17.327], [-87.866, 17.327], [-87.866, 17.327]]], [[[-88.168, 17.331], [-88.168, 17.331], [-88.168, 17.331], [-88.168, 17.331]]], [[[-87.869, 17.333], [-87.869, 17.333], [-87.869, 17.333], [-87.869, 17.333]]], [[[-87.867, 17.336], [-87.867, 17.336], [-87.867, 17.336], [-87.867, 17.336]]], [[[-88.161, 17.341], [-88.161, 17.341], [-88.161, 17.341], [-88.161, 17.341]]], [[[-87.894, 17.338], [-87.894, 17.338], [-87.894, 17.338], [-87.894, 17.338]]], [[[-87.514, 17.441], [-87.514, 17.441], [-87.514, 17.441], [-87.514, 17.441]]], [[[-87.906, 17.38], [-87.906, 17.38], [-87.906, 17.38], [-87.906, 17.38]]], [[[-87.916, 17.368], [-87.916, 17.368], [-87.916, 17.368], [-87.916, 17.368]]], [[[-88.061, 17.373], [-88.061, 17.373], [-88.061, 17.373], [-88.061, 17.373]]], [[[-87.827, 17.412], [-87.827, 17.412], [-87.827, 17.412], [-87.827, 17.412]]], [[[-87.835, 17.381], [-87.835, 17.381], [-87.835, 17.381], [-87.835, 17.381]]], [[[-88.131, 17.459], [-88.131, 17.459], [-88.131, 17.459], [-88.131, 17.459]]], [[[-88.071, 17.44], [-88.071, 17.44], [-88.071, 17.44], [-88.071, 17.44]]], [[[-88.069, 17.44], [-88.069, 17.44], [-88.069, 17.44], [-88.069, 17.44]]], [[[-88.074, 17.439], [-88.074, 17.439], [-88.074, 17.439], [-88.074, 17.439]]], [[[-88.072, 17.45], [-88.072, 17.45], [-88.072, 17.45], [-88.072, 17.45]]], [[[-88.039, 17.396], [-88.039, 17.396], [-88.039, 17.396], [-88.039, 17.396]]], [[[-87.872, 17.419], [-87.872, 17.419], [-87.872, 17.419], [-87.872, 17.419]]], [[[-88.069, 17.405], [-88.069, 17.405], [-88.069, 17.405], [-88.069, 17.405]]], [[[-88.074, 17.404], [-88.074, 17.404], [-88.074, 17.404], [-88.074, 17.404]]], [[[-88.071, 17.422], [-88.071, 17.422], [-88.071, 17.422], [-88.071, 17.422]]], [[[-88.072, 17.436], [-88.072, 17.436], [-88.072, 17.436], [-88.072, 17.436]]], [[[-88.072, 17.427], [-88.072, 17.427], [-88.072, 17.427], [-88.072, 17.427]]], [[[-88.069, 17.43], [-88.069, 17.43], [-88.069, 17.43], [-88.069, 17.43]]], [[[-88.261, 16.487], [-88.261, 16.487], [-88.261, 16.487], [-88.261, 16.487]]], [[[-88.213, 16.489], [-88.213, 16.489], [-88.213, 16.489], [-88.213, 16.489]]], [[[-88.318, 16.491], [-88.318, 16.491], [-88.318, 16.491], [-88.318, 16.491]]], [[[-88.323, 16.488], [-88.323, 16.488], [-88.323, 16.488], [-88.323, 16.488]]], [[[-88.393, 16.489], [-88.393, 16.489], [-88.393, 16.489], [-88.393, 16.489]]], [[[-88.41, 16.49], [-88.41, 16.49], [-88.41, 16.49], [-88.41, 16.49]]], [[[-88.167, 16.499], [-88.167, 16.499], [-88.167, 16.499], [-88.167, 16.499]]], [[[-88.274, 16.507], [-88.274, 16.507], [-88.274, 16.507], [-88.274, 16.507]]], [[[-88.282, 16.507], [-88.282, 16.507], [-88.282, 16.507], [-88.282, 16.507]]], [[[-88.408, 16.511], [-88.408, 16.511], [-88.408, 16.511], [-88.408, 16.511]]], [[[-88.403, 16.513], [-88.403, 16.513], [-88.403, 16.513], [-88.403, 16.513]]], [[[-88.381, 16.505], [-88.381, 16.505], [-88.381, 16.505], [-88.381, 16.505]]], [[[-88.288, 16.504], [-88.288, 16.504], [-88.288, 16.504], [-88.288, 16.504]]], [[[-88.286, 16.505], [-88.286, 16.505], [-88.286, 16.505], [-88.286, 16.505]]], [[[-88.275, 16.505], [-88.275, 16.505], [-88.275, 16.505], [-88.275, 16.505]]], [[[-88.404, 16.512], [-88.404, 16.512], [-88.404, 16.512], [-88.404, 16.512]]], [[[-88.212, 16.492], [-88.212, 16.492], [-88.212, 16.492], [-88.212, 16.492]]], [[[-88.409, 16.498], [-88.409, 16.498], [-88.409, 16.498], [-88.409, 16.498]]], [[[-88.289, 16.498], [-88.289, 16.498], [-88.289, 16.498], [-88.289, 16.498]]], [[[-88.288, 16.499], [-88.288, 16.499], [-88.288, 16.499], [-88.288, 16.499]]], [[[-88.249, 16.501], [-88.249, 16.501], [-88.249, 16.501], [-88.249, 16.501]]], [[[-88.195, 16.517], [-88.195, 16.517], [-88.195, 16.517], [-88.195, 16.517]]], [[[-88.194, 16.518], [-88.194, 16.518], [-88.194, 16.518], [-88.194, 16.518]]], [[[-88.371, 16.516], [-88.371, 16.516], [-88.371, 16.516], [-88.371, 16.516]]], [[[-88.372, 16.517], [-88.372, 16.517], [-88.372, 16.517], [-88.372, 16.517]]], [[[-88.371, 16.518], [-88.371, 16.518], [-88.371, 16.518], [-88.371, 16.518]]], [[[-88.395, 16.521], [-88.395, 16.521], [-88.395, 16.521], [-88.395, 16.521]]], [[[-88.394, 16.521], [-88.394, 16.521], [-88.394, 16.521], [-88.394, 16.521]]], [[[-88.4, 16.523], [-88.4, 16.523], [-88.4, 16.523], [-88.4, 16.523]]], [[[-88.397, 16.524], [-88.397, 16.524], [-88.397, 16.524], [-88.397, 16.524]]], [[[-88.393, 16.524], [-88.393, 16.524], [-88.393, 16.524], [-88.393, 16.524]]], [[[-88.371, 16.524], [-88.371, 16.524], [-88.371, 16.524], [-88.371, 16.524]]], [[[-88.395, 16.525], [-88.395, 16.525], [-88.395, 16.525], [-88.395, 16.525]]], [[[-88.397, 16.53], [-88.397, 16.53], [-88.397, 16.53], [-88.397, 16.53]]], [[[-88.396, 16.527], [-88.396, 16.527], [-88.396, 16.527], [-88.396, 16.527]]], [[[-88.397, 16.529], [-88.397, 16.529], [-88.397, 16.529], [-88.397, 16.529]]], [[[-88.377, 16.54], [-88.377, 16.54], [-88.377, 16.54], [-88.377, 16.54]]], [[[-88.219, 16.538], [-88.219, 16.538], [-88.219, 16.538], [-88.219, 16.538]]], [[[-88.398, 16.541], [-88.398, 16.541], [-88.398, 16.541], [-88.398, 16.541]]], [[[-88.371, 16.52], [-88.371, 16.52], [-88.371, 16.52], [-88.371, 16.52]]], [[[-88.252, 16.52], [-88.252, 16.52], [-88.252, 16.52], [-88.252, 16.52]]], [[[-88.373, 16.523], [-88.373, 16.523], [-88.373, 16.523], [-88.373, 16.523]]], [[[-88.378, 16.51], [-88.378, 16.51], [-88.378, 16.51], [-88.378, 16.51]]], [[[-88.358, 16.508], [-88.358, 16.508], [-88.358, 16.508], [-88.358, 16.508]]], [[[-88.38, 16.514], [-88.38, 16.514], [-88.38, 16.514], [-88.38, 16.514]]], [[[-88.37, 16.512], [-88.37, 16.512], [-88.37, 16.512], [-88.37, 16.512]]], [[[-88.258, 16.512], [-88.258, 16.512], [-88.258, 16.512], [-88.258, 16.512]]], [[[-88.281, 16.512], [-88.281, 16.512], [-88.281, 16.512], [-88.281, 16.512]]], [[[-88.37, 16.516], [-88.37, 16.516], [-88.37, 16.516], [-88.37, 16.516]]], [[[-88.379, 16.517], [-88.379, 16.517], [-88.379, 16.517], [-88.379, 16.517]]], [[[-88.37, 16.513], [-88.37, 16.513], [-88.37, 16.513], [-88.37, 16.513]]], [[[-88.373, 16.51], [-88.373, 16.51], [-88.373, 16.51], [-88.373, 16.51]]], [[[-88.375, 16.52], [-88.375, 16.52], [-88.375, 16.52], [-88.375, 16.52]]], [[[-88.275, 16.515], [-88.275, 16.515], [-88.275, 16.515], [-88.275, 16.515]]], [[[-88.396, 16.542], [-88.396, 16.542], [-88.396, 16.542], [-88.396, 16.542]]], [[[-88.394, 16.543], [-88.394, 16.543], [-88.394, 16.543], [-88.394, 16.543]]], [[[-88.397, 16.544], [-88.397, 16.544], [-88.397, 16.544], [-88.397, 16.544]]], [[[-88.196, 16.557], [-88.196, 16.557], [-88.196, 16.557], [-88.196, 16.557]]], [[[-88.197, 16.559], [-88.197, 16.559], [-88.197, 16.559], [-88.197, 16.559]]], [[[-88.368, 16.591], [-88.368, 16.591], [-88.368, 16.591], [-88.368, 16.591]]], [[[-88.184, 16.601], [-88.184, 16.601], [-88.184, 16.601], [-88.184, 16.601]]], [[[-88.215, 16.596], [-88.215, 16.596], [-88.215, 16.596], [-88.215, 16.596]]], [[[-88.335, 16.603], [-88.335, 16.603], [-88.335, 16.603], [-88.335, 16.603]]], [[[-88.364, 16.597], [-88.364, 16.597], [-88.364, 16.597], [-88.364, 16.597]]], [[[-88.367, 16.594], [-88.367, 16.594], [-88.367, 16.594], [-88.367, 16.594]]], [[[-88.199, 16.562], [-88.199, 16.562], [-88.199, 16.562], [-88.199, 16.562]]], [[[-88.372, 16.567], [-88.372, 16.567], [-88.372, 16.567], [-88.372, 16.567]]], [[[-88.373, 16.568], [-88.373, 16.568], [-88.373, 16.568], [-88.373, 16.568]]], [[[-88.371, 16.568], [-88.371, 16.568], [-88.371, 16.568], [-88.371, 16.568]]], [[[-88.201, 16.623], [-88.201, 16.623], [-88.201, 16.623], [-88.201, 16.623]]], [[[-88.209, 16.635], [-88.209, 16.635], [-88.209, 16.635], [-88.209, 16.635]]], [[[-88.356, 16.634], [-88.356, 16.634], [-88.356, 16.634], [-88.356, 16.634]]], [[[-88.225, 16.644], [-88.225, 16.644], [-88.225, 16.644], [-88.225, 16.644]]], [[[-88.342, 16.651], [-88.342, 16.651], [-88.342, 16.651], [-88.342, 16.651]]], [[[-88.199, 16.671], [-88.199, 16.671], [-88.199, 16.671], [-88.199, 16.671]]], [[[-88.187, 16.688], [-88.187, 16.688], [-88.187, 16.688], [-88.187, 16.688]]], [[[-87.849, 16.717], [-87.849, 16.717], [-87.849, 16.717], [-87.849, 16.717]]], [[[-87.844, 16.717], [-87.844, 16.717], [-87.844, 16.717], [-87.844, 16.717]]], [[[-87.812, 16.739], [-87.812, 16.739], [-87.812, 16.739], [-87.812, 16.739]]], [[[-87.782, 16.754], [-87.782, 16.754], [-87.782, 16.754], [-87.782, 16.754]]], [[[-87.78, 16.758], [-87.78, 16.758], [-87.78, 16.758], [-87.78, 16.758]]], [[[-87.771, 16.758], [-87.771, 16.758], [-87.771, 16.758], [-87.771, 16.758]]], [[[-88.142, 16.764], [-88.142, 16.764], [-88.142, 16.764], [-88.142, 16.764]]], [[[-88.158, 16.784], [-88.158, 16.784], [-88.158, 16.784], [-88.158, 16.784]]], [[[-87.851, 16.713], [-87.851, 16.713], [-87.851, 16.713], [-87.851, 16.713]]], [[[-88.157, 16.787], [-88.157, 16.787], [-88.157, 16.787], [-88.157, 16.787]]], [[[-88.155, 16.796], [-88.155, 16.796], [-88.155, 16.796], [-88.155, 16.796]]], [[[-88.151, 16.814], [-88.151, 16.814], [-88.151, 16.814], [-88.151, 16.814]]], [[[-88.142, 16.818], [-88.142, 16.818], [-88.142, 16.818], [-88.142, 16.818]]], [[[-88.106, 16.833], [-88.106, 16.833], [-88.106, 16.833], [-88.106, 16.833]]], [[[-88.124, 16.868], [-88.124, 16.868], [-88.124, 16.868], [-88.124, 16.868]]], [[[-88.129, 16.852], [-88.129, 16.852], [-88.129, 16.852], [-88.129, 16.852]]], [[[-88.131, 16.852], [-88.131, 16.852], [-88.131, 16.852], [-88.131, 16.852]]], [[[-88.122, 16.873], [-88.122, 16.873], [-88.122, 16.873], [-88.122, 16.873]]], [[[-88.118, 16.878], [-88.118, 16.878], [-88.118, 16.878], [-88.118, 16.878]]], [[[-88.098, 16.888], [-88.098, 16.888], [-88.098, 16.888], [-88.098, 16.888]]], [[[-88.093, 16.875], [-88.093, 16.875], [-88.093, 16.875], [-88.093, 16.875]]], [[[-88.097, 16.888], [-88.097, 16.888], [-88.097, 16.888], [-88.097, 16.888]]], [[[-88.086, 16.886], [-88.086, 16.886], [-88.086, 16.886], [-88.086, 16.886]]], [[[-88.12, 16.883], [-88.12, 16.883], [-88.12, 16.883], [-88.12, 16.883]]], [[[-88.107, 16.884], [-88.107, 16.884], [-88.107, 16.884], [-88.107, 16.884]]], [[[-88.062, 16.897], [-88.062, 16.897], [-88.062, 16.897], [-88.062, 16.897]]], [[[-88.04, 16.981], [-88.04, 16.981], [-88.04, 16.981], [-88.04, 16.981]]], [[[-88.023, 17.01], [-88.023, 17.01], [-88.023, 17.01], [-88.023, 17.01]]], [[[-88.036, 17.096], [-88.036, 17.096], [-88.036, 17.096], [-88.036, 17.096]]], [[[-87.62, 17.174], [-87.62, 17.174], [-87.62, 17.174], [-87.62, 17.174]]], [[[-87.901, 17.176], [-87.901, 17.176], [-87.901, 17.176], [-87.901, 17.176]]], [[[-87.904, 17.167], [-87.904, 17.167], [-87.904, 17.167], [-87.904, 17.167]]], [[[-88.081, 16.9], [-88.081, 16.9], [-88.081, 16.9], [-88.081, 16.9]]], [[[-88.395, 16.541], [-88.395, 16.541], [-88.395, 16.541], [-88.395, 16.541]]], [[[-88.394, 16.542], [-88.394, 16.542], [-88.394, 16.542], [-88.394, 16.542]]], [[[-87.914, 17.189], [-87.914, 17.189], [-87.914, 17.189], [-87.914, 17.189]]], [[[-88.721, 16.145], [-88.721, 16.145], [-88.721, 16.145], [-88.721, 16.145]]], [[[-88.731, 16.147], [-88.731, 16.147], [-88.731, 16.147], [-88.731, 16.147]]], [[[-88.674, 16.153], [-88.674, 16.153], [-88.674, 16.153], [-88.674, 16.153]]], [[[-88.678, 16.162], [-88.678, 16.162], [-88.678, 16.162], [-88.678, 16.162]]], [[[-88.672, 16.158], [-88.672, 16.158], [-88.672, 16.158], [-88.672, 16.158]]], [[[-88.73, 16.159], [-88.73, 16.159], [-88.73, 16.159], [-88.73, 16.159]]], [[[-88.695, 16.167], [-88.695, 16.167], [-88.695, 16.167], [-88.695, 16.167]]], [[[-88.707, 16.166], [-88.707, 16.166], [-88.707, 16.166], [-88.707, 16.166]]], [[[-88.712, 16.174], [-88.712, 16.174], [-88.712, 16.174], [-88.712, 16.174]]], [[[-88.661, 16.171], [-88.661, 16.171], [-88.661, 16.171], [-88.661, 16.171]]], [[[-88.662, 16.172], [-88.662, 16.172], [-88.662, 16.172], [-88.662, 16.172]]], [[[-88.714, 16.163], [-88.714, 16.163], [-88.714, 16.163], [-88.714, 16.163]]], [[[-88.67, 16.162], [-88.67, 16.162], [-88.67, 16.162], [-88.67, 16.162]]], [[[-88.724, 16.163], [-88.724, 16.163], [-88.724, 16.163], [-88.724, 16.163]]], [[[-88.656, 16.176], [-88.656, 16.176], [-88.656, 16.176], [-88.656, 16.176]]], [[[-88.565, 16.18], [-88.565, 16.18], [-88.565, 16.18], [-88.565, 16.18]]], [[[-88.565, 16.18], [-88.565, 16.18], [-88.565, 16.18], [-88.565, 16.18]]], [[[-88.639, 16.178], [-88.639, 16.178], [-88.639, 16.178], [-88.639, 16.178]]], [[[-88.654, 16.177], [-88.654, 16.177], [-88.654, 16.177], [-88.654, 16.177]]], [[[-88.66, 16.179], [-88.66, 16.179], [-88.66, 16.179], [-88.66, 16.179]]], [[[-88.659, 16.173], [-88.659, 16.173], [-88.659, 16.173], [-88.659, 16.173]]], [[[-88.712, 16.169], [-88.712, 16.169], [-88.712, 16.169], [-88.712, 16.169]]], [[[-88.71, 16.175], [-88.71, 16.175], [-88.71, 16.175], [-88.71, 16.175]]], [[[-88.66, 16.175], [-88.66, 16.175], [-88.66, 16.175], [-88.66, 16.175]]], [[[-88.66, 16.176], [-88.66, 16.176], [-88.66, 16.176], [-88.66, 16.176]]], [[[-88.659, 16.177], [-88.659, 16.177], [-88.659, 16.177], [-88.659, 16.177]]], [[[-88.648, 16.188], [-88.648, 16.188], [-88.648, 16.188], [-88.648, 16.188]]], [[[-88.693, 16.187], [-88.693, 16.187], [-88.693, 16.187], [-88.693, 16.187]]], [[[-88.651, 16.188], [-88.651, 16.188], [-88.651, 16.188], [-88.651, 16.188]]], [[[-88.653, 16.183], [-88.653, 16.183], [-88.653, 16.183], [-88.653, 16.183]]], [[[-88.668, 16.184], [-88.668, 16.184], [-88.668, 16.184], [-88.668, 16.184]]], [[[-88.665, 16.184], [-88.665, 16.184], [-88.665, 16.184], [-88.665, 16.184]]], [[[-88.656, 16.184], [-88.656, 16.184], [-88.656, 16.184], [-88.656, 16.184]]], [[[-88.656, 16.182], [-88.656, 16.182], [-88.656, 16.182], [-88.656, 16.182]]], [[[-88.662, 16.183], [-88.662, 16.183], [-88.662, 16.183], [-88.662, 16.183]]], [[[-88.66, 16.183], [-88.66, 16.183], [-88.66, 16.183], [-88.66, 16.183]]], [[[-88.661, 16.183], [-88.661, 16.183], [-88.661, 16.183], [-88.661, 16.183]]], [[[-88.655, 16.184], [-88.655, 16.184], [-88.655, 16.184], [-88.655, 16.184]]], [[[-88.704, 16.183], [-88.704, 16.183], [-88.704, 16.183], [-88.704, 16.183]]], [[[-88.7, 16.184], [-88.7, 16.184], [-88.7, 16.184], [-88.7, 16.184]]], [[[-88.65, 16.185], [-88.65, 16.185], [-88.65, 16.185], [-88.65, 16.185]]], [[[-88.702, 16.185], [-88.702, 16.185], [-88.702, 16.185], [-88.702, 16.185]]], [[[-88.694, 16.186], [-88.694, 16.186], [-88.694, 16.186], [-88.694, 16.186]]], [[[-88.724, 16.181], [-88.724, 16.181], [-88.724, 16.181], [-88.724, 16.181]]], [[[-88.722, 16.181], [-88.722, 16.181], [-88.722, 16.181], [-88.722, 16.181]]], [[[-88.655, 16.18], [-88.655, 16.18], [-88.655, 16.18], [-88.655, 16.18]]], [[[-88.65, 16.181], [-88.65, 16.181], [-88.65, 16.181], [-88.65, 16.181]]], [[[-88.71, 16.179], [-88.71, 16.179], [-88.71, 16.179], [-88.71, 16.179]]], [[[-88.7, 16.178], [-88.7, 16.178], [-88.7, 16.178], [-88.7, 16.178]]], [[[-88.727, 16.181], [-88.727, 16.181], [-88.727, 16.181], [-88.727, 16.181]]], [[[-88.701, 16.181], [-88.701, 16.181], [-88.701, 16.181], [-88.701, 16.181]]], [[[-88.702, 16.182], [-88.702, 16.182], [-88.702, 16.182], [-88.702, 16.182]]], [[[-88.701, 16.182], [-88.701, 16.182], [-88.701, 16.182], [-88.701, 16.182]]], [[[-88.703, 16.18], [-88.703, 16.18], [-88.703, 16.18], [-88.703, 16.18]]], [[[-88.701, 16.183], [-88.701, 16.183], [-88.701, 16.183], [-88.701, 16.183]]], [[[-88.645, 16.182], [-88.645, 16.182], [-88.645, 16.182], [-88.645, 16.182]]], [[[-88.7, 16.182], [-88.7, 16.182], [-88.7, 16.182], [-88.7, 16.182]]], [[[-88.649, 16.195], [-88.649, 16.195], [-88.649, 16.195], [-88.649, 16.195]]], [[[-88.694, 16.191], [-88.694, 16.191], [-88.694, 16.191], [-88.694, 16.191]]], [[[-88.662, 16.192], [-88.662, 16.192], [-88.662, 16.192], [-88.662, 16.192]]], [[[-88.648, 16.191], [-88.648, 16.191], [-88.648, 16.191], [-88.648, 16.191]]], [[[-88.701, 16.194], [-88.701, 16.194], [-88.701, 16.194], [-88.701, 16.194]]], [[[-88.7, 16.192], [-88.7, 16.192], [-88.7, 16.192], [-88.7, 16.192]]], [[[-88.693, 16.195], [-88.693, 16.195], [-88.693, 16.195], [-88.693, 16.195]]], [[[-88.715, 16.198], [-88.715, 16.198], [-88.715, 16.198], [-88.715, 16.198]]], [[[-88.553, 16.2], [-88.553, 16.2], [-88.553, 16.2], [-88.553, 16.2]]], [[[-88.508, 16.208], [-88.508, 16.208], [-88.508, 16.208], [-88.508, 16.208]]], [[[-88.625, 16.209], [-88.625, 16.209], [-88.625, 16.209], [-88.625, 16.209]]], [[[-88.693, 16.201], [-88.693, 16.201], [-88.693, 16.201], [-88.693, 16.201]]], [[[-88.71, 16.211], [-88.71, 16.211], [-88.71, 16.211], [-88.71, 16.211]]], [[[-88.672, 16.21], [-88.672, 16.21], [-88.672, 16.21], [-88.672, 16.21]]], [[[-88.674, 16.211], [-88.674, 16.211], [-88.674, 16.211], [-88.674, 16.211]]], [[[-88.681, 16.212], [-88.681, 16.212], [-88.681, 16.212], [-88.681, 16.212]]], [[[-88.675, 16.212], [-88.675, 16.212], [-88.675, 16.212], [-88.675, 16.212]]], [[[-88.67, 16.212], [-88.67, 16.212], [-88.67, 16.212], [-88.67, 16.212]]], [[[-88.672, 16.208], [-88.672, 16.208], [-88.672, 16.208], [-88.672, 16.208]]], [[[-88.697, 16.198], [-88.697, 16.198], [-88.697, 16.198], [-88.697, 16.198]]], [[[-88.695, 16.197], [-88.695, 16.197], [-88.695, 16.197], [-88.695, 16.197]]], [[[-88.685, 16.198], [-88.685, 16.198], [-88.685, 16.198], [-88.685, 16.198]]], [[[-88.701, 16.198], [-88.701, 16.198], [-88.701, 16.198], [-88.701, 16.198]]], [[[-88.682, 16.197], [-88.682, 16.197], [-88.682, 16.197], [-88.682, 16.197]]], [[[-88.661, 16.215], [-88.661, 16.215], [-88.661, 16.215], [-88.661, 16.215]]], [[[-88.67, 16.214], [-88.67, 16.214], [-88.67, 16.214], [-88.67, 16.214]]], [[[-88.662, 16.215], [-88.662, 16.215], [-88.662, 16.215], [-88.662, 16.215]]], [[[-88.666, 16.215], [-88.666, 16.215], [-88.666, 16.215], [-88.666, 16.215]]], [[[-88.704, 16.216], [-88.704, 16.216], [-88.704, 16.216], [-88.704, 16.216]]], [[[-88.693, 16.217], [-88.693, 16.217], [-88.693, 16.217], [-88.693, 16.217]]], [[[-88.668, 16.217], [-88.668, 16.217], [-88.668, 16.217], [-88.668, 16.217]]], [[[-88.717, 16.22], [-88.717, 16.22], [-88.717, 16.22], [-88.717, 16.22]]], [[[-88.677, 16.22], [-88.677, 16.22], [-88.677, 16.22], [-88.677, 16.22]]], [[[-88.678, 16.218], [-88.678, 16.218], [-88.678, 16.218], [-88.678, 16.218]]], [[[-88.703, 16.219], [-88.703, 16.219], [-88.703, 16.219], [-88.703, 16.219]]], [[[-88.671, 16.219], [-88.671, 16.219], [-88.671, 16.219], [-88.671, 16.219]]], [[[-88.663, 16.216], [-88.663, 16.216], [-88.663, 16.216], [-88.663, 16.216]]], [[[-88.689, 16.216], [-88.689, 16.216], [-88.689, 16.216], [-88.689, 16.216]]], [[[-88.684, 16.216], [-88.684, 16.216], [-88.684, 16.216], [-88.684, 16.216]]], [[[-88.662, 16.216], [-88.662, 16.216], [-88.662, 16.216], [-88.662, 16.216]]], [[[-88.667, 16.216], [-88.667, 16.216], [-88.667, 16.216], [-88.667, 16.216]]], [[[-88.681, 16.216], [-88.681, 16.216], [-88.681, 16.216], [-88.681, 16.216]]], [[[-88.665, 16.214], [-88.665, 16.214], [-88.665, 16.214], [-88.665, 16.214]]], [[[-88.638, 16.208], [-88.638, 16.208], [-88.638, 16.208], [-88.638, 16.208]]], [[[-88.662, 16.214], [-88.662, 16.214], [-88.662, 16.214], [-88.662, 16.214]]], [[[-88.647, 16.188], [-88.647, 16.188], [-88.647, 16.188], [-88.647, 16.188]]], [[[-88.707, 16.188], [-88.707, 16.188], [-88.707, 16.188], [-88.707, 16.188]]], [[[-88.696, 16.189], [-88.696, 16.189], [-88.696, 16.189], [-88.696, 16.189]]], [[[-88.699, 16.189], [-88.699, 16.189], [-88.699, 16.189], [-88.699, 16.189]]], [[[-88.694, 16.188], [-88.694, 16.188], [-88.694, 16.188], [-88.694, 16.188]]], [[[-88.65, 16.189], [-88.65, 16.189], [-88.65, 16.189], [-88.65, 16.189]]], [[[-88.692, 16.184], [-88.692, 16.184], [-88.692, 16.184], [-88.692, 16.184]]], [[[-88.573, 16.191], [-88.573, 16.191], [-88.573, 16.191], [-88.573, 16.191]]], [[[-88.636, 16.189], [-88.636, 16.189], [-88.636, 16.189], [-88.636, 16.189]]], [[[-88.703, 16.19], [-88.703, 16.19], [-88.703, 16.19], [-88.703, 16.19]]], [[[-88.652, 16.189], [-88.652, 16.189], [-88.652, 16.189], [-88.652, 16.189]]], [[[-88.691, 16.191], [-88.691, 16.191], [-88.691, 16.191], [-88.691, 16.191]]], [[[-88.693, 16.188], [-88.693, 16.188], [-88.693, 16.188], [-88.693, 16.188]]], [[[-88.668, 16.226], [-88.668, 16.226], [-88.668, 16.226], [-88.668, 16.226]]], [[[-88.667, 16.226], [-88.667, 16.226], [-88.667, 16.226], [-88.667, 16.226]]], [[[-88.726, 16.226], [-88.726, 16.226], [-88.726, 16.226], [-88.726, 16.226]]], [[[-88.722, 16.227], [-88.722, 16.227], [-88.722, 16.227], [-88.722, 16.227]]], [[[-88.663, 16.223], [-88.663, 16.223], [-88.663, 16.223], [-88.663, 16.223]]], [[[-88.64, 16.224], [-88.64, 16.224], [-88.64, 16.224], [-88.64, 16.224]]], [[[-88.65, 16.223], [-88.65, 16.223], [-88.65, 16.223], [-88.65, 16.223]]], [[[-88.665, 16.224], [-88.665, 16.224], [-88.665, 16.224], [-88.665, 16.224]]], [[[-88.631, 16.224], [-88.631, 16.224], [-88.631, 16.224], [-88.631, 16.224]]], [[[-88.662, 16.224], [-88.662, 16.224], [-88.662, 16.224], [-88.662, 16.224]]], [[[-88.631, 16.228], [-88.631, 16.228], [-88.631, 16.228], [-88.631, 16.228]]], [[[-88.611, 16.23], [-88.611, 16.23], [-88.611, 16.23], [-88.611, 16.23]]], [[[-88.667, 16.228], [-88.667, 16.228], [-88.667, 16.228], [-88.667, 16.228]]], [[[-88.659, 16.232], [-88.659, 16.232], [-88.659, 16.232], [-88.659, 16.232]]], [[[-88.727, 16.229], [-88.727, 16.229], [-88.727, 16.229], [-88.727, 16.229]]], [[[-88.71, 16.23], [-88.71, 16.23], [-88.71, 16.23], [-88.71, 16.23]]], [[[-88.712, 16.23], [-88.712, 16.23], [-88.712, 16.23], [-88.712, 16.23]]], [[[-88.656, 16.23], [-88.656, 16.23], [-88.656, 16.23], [-88.656, 16.23]]], [[[-88.658, 16.23], [-88.658, 16.23], [-88.658, 16.23], [-88.658, 16.23]]], [[[-88.615, 16.231], [-88.615, 16.231], [-88.615, 16.231], [-88.615, 16.231]]], [[[-88.728, 16.232], [-88.728, 16.232], [-88.728, 16.232], [-88.728, 16.232]]], [[[-88.654, 16.23], [-88.654, 16.23], [-88.654, 16.23], [-88.654, 16.23]]], [[[-88.663, 16.231], [-88.663, 16.231], [-88.663, 16.231], [-88.663, 16.231]]], [[[-88.721, 16.236], [-88.721, 16.236], [-88.721, 16.236], [-88.721, 16.236]]], [[[-88.625, 16.236], [-88.625, 16.236], [-88.625, 16.236], [-88.625, 16.236]]], [[[-88.618, 16.236], [-88.618, 16.236], [-88.618, 16.236], [-88.618, 16.236]]], [[[-88.619, 16.236], [-88.619, 16.236], [-88.619, 16.236], [-88.619, 16.236]]], [[[-88.572, 16.251], [-88.572, 16.251], [-88.572, 16.251], [-88.572, 16.251]]], [[[-88.477, 16.37], [-88.477, 16.37], [-88.477, 16.37], [-88.477, 16.37]]], [[[-88.469, 16.381], [-88.469, 16.381], [-88.469, 16.381], [-88.469, 16.381]]], [[[-88.477, 16.397], [-88.477, 16.397], [-88.477, 16.397], [-88.477, 16.397]]], [[[-88.444, 16.4], [-88.444, 16.4], [-88.444, 16.4], [-88.444, 16.4]]], [[[-88.621, 16.237], [-88.621, 16.237], [-88.621, 16.237], [-88.621, 16.237]]], [[[-88.626, 16.239], [-88.626, 16.239], [-88.626, 16.239], [-88.626, 16.239]]], [[[-88.625, 16.24], [-88.625, 16.24], [-88.625, 16.24], [-88.625, 16.24]]], [[[-88.445, 16.423], [-88.445, 16.423], [-88.445, 16.423], [-88.445, 16.423]]], [[[-88.432, 16.424], [-88.432, 16.424], [-88.432, 16.424], [-88.432, 16.424]]], [[[-88.445, 16.424], [-88.445, 16.424], [-88.445, 16.424], [-88.445, 16.424]]], [[[-88.442, 16.407], [-88.442, 16.407], [-88.442, 16.407], [-88.442, 16.407]]], [[[-88.447, 16.405], [-88.447, 16.405], [-88.447, 16.405], [-88.447, 16.405]]], [[[-88.458, 16.401], [-88.458, 16.401], [-88.458, 16.401], [-88.458, 16.401]]], [[[-88.449, 16.405], [-88.449, 16.405], [-88.449, 16.405], [-88.449, 16.405]]], [[[-88.458, 16.409], [-88.458, 16.409], [-88.458, 16.409], [-88.458, 16.409]]], [[[-88.451, 16.407], [-88.451, 16.407], [-88.451, 16.407], [-88.451, 16.407]]], [[[-88.46, 16.408], [-88.46, 16.408], [-88.46, 16.408], [-88.46, 16.408]]], [[[-88.453, 16.408], [-88.453, 16.408], [-88.453, 16.408], [-88.453, 16.408]]], [[[-88.438, 16.41], [-88.438, 16.41], [-88.438, 16.41], [-88.438, 16.41]]], [[[-88.453, 16.41], [-88.453, 16.41], [-88.453, 16.41], [-88.453, 16.41]]], [[[-88.456, 16.411], [-88.456, 16.411], [-88.456, 16.411], [-88.456, 16.411]]], [[[-88.619, 16.233], [-88.619, 16.233], [-88.619, 16.233], [-88.619, 16.233]]], [[[-88.627, 16.234], [-88.627, 16.234], [-88.627, 16.234], [-88.627, 16.234]]], [[[-88.648, 16.233], [-88.648, 16.233], [-88.648, 16.233], [-88.648, 16.233]]], [[[-88.626, 16.234], [-88.626, 16.234], [-88.626, 16.234], [-88.626, 16.234]]], [[[-88.653, 16.233], [-88.653, 16.233], [-88.653, 16.233], [-88.653, 16.233]]], [[[-88.628, 16.233], [-88.628, 16.233], [-88.628, 16.233], [-88.628, 16.233]]], [[[-88.196, 16.445], [-88.196, 16.445], [-88.196, 16.445], [-88.196, 16.445]]], [[[-88.422, 16.451], [-88.422, 16.451], [-88.422, 16.451], [-88.422, 16.451]]], [[[-88.424, 16.443], [-88.424, 16.443], [-88.424, 16.443], [-88.424, 16.443]]], [[[-88.42, 16.451], [-88.42, 16.451], [-88.42, 16.451], [-88.42, 16.451]]], [[[-88.421, 16.455], [-88.421, 16.455], [-88.421, 16.455], [-88.421, 16.455]]], [[[-88.423, 16.457], [-88.423, 16.457], [-88.423, 16.457], [-88.423, 16.457]]], [[[-88.261, 16.483], [-88.261, 16.483], [-88.261, 16.483], [-88.261, 16.483]]], [[[-88.213, 16.483], [-88.213, 16.483], [-88.213, 16.483], [-88.213, 16.483]]], [[[-88.405, 16.475], [-88.405, 16.475], [-88.405, 16.475], [-88.405, 16.475]]], [[[-88.418, 16.477], [-88.418, 16.477], [-88.418, 16.477], [-88.418, 16.477]]], [[[-88.404, 16.475], [-88.404, 16.475], [-88.404, 16.475], [-88.404, 16.475]]], [[[-88.421, 16.457], [-88.421, 16.457], [-88.421, 16.457], [-88.421, 16.457]]], [[[-88.314, 16.464], [-88.314, 16.464], [-88.314, 16.464], [-88.314, 16.464]]], [[[-88.432, 16.468], [-88.432, 16.468], [-88.432, 16.468], [-88.432, 16.468]]], [[[-88.297, 16.469], [-88.297, 16.469], [-88.297, 16.469], [-88.297, 16.469]]], [[[-88.429, 16.423], [-88.429, 16.423], [-88.429, 16.423], [-88.429, 16.423]]], [[[-88.434, 16.428], [-88.434, 16.428], [-88.434, 16.428], [-88.434, 16.428]]], [[[-88.436, 16.424], [-88.436, 16.424], [-88.436, 16.424], [-88.436, 16.424]]], [[[-88.446, 16.429], [-88.446, 16.429], [-88.446, 16.429], [-88.446, 16.429]]], [[[-88.62, 16.221], [-88.62, 16.221], [-88.62, 16.221], [-88.62, 16.221]]], [[[-88.662, 16.221], [-88.662, 16.221], [-88.662, 16.221], [-88.662, 16.221]]], [[[-88.638, 16.221], [-88.638, 16.221], [-88.638, 16.221], [-88.638, 16.221]]], [[[-88.663, 16.221], [-88.663, 16.221], [-88.663, 16.221], [-88.663, 16.221]]], [[[-88.661, 16.22], [-88.661, 16.22], [-88.661, 16.22], [-88.661, 16.22]]], [[[-88.59, 16.222], [-88.59, 16.222], [-88.59, 16.222], [-88.59, 16.222]]], [[[-88.599, 16.222], [-88.599, 16.222], [-88.599, 16.222], [-88.599, 16.222]]], [[[-88.616, 16.223], [-88.616, 16.223], [-88.616, 16.223], [-88.616, 16.223]]], [[[-88.665, 16.222], [-88.665, 16.222], [-88.665, 16.222], [-88.665, 16.222]]], [[[-88.663, 16.222], [-88.663, 16.222], [-88.663, 16.222], [-88.663, 16.222]]], [[[-88.635, 16.222], [-88.635, 16.222], [-88.635, 16.222], [-88.635, 16.222]]], [[[-88.411, 16.484], [-88.411, 16.484], [-88.411, 16.484], [-88.411, 16.484]]], [[[-87.488, 17.463], [-87.488, 17.463], [-87.488, 17.463], [-87.488, 17.463]]], [[[-87.805, 17.46], [-87.805, 17.46], [-87.805, 17.46], [-87.805, 17.46]]], [[[-87.924, 17.383], [-87.924, 17.383], [-87.924, 17.383], [-87.924, 17.383]]], [[[-89.151, 17.049], [-89.15, 17.052], [-89.152, 17.816], [-88.86, 17.894], [-88.517, 18.464], [-88.319, 18.488], [-88.097, 18.371], [-88.288, 17.564], [-88.218, 16.968], [-88.544, 16.273], [-88.913, 15.9], [-89.227, 15.896], [-89.151, 17.049]]], [[[-87.798, 17.463], [-87.798, 17.463], [-87.798, 17.463], [-87.798, 17.463]]], [[[-88.061, 17.464], [-88.061, 17.464], [-88.061, 17.464], [-88.061, 17.464]]], [[[-88.06, 17.467], [-88.06, 17.467], [-88.06, 17.467], [-88.06, 17.467]]], [[[-87.794, 17.471], [-87.794, 17.471], [-87.794, 17.471], [-87.794, 17.471]]], [[[-87.79, 17.475], [-87.79, 17.475], [-87.79, 17.475], [-87.79, 17.475]]], [[[-87.796, 17.466], [-87.796, 17.466], [-87.796, 17.466], [-87.796, 17.466]]], [[[-87.764, 17.498], [-87.764, 17.498], [-87.764, 17.498], [-87.764, 17.498]]], [[[-87.771, 17.495], [-87.771, 17.495], [-87.771, 17.495], [-87.771, 17.495]]], [[[-87.768, 17.496], [-87.768, 17.496], [-87.768, 17.496], [-87.768, 17.496]]], [[[-87.774, 17.494], [-87.774, 17.494], [-87.774, 17.494], [-87.774, 17.494]]], [[[-87.854, 17.476], [-87.854, 17.476], [-87.854, 17.476], [-87.854, 17.476]]], [[[-87.784, 17.484], [-87.784, 17.484], [-87.784, 17.484], [-87.784, 17.484]]], [[[-87.783, 17.485], [-87.783, 17.485], [-87.783, 17.485], [-87.783, 17.485]]], [[[-88.133, 17.499], [-88.133, 17.499], [-88.133, 17.499], [-88.133, 17.499]]], [[[-88.2, 17.524], [-88.2, 17.524], [-88.2, 17.524], [-88.2, 17.524]]], [[[-88.156, 17.512], [-88.156, 17.512], [-88.156, 17.512], [-88.156, 17.512]]], [[[-88.232, 17.533], [-88.232, 17.533], [-88.232, 17.533], [-88.232, 17.533]]], [[[-87.763, 17.534], [-87.763, 17.534], [-87.763, 17.534], [-87.763, 17.534]]], [[[-88.182, 17.529], [-88.182, 17.529], [-88.182, 17.529], [-88.182, 17.529]]], [[[-88.184, 17.529], [-88.184, 17.529], [-88.184, 17.529], [-88.184, 17.529]]], [[[-88.184, 17.53], [-88.184, 17.53], [-88.184, 17.53], [-88.184, 17.53]]], [[[-88.185, 17.531], [-88.185, 17.531], [-88.185, 17.531], [-88.185, 17.531]]], [[[-88.184, 17.531], [-88.184, 17.531], [-88.184, 17.531], [-88.184, 17.531]]], [[[-88.185, 17.533], [-88.185, 17.533], [-88.185, 17.533], [-88.185, 17.533]]], [[[-88.181, 17.536], [-88.181, 17.536], [-88.181, 17.536], [-88.181, 17.536]]], [[[-88.184, 17.534], [-88.184, 17.534], [-88.184, 17.534], [-88.184, 17.534]]], [[[-88.187, 17.535], [-88.187, 17.535], [-88.187, 17.535], [-88.187, 17.535]]], [[[-88.188, 17.537], [-88.188, 17.537], [-88.188, 17.537], [-88.188, 17.537]]], [[[-88.183, 17.54], [-88.183, 17.54], [-88.183, 17.54], [-88.183, 17.54]]], [[[-88.073, 17.555], [-88.073, 17.555], [-88.073, 17.555], [-88.073, 17.555]]], [[[-88.202, 17.572], [-88.202, 17.572], [-88.202, 17.572], [-88.202, 17.572]]], [[[-88.07, 17.566], [-88.07, 17.566], [-88.07, 17.566], [-88.07, 17.566]]], [[[-88.073, 17.554], [-88.073, 17.554], [-88.073, 17.554], [-88.073, 17.554]]], [[[-88.075, 17.56], [-88.075, 17.56], [-88.075, 17.56], [-88.075, 17.56]]], [[[-88.174, 17.557], [-88.174, 17.557], [-88.174, 17.557], [-88.174, 17.557]]], [[[-87.789, 17.574], [-87.789, 17.574], [-87.789, 17.574], [-87.789, 17.574]]], [[[-87.799, 17.575], [-87.799, 17.575], [-87.799, 17.575], [-87.799, 17.575]]], [[[-87.799, 17.576], [-87.799, 17.576], [-87.799, 17.576], [-87.799, 17.576]]], [[[-88.08, 17.589], [-88.08, 17.589], [-88.08, 17.589], [-88.08, 17.589]]], [[[-88.079, 17.593], [-88.079, 17.593], [-88.079, 17.593], [-88.079, 17.593]]], [[[-88.086, 17.589], [-88.086, 17.589], [-88.086, 17.589], [-88.086, 17.589]]], [[[-88.08, 17.577], [-88.08, 17.577], [-88.08, 17.577], [-88.08, 17.577]]], [[[-88.079, 17.588], [-88.079, 17.588], [-88.079, 17.588], [-88.079, 17.588]]], [[[-88.182, 17.546], [-88.182, 17.546], [-88.182, 17.546], [-88.182, 17.546]]], [[[-88.134, 17.501], [-88.134, 17.501], [-88.134, 17.501], [-88.134, 17.501]]], [[[-87.817, 17.505], [-87.817, 17.505], [-87.817, 17.505], [-87.817, 17.505]]], [[[-87.829, 17.505], [-87.829, 17.505], [-87.829, 17.505], [-87.829, 17.505]]], [[[-87.828, 17.505], [-87.828, 17.505], [-87.828, 17.505], [-87.828, 17.505]]], [[[-87.828, 17.505], [-87.828, 17.505], [-87.828, 17.505], [-87.828, 17.505]]], [[[-88.085, 17.492], [-88.085, 17.492], [-88.085, 17.492], [-88.085, 17.492]]], [[[-87.842, 17.489], [-87.842, 17.489], [-87.842, 17.489], [-87.842, 17.489]]], [[[-87.817, 17.502], [-87.817, 17.502], [-87.817, 17.502], [-87.817, 17.502]]], [[[-87.828, 17.504], [-87.828, 17.504], [-87.828, 17.504], [-87.828, 17.504]]], [[[-87.817, 17.527], [-87.817, 17.527], [-87.817, 17.527], [-87.817, 17.527]]], [[[-88.08, 17.609], [-88.08, 17.609], [-88.08, 17.609], [-88.08, 17.609]]], [[[-88.066, 17.629], [-88.066, 17.629], [-88.066, 17.629], [-88.066, 17.629]]], [[[-88.073, 17.614], [-88.073, 17.614], [-88.073, 17.614], [-88.073, 17.614]]], [[[-88.291, 17.632], [-88.291, 17.632], [-88.291, 17.632], [-88.291, 17.632]]], [[[-88.288, 17.632], [-88.288, 17.632], [-88.288, 17.632], [-88.288, 17.632]]], [[[-88.286, 17.633], [-88.286, 17.633], [-88.286, 17.633], [-88.286, 17.633]]], [[[-88.278, 17.637], [-88.278, 17.637], [-88.278, 17.637], [-88.278, 17.637]]], [[[-88.281, 17.638], [-88.281, 17.638], [-88.281, 17.638], [-88.281, 17.638]]], [[[-88.283, 17.638], [-88.283, 17.638], [-88.283, 17.638], [-88.283, 17.638]]], [[[-88.287, 17.638], [-88.287, 17.638], [-88.287, 17.638], [-88.287, 17.638]]], [[[-88.287, 17.648], [-88.287, 17.648], [-88.287, 17.648], [-88.287, 17.648]]], [[[-88.282, 17.65], [-88.282, 17.65], [-88.282, 17.65], [-88.282, 17.65]]], [[[-88.275, 17.649], [-88.275, 17.649], [-88.275, 17.649], [-88.275, 17.649]]], [[[-88.279, 17.67], [-88.279, 17.67], [-88.279, 17.67], [-88.279, 17.67]]], [[[-88.279, 17.674], [-88.279, 17.674], [-88.279, 17.674], [-88.279, 17.674]]], [[[-88.28, 17.663], [-88.28, 17.663], [-88.28, 17.663], [-88.28, 17.663]]], [[[-88.276, 17.666], [-88.276, 17.666], [-88.276, 17.666], [-88.276, 17.666]]], [[[-88.288, 17.642], [-88.288, 17.642], [-88.288, 17.642], [-88.288, 17.642]]], [[[-88.193, 17.643], [-88.193, 17.643], [-88.193, 17.643], [-88.193, 17.643]]], [[[-88.195, 17.642], [-88.195, 17.642], [-88.195, 17.642], [-88.195, 17.642]]], [[[-88.278, 17.647], [-88.278, 17.647], [-88.278, 17.647], [-88.278, 17.647]]], [[[-88.276, 17.647], [-88.276, 17.647], [-88.276, 17.647], [-88.276, 17.647]]], [[[-88.274, 17.676], [-88.274, 17.676], [-88.274, 17.676], [-88.274, 17.676]]], [[[-88.044, 17.683], [-88.044, 17.683], [-88.044, 17.683], [-88.044, 17.683]]], [[[-88.256, 17.714], [-88.256, 17.714], [-88.256, 17.714], [-88.256, 17.714]]], [[[-88.259, 17.715], [-88.259, 17.715], [-88.259, 17.715], [-88.259, 17.715]]], [[[-88.236, 17.716], [-88.236, 17.716], [-88.236, 17.716], [-88.236, 17.716]]], [[[-88.272, 17.721], [-88.272, 17.721], [-88.272, 17.721], [-88.272, 17.721]]], [[[-88.259, 17.719], [-88.259, 17.719], [-88.259, 17.719], [-88.259, 17.719]]], [[[-88.267, 17.715], [-88.267, 17.715], [-88.267, 17.715], [-88.267, 17.715]]], [[[-88.241, 17.717], [-88.241, 17.717], [-88.241, 17.717], [-88.241, 17.717]]], [[[-88.24, 17.718], [-88.24, 17.718], [-88.24, 17.718], [-88.24, 17.718]]], [[[-88.262, 17.719], [-88.262, 17.719], [-88.262, 17.719], [-88.262, 17.719]]], [[[-88.272, 17.724], [-88.272, 17.724], [-88.272, 17.724], [-88.272, 17.724]]], [[[-88.244, 17.727], [-88.244, 17.727], [-88.244, 17.727], [-88.244, 17.727]]], [[[-88.249, 17.726], [-88.249, 17.726], [-88.249, 17.726], [-88.249, 17.726]]], [[[-88.261, 17.724], [-88.261, 17.724], [-88.261, 17.724], [-88.261, 17.724]]], [[[-88.267, 17.731], [-88.267, 17.731], [-88.267, 17.731], [-88.267, 17.731]]], [[[-88.266, 17.725], [-88.266, 17.725], [-88.266, 17.725], [-88.266, 17.725]]], [[[-88.264, 17.729], [-88.264, 17.729], [-88.264, 17.729], [-88.264, 17.729]]], [[[-88.251, 17.721], [-88.251, 17.721], [-88.251, 17.721], [-88.251, 17.721]]], [[[-88.271, 17.722], [-88.271, 17.722], [-88.271, 17.722], [-88.271, 17.722]]], [[[-88.251, 17.718], [-88.251, 17.718], [-88.251, 17.718], [-88.251, 17.718]]], [[[-88.261, 17.722], [-88.261, 17.722], [-88.261, 17.722], [-88.261, 17.722]]], [[[-88.132, 17.645], [-88.132, 17.645], [-88.132, 17.645], [-88.132, 17.645]]], [[[-88.271, 17.658], [-88.271, 17.658], [-88.271, 17.658], [-88.271, 17.658]]], [[[-88.274, 17.674], [-88.274, 17.674], [-88.274, 17.674], [-88.274, 17.674]]], [[[-88.148, 17.652], [-88.148, 17.652], [-88.148, 17.652], [-88.148, 17.652]]], [[[-88.144, 17.67], [-88.144, 17.67], [-88.144, 17.67], [-88.144, 17.67]]], [[[-88.189, 17.648], [-88.189, 17.648], [-88.189, 17.648], [-88.189, 17.648]]], [[[-88.139, 17.645], [-88.139, 17.645], [-88.139, 17.645], [-88.139, 17.645]]], [[[-88.191, 17.648], [-88.191, 17.648], [-88.191, 17.648], [-88.191, 17.648]]], [[[-88.194, 17.642], [-88.194, 17.642], [-88.194, 17.642], [-88.194, 17.642]]], [[[-88.273, 17.675], [-88.273, 17.675], [-88.273, 17.675], [-88.273, 17.675]]], [[[-88.142, 17.683], [-88.142, 17.683], [-88.142, 17.683], [-88.142, 17.683]]], [[[-88.088, 17.606], [-88.088, 17.606], [-88.088, 17.606], [-88.088, 17.606]]], [[[-87.767, 17.605], [-87.767, 17.605], [-87.767, 17.605], [-87.767, 17.605]]], [[[-88.263, 17.736], [-88.263, 17.736], [-88.263, 17.736], [-88.263, 17.736]]], [[[-88.232, 17.734], [-88.232, 17.734], [-88.232, 17.734], [-88.232, 17.734]]], [[[-88.25, 17.761], [-88.25, 17.761], [-88.25, 17.761], [-88.25, 17.761]]], [[[-88.227, 17.772], [-88.227, 17.772], [-88.227, 17.772], [-88.227, 17.772]]], [[[-88.055, 17.783], [-88.055, 17.783], [-88.055, 17.783], [-88.055, 17.783]]], [[[-88.059, 17.859], [-88.059, 17.859], [-88.059, 17.859], [-88.059, 17.859]]], [[[-88.071, 17.854], [-88.071, 17.854], [-88.071, 17.854], [-88.071, 17.854]]], [[[-88.068, 17.856], [-88.068, 17.856], [-88.068, 17.856], [-88.068, 17.856]]], [[[-88.058, 17.86], [-88.058, 17.86], [-88.058, 17.86], [-88.058, 17.86]]], [[[-88.048, 17.861], [-88.048, 17.861], [-88.048, 17.861], [-88.048, 17.861]]], [[[-88.057, 17.862], [-88.057, 17.862], [-88.057, 17.862], [-88.057, 17.862]]], [[[-88.055, 17.787], [-88.055, 17.787], [-88.055, 17.787], [-88.055, 17.787]]], [[[-88.253, 17.756], [-88.253, 17.756], [-88.253, 17.756], [-88.253, 17.756]]], [[[-88.243, 17.757], [-88.243, 17.757], [-88.243, 17.757], [-88.243, 17.757]]], [[[-88.24, 17.752], [-88.24, 17.752], [-88.24, 17.752], [-88.24, 17.752]]], [[[-88.241, 17.748], [-88.241, 17.748], [-88.241, 17.748], [-88.241, 17.748]]], [[[-88.256, 17.759], [-88.256, 17.759], [-88.256, 17.759], [-88.256, 17.759]]], [[[-88.256, 17.759], [-88.256, 17.759], [-88.256, 17.759], [-88.256, 17.759]]], [[[-88.025, 17.751], [-88.025, 17.751], [-88.025, 17.751], [-88.025, 17.751]]], [[[-88.247, 17.759], [-88.247, 17.759], [-88.247, 17.759], [-88.247, 17.759]]], [[[-88.248, 17.76], [-88.248, 17.76], [-88.248, 17.76], [-88.248, 17.76]]], [[[-88.047, 17.874], [-88.047, 17.874], [-88.047, 17.874], [-88.047, 17.874]]], [[[-88.059, 17.868], [-88.059, 17.868], [-88.059, 17.868], [-88.059, 17.868]]], [[[-88.058, 17.87], [-88.058, 17.87], [-88.058, 17.87], [-88.058, 17.87]]], [[[-88.004, 17.903], [-88.004, 17.903], [-88.004, 17.903], [-88.004, 17.903]]], [[[-88.009, 17.898], [-88.009, 17.898], [-88.009, 17.898], [-88.009, 17.898]]], [[[-87.996, 17.905], [-87.996, 17.905], [-87.996, 17.905], [-87.996, 17.905]]], [[[-87.998, 17.906], [-87.998, 17.906], [-87.998, 17.906], [-87.998, 17.906]]], [[[-88.022, 17.876], [-88.022, 17.876], [-88.022, 17.876], [-88.022, 17.876]]], [[[-88.007, 17.89], [-88.007, 17.89], [-88.007, 17.89], [-88.007, 17.89]]], [[[-88.034, 17.881], [-88.034, 17.881], [-88.034, 17.881], [-88.034, 17.881]]], [[[-88.031, 17.881], [-88.031, 17.881], [-88.031, 17.881], [-88.031, 17.881]]], [[[-88.004, 17.898], [-88.004, 17.898], [-88.004, 17.898], [-88.004, 17.898]]], [[[-88.203, 17.916], [-88.203, 17.916], [-88.203, 17.916], [-88.203, 17.916]]], [[[-88.2, 17.92], [-88.2, 17.92], [-88.2, 17.92], [-88.2, 17.92]]], [[[-88.198, 17.92], [-88.198, 17.92], [-88.198, 17.92], [-88.198, 17.92]]], [[[-88.194, 17.92], [-88.194, 17.92], [-88.194, 17.92], [-88.194, 17.92]]], [[[-88.192, 17.923], [-88.192, 17.923], [-88.192, 17.923], [-88.192, 17.923]]], [[[-87.996, 17.91], [-87.996, 17.91], [-87.996, 17.91], [-87.996, 17.91]]], [[[-87.999, 17.916], [-87.999, 17.916], [-87.999, 17.916], [-87.999, 17.916]]], [[[-87.995, 17.921], [-87.995, 17.921], [-87.995, 17.921], [-87.995, 17.921]]], [[[-88.06, 17.865], [-88.06, 17.865], [-88.06, 17.865], [-88.06, 17.865]]], [[[-88.068, 17.868], [-88.068, 17.868], [-88.068, 17.868], [-88.068, 17.868]]], [[[-88.252, 17.73], [-88.252, 17.73], [-88.252, 17.73], [-88.252, 17.73]]], [[[-88.238, 17.733], [-88.238, 17.733], [-88.238, 17.733], [-88.238, 17.733]]], [[[-88.24, 17.732], [-88.24, 17.732], [-88.24, 17.732], [-88.24, 17.732]]], [[[-88.26, 17.732], [-88.26, 17.732], [-88.26, 17.732], [-88.26, 17.732]]], [[[-88.263, 17.73], [-88.263, 17.73], [-88.263, 17.73], [-88.263, 17.73]]], [[[-88.26, 17.73], [-88.26, 17.73], [-88.26, 17.73], [-88.26, 17.73]]], [[[-88.26, 17.728], [-88.26, 17.728], [-88.26, 17.728], [-88.26, 17.728]]], [[[-88.259, 17.729], [-88.259, 17.729], [-88.259, 17.729], [-88.259, 17.729]]], [[[-88.028, 17.741], [-88.028, 17.741], [-88.028, 17.741], [-88.028, 17.741]]], [[[-88.24, 17.733], [-88.24, 17.733], [-88.24, 17.733], [-88.24, 17.733]]], [[[-88.144, 18.062], [-88.144, 18.062], [-88.144, 18.062], [-88.144, 18.062]]], [[[-88.149, 18.064], [-88.149, 18.064], [-88.149, 18.064], [-88.149, 18.064]]], [[[-87.974, 18.067], [-87.974, 18.067], [-87.974, 18.067], [-87.974, 18.067]]], [[[-88.143, 18.058], [-88.143, 18.058], [-88.143, 18.058], [-88.143, 18.058]]], [[[-87.911, 18.085], [-87.911, 18.085], [-87.911, 18.085], [-87.911, 18.085]]], [[[-87.913, 18.088], [-87.913, 18.088], [-87.913, 18.088], [-87.913, 18.088]]], [[[-87.918, 18.087], [-87.918, 18.087], [-87.918, 18.087], [-87.918, 18.087]]], [[[-87.971, 18.103], [-87.971, 18.103], [-87.971, 18.103], [-87.971, 18.103]]], [[[-87.978, 18.089], [-87.978, 18.089], [-87.978, 18.089], [-87.978, 18.089]]], [[[-87.983, 18.089], [-87.983, 18.089], [-87.983, 18.089], [-87.983, 18.089]]], [[[-87.959, 18.089], [-87.959, 18.089], [-87.959, 18.089], [-87.959, 18.089]]], [[[-87.948, 18.098], [-87.948, 18.098], [-87.948, 18.098], [-87.948, 18.098]]], [[[-87.953, 18.118], [-87.953, 18.118], [-87.953, 18.118], [-87.953, 18.118]]], [[[-87.941, 18.115], [-87.941, 18.115], [-87.941, 18.115], [-87.941, 18.115]]], [[[-87.947, 18.113], [-87.947, 18.113], [-87.947, 18.113], [-87.947, 18.113]]], [[[-87.95, 18.113], [-87.95, 18.113], [-87.95, 18.113], [-87.95, 18.113]]], [[[-87.891, 18.14], [-87.891, 18.14], [-87.891, 18.14], [-87.891, 18.14]]], [[[-87.895, 18.144], [-87.895, 18.144], [-87.895, 18.144], [-87.895, 18.144]]], [[[-88.155, 18.033], [-88.155, 18.033], [-88.155, 18.033], [-88.155, 18.033]]], [[[-88.13, 18.033], [-88.13, 18.033], [-88.13, 18.033], [-88.13, 18.033]]], [[[-88.13, 18.034], [-88.13, 18.034], [-88.13, 18.034], [-88.13, 18.034]]], [[[-88.157, 18.039], [-88.157, 18.039], [-88.157, 18.039], [-88.157, 18.039]]], [[[-88.15, 18.039], [-88.15, 18.039], [-88.15, 18.039], [-88.15, 18.039]]], [[[-88.143, 18.034], [-88.143, 18.034], [-88.143, 18.034], [-88.143, 18.034]]], [[[-88.137, 18.037], [-88.137, 18.037], [-88.137, 18.037], [-88.137, 18.037]]], [[[-88.145, 18.034], [-88.145, 18.034], [-88.145, 18.034], [-88.145, 18.034]]], [[[-88.141, 18.036], [-88.141, 18.036], [-88.141, 18.036], [-88.141, 18.036]]], [[[-88.157, 18.042], [-88.157, 18.042], [-88.157, 18.042], [-88.157, 18.042]]], [[[-87.921, 18.056], [-87.921, 18.056], [-87.921, 18.056], [-87.921, 18.056]]], [[[-88.13, 18.035], [-88.13, 18.035], [-88.13, 18.035], [-88.13, 18.035]]], [[[-88.149, 18.042], [-88.149, 18.042], [-88.149, 18.042], [-88.149, 18.042]]], [[[-88.153, 18.043], [-88.153, 18.043], [-88.153, 18.043], [-88.153, 18.043]]], [[[-88.157, 18.044], [-88.157, 18.044], [-88.157, 18.044], [-88.157, 18.044]]], [[[-88.144, 18.043], [-88.144, 18.043], [-88.144, 18.043], [-88.144, 18.043]]], [[[-88.147, 18.044], [-88.147, 18.044], [-88.147, 18.044], [-88.147, 18.044]]], [[[-88.144, 18.045], [-88.144, 18.045], [-88.144, 18.045], [-88.144, 18.045]]], [[[-88.156, 18.047], [-88.156, 18.047], [-88.156, 18.047], [-88.156, 18.047]]], [[[-88.143, 18.047], [-88.143, 18.047], [-88.143, 18.047], [-88.143, 18.047]]], [[[-88.132, 18.044], [-88.132, 18.044], [-88.132, 18.044], [-88.132, 18.044]]], [[[-88.155, 18.046], [-88.155, 18.046], [-88.155, 18.046], [-88.155, 18.046]]], [[[-88.147, 18.046], [-88.147, 18.046], [-88.147, 18.046], [-88.147, 18.046]]], [[[-88.154, 18.046], [-88.154, 18.046], [-88.154, 18.046], [-88.154, 18.046]]], [[[-88.152, 18.046], [-88.152, 18.046], [-88.152, 18.046], [-88.152, 18.046]]], [[[-88.154, 18.047], [-88.154, 18.047], [-88.154, 18.047], [-88.154, 18.047]]], [[[-88.158, 18.048], [-88.158, 18.048], [-88.158, 18.048], [-88.158, 18.048]]], [[[-88.155, 18.048], [-88.155, 18.048], [-88.155, 18.048], [-88.155, 18.048]]], [[[-88.152, 18.048], [-88.152, 18.048], [-88.152, 18.048], [-88.152, 18.048]]], [[[-88.138, 18.054], [-88.138, 18.054], [-88.138, 18.054], [-88.138, 18.054]]], [[[-87.974, 18.048], [-87.974, 18.048], [-87.974, 18.048], [-87.974, 18.048]]], [[[-88.138, 18.05], [-88.138, 18.05], [-88.138, 18.05], [-88.138, 18.05]]], [[[-88.13, 18.05], [-88.13, 18.05], [-88.13, 18.05], [-88.13, 18.05]]], [[[-88.147, 18.048], [-88.147, 18.048], [-88.147, 18.048], [-88.147, 18.048]]], [[[-88.137, 18.05], [-88.137, 18.05], [-88.137, 18.05], [-88.137, 18.05]]], [[[-88.138, 18.052], [-88.138, 18.052], [-88.138, 18.052], [-88.138, 18.052]]], [[[-88.089, 18.28], [-88.089, 18.28], [-88.089, 18.28], [-88.089, 18.28]]], [[[-88.091, 18.308], [-88.091, 18.308], [-88.091, 18.308], [-88.091, 18.308]]], [[[-88.128, 18.311], [-88.128, 18.311], [-88.128, 18.311], [-88.128, 18.311]]], [[[-88.131, 18.316], [-88.131, 18.316], [-88.131, 18.316], [-88.131, 18.316]]], [[[-88.115, 18.328], [-88.115, 18.328], [-88.115, 18.328], [-88.115, 18.328]]], [[[-88.221, 18.326], [-88.221, 18.326], [-88.221, 18.326], [-88.221, 18.326]]], [[[-88.215, 18.328], [-88.215, 18.328], [-88.215, 18.328], [-88.215, 18.328]]], [[[-88.219, 18.328], [-88.219, 18.328], [-88.219, 18.328], [-88.219, 18.328]]], [[[-88.122, 18.335], [-88.122, 18.335], [-88.122, 18.335], [-88.122, 18.335]]], [[[-88.119, 18.331], [-88.119, 18.331], [-88.119, 18.331], [-88.119, 18.331]]], [[[-88.216, 18.329], [-88.216, 18.329], [-88.216, 18.329], [-88.216, 18.329]]], [[[-88.115, 18.336], [-88.115, 18.336], [-88.115, 18.336], [-88.115, 18.336]]], [[[-88.118, 18.338], [-88.118, 18.338], [-88.118, 18.338], [-88.118, 18.338]]], [[[-88.097, 18.345], [-88.097, 18.345], [-88.097, 18.345], [-88.097, 18.345]]], [[[-88.095, 18.349], [-88.095, 18.349], [-88.095, 18.349], [-88.095, 18.349]]], [[[-88.094, 18.352], [-88.094, 18.352], [-88.094, 18.352], [-88.094, 18.352]]], [[[-88.318, 18.43], [-88.318, 18.43], [-88.318, 18.43], [-88.318, 18.43]]], [[[-88.317, 18.488], [-88.317, 18.488], [-88.317, 18.488], [-88.317, 18.488]]], [[[-88.113, 18.331], [-88.113, 18.331], [-88.113, 18.331], [-88.113, 18.331]]], [[[-88.117, 18.336], [-88.117, 18.336], [-88.117, 18.336], [-88.117, 18.336]]], [[[-87.896, 18.143], [-87.896, 18.143], [-87.896, 18.143], [-87.896, 18.143]]], [[[-87.894, 18.142], [-87.894, 18.142], [-87.894, 18.142], [-87.894, 18.142]]], [[[-87.893, 18.145], [-87.893, 18.145], [-87.893, 18.145], [-87.893, 18.145]]], [[[-87.895, 18.145], [-87.895, 18.145], [-87.895, 18.145], [-87.895, 18.145]]], [[[-87.892, 18.147], [-87.892, 18.147], [-87.892, 18.147], [-87.892, 18.147]]], [[[-87.869, 18.188], [-87.869, 18.188], [-87.869, 18.188], [-87.869, 18.188]]], [[[-88.177, 17.972], [-88.177, 17.972], [-88.177, 17.972], [-88.177, 17.972]]], [[[-88.088, 17.97], [-88.088, 17.97], [-88.088, 17.97], [-88.088, 17.97]]], [[[-88.151, 17.969], [-88.151, 17.969], [-88.151, 17.969], [-88.151, 17.969]]], [[[-88.178, 17.971], [-88.178, 17.971], [-88.178, 17.971], [-88.178, 17.971]]], [[[-88.166, 17.979], [-88.166, 17.979], [-88.166, 17.979], [-88.166, 17.979]]], [[[-88.168, 17.979], [-88.168, 17.979], [-88.168, 17.979], [-88.168, 17.979]]], [[[-88.169, 17.98], [-88.169, 17.98], [-88.169, 17.98], [-88.169, 17.98]]], [[[-88.158, 17.978], [-88.158, 17.978], [-88.158, 17.978], [-88.158, 17.978]]], [[[-87.963, 17.985], [-87.963, 17.985], [-87.963, 17.985], [-87.963, 17.985]]], [[[-88.171, 17.99], [-88.171, 17.99], [-88.171, 17.99], [-88.171, 17.99]]], [[[-87.956, 17.997], [-87.956, 17.997], [-87.956, 17.997], [-87.956, 17.997]]], [[[-87.989, 17.99], [-87.989, 17.99], [-87.989, 17.99], [-87.989, 17.99]]], [[[-87.921, 18.005], [-87.921, 18.005], [-87.921, 18.005], [-87.921, 18.005]]], [[[-87.928, 18], [-87.928, 18], [-87.928, 18], [-87.928, 18]]], [[[-87.956, 18.001], [-87.956, 18.001], [-87.956, 18.001], [-87.956, 18.001]]], [[[-87.927, 18], [-87.927, 18], [-87.927, 18], [-87.927, 18]]], [[[-87.954, 18.001], [-87.954, 18.001], [-87.954, 18.001], [-87.954, 18.001]]], [[[-88.16, 18.002], [-88.16, 18.002], [-88.16, 18.002], [-88.16, 18.002]]], [[[-87.957, 18.004], [-87.957, 18.004], [-87.957, 18.004], [-87.957, 18.004]]], [[[-88.161, 18.006], [-88.161, 18.006], [-88.161, 18.006], [-88.161, 18.006]]], [[[-88.155, 18.015], [-88.155, 18.015], [-88.155, 18.015], [-88.155, 18.015]]], [[[-88.146, 18.015], [-88.146, 18.015], [-88.146, 18.015], [-88.146, 18.015]]], [[[-87.962, 18.007], [-87.962, 18.007], [-87.962, 18.007], [-87.962, 18.007]]], [[[-87.931, 18.008], [-87.931, 18.008], [-87.931, 18.008], [-87.931, 18.008]]], [[[-87.926, 18.005], [-87.926, 18.005], [-87.926, 18.005], [-87.926, 18.005]]], [[[-88.153, 18.009], [-88.153, 18.009], [-88.153, 18.009], [-88.153, 18.009]]], [[[-88.152, 18.016], [-88.152, 18.016], [-88.152, 18.016], [-88.152, 18.016]]], [[[-88.142, 18.019], [-88.142, 18.019], [-88.142, 18.019], [-88.142, 18.019]]], [[[-88.155, 18.02], [-88.155, 18.02], [-88.155, 18.02], [-88.155, 18.02]]], [[[-88.146, 18.018], [-88.146, 18.018], [-88.146, 18.018], [-88.146, 18.018]]], [[[-88.167, 18.023], [-88.167, 18.023], [-88.167, 18.023], [-88.167, 18.023]]], [[[-88.145, 18.021], [-88.145, 18.021], [-88.145, 18.021], [-88.145, 18.021]]], [[[-88.132, 18.025], [-88.132, 18.025], [-88.132, 18.025], [-88.132, 18.025]]], [[[-87.922, 18.028], [-87.922, 18.028], [-87.922, 18.028], [-87.922, 18.028]]], [[[-88.145, 18.028], [-88.145, 18.028], [-88.145, 18.028], [-88.145, 18.028]]], [[[-87.948, 18.03], [-87.948, 18.03], [-87.948, 18.03], [-87.948, 18.03]]], [[[-87.953, 18.029], [-87.953, 18.029], [-87.953, 18.029], [-87.953, 18.029]]], [[[-87.955, 18.03], [-87.955, 18.03], [-87.955, 18.03], [-87.955, 18.03]]], [[[-87.954, 18.028], [-87.954, 18.028], [-87.954, 18.028], [-87.954, 18.028]]], [[[-88.131, 18.028], [-88.131, 18.028], [-88.131, 18.028], [-88.131, 18.028]]], [[[-88.134, 18.022], [-88.134, 18.022], [-88.134, 18.022], [-88.134, 18.022]]], [[[-88.15, 18.017], [-88.15, 18.017], [-88.15, 18.017], [-88.15, 18.017]]], [[[-88.166, 18.022], [-88.166, 18.022], [-88.166, 18.022], [-88.166, 18.022]]], [[[-88.142, 18.021], [-88.142, 18.021], [-88.142, 18.021], [-88.142, 18.021]]], [[[-88.15, 18.021], [-88.15, 18.021], [-88.15, 18.021], [-88.15, 18.021]]], [[[-88.165, 18.023], [-88.165, 18.023], [-88.165, 18.023], [-88.165, 18.023]]], [[[-88.163, 18.024], [-88.163, 18.024], [-88.163, 18.024], [-88.163, 18.024]]], [[[-88.153, 18.024], [-88.153, 18.024], [-88.153, 18.024], [-88.153, 18.024]]], [[[-88.166, 18.026], [-88.166, 18.026], [-88.166, 18.026], [-88.166, 18.026]]], [[[-88.164, 18.026], [-88.164, 18.026], [-88.164, 18.026], [-88.164, 18.026]]], [[[-88.16, 18.023], [-88.16, 18.023], [-88.16, 18.023], [-88.16, 18.023]]], [[[-88.155, 18.023], [-88.155, 18.023], [-88.155, 18.023], [-88.155, 18.023]]], [[[-88.16, 18.027], [-88.16, 18.027], [-88.16, 18.027], [-88.16, 18.027]]], [[[-88.145, 18.027], [-88.145, 18.027], [-88.145, 18.027], [-88.145, 18.027]]], [[[-88.16, 18.029], [-88.16, 18.029], [-88.16, 18.029], [-88.16, 18.029]]], [[[-87.923, 18.031], [-87.923, 18.031], [-87.923, 18.031], [-87.923, 18.031]]], [[[-87.925, 18.03], [-87.925, 18.03], [-87.925, 18.03], [-87.925, 18.03]]], [[[-88.143, 18.029], [-88.143, 18.029], [-88.143, 18.029], [-88.143, 18.029]]], [[[-88.131, 18.031], [-88.131, 18.031], [-88.131, 18.031], [-88.131, 18.031]]], [[[-87.93, 18.024], [-87.93, 18.024], [-87.93, 18.024], [-87.93, 18.024]]], [[[-88.029, 18.017], [-88.029, 18.017], [-88.029, 18.017], [-88.029, 18.017]]], [[[-88.198, 17.929], [-88.198, 17.929], [-88.198, 17.929], [-88.198, 17.929]]], [[[-88.192, 17.925], [-88.192, 17.925], [-88.192, 17.925], [-88.192, 17.925]]], [[[-88.001, 17.903], [-88.001, 17.903], [-88.001, 17.903], [-88.001, 17.903]]], [[[-87.963, 17.929], [-87.963, 17.929], [-87.963, 17.929], [-87.963, 17.929]]], [[[-87.962, 17.929], [-87.962, 17.929], [-87.962, 17.929], [-87.962, 17.929]]], [[[-88.178, 17.94], [-88.178, 17.94], [-88.178, 17.94], [-88.178, 17.94]]], [[[-88.191, 17.949], [-88.191, 17.949], [-88.191, 17.949], [-88.191, 17.949]]], [[[-88.122, 17.949], [-88.122, 17.949], [-88.122, 17.949], [-88.122, 17.949]]], [[[-88.187, 17.947], [-88.187, 17.947], [-88.187, 17.947], [-88.187, 17.947]]], [[[-88.175, 17.951], [-88.175, 17.951], [-88.175, 17.951], [-88.175, 17.951]]], [[[-88.181, 17.952], [-88.181, 17.952], [-88.181, 17.952], [-88.181, 17.952]]], [[[-88.182, 17.953], [-88.182, 17.953], [-88.182, 17.953], [-88.182, 17.953]]], [[[-88.167, 17.958], [-88.167, 17.958], [-88.167, 17.958], [-88.167, 17.958]]], [[[-87.95, 17.966], [-87.95, 17.966], [-87.95, 17.966], [-87.95, 17.966]]], [[[-88.105, 17.958], [-88.105, 17.958], [-88.105, 17.958], [-88.105, 17.958]]], [[[-87.98, 17.956], [-87.98, 17.956], [-87.98, 17.956], [-87.98, 17.956]]], [[[-87.981, 17.957], [-87.981, 17.957], [-87.981, 17.957], [-87.981, 17.957]]], [[[-87.958, 17.957], [-87.958, 17.957], [-87.958, 17.957], [-87.958, 17.957]]], [[[-88.103, 17.959], [-88.103, 17.959], [-88.103, 17.959], [-88.103, 17.959]]], [[[-87.951, 17.959], [-87.951, 17.959], [-87.951, 17.959], [-87.951, 17.959]]], [[[-88.182, 17.936], [-88.182, 17.936], [-88.182, 17.936], [-88.182, 17.936]]], [[[-88.183, 17.935], [-88.183, 17.935], [-88.183, 17.935], [-88.183, 17.935]]], [[[-88.19, 17.934], [-88.19, 17.934], [-88.19, 17.934], [-88.19, 17.934]]], [[[-88.191, 17.934], [-88.191, 17.934], [-88.191, 17.934], [-88.191, 17.934]]], [[[-88.184, 17.934], [-88.184, 17.934], [-88.184, 17.934], [-88.184, 17.934]]], [[[-87.986, 17.916], [-87.986, 17.916], [-87.986, 17.916], [-87.986, 17.916]]], [[[-87.953, 17.942], [-87.953, 17.942], [-87.953, 17.942], [-87.953, 17.942]]], [[[-87.945, 17.968], [-87.945, 17.968], [-87.945, 17.968], [-87.945, 17.968]]], [[[-87.96, 18], [-87.96, 18], [-87.96, 18], [-87.96, 18]]], [[[-87.86, 18.19], [-87.86, 18.19], [-87.86, 18.19], [-87.86, 18.19]]]]}}