{"type": "Feature", "properties": {"name": "Sahrawi Arab Democratic Republic", "iso1": "EH", "admin_level": 2, "osm_id": 5441968, "countrylevel_id": "iso1:EH", "osm_data": {"localname": "الجمهورية العربية الصحراوية الديمقراطية‎‎", "official_name": "", "alltags": {"flag": "http://upload.wikimedia.org/wikipedia/commons/2/26/Flag_of_the_Sahrawi_Arab_Democratic_Republic.svg", "name:ar": "الجمهورية العربية الصحراوية الديمقراطية‎‎", "name:cs": "Saharská arabská demokratická republika", "name:en": "Sahrawi Arab Democratic Republic", "name:es": "República Árabe Saharaui Democrática", "name:fr": "République arabe sahraouie démocratique", "name:it": "Repubblica Araba Democratica dei Sahrawi", "name:lt": "Sacharos Arabų Demokratinė Respublika", "name:nl": "Arabische Democratische Republiek Sahara", "name:ru": "Сахарская Арабская Демократическая Республика", "name:ckb": "کۆماری دیموکراتیی عەرەبیی سەحرا", "is_in:continent": "Africa", "default_language": "ar"}}, "center_lat": 24.21, "center_lon": -12.1, "timezone": "Africa/El_Aaiun", "population": 502585, "wikidata_id": "Q40362", "wikipedia_id": "ar:الجمهورية العربية الصحراوية الديمقراطية"}, "geometry": {"type": "MultiPolygon", "coordinates": [[[[-17.029, 21.342], [-15.992, 21.339], [-16.948, 21.334], [-17.05, 20.77], [-17.029, 21.342]]], [[[-11.672, 25.999], [-11.263, 26.722], [-10.92, 26.919], [-9.795, 26.741], [-9.469, 26.961], [-8.766, 26.987], [-8.811, 27.667], [-8.668, 27.667], [-8.668, 27.315], [-8.667, 26], [-11.672, 25.999]]], [[[-15.041, 21.337], [-14.542, 21.591], [-14.504, 22.009], [-14.16, 22.418], [-13.932, 23.378], [-13.689, 23.834], [-13.025, 24.012], [-12.915, 24.429], [-12.388, 24.847], [-12, 25.348], [-12, 23.454], [-12.571, 23.291], [-12.998, 23.025], [-13.084, 22.537], [-13, 21.337], [-15.041, 21.337]]], [[[-12, 25.751], [-12, 25.349], [-12, 25.751], [-12, 25.751]]]]}}