{"type": "Feature", "properties": {"name": "Guadeloupe", "iso1": "GP", "admin_level": 3, "osm_id": 1401835, "countrylevel_id": "iso1:GP", "osm_data": {"localname": "Guadeloupe", "official_name": "Région de la Guadeloupe", "alltags": {"flag": "http://upload.wikimedia.org/wikipedia/commons/c/c3/Flag_of_France.svg", "name:ak": "Guwadelup", "name:am": "ጉዋደሉፕ", "name:ar": "غوادلوب", "name:az": "Qvadelupa", "name:be": "Гвадэлупа", "name:bg": "Гваделупа", "name:bm": "Gwadelup", "name:bn": "গুয়াদেলৌপ", "name:br": "Gwadeloup", "name:bs": "Gvadelupe", "name:ca": "Guadalupe", "name:da": "Guadeloupe", "name:dz": "གོ་ཌེ་ལུ་པེ", "name:ee": "Guadelupe", "name:el": "Γουαδελούπη", "name:en": "Guadeloupe", "name:eo": "Gvadelupo", "name:es": "Guadalupe", "name:eu": "Guadalupe", "name:fa": "گوادلوپ", "name:ff": "Gwaadalup", "name:fi": "Guadeloupe", "name:fr": "Guadeloupe", "name:fy": "Guadelûp", "name:ga": "Guadalúip", "name:gd": "Guadalup", "name:gl": "Guadalupe", "name:gu": "ગ્વાડેલોપ", "name:ha": "Gwadaluf", "name:he": "גוואדלופ", "name:hi": "ग्वाडेलोप", "name:hr": "Gvadalupa", "name:hu": "Guadeloupe", "name:is": "Gvadelúpeyjar", "name:it": "Guadalupa", "name:ja": "グアドループ", "name:ka": "გვადელუპე", "name:ki": "Gwadelupe", "name:km": "ហ្គោដឺឡុប", "name:kn": "ಗುಡೆಲೋಪ್", "name:ko": "과들루프", "name:ks": "گَواڑیلوپ", "name:la": "Guadalupa", "name:lg": "Gwadalupe", "name:ln": "Gwadɛlupɛ", "name:lo": "ກວດເດລູບ", "name:lt": "Gvadelupa", "name:lv": "Gvadelupa", "name:mg": "Goadelopy", "name:mk": "Гвадалупе", "name:ml": "ഗുവാഡെലോപ്", "name:mn": "Гуаделупе", "name:mr": "ग्वाडेलोउपे", "name:mt": "Gwadelupe", "name:ne": "ग्वाडेलुप", "name:or": "ଗୌଡେଲୌପେ", "name:pl": "Gwadelupa", "name:pt": "Guadalupe", "name:rn": "Gwadelupe", "name:ro": "Guadelupa", "name:ru": "Гваделупа", "name:sg": "Guadelûpu", "name:si": "ග්වෝඩලෝප්", "name:sl": "Gvadalupa", "name:sr": "Гвадалупа", "name:sv": "Guadeloupe", "name:sw": "Gwadelupe", "name:ta": "க்வாதேலோப்", "name:te": "గ్వాడేలోప్", "name:th": "กวาเดอลูป", "name:ti": "ጉዋደሉፕ", "name:to": "Kuatalupe", "name:tr": "Guadalupe", "name:uk": "Гваделупа", "name:ur": "گواڈیلوپ", "name:vi": "Guadeloupe", "name:yo": "Gadelope", "name:zh": "瓜德罗普", "name:zu": "i-Guadeloupe", "currency": "EUR", "int_name": "Guadeloupe", "name:ast": "Guadalupe", "name:chr": "ᏩᏓᎷᏇ", "name:fur": "Guadalupe", "name:gcf": "Gwadloup", "name:kab": "Gwadalupi", "name:ksh": "Juadelupp", "is_in:sea": "Caribbean", "population": "404635", "border_type": "territorial", "description": "France, départements et régions d'outre-mer, territoires régis par l’article 73 de la Constitution", "is_in:country": "France", "official_name": "Région de la Guadeloupe", "description:en": "French overseas region and departement", "is_in:continent": "North America", "official_name:cs": "Region Guadeloupe", "country_code_fips": "GP", "is_in:country_code": "FR"}}, "center_lat": 16.2, "center_lon": -61.57, "timezone": "America/Guadeloupe", "population": 390253, "wikidata_id": "Q17012", "wikipedia_id": "fr:Guadeloupe"}, "geometry": {"type": "MultiPolygon", "coordinates": [[[[-61.612, 15.838], [-61.612, 15.838], [-61.612, 15.838], [-61.612, 15.838]]], [[[-61.616, 15.841], [-61.616, 15.841], [-61.616, 15.841], [-61.616, 15.841]]], [[[-61.593, 15.851], [-61.593, 15.851], [-61.593, 15.851], [-61.593, 15.851]]], [[[-61.598, 15.836], [-61.598, 15.836], [-61.598, 15.836], [-61.598, 15.836]]], [[[-61.321, 15.951], [-61.32, 15.952], [-61.305, 15.982], [-61.305, 15.983], [-61.222, 15.889], [-61.222, 15.888], [-61.222, 15.888], [-61.225, 15.887], [-61.317, 15.881], [-61.317, 15.881], [-61.334, 15.922], [-61.335, 15.93], [-61.335, 15.93], [-61.335, 15.931], [-61.336, 15.936], [-61.337, 15.939], [-61.321, 15.951]]], [[[-61.789, 16.167], [-61.788, 16.166], [-61.789, 16.167], [-61.789, 16.167]]], [[[-61.788, 16.168], [-61.788, 16.167], [-61.79, 16.167], [-61.79, 16.167], [-61.788, 16.168]]], [[[-61.583, 15.868], [-61.583, 15.868], [-61.568, 15.879], [-61.568, 15.879], [-61.583, 15.868]]], [[[-61.628, 15.871], [-61.628, 15.871], [-61.628, 15.871], [-61.628, 15.871]]], [[[-61.568, 15.873], [-61.568, 15.873], [-61.568, 15.873], [-61.568, 15.873]]], [[[-61.615, 15.854], [-61.616, 15.854], [-61.616, 15.854], [-61.616, 15.855], [-61.616, 15.855], [-61.616, 15.855], [-61.617, 15.855], [-61.617, 15.854], [-61.617, 15.854], [-61.615, 15.854]]], [[[-61.602, 15.877], [-61.602, 15.877], [-61.602, 15.877], [-61.602, 15.877]]], [[[-61.131, 16.172], [-61.131, 16.172], [-61.131, 16.172], [-61.131, 16.172]]], [[[-61.114, 16.177], [-61.114, 16.177], [-61.114, 16.177], [-61.114, 16.177]]], [[[-61.589, 16.188], [-61.589, 16.188], [-61.589, 16.188], [-61.589, 16.188]]], [[[-61.072, 16.303], [-61.072, 16.303], [-61.072, 16.303], [-61.072, 16.303]]], [[[-61.502, 16.365], [-61.502, 16.365], [-61.502, 16.365], [-61.502, 16.365]]], [[[-61.782, 16.369], [-61.782, 16.369], [-61.782, 16.369], [-61.782, 16.369]]], [[[-61.765, 16.382], [-61.765, 16.382], [-61.765, 16.382], [-61.765, 16.382]]], [[[-61.778, 16.369], [-61.778, 16.369], [-61.778, 16.369], [-61.778, 16.369]]], [[[-61.507, 16.366], [-61.507, 16.366], [-61.507, 16.366], [-61.507, 16.366]]], [[[-61.172, 16.248], [-61.172, 16.248], [-61.172, 16.248], [-61.172, 16.248]]], [[[-61.804, 16.276], [-61.804, 16.276], [-61.785, 16.338], [-61.781, 16.34], [-61.78, 16.34], [-61.778, 16.342], [-61.769, 16.351], [-61.769, 16.351], [-61.769, 16.351], [-61.769, 16.351], [-61.769, 16.351], [-61.767, 16.352], [-61.579, 16.281], [-61.579, 16.281], [-61.572, 16.137], [-61.572, 16.138], [-61.571, 16.137], [-61.571, 16.137], [-61.564, 16.127], [-61.567, 16.125], [-61.642, 15.968], [-61.642, 15.968], [-61.642, 15.968], [-61.646, 15.967], [-61.646, 15.968], [-61.646, 15.967], [-61.645, 15.967], [-61.645, 15.967], [-61.644, 15.968], [-61.645, 15.968], [-61.644, 15.968], [-61.645, 15.969], [-61.646, 15.968], [-61.646, 15.968], [-61.647, 15.969], [-61.67, 15.961], [-61.67, 15.961], [-61.673, 15.957], [-61.732, 15.995], [-61.733, 15.995], [-61.733, 15.995], [-61.733, 15.995], [-61.733, 15.995], [-61.733, 15.995], [-61.734, 15.997], [-61.734, 15.997], [-61.734, 15.997], [-61.734, 15.997], [-61.734, 15.997], [-61.733, 15.997], [-61.761, 16.046], [-61.761, 16.046], [-61.761, 16.046], [-61.761, 16.047], [-61.762, 16.047], [-61.804, 16.276]]], [[[-61.492, 16.2], [-61.492, 16.2], [-61.492, 16.2], [-61.492, 16.2]]], [[[-61.541, 16.217], [-61.541, 16.217], [-61.541, 16.217], [-61.541, 16.217]]], [[[-61.55, 16.223], [-61.55, 16.223], [-61.55, 16.223], [-61.55, 16.223]]], [[[-61.551, 16.222], [-61.551, 16.222], [-61.551, 16.222], [-61.551, 16.222]]], [[[-61.557, 16.229], [-61.557, 16.229], [-61.557, 16.229], [-61.557, 16.229]]], [[[-61.556, 16.278], [-61.556, 16.278], [-61.556, 16.278], [-61.556, 16.278]]], [[[-61.549, 16.278], [-61.549, 16.278], [-61.549, 16.278], [-61.549, 16.278]]], [[[-61.555, 16.224], [-61.555, 16.224], [-61.555, 16.224], [-61.555, 16.224]]], [[[-61.558, 16.224], [-61.558, 16.224], [-61.558, 16.224], [-61.558, 16.224]]], [[[-61.597, 16.343], [-61.597, 16.343], [-61.597, 16.343], [-61.597, 16.343]]], [[[-61.525, 16.347], [-61.525, 16.347], [-61.525, 16.347], [-61.525, 16.347]]], [[[-61.524, 16.349], [-61.524, 16.349], [-61.524, 16.349], [-61.524, 16.349]]], [[[-61.525, 16.35], [-61.525, 16.35], [-61.525, 16.35], [-61.525, 16.35]]], [[[-61.53, 16.35], [-61.53, 16.35], [-61.53, 16.35], [-61.53, 16.35]]], [[[-61.55, 16.278], [-61.55, 16.278], [-61.55, 16.278], [-61.55, 16.278]]], [[[-61.551, 16.28], [-61.551, 16.28], [-61.551, 16.28], [-61.551, 16.28]]], [[[-61.552, 16.282], [-61.552, 16.282], [-61.552, 16.282], [-61.552, 16.282]]], [[[-61.569, 16.285], [-61.569, 16.285], [-61.569, 16.285], [-61.569, 16.285]]], [[[-61.552, 16.284], [-61.552, 16.284], [-61.552, 16.284], [-61.552, 16.284]]], [[[-61.553, 16.284], [-61.553, 16.284], [-61.553, 16.284], [-61.553, 16.284]]], [[[-61.543, 16.292], [-61.543, 16.292], [-61.543, 16.292], [-61.543, 16.292]]], [[[-61.544, 16.295], [-61.544, 16.295], [-61.544, 16.295], [-61.544, 16.295]]], [[[-61.551, 16.285], [-61.551, 16.285], [-61.551, 16.285], [-61.551, 16.285]]], [[[-61.555, 16.287], [-61.555, 16.287], [-61.555, 16.287], [-61.555, 16.287]]], [[[-61.552, 16.285], [-61.552, 16.285], [-61.552, 16.285], [-61.552, 16.285]]], [[[-61.556, 16.287], [-61.556, 16.287], [-61.556, 16.287], [-61.556, 16.287]]], [[[-61.551, 16.289], [-61.551, 16.289], [-61.551, 16.289], [-61.551, 16.289]]], [[[-61.495, 16.378], [-61.496, 16.378], [-61.519, 16.47], [-61.512, 16.472], [-61.405, 16.396], [-61.405, 16.392], [-61.341, 16.332], [-61.34, 16.333], [-61.34, 16.333], [-61.34, 16.333], [-61.34, 16.333], [-61.338, 16.333], [-61.297, 16.325], [-61.298, 16.324], [-61.298, 16.324], [-61.298, 16.323], [-61.297, 16.323], [-61.229, 16.253], [-61.23, 16.253], [-61.23, 16.253], [-61.23, 16.253], [-61.23, 16.253], [-61.23, 16.253], [-61.23, 16.253], [-61.23, 16.253], [-61.263, 16.252], [-61.264, 16.252], [-61.264, 16.252], [-61.264, 16.252], [-61.264, 16.252], [-61.264, 16.251], [-61.264, 16.251], [-61.264, 16.251], [-61.265, 16.251], [-61.267, 16.253], [-61.267, 16.252], [-61.267, 16.253], [-61.269, 16.252], [-61.268, 16.252], [-61.267, 16.251], [-61.266, 16.252], [-61.265, 16.251], [-61.265, 16.251], [-61.271, 16.25], [-61.271, 16.25], [-61.272, 16.25], [-61.273, 16.25], [-61.343, 16.24], [-61.344, 16.239], [-61.344, 16.239], [-61.349, 16.236], [-61.355, 16.235], [-61.456, 16.201], [-61.455, 16.201], [-61.456, 16.201], [-61.456, 16.202], [-61.457, 16.202], [-61.457, 16.202], [-61.457, 16.202], [-61.457, 16.201], [-61.457, 16.201], [-61.457, 16.201], [-61.523, 16.214], [-61.524, 16.214], [-61.524, 16.214], [-61.524, 16.214], [-61.524, 16.214], [-61.524, 16.214], [-61.531, 16.219], [-61.533, 16.221], [-61.533, 16.222], [-61.528, 16.223], [-61.529, 16.223], [-61.529, 16.223], [-61.529, 16.223], [-61.529, 16.222], [-61.529, 16.222], [-61.53, 16.223], [-61.53, 16.223], [-61.53, 16.223], [-61.531, 16.224], [-61.531, 16.224], [-61.531, 16.224], [-61.531, 16.224], [-61.531, 16.224], [-61.531, 16.224], [-61.532, 16.224], [-61.532, 16.224], [-61.532, 16.225], [-61.532, 16.225], [-61.532, 16.225], [-61.532, 16.225], [-61.533, 16.225], [-61.533, 16.226], [-61.533, 16.226], [-61.533, 16.226], [-61.533, 16.226], [-61.532, 16.226], [-61.532, 16.226], [-61.532, 16.226], [-61.532, 16.226], [-61.532, 16.226], [-61.532, 16.226], [-61.531, 16.226], [-61.531, 16.227], [-61.532, 16.227], [-61.532, 16.229], [-61.532, 16.229], [-61.542, 16.24], [-61.542, 16.241], [-61.542, 16.241], [-61.542, 16.24], [-61.542, 16.241], [-61.542, 16.241], [-61.495, 16.378]]]]}}