{"type": "Feature", "properties": {"name": "Lebanon", "iso1": "LB", "admin_level": 2, "osm_id": 184843, "countrylevel_id": "iso1:LB", "osm_data": {"localname": "لبنان", "official_name": "الجمهورية اللبنانية", "alltags": {"flag": "http://upload.wikimedia.org/wikipedia/commons/5/59/Flag_of_Lebanon.svg", "name:af": "Libanon", "name:am": "ሊባኖስ", "name:an": "Liban", "name:ar": "لبنان", "name:az": "Livan", "name:ba": "Ливан", "name:be": "Ліван", "name:bg": "Ливан", "name:bm": "Lubenan", "name:bn": "লেবানন", "name:bo": "ལེ་པ་ནོན།", "name:br": "Liban", "name:bs": "Liban", "name:ca": "Líban", "name:ce": "Ливан", "name:cs": "Libanon", "name:cv": "Ливан", "name:cy": "Libanus", "name:da": "Libanon", "name:dv": "ލުބުނާން", "name:dz": "ལེ་བཱ་ནཱོན་", "name:el": "Λίβανος", "name:en": "Lebanon", "name:eo": "Libano", "name:es": "Líbano", "name:et": "Liibanon", "name:eu": "Libano", "name:fa": "لبنان", "name:fi": "Libanon", "name:fo": "Libanon", "name:fr": "Liban", "name:fy": "Libanon", "name:ga": "An Liobáin", "name:gd": "Leabanon", "name:gl": "Líbano", "name:gn": "Lívano", "name:gu": "લેબેનાન", "name:gv": "Yn Livaan", "name:he": "לבנון", "name:hi": "लेबनान", "name:hr": "Libanon", "name:ht": "Liban", "name:hu": "Libanon", "name:hy": "Լիբանան", "name:ia": "Libano", "name:id": "Lebanon", "name:ie": "Libano", "name:io": "Libano", "name:is": "Líbanon", "name:it": "Libano", "name:ja": "レバノン", "name:jv": "Libanon", "name:ka": "ლიბანი", "name:kk": "Ливан", "name:kl": "Lebanon", "name:km": "លីបង់", "name:ko": "레바논", "name:ku": "Libnan", "name:kv": "Ливан", "name:kw": "Lebnon", "name:ky": "Ливан", "name:la": "Libanus", "name:lb": "Libanon", "name:li": "Libanon", "name:lt": "Libanas", "name:lv": "Libāna", "name:mi": "Repanona", "name:mk": "Либан", "name:ml": "ലെബനാൻ", "name:mn": "Ливан", "name:mr": "लेबेनॉन", "name:ms": "Lubnan", "name:mt": "Libanu", "name:my": "လက်ဘနွန်နိုင်ငံ", "name:na": "Ribanon", "name:nl": "Libanon", "name:nn": "Libanon", "name:no": "Libanon", "name:nv": "Łíbanoo", "name:oc": "Liban", "name:or": "ଲେବନାନ", "name:os": "Ливан", "name:pa": "ਲਿਬਨਾਨ", "name:pl": "Liban", "name:ps": "لېبنان", "name:pt": "Líbano", "name:qu": "Libanu", "name:ro": "Liban", "name:ru": "Ливан", "name:rw": "Libani", "name:sa": "लेबनान", "name:se": "Libanon", "name:sh": "Libanon", "name:sk": "Libanon", "name:sl": "Libanon", "name:so": "Lubnaan", "name:sq": "Libani", "name:sr": "Либан", "name:ss": "ILibhanoni", "name:su": "Libanon", "name:sv": "Libanon", "name:sw": "Lebanoni", "name:ta": "லெபனான்", "name:te": "లెబనాన్", "name:tg": "Лубнон", "name:th": "ประเทศเลบานอน", "name:tk": "Liwan", "name:tl": "Libano", "name:tr": "Lübnan", "name:tt": "Ливан", "name:ug": "لىۋان", "name:uk": "Ліван", "name:ur": "لبنان", "name:uz": "Livan", "name:vi": "Liban", "name:vo": "Libanän", "name:wo": "Libaa", "name:yi": "לבנון", "name:yo": "Lẹ́bánọ́nì", "name:zh": "黎巴嫩", "int_name": "Lebanon", "name:ace": "Lebanon", "name:als": "Libanon", "name:ang": "Libanus", "name:arc": "ܠܒܢܢ", "name:arz": "لبنان", "name:ast": "El Líbanu", "name:bar": "Libanon", "name:bcl": "Lebanon", "name:bpy": "লেবানন", "name:bug": "Lebanon", "name:bxr": "Ливан", "name:cdo": "Lé-bă-nâung", "name:ceb": "Libano", "name:ckb": "لوبنان", "name:crh": "Lübnan", "name:csb": "Liban", "name:diq": "Lubnan", "name:dsb": "Libanon", "name:ext": "Líbanu", "name:frp": "Liban", "name:gag": "Livan", "name:hak": "Lì-pâ-nun", "name:haw": "Lepanona", "name:hif": "Lebanon", "name:hsb": "Libanon", "name:ilo": "Lebanon", "name:jbo": "lu'orgu'e", "name:kab": "Lubnan", "name:kbd": "Ливан", "name:lad": "Levanon", "name:lez": "Ливан", "name:lij": "Libano", "name:lmo": "Liban", "name:lrc": "لوبنان", "name:mdf": "Ливан", "name:mhr": "Ливан", "name:nah": "Libano", "name:nan": "Lī-pa-lùn", "name:nap": "Libbano", "name:nds": "Libanon", "name:new": "लेबानन", "name:nov": "Liban", "name:pam": "Libano", "name:pap": "Líbano", "name:pih": "Lebanon", "name:pms": "Lìban", "name:pnb": "لبنان", "name:pnt": "Λίβανος", "name:sah": "Либан", "name:scn": "Lìbbanu", "name:sco": "Lebanon", "name:szl": "Liban", "name:tet": "Líbanu", "name:tzl": "Libnun", "name:udm": "Ливан", "name:vec": "Libano", "name:war": "Libano", "name:wuu": "黎巴嫩", "name:xal": "Лебанмудин Орн", "name:yue": "黎巴嫩", "name:simple": "Lebanon", "name:bat-smg": "Lėbans", "name:fiu-vro": "Liibanon", "name:ku-Arab": "لبنان", "name:zh-Hans": "黎巴嫩", "name:zh-Hant": "黎巴嫩", "official_name": "الجمهورية اللبنانية", "name:be-tarask": "Лібан", "default_language": "ar", "official_name:ar": "الجمهورية اللبنانية", "official_name:cs": "Libanonská republika", "official_name:de": "Libanesische Republik", "official_name:en": "Lebanese Republic", "official_name:es": "República Libanesa", "official_name:fa": "جمهوری لبنان", "official_name:ru": "Ливанская Республика", "official_name:ur": "لبنانی جمہوریہ"}}, "center_lat": 33.91, "center_lon": 35.88, "timezone": "Asia/Beirut", "population": 6100075, "wikidata_id": "Q822", "wikipedia_id": "ar:لبنان"}, "geometry": {"type": "MultiPolygon", "coordinates": [[[[35.47, 33.89], [35.47, 33.89], [35.47, 33.89], [35.47, 33.89]]], [[[35.368, 33.571], [35.368, 33.571], [35.368, 33.571], [35.368, 33.571]]], [[[35.475, 33.845], [35.475, 33.845], [35.475, 33.845], [35.475, 33.845]]], [[[35.47, 33.89], [35.47, 33.89], [35.47, 33.89], [35.47, 33.89]]], [[[35.641, 34.123], [35.641, 34.123], [35.641, 34.123], [35.641, 34.123]]], [[[35.799, 34.463], [35.799, 34.463], [35.799, 34.463], [35.799, 34.463]]], [[[35.813, 34.458], [35.813, 34.458], [35.813, 34.458], [35.813, 34.458]]], [[[35.805, 34.464], [35.805, 34.464], [35.805, 34.464], [35.805, 34.464]]], [[[35.811, 34.457], [35.811, 34.457], [35.811, 34.457], [35.811, 34.457]]], [[[35.811, 34.457], [35.811, 34.457], [35.811, 34.457], [35.811, 34.457]]], [[[35.806, 34.457], [35.806, 34.457], [35.806, 34.457], [35.806, 34.457]]], [[[35.976, 34.634], [36.41, 34.612], [36.625, 34.204], [36.07, 33.827], [35.773, 33.336], [35.504, 33.09], [35.104, 33.094], [35.976, 34.634]]], [[[35.804, 34.466], [35.804, 34.466], [35.804, 34.466], [35.804, 34.466]]], [[[35.804, 34.467], [35.804, 34.467], [35.804, 34.467], [35.804, 34.467]]], [[[35.803, 34.469], [35.803, 34.469], [35.803, 34.469], [35.803, 34.469]]], [[[35.8, 34.472], [35.8, 34.472], [35.8, 34.472], [35.8, 34.472]]], [[[35.796, 34.474], [35.796, 34.474], [35.796, 34.474], [35.796, 34.474]]], [[[35.779, 34.485], [35.779, 34.485], [35.779, 34.485], [35.779, 34.485]]], [[[35.776, 34.492], [35.776, 34.492], [35.776, 34.492], [35.776, 34.492]]], [[[35.761, 34.499], [35.761, 34.499], [35.761, 34.499], [35.761, 34.499]]], [[[35.764, 34.497], [35.764, 34.497], [35.764, 34.497], [35.764, 34.497]]], [[[35.763, 34.497], [35.763, 34.497], [35.763, 34.497], [35.763, 34.497]]]]}}