{"type": "Feature", "properties": {"name": "Saint Lucia", "iso1": "LC", "admin_level": 2, "osm_id": 550728, "countrylevel_id": "iso1:LC", "osm_data": {"localname": "Saint Lucia", "official_name": "", "alltags": {"flag": "http://upload.wikimedia.org/wikipedia/commons/9/9f/Flag_of_Saint_Lucia.svg", "route": "power", "name:br": "Saint Lucia", "name:cs": "Svatá Lucie", "name:el": "Αγία Λουκία", "name:en": "Saint Lucia", "name:eo": "Sankta Lucio", "name:es": "Santa Lucía", "name:fr": "Sainte-Lucie", "name:hr": "Sveta Lucija", "name:lt": "Sent Lusija", "name:nl": "Saint Lucia", "name:ru": "Сент-Люсия", "name:sk": "Svätá Lucia", "name:ta": "செயிண்ட் லூசியா", "name:uk": "Сент-Люсія", "name:vo": "Sanlusiyän", "driving_side": "left", "is_in:continent": "North America", "default_language": "en"}}, "center_lat": 13.93, "center_lon": -60.91, "timezone": "America/St_Lucia", "population": 178844, "wikidata_id": "Q760", "wikipedia_id": "en:Saint Lucia"}, "geometry": {"type": "MultiPolygon", "coordinates": [[[[-60.883, 13.908], [-60.883, 13.908], [-60.883, 13.908], [-60.883, 13.908]]], [[[-60.882, 13.928], [-60.882, 13.928], [-60.882, 13.928], [-60.882, 13.928]]], [[[-60.878, 13.932], [-60.878, 13.932], [-60.878, 13.932], [-60.878, 13.932]]], [[[-60.894, 13.81], [-60.894, 13.81], [-60.894, 13.81], [-60.894, 13.81]]], [[[-60.89, 13.875], [-60.89, 13.875], [-60.89, 13.875], [-60.89, 13.875]]], [[[-60.884, 13.879], [-60.884, 13.879], [-60.884, 13.879], [-60.884, 13.879]]], [[[-60.884, 13.881], [-60.884, 13.881], [-60.884, 13.881], [-60.884, 13.881]]], [[[-60.93, 13.725], [-60.93, 13.725], [-60.93, 13.725], [-60.93, 13.725]]], [[[-60.93, 13.729], [-60.93, 13.729], [-60.93, 13.729], [-60.93, 13.729]]], [[[-60.903, 13.773], [-60.903, 13.773], [-60.903, 13.773], [-60.903, 13.773]]], [[[-60.894, 13.808], [-60.894, 13.808], [-60.894, 13.808], [-60.894, 13.808]]], [[[-61, 14.017], [-61, 14.017], [-61, 14.017], [-61, 14.017]]], [[[-60.878, 13.935], [-60.878, 13.935], [-60.878, 13.935], [-60.878, 13.935]]], [[[-60.876, 13.938], [-60.876, 13.938], [-60.876, 13.938], [-60.876, 13.938]]], [[[-60.875, 13.953], [-60.875, 13.953], [-60.875, 13.953], [-60.875, 13.953]]], [[[-60.875, 13.959], [-60.875, 13.959], [-60.875, 13.959], [-60.875, 13.959]]], [[[-61.007, 14.016], [-61.007, 14.016], [-61.007, 14.016], [-61.007, 14.016]]], [[[-60.981, 14.033], [-60.981, 14.033], [-60.981, 14.033], [-60.981, 14.033]]], [[[-60.909, 14.071], [-60.909, 14.071], [-60.909, 14.071], [-60.909, 14.071]]], [[[-60.918, 14.081], [-60.918, 14.081], [-60.918, 14.081], [-60.918, 14.081]]], [[[-60.962, 14.098], [-60.962, 14.098], [-60.962, 14.098], [-60.962, 14.098]]], [[[-60.962, 14.099], [-60.962, 14.099], [-60.962, 14.099], [-60.962, 14.099]]]]}}