{"type": "Feature", "properties": {"name": "Thailand", "iso1": "TH", "admin_level": 2, "osm_id": 2067731, "countrylevel_id": "iso1:TH", "osm_data": {"localname": "ประเทศไทย", "official_name": "ราชอาณาจักรไทย", "alltags": {"flag": "http://upload.wikimedia.org/wikipedia/commons/a/a9/Flag_of_Thailand.svg", "name:af": "Thailand", "name:am": "ታይላንድ", "name:an": "Tailandia", "name:ar": "تايلاند", "name:az": "Tailand", "name:ba": "Таиланд", "name:be": "Тайланд", "name:bg": "Тайланд", "name:bn": "থাইল্যান্ড", "name:bo": "ཐའི་ལེན།", "name:br": "Thailand", "name:bs": "Tajland", "name:ca": "Tailàndia", "name:ce": "Таиланд", "name:cs": "Thajsko", "name:cv": "Таиланд", "name:cy": "Gwlad Thai", "name:da": "Thailand", "name:dv": "ސިޔާމު", "name:dz": "ཐཱའི་ལེནཌ", "name:el": "Ταϊλάνδη", "name:en": "Thailand", "name:eo": "Tajlando", "name:es": "Tailandia", "name:et": "Tai", "name:eu": "Thailandia", "name:fa": "تایلند", "name:fi": "Thaimaa", "name:fo": "Teiland", "name:fr": "Thaïlande", "name:fy": "Tailân", "name:ga": "An Téalainn", "name:gd": "Dùthaich nan Tàidh", "name:gl": "Tailandia", "name:gn": "Tailandia", "name:gu": "થાઇલેન્ડ", "name:gv": "Yn Çheer Thai", "name:he": "תאילנד", "name:hi": "थाईलैण्ड", "name:hr": "Tajland", "name:ht": "Tayilann", "name:hu": "Thaiföld", "name:hy": "Թաիլանդ", "name:ia": "Thailanda", "name:id": "Thailand", "name:ie": "Thailand", "name:io": "Tailando", "name:is": "Taíland", "name:it": "Thailandia", "name:ja": "タイ王国", "name:jv": "Thailand", "name:ka": "ტაილანდი", "name:ki": "Thailand", "name:kk": "Тайланд", "name:kl": "Thailandi", "name:km": "ថៃ", "name:kn": "ಥೈಲ್ಯಾಂಡ್", "name:ko": "타이", "name:ku": "Taylenda", "name:kv": "Таиланд", "name:kw": "Pow Tay", "name:la": "Thailandia", "name:lb": "Thailand", "name:li": "Thailand", "name:lo": "ປະເທດໄທ", "name:lt": "Tailandas", "name:lv": "Taizeme", "name:mg": "Tailandy", "name:mi": "Tairana", "name:mk": "Тајланд", "name:ml": "തായ്‌ലാന്റ്", "name:mn": "Тайланд", "name:mr": "थायलंड", "name:ms": "Thailand", "name:my": "ထိုင်းနိုင်ငံ", "name:na": "Thailand", "name:ne": "थाइल्याण्ड", "name:nl": "Thailand", "name:nn": "Thailand", "name:no": "Thailand", "name:nv": "Tʼáí Bikéyah", "name:oc": "Tailàndia", "name:or": "ଥାଇଲାଣ୍ଡ", "name:os": "Таиланд", "name:pa": "ਥਾਈਲੈਂਡ", "name:pl": "Tajlandia", "name:ps": "تايلنډ", "name:pt": "Tailândia", "name:qu": "Thaysuyu", "name:ro": "Thailanda", "name:ru": "Таиланд", "name:rw": "Tayilande", "name:sa": "श्यामदेश", "name:se": "Thaieana", "name:sg": "Tailânde", "name:sh": "Tajland", "name:sk": "Thajsko", "name:sl": "Tajska", "name:so": "Tayland", "name:sq": "Tajlanda", "name:sr": "Тајланд", "name:ss": "IThayilandi", "name:su": "Thailand", "name:sv": "Thailand", "name:sw": "Uthai", "name:ta": "தாய்லாந்து", "name:te": "థాయిలాండ్", "name:tg": "Таиланд", "name:th": "ประเทศไทย", "name:tk": "Tailand", "name:tl": "Taylandiya", "name:tr": "Tayland", "name:tt": "Таиланд", "name:tw": "Thailand", "name:ug": "تايلاند", "name:uk": "Таїланд", "name:ur": "تھائی لینڈ", "name:uz": "Tailand", "name:vi": "Thái Lan", "name:vo": "Tayän", "name:wo": "Taaylaand", "name:yi": "טיילאנד", "name:yo": "Tháílàndì", "name:za": "Daigoz", "name:zh": "泰国", "name:ace": "Muang Thai", "name:als": "Thailand", "name:ang": "Thailand", "name:arz": "تايلاندا", "name:ast": "Tailandia", "name:bar": "Thailand", "name:bcl": "Tailandya", "name:bpy": "টাইলান্ডিয়া", "name:bug": "Thailand", "name:bxr": "Таиланд", "name:ceb": "Tailandya", "name:chr": "ᏔᏱᎦᏙᎯ", "name:ckb": "تایلەند", "name:crh": "Tayland", "name:csb": "Tajlandiô", "name:diq": "Taylanda", "name:dsb": "Thailandska", "name:ext": "Tailándia", "name:frp": "Tayilande", "name:fur": "Tailandie", "name:gag": "Tailand", "name:gan": "泰國", "name:hak": "Thai-koet", "name:haw": "Tailani", "name:hif": "Thailand", "name:hsb": "Thailandska", "name:ilo": "Tailandia", "name:jbo": "tais", "name:kbd": "Тайлэнд", "name:lez": "Таиланд", "name:lij": "Thailandia", "name:lmo": "Thailandia", "name:lzh": "泰國", "name:mhr": "Таиланд", "name:min": "Thailand", "name:nah": "Taitlālpan", "name:nan": "Thài-kok", "name:nds": "Thailand", "name:new": "थाइल्याण्ड", "name:nov": "Tailande", "name:pam": "Tailandya", "name:pap": "Thailand", "name:pih": "Tailan", "name:pms": "Thailandia", "name:pnb": "تھائی لینڈ", "name:rue": "Таїланд", "name:sah": "Тайлаан", "name:scn": "Thailandia", "name:sco": "Thailand", "name:srn": "Taikondre", "name:stq": "Thailound", "name:szl": "Tajlandyjo", "name:tpi": "Tailan", "name:tzl": "Taiphäts", "name:udm": "Таиланд", "name:vec": "Thailandia", "name:war": "Taylandya", "name:wuu": "泰国", "name:xal": "Тагилмудин Нутг", "name:yue": "泰國", "name:zea": "Thailand", "alt_name:eo": "Tajujo", "alt_name:ko": "태국", "name:nds-nl": "Thailaand", "driving_side": "left", "name:bat-smg": "Tailands", "name:fiu-vro": "Tai", "name:map-bms": "Thailand", "name:roa-tara": "Thailandie", "official_name": "ราชอาณาจักรไทย", "name:be-tarask": "Тайлянд", "is_in:continent": "Asia", "default_language": "th", "official_name:cs": "Thajské království", "official_name:en": "Kingdom of Thailand", "official_name:eo": "Tajlanda Reĝlando", "official_name:ko": "타이왕국", "official_name:pl": "Królestwo Tajlandii"}}, "center_lat": 15.12, "center_lon": 101.01, "timezone": "Asia/Bangkok", "population": 66188503, "wikidata_id": "Q869", "wikipedia_id": "en:Thailand"}, "geometry": {"type": "MultiPolygon", "coordinates": [[[[100.821, 13.025], [100.821, 13.025], [100.821, 13.025], [100.821, 13.025]]], [[[100.104, 13.059], [100.104, 13.059], [100.104, 13.059], [100.104, 13.059]]], [[[100.108, 13.061], [100.108, 13.061], [100.108, 13.061], [100.108, 13.061]]], [[[100.795, 12.945], [100.795, 12.945], [100.795, 12.945], [100.795, 12.945]]], [[[100.657, 12.957], [100.657, 12.957], [100.657, 12.957], [100.657, 12.957]]], [[[100.649, 12.963], [100.649, 12.963], [100.649, 12.963], [100.649, 12.963]]], [[[100.803, 13.11], [100.803, 13.11], [100.803, 13.11], [100.803, 13.11]]], [[[100.806, 13.118], [100.806, 13.118], [100.806, 13.118], [100.806, 13.118]]], [[[100.809, 13.124], [100.809, 13.124], [100.809, 13.124], [100.809, 13.124]]], [[[100.92, 13.175], [100.92, 13.175], [100.92, 13.175], [100.92, 13.175]]], [[[100.833, 13.166], [100.833, 13.166], [100.833, 13.166], [100.833, 13.166]]], [[[100.823, 13.171], [100.823, 13.171], [100.823, 13.171], [100.823, 13.171]]], [[[100.834, 13.153], [100.834, 13.153], [100.834, 13.153], [100.834, 13.153]]], [[[100.81, 13.125], [100.81, 13.125], [100.81, 13.125], [100.81, 13.125]]], [[[100.83, 13.175], [100.83, 13.175], [100.83, 13.175], [100.83, 13.175]]], [[[100.01, 12.226], [100.01, 12.226], [100.01, 12.226], [100.01, 12.226]]], [[[100.01, 12.226], [100.01, 12.226], [100.01, 12.226], [100.01, 12.226]]], [[[100.005, 12.233], [100.005, 12.233], [100.005, 12.233], [100.005, 12.233]]], [[[100.006, 12.236], [100.006, 12.236], [100.006, 12.236], [100.006, 12.236]]], [[[102.251, 12.29], [102.251, 12.29], [102.251, 12.29], [102.251, 12.29]]], [[[102.132, 12.393], [102.132, 12.393], [102.132, 12.393], [102.132, 12.393]]], [[[102.239, 12.286], [102.239, 12.286], [102.239, 12.286], [102.239, 12.286]]], [[[102.108, 12.422], [102.108, 12.422], [102.108, 12.422], [102.108, 12.422]]], [[[102.022, 12.461], [102.022, 12.461], [102.022, 12.461], [102.022, 12.461]]], [[[102.066, 12.466], [102.066, 12.466], [102.066, 12.466], [102.066, 12.466]]], [[[99.997, 12.482], [99.997, 12.482], [99.997, 12.482], [99.997, 12.482]]], [[[101.443, 12.506], [101.443, 12.506], [101.443, 12.506], [101.443, 12.506]]], [[[101.949, 12.509], [101.949, 12.509], [101.949, 12.509], [101.949, 12.509]]], [[[99.996, 12.469], [99.996, 12.469], [99.996, 12.469], [99.996, 12.469]]], [[[99.998, 12.469], [99.998, 12.469], [99.998, 12.469], [99.998, 12.469]]], [[[99.982, 12.512], [99.982, 12.512], [99.982, 12.512], [99.982, 12.512]]], [[[101.568, 12.559], [101.568, 12.559], [101.568, 12.559], [101.568, 12.559]]], [[[100.971, 12.548], [100.971, 12.548], [100.971, 12.548], [100.971, 12.548]]], [[[101.701, 12.567], [101.701, 12.567], [101.701, 12.567], [101.701, 12.567]]], [[[100.934, 12.573], [100.934, 12.573], [100.934, 12.573], [100.934, 12.573]]], [[[101.51, 12.582], [101.51, 12.582], [101.51, 12.582], [101.51, 12.582]]], [[[101.457, 12.531], [101.457, 12.531], [101.457, 12.531], [101.457, 12.531]]], [[[100.959, 12.531], [100.959, 12.531], [100.959, 12.531], [100.959, 12.531]]], [[[100.96, 12.533], [100.96, 12.533], [100.96, 12.533], [100.96, 12.533]]], [[[100.958, 12.536], [100.958, 12.536], [100.958, 12.536], [100.958, 12.536]]], [[[101.446, 12.549], [101.446, 12.549], [101.446, 12.549], [101.446, 12.549]]], [[[101.442, 12.513], [101.442, 12.513], [101.442, 12.513], [101.442, 12.513]]], [[[100.972, 12.516], [100.972, 12.516], [100.972, 12.516], [100.972, 12.516]]], [[[100.957, 12.509], [100.957, 12.509], [100.957, 12.509], [100.957, 12.509]]], [[[101.692, 12.601], [101.692, 12.601], [101.692, 12.601], [101.692, 12.601]]], [[[101.51, 12.594], [101.51, 12.594], [101.51, 12.594], [101.51, 12.594]]], [[[101.509, 12.595], [101.509, 12.595], [101.509, 12.595], [101.509, 12.595]]], [[[100.918, 12.6], [100.918, 12.6], [100.918, 12.6], [100.918, 12.6]]], [[[101.516, 12.604], [101.516, 12.604], [101.516, 12.604], [101.516, 12.604]]], [[[100.876, 12.615], [100.876, 12.615], [100.876, 12.615], [100.876, 12.615]]], [[[101.687, 12.613], [101.687, 12.613], [101.687, 12.613], [101.687, 12.613]]], [[[100.884, 12.617], [100.884, 12.617], [100.884, 12.617], [100.884, 12.617]]], [[[100.918, 12.617], [100.918, 12.617], [100.918, 12.617], [100.918, 12.617]]], [[[100.902, 12.623], [100.902, 12.623], [100.902, 12.623], [100.902, 12.623]]], [[[100.868, 12.628], [100.868, 12.628], [100.868, 12.628], [100.868, 12.628]]], [[[100.865, 12.642], [100.865, 12.642], [100.865, 12.642], [100.865, 12.642]]], [[[101.17, 12.648], [101.17, 12.648], [101.17, 12.648], [101.17, 12.648]]], [[[100.858, 12.664], [100.858, 12.664], [100.858, 12.664], [100.858, 12.664]]], [[[100.777, 12.674], [100.777, 12.674], [100.777, 12.674], [100.777, 12.674]]], [[[100.798, 12.73], [100.798, 12.73], [100.798, 12.73], [100.798, 12.73]]], [[[100.839, 12.761], [100.839, 12.761], [100.839, 12.761], [100.839, 12.761]]], [[[100.823, 12.673], [100.823, 12.673], [100.823, 12.673], [100.823, 12.673]]], [[[100.823, 12.679], [100.823, 12.679], [100.823, 12.679], [100.823, 12.679]]], [[[100.797, 12.796], [100.797, 12.796], [100.797, 12.796], [100.797, 12.796]]], [[[100.702, 12.792], [100.702, 12.792], [100.702, 12.792], [100.702, 12.792]]], [[[100.673, 12.883], [100.673, 12.883], [100.673, 12.883], [100.673, 12.883]]], [[[100.677, 12.91], [100.677, 12.91], [100.677, 12.91], [100.677, 12.91]]], [[[100.677, 12.911], [100.677, 12.911], [100.677, 12.911], [100.677, 12.911]]], [[[100.805, 12.931], [100.805, 12.931], [100.805, 12.931], [100.805, 12.931]]], [[[100.678, 12.906], [100.678, 12.906], [100.678, 12.906], [100.678, 12.906]]], [[[100.768, 12.913], [100.768, 12.913], [100.768, 12.913], [100.768, 12.913]]], [[[100.878, 12.645], [100.878, 12.645], [100.878, 12.645], [100.878, 12.645]]], [[[100.897, 12.647], [100.897, 12.647], [100.897, 12.647], [100.897, 12.647]]], [[[100.953, 12.55], [100.953, 12.55], [100.953, 12.55], [100.953, 12.55]]], [[[100.96, 12.582], [100.96, 12.582], [100.96, 12.582], [100.96, 12.582]]], [[[100.943, 12.587], [100.943, 12.587], [100.943, 12.587], [100.943, 12.587]]], [[[100.671, 12.947], [100.671, 12.947], [100.671, 12.947], [100.671, 12.947]]], [[[98.515, 9.926], [98.515, 9.926], [98.515, 9.926], [98.515, 9.926]]], [[[98.485, 9.935], [98.485, 9.935], [98.485, 9.935], [98.485, 9.935]]], [[[98.509, 9.933], [98.509, 9.933], [98.509, 9.933], [98.509, 9.933]]], [[[98.589, 9.934], [98.589, 9.934], [98.589, 9.934], [98.589, 9.934]]], [[[99.185, 10.049], [99.185, 10.049], [99.185, 10.049], [99.185, 10.049]]], [[[99.847, 10.074], [99.847, 10.074], [99.847, 10.074], [99.847, 10.074]]], [[[99.814, 10.116], [99.814, 10.116], [99.814, 10.116], [99.814, 10.116]]], [[[99.165, 10.131], [99.165, 10.131], [99.165, 10.131], [99.165, 10.131]]], [[[99.162, 10.132], [99.162, 10.132], [99.162, 10.132], [99.162, 10.132]]], [[[99.216, 10.118], [99.216, 10.118], [99.216, 10.118], [99.216, 10.118]]], [[[99.814, 10.118], [99.814, 10.118], [99.814, 10.118], [99.814, 10.118]]], [[[99.812, 10.125], [99.812, 10.125], [99.812, 10.125], [99.812, 10.125]]], [[[99.845, 10.062], [99.845, 10.062], [99.845, 10.062], [99.845, 10.062]]], [[[99.185, 10.072], [99.185, 10.072], [99.185, 10.072], [99.185, 10.072]]], [[[99.838, 10.126], [99.838, 10.126], [99.838, 10.126], [99.838, 10.126]]], [[[99.179, 10.145], [99.179, 10.145], [99.179, 10.145], [99.179, 10.145]]], [[[99.204, 10.151], [99.204, 10.151], [99.204, 10.151], [99.204, 10.151]]], [[[99.218, 10.157], [99.218, 10.157], [99.218, 10.157], [99.218, 10.157]]], [[[99.222, 10.196], [99.222, 10.196], [99.222, 10.196], [99.222, 10.196]]], [[[99.249, 10.202], [99.249, 10.202], [99.249, 10.202], [99.249, 10.202]]], [[[99.249, 10.207], [99.249, 10.207], [99.249, 10.207], [99.249, 10.207]]], [[[99.25, 10.247], [99.25, 10.247], [99.25, 10.247], [99.25, 10.247]]], [[[99.225, 10.25], [99.225, 10.25], [99.225, 10.25], [99.225, 10.25]]], [[[99.257, 10.249], [99.257, 10.249], [99.257, 10.249], [99.257, 10.249]]], [[[99.226, 10.253], [99.226, 10.253], [99.226, 10.253], [99.226, 10.253]]], [[[99.234, 10.273], [99.234, 10.273], [99.234, 10.273], [99.234, 10.273]]], [[[99.242, 10.291], [99.242, 10.291], [99.242, 10.291], [99.242, 10.291]]], [[[99.246, 10.297], [99.246, 10.297], [99.246, 10.297], [99.246, 10.297]]], [[[99.3, 10.321], [99.3, 10.321], [99.3, 10.321], [99.3, 10.321]]], [[[99.297, 10.351], [99.297, 10.351], [99.297, 10.351], [99.297, 10.351]]], [[[99.283, 10.326], [99.283, 10.326], [99.283, 10.326], [99.283, 10.326]]], [[[99.311, 10.365], [99.311, 10.365], [99.311, 10.365], [99.311, 10.365]]], [[[99.324, 10.379], [99.324, 10.379], [99.324, 10.379], [99.324, 10.379]]], [[[99.328, 10.381], [99.328, 10.381], [99.328, 10.381], [99.328, 10.381]]], [[[99.341, 10.39], [99.341, 10.39], [99.341, 10.39], [99.341, 10.39]]], [[[99.317, 10.425], [99.317, 10.425], [99.317, 10.425], [99.317, 10.425]]], [[[99.297, 10.434], [99.297, 10.434], [99.297, 10.434], [99.297, 10.434]]], [[[99.254, 10.45], [99.254, 10.45], [99.254, 10.45], [99.254, 10.45]]], [[[99.293, 10.389], [99.293, 10.389], [99.293, 10.389], [99.293, 10.389]]], [[[99.364, 10.471], [99.364, 10.471], [99.364, 10.471], [99.364, 10.471]]], [[[99.418, 10.487], [99.418, 10.487], [99.418, 10.487], [99.418, 10.487]]], [[[99.422, 10.498], [99.422, 10.498], [99.422, 10.498], [99.422, 10.498]]], [[[99.38, 10.56], [99.38, 10.56], [99.38, 10.56], [99.38, 10.56]]], [[[99.408, 10.701], [99.408, 10.701], [99.408, 10.701], [99.408, 10.701]]], [[[99.541, 10.797], [99.541, 10.797], [99.541, 10.797], [99.541, 10.797]]], [[[99.492, 10.823], [99.492, 10.823], [99.492, 10.823], [99.492, 10.823]]], [[[99.498, 10.84], [99.498, 10.84], [99.498, 10.84], [99.498, 10.84]]], [[[99.487, 10.861], [99.487, 10.861], [99.487, 10.861], [99.487, 10.861]]], [[[99.49, 10.859], [99.49, 10.859], [99.49, 10.859], [99.49, 10.859]]], [[[99.49, 10.865], [99.49, 10.865], [99.49, 10.865], [99.49, 10.865]]], [[[99.546, 11.068], [99.546, 11.068], [99.546, 11.068], [99.546, 11.068]]], [[[99.561, 11.201], [99.561, 11.201], [99.561, 11.201], [99.561, 11.201]]], [[[99.58, 11.206], [99.58, 11.206], [99.58, 11.206], [99.58, 11.206]]], [[[99.605, 11.401], [99.605, 11.401], [99.605, 11.401], [99.605, 11.401]]], [[[99.774, 11.622], [99.774, 11.622], [99.774, 11.622], [99.774, 11.622]]], [[[99.773, 11.62], [99.773, 11.62], [99.773, 11.62], [99.773, 11.62]]], [[[102.524, 11.686], [102.524, 11.686], [102.524, 11.686], [102.524, 11.686]]], [[[99.788, 11.708], [99.788, 11.708], [99.788, 11.708], [99.788, 11.708]]], [[[99.792, 11.72], [99.792, 11.72], [99.792, 11.72], [99.792, 11.72]]], [[[102.521, 11.708], [102.521, 11.708], [102.521, 11.708], [102.521, 11.708]]], [[[99.809, 11.765], [99.809, 11.765], [99.809, 11.765], [99.809, 11.765]]], [[[102.389, 11.775], [102.389, 11.775], [102.389, 11.775], [102.389, 11.775]]], [[[99.815, 11.796], [99.815, 11.796], [99.815, 11.796], [99.815, 11.796]]], [[[102.389, 11.779], [102.389, 11.779], [102.389, 11.779], [102.389, 11.779]]], [[[102.394, 11.785], [102.394, 11.785], [102.394, 11.785], [102.394, 11.785]]], [[[102.396, 11.789], [102.396, 11.789], [102.396, 11.789], [102.396, 11.789]]], [[[99.817, 11.79], [99.817, 11.79], [99.817, 11.79], [99.817, 11.79]]], [[[99.815, 11.794], [99.815, 11.794], [99.815, 11.794], [99.815, 11.794]]], [[[99.822, 11.793], [99.822, 11.793], [99.822, 11.793], [99.822, 11.793]]], [[[102.396, 11.816], [102.396, 11.816], [102.396, 11.816], [102.396, 11.816]]], [[[102.397, 11.817], [102.397, 11.817], [102.397, 11.817], [102.397, 11.817]]], [[[102.403, 11.82], [102.403, 11.82], [102.403, 11.82], [102.403, 11.82]]], [[[102.384, 11.822], [102.384, 11.822], [102.384, 11.822], [102.384, 11.822]]], [[[102.528, 11.834], [102.528, 11.834], [102.528, 11.834], [102.528, 11.834]]], [[[102.446, 11.824], [102.446, 11.824], [102.446, 11.824], [102.446, 11.824]]], [[[102.462, 11.834], [102.462, 11.834], [102.462, 11.834], [102.462, 11.834]]], [[[102.364, 11.928], [102.364, 11.928], [102.364, 11.928], [102.364, 11.928]]], [[[102.473, 11.914], [102.473, 11.914], [102.473, 11.914], [102.473, 11.914]]], [[[102.45, 11.893], [102.45, 11.893], [102.45, 11.893], [102.45, 11.893]]], [[[102.411, 11.903], [102.411, 11.903], [102.411, 11.903], [102.411, 11.903]]], [[[102.409, 11.932], [102.409, 11.932], [102.409, 11.932], [102.409, 11.932]]], [[[102.408, 11.939], [102.408, 11.939], [102.408, 11.939], [102.408, 11.939]]], [[[102.451, 11.801], [102.451, 11.801], [102.451, 11.801], [102.451, 11.801]]], [[[102.376, 11.805], [102.376, 11.805], [102.376, 11.805], [102.376, 11.805]]], [[[102.452, 11.805], [102.452, 11.805], [102.452, 11.805], [102.452, 11.805]]], [[[102.378, 11.809], [102.378, 11.809], [102.378, 11.809], [102.378, 11.809]]], [[[102.376, 11.811], [102.376, 11.811], [102.376, 11.811], [102.376, 11.811]]], [[[102.388, 11.779], [102.388, 11.779], [102.388, 11.779], [102.388, 11.779]]], [[[102.456, 11.813], [102.456, 11.813], [102.456, 11.813], [102.456, 11.813]]], [[[102.491, 11.967], [102.491, 11.967], [102.491, 11.967], [102.491, 11.967]]], [[[102.422, 12.053], [102.422, 12.053], [102.422, 12.053], [102.422, 12.053]]], [[[102.28, 12.039], [102.28, 12.039], [102.28, 12.039], [102.28, 12.039]]], [[[102.424, 12.051], [102.424, 12.051], [102.424, 12.051], [102.424, 12.051]]], [[[102.248, 12.139], [102.248, 12.139], [102.248, 12.139], [102.248, 12.139]]], [[[102.251, 12.16], [102.251, 12.16], [102.251, 12.16], [102.251, 12.16]]], [[[102.338, 12.187], [102.338, 12.187], [102.338, 12.187], [102.338, 12.187]]], [[[100.028, 12.201], [100.028, 12.201], [100.028, 12.201], [100.028, 12.201]]], [[[102.392, 11.97], [102.392, 11.97], [102.392, 11.97], [102.392, 11.97]]], [[[102.388, 11.978], [102.388, 11.978], [102.388, 11.978], [102.388, 11.978]]], [[[102.269, 12.014], [102.269, 12.014], [102.269, 12.014], [102.269, 12.014]]], [[[102.285, 12.016], [102.285, 12.016], [102.285, 12.016], [102.285, 12.016]]], [[[102.264, 12.02], [102.264, 12.02], [102.264, 12.02], [102.264, 12.02]]], [[[102.261, 12.025], [102.261, 12.025], [102.261, 12.025], [102.261, 12.025]]], [[[102.28, 12.037], [102.28, 12.037], [102.28, 12.037], [102.28, 12.037]]], [[[102.448, 11.961], [102.448, 11.961], [102.448, 11.961], [102.448, 11.961]]], [[[102.403, 11.947], [102.403, 11.947], [102.403, 11.947], [102.403, 11.947]]], [[[102.469, 11.931], [102.469, 11.931], [102.469, 11.931], [102.469, 11.931]]], [[[102.447, 11.946], [102.447, 11.946], [102.447, 11.946], [102.447, 11.946]]], [[[102.513, 11.961], [102.513, 11.961], [102.513, 11.961], [102.513, 11.961]]], [[[102.509, 11.961], [102.509, 11.961], [102.509, 11.961], [102.509, 11.961]]], [[[102.439, 11.95], [102.439, 11.95], [102.439, 11.95], [102.439, 11.95]]], [[[102.499, 11.954], [102.499, 11.954], [102.499, 11.954], [102.499, 11.954]]], [[[102.294, 12], [102.294, 12], [102.294, 12], [102.294, 12]]], [[[102.524, 11.657], [102.524, 11.657], [102.524, 11.657], [102.524, 11.657]]], [[[99.834, 11.758], [99.834, 11.758], [99.834, 11.758], [99.834, 11.758]]], [[[100.028, 12.202], [100.028, 12.202], [100.028, 12.202], [100.028, 12.202]]], [[[98.516, 8.311], [98.516, 8.311], [98.516, 8.311], [98.516, 8.311]]], [[[98.517, 8.313], [98.517, 8.313], [98.517, 8.313], [98.517, 8.313]]], [[[98.502, 8.337], [98.502, 8.337], [98.502, 8.337], [98.502, 8.337]]], [[[98.638, 8.342], [98.638, 8.342], [98.638, 8.342], [98.638, 8.342]]], [[[98.611, 8.354], [98.611, 8.354], [98.611, 8.354], [98.611, 8.354]]], [[[100.744, 8.375], [100.744, 8.375], [100.744, 8.375], [100.744, 8.375]]], [[[98.616, 8.353], [98.616, 8.353], [98.616, 8.353], [98.616, 8.353]]], [[[100.731, 8.398], [100.731, 8.398], [100.731, 8.398], [100.731, 8.398]]], [[[97.652, 8.479], [97.652, 8.479], [97.652, 8.479], [97.652, 8.479]]], [[[97.636, 8.508], [97.636, 8.508], [97.636, 8.508], [97.636, 8.508]]], [[[97.654, 8.516], [97.654, 8.516], [97.654, 8.516], [97.654, 8.516]]], [[[97.647, 8.57], [97.647, 8.57], [97.647, 8.57], [97.647, 8.57]]], [[[98.606, 8.366], [98.606, 8.366], [98.606, 8.366], [98.606, 8.366]]], [[[100.739, 8.377], [100.739, 8.377], [100.739, 8.377], [100.739, 8.377]]], [[[97.635, 8.591], [97.635, 8.591], [97.635, 8.591], [97.635, 8.591]]], [[[97.641, 8.624], [97.641, 8.624], [97.641, 8.624], [97.641, 8.624]]], [[[98.245, 8.643], [98.245, 8.643], [98.245, 8.643], [98.245, 8.643]]], [[[97.651, 8.674], [97.651, 8.674], [97.651, 8.674], [97.651, 8.674]]], [[[97.65, 8.674], [97.65, 8.674], [97.65, 8.674], [97.65, 8.674]]], [[[97.641, 8.68], [97.641, 8.68], [97.641, 8.68], [97.641, 8.68]]], [[[97.641, 8.664], [97.641, 8.664], [97.641, 8.664], [97.641, 8.664]]], [[[97.801, 8.825], [97.801, 8.825], [97.801, 8.825], [97.801, 8.825]]], [[[98.379, 8.936], [98.379, 8.936], [98.379, 8.936], [98.379, 8.936]]], [[[98.311, 8.91], [98.311, 8.91], [98.311, 8.91], [98.311, 8.91]]], [[[98.368, 8.954], [98.368, 8.954], [98.368, 8.954], [98.368, 8.954]]], [[[97.633, 8.573], [97.633, 8.573], [97.633, 8.573], [97.633, 8.573]]], [[[97.646, 8.571], [97.646, 8.571], [97.646, 8.571], [97.646, 8.571]]], [[[98.375, 9.019], [98.375, 9.019], [98.375, 9.019], [98.375, 9.019]]], [[[98.377, 9.019], [98.377, 9.019], [98.377, 9.019], [98.377, 9.019]]], [[[97.814, 9.062], [97.814, 9.062], [97.814, 9.062], [97.814, 9.062]]], [[[98.362, 9.091], [98.362, 9.091], [98.362, 9.091], [98.362, 9.091]]], [[[98.349, 9.095], [98.349, 9.095], [98.349, 9.095], [98.349, 9.095]]], [[[98.332, 9.084], [98.332, 9.084], [98.332, 9.084], [98.332, 9.084]]], [[[98.349, 9.103], [98.349, 9.103], [98.349, 9.103], [98.349, 9.103]]], [[[98.346, 9.106], [98.346, 9.106], [98.346, 9.106], [98.346, 9.106]]], [[[98.254, 9.134], [98.254, 9.134], [98.254, 9.134], [98.254, 9.134]]], [[[98.254, 9.138], [98.254, 9.138], [98.254, 9.138], [98.254, 9.138]]], [[[98.291, 9.168], [98.291, 9.168], [98.291, 9.168], [98.291, 9.168]]], [[[99.434, 9.268], [99.434, 9.268], [99.434, 9.268], [99.434, 9.268]]], [[[98.346, 9.222], [98.346, 9.222], [98.346, 9.222], [98.346, 9.222]]], [[[99.96, 9.302], [99.96, 9.302], [99.96, 9.302], [99.96, 9.302]]], [[[98.341, 9.185], [98.341, 9.185], [98.341, 9.185], [98.341, 9.185]]], [[[98.29, 9.184], [98.29, 9.184], [98.29, 9.184], [98.29, 9.184]]], [[[98.372, 9.2], [98.372, 9.2], [98.372, 9.2], [98.372, 9.2]]], [[[98.37, 9.204], [98.37, 9.204], [98.37, 9.204], [98.37, 9.204]]], [[[98.335, 9.207], [98.335, 9.207], [98.335, 9.207], [98.335, 9.207]]], [[[98.362, 9.213], [98.362, 9.213], [98.362, 9.213], [98.362, 9.213]]], [[[98.354, 9.219], [98.354, 9.219], [98.354, 9.219], [98.354, 9.219]]], [[[98.279, 9.175], [98.279, 9.175], [98.279, 9.175], [98.279, 9.175]]], [[[98.281, 9.176], [98.281, 9.176], [98.281, 9.176], [98.281, 9.176]]], [[[98.335, 9.147], [98.335, 9.147], [98.335, 9.147], [98.335, 9.147]]], [[[98.282, 9.176], [98.282, 9.176], [98.282, 9.176], [98.282, 9.176]]], [[[98.306, 9.18], [98.306, 9.18], [98.306, 9.18], [98.306, 9.18]]], [[[98.306, 9.262], [98.306, 9.262], [98.306, 9.262], [98.306, 9.262]]], [[[98.254, 9], [98.254, 9], [98.254, 9], [98.254, 9]]], [[[98.35, 8.978], [98.35, 8.978], [98.35, 8.978], [98.35, 8.978]]], [[[98.327, 8.979], [98.327, 8.979], [98.327, 8.979], [98.327, 8.979]]], [[[98.346, 8.989], [98.346, 8.989], [98.346, 8.989], [98.346, 8.989]]], [[[99.784, 9.323], [99.784, 9.323], [99.784, 9.323], [99.784, 9.323]]], [[[99.769, 9.326], [99.769, 9.326], [99.769, 9.326], [99.769, 9.326]]], [[[99.76, 9.327], [99.76, 9.327], [99.76, 9.327], [99.76, 9.327]]], [[[99.927, 9.332], [99.927, 9.332], [99.927, 9.332], [99.927, 9.332]]], [[[99.703, 9.33], [99.703, 9.33], [99.703, 9.33], [99.703, 9.33]]], [[[98.315, 9.343], [98.315, 9.343], [98.315, 9.343], [98.315, 9.343]]], [[[99.92, 9.344], [99.92, 9.344], [99.92, 9.344], [99.92, 9.344]]], [[[99.972, 9.369], [99.972, 9.369], [99.972, 9.369], [99.972, 9.369]]], [[[99.719, 9.35], [99.719, 9.35], [99.719, 9.35], [99.719, 9.35]]], [[[99.684, 9.352], [99.684, 9.352], [99.684, 9.352], [99.684, 9.352]]], [[[98.324, 9.331], [98.324, 9.331], [98.324, 9.331], [98.324, 9.331]]], [[[99.295, 9.337], [99.295, 9.337], [99.295, 9.337], [99.295, 9.337]]], [[[99.672, 9.408], [99.672, 9.408], [99.672, 9.408], [99.672, 9.408]]], [[[97.896, 9.395], [97.896, 9.395], [97.896, 9.395], [97.896, 9.395]]], [[[98.392, 9.401], [98.392, 9.401], [98.392, 9.401], [98.392, 9.401]]], [[[97.835, 9.424], [97.835, 9.424], [97.835, 9.424], [97.835, 9.424]]], [[[99.928, 9.358], [99.928, 9.358], [99.928, 9.358], [99.928, 9.358]]], [[[97.868, 9.375], [97.868, 9.375], [97.868, 9.375], [97.868, 9.375]]], [[[99.958, 9.369], [99.958, 9.369], [99.958, 9.369], [99.958, 9.369]]], [[[99.669, 9.379], [99.669, 9.379], [99.669, 9.379], [99.669, 9.379]]], [[[97.876, 9.472], [97.876, 9.472], [97.876, 9.472], [97.876, 9.472]]], [[[97.903, 9.479], [97.903, 9.479], [97.903, 9.479], [97.903, 9.479]]], [[[98.367, 9.498], [98.367, 9.498], [98.367, 9.498], [98.367, 9.498]]], [[[98.372, 9.501], [98.372, 9.501], [98.372, 9.501], [98.372, 9.501]]], [[[98.369, 9.503], [98.369, 9.503], [98.369, 9.503], [98.369, 9.503]]], [[[98.37, 9.504], [98.37, 9.504], [98.37, 9.504], [98.37, 9.504]]], [[[98.371, 9.507], [98.371, 9.507], [98.371, 9.507], [98.371, 9.507]]], [[[98.353, 9.508], [98.353, 9.508], [98.353, 9.508], [98.353, 9.508]]], [[[98.353, 9.508], [98.353, 9.508], [98.353, 9.508], [98.353, 9.508]]], [[[98.354, 9.509], [98.354, 9.509], [98.354, 9.509], [98.354, 9.509]]], [[[98.355, 9.516], [98.355, 9.516], [98.355, 9.516], [98.355, 9.516]]], [[[99.711, 9.523], [99.711, 9.523], [99.711, 9.523], [99.711, 9.523]]], [[[100.071, 9.532], [100.071, 9.532], [100.071, 9.532], [100.071, 9.532]]], [[[100.071, 9.532], [100.071, 9.532], [100.071, 9.532], [100.071, 9.532]]], [[[99.703, 9.51], [99.703, 9.51], [99.703, 9.51], [99.703, 9.51]]], [[[99.697, 9.48], [99.697, 9.48], [99.697, 9.48], [99.697, 9.48]]], [[[98.372, 9.479], [98.372, 9.479], [98.372, 9.479], [98.372, 9.479]]], [[[98.38, 9.479], [98.38, 9.479], [98.38, 9.479], [98.38, 9.479]]], [[[99.68, 9.475], [99.68, 9.475], [99.68, 9.475], [99.68, 9.475]]], [[[99.673, 9.464], [99.673, 9.464], [99.673, 9.464], [99.673, 9.464]]], [[[99.678, 9.474], [99.678, 9.474], [99.678, 9.474], [99.678, 9.474]]], [[[98.354, 9.507], [98.354, 9.507], [98.354, 9.507], [98.354, 9.507]]], [[[98.348, 9.435], [98.348, 9.435], [98.348, 9.435], [98.348, 9.435]]], [[[99.676, 9.426], [99.676, 9.426], [99.676, 9.426], [99.676, 9.426]]], [[[99.654, 9.444], [99.654, 9.444], [99.654, 9.444], [99.654, 9.444]]], [[[98.322, 9.45], [98.322, 9.45], [98.322, 9.45], [98.322, 9.45]]], [[[98.327, 9.455], [98.327, 9.455], [98.327, 9.455], [98.327, 9.455]]], [[[98.327, 9.457], [98.327, 9.457], [98.327, 9.457], [98.327, 9.457]]], [[[99.674, 9.412], [99.674, 9.412], [99.674, 9.412], [99.674, 9.412]]], [[[97.863, 9.424], [97.863, 9.424], [97.863, 9.424], [97.863, 9.424]]], [[[99.909, 9.313], [99.909, 9.313], [99.909, 9.313], [99.909, 9.313]]], [[[99.921, 9.308], [99.921, 9.308], [99.921, 9.308], [99.921, 9.308]]], [[[99.951, 9.313], [99.951, 9.313], [99.951, 9.313], [99.951, 9.313]]], [[[99.893, 9.318], [99.893, 9.318], [99.893, 9.318], [99.893, 9.318]]], [[[99.792, 9.316], [99.792, 9.316], [99.792, 9.316], [99.792, 9.316]]], [[[99.715, 9.603], [99.715, 9.603], [99.715, 9.603], [99.715, 9.603]]], [[[99.713, 9.603], [99.713, 9.603], [99.713, 9.603], [99.713, 9.603]]], [[[99.673, 9.643], [99.673, 9.643], [99.673, 9.643], [99.673, 9.643]]], [[[99.667, 9.658], [99.667, 9.658], [99.667, 9.658], [99.667, 9.658]]], [[[99.659, 9.662], [99.659, 9.662], [99.659, 9.662], [99.659, 9.662]]], [[[99.668, 9.663], [99.668, 9.663], [99.668, 9.663], [99.668, 9.663]]], [[[99.68, 9.665], [99.68, 9.665], [99.68, 9.665], [99.68, 9.665]]], [[[99.677, 9.665], [99.677, 9.665], [99.677, 9.665], [99.677, 9.665]]], [[[99.677, 9.633], [99.677, 9.633], [99.677, 9.633], [99.677, 9.633]]], [[[99.675, 9.642], [99.675, 9.642], [99.675, 9.642], [99.675, 9.642]]], [[[99.933, 9.742], [99.933, 9.742], [99.933, 9.742], [99.933, 9.742]]], [[[98.422, 9.718], [98.422, 9.718], [98.422, 9.718], [98.422, 9.718]]], [[[98.502, 9.734], [98.502, 9.734], [98.502, 9.734], [98.502, 9.734]]], [[[98.507, 9.735], [98.507, 9.735], [98.507, 9.735], [98.507, 9.735]]], [[[98.485, 9.739], [98.485, 9.739], [98.485, 9.739], [98.485, 9.739]]], [[[99.953, 9.758], [99.953, 9.758], [99.953, 9.758], [99.953, 9.758]]], [[[100.074, 9.765], [100.074, 9.765], [100.074, 9.765], [100.074, 9.765]]], [[[100.075, 9.767], [100.075, 9.767], [100.075, 9.767], [100.075, 9.767]]], [[[98.459, 9.771], [98.459, 9.771], [98.459, 9.771], [98.459, 9.771]]], [[[99.671, 9.772], [99.671, 9.772], [99.671, 9.772], [99.671, 9.772]]], [[[98.461, 9.765], [98.461, 9.765], [98.461, 9.765], [98.461, 9.765]]], [[[99.668, 9.771], [99.668, 9.771], [99.668, 9.771], [99.668, 9.771]]], [[[99.668, 9.768], [99.668, 9.768], [99.668, 9.768], [99.668, 9.768]]], [[[99.678, 9.682], [99.678, 9.682], [99.678, 9.682], [99.678, 9.682]]], [[[99.666, 9.683], [99.666, 9.683], [99.666, 9.683], [99.666, 9.683]]], [[[99.674, 9.689], [99.674, 9.689], [99.674, 9.689], [99.674, 9.689]]], [[[98.386, 9.707], [98.386, 9.707], [98.386, 9.707], [98.386, 9.707]]], [[[99.973, 9.711], [99.973, 9.711], [99.973, 9.711], [99.973, 9.711]]], [[[98.503, 9.71], [98.503, 9.71], [98.503, 9.71], [98.503, 9.71]]], [[[99.943, 9.706], [99.943, 9.706], [99.943, 9.706], [99.943, 9.706]]], [[[99.677, 9.708], [99.677, 9.708], [99.677, 9.708], [99.677, 9.708]]], [[[99.674, 9.708], [99.674, 9.708], [99.674, 9.708], [99.674, 9.708]]], [[[99.662, 9.697], [99.662, 9.697], [99.662, 9.697], [99.662, 9.697]]], [[[99.68, 9.7], [99.68, 9.7], [99.68, 9.7], [99.68, 9.7]]], [[[99.679, 9.694], [99.679, 9.694], [99.679, 9.694], [99.679, 9.694]]], [[[99.662, 9.703], [99.662, 9.703], [99.662, 9.703], [99.662, 9.703]]], [[[99.674, 9.707], [99.674, 9.707], [99.674, 9.707], [99.674, 9.707]]], [[[99.676, 9.711], [99.676, 9.711], [99.676, 9.711], [99.676, 9.711]]], [[[98.422, 9.737], [98.422, 9.737], [98.422, 9.737], [98.422, 9.737]]], [[[99.664, 9.678], [99.664, 9.678], [99.664, 9.678], [99.664, 9.678]]], [[[99.67, 9.673], [99.67, 9.673], [99.67, 9.673], [99.67, 9.673]]], [[[99.676, 9.677], [99.676, 9.677], [99.676, 9.677], [99.676, 9.677]]], [[[99.678, 9.672], [99.678, 9.672], [99.678, 9.672], [99.678, 9.672]]], [[[99.68, 9.674], [99.68, 9.674], [99.68, 9.674], [99.68, 9.674]]], [[[99.681, 9.652], [99.681, 9.652], [99.681, 9.652], [99.681, 9.652]]], [[[99.664, 9.666], [99.664, 9.666], [99.664, 9.666], [99.664, 9.666]]], [[[99.66, 9.678], [99.66, 9.678], [99.66, 9.678], [99.66, 9.678]]], [[[99.683, 9.677], [99.683, 9.677], [99.683, 9.677], [99.683, 9.677]]], [[[98.467, 9.832], [98.467, 9.832], [98.467, 9.832], [98.467, 9.832]]], [[[98.434, 9.858], [98.434, 9.858], [98.434, 9.858], [98.434, 9.858]]], [[[98.47, 9.863], [98.47, 9.863], [98.47, 9.863], [98.47, 9.863]]], [[[98.443, 9.876], [98.443, 9.876], [98.443, 9.876], [98.443, 9.876]]], [[[98.464, 9.899], [98.464, 9.899], [98.464, 9.899], [98.464, 9.899]]], [[[98.559, 9.896], [98.559, 9.896], [98.559, 9.896], [98.559, 9.896]]], [[[98.511, 9.915], [98.511, 9.915], [98.511, 9.915], [98.511, 9.915]]], [[[98.526, 9.914], [98.526, 9.914], [98.526, 9.914], [98.526, 9.914]]], [[[98.466, 9.901], [98.466, 9.901], [98.466, 9.901], [98.466, 9.901]]], [[[98.508, 9.9], [98.508, 9.9], [98.508, 9.9], [98.508, 9.9]]], [[[98.468, 9.893], [98.468, 9.893], [98.468, 9.893], [98.468, 9.893]]], [[[99.999, 9.706], [99.999, 9.706], [99.999, 9.706], [99.999, 9.706]]], [[[99.672, 9.777], [99.672, 9.777], [99.672, 9.777], [99.672, 9.777]]], [[[98.447, 9.778], [98.447, 9.778], [98.447, 9.778], [98.447, 9.778]]], [[[98.478, 9.78], [98.478, 9.78], [98.478, 9.78], [98.478, 9.78]]], [[[100.063, 9.784], [100.063, 9.784], [100.063, 9.784], [100.063, 9.784]]], [[[99.672, 9.79], [99.672, 9.79], [99.672, 9.79], [99.672, 9.79]]], [[[99.673, 9.786], [99.673, 9.786], [99.673, 9.786], [99.673, 9.786]]], [[[100.015, 9.803], [100.015, 9.803], [100.015, 9.803], [100.015, 9.803]]], [[[99.714, 9.796], [99.714, 9.796], [99.714, 9.796], [99.714, 9.796]]], [[[99.713, 9.801], [99.713, 9.801], [99.713, 9.801], [99.713, 9.801]]], [[[99.981, 9.8], [99.981, 9.8], [99.981, 9.8], [99.981, 9.8]]], [[[98.442, 9.799], [98.442, 9.799], [98.442, 9.799], [98.442, 9.799]]], [[[99.701, 9.513], [99.701, 9.513], [99.701, 9.513], [99.701, 9.513]]], [[[99.999, 9.424], [99.999, 9.424], [99.999, 9.424], [99.999, 9.424]]], [[[100.083, 9.538], [100.083, 9.538], [100.083, 9.538], [100.083, 9.538]]], [[[99.674, 9.543], [99.674, 9.543], [99.674, 9.543], [99.674, 9.543]]], [[[99.695, 9.551], [99.695, 9.551], [99.695, 9.551], [99.695, 9.551]]], [[[100.089, 9.563], [100.089, 9.563], [100.089, 9.563], [100.089, 9.563]]], [[[98.387, 9.571], [98.387, 9.571], [98.387, 9.571], [98.387, 9.571]]], [[[99.665, 9.558], [99.665, 9.558], [99.665, 9.558], [99.665, 9.558]]], [[[99.683, 9.557], [99.683, 9.557], [99.683, 9.557], [99.683, 9.557]]], [[[100.024, 9.581], [100.024, 9.581], [100.024, 9.581], [100.024, 9.581]]], [[[99.72, 9.593], [99.72, 9.593], [99.72, 9.593], [99.72, 9.593]]], [[[100.053, 9.593], [100.053, 9.593], [100.053, 9.593], [100.053, 9.593]]], [[[100.055, 9.593], [100.055, 9.593], [100.055, 9.593], [100.055, 9.593]]], [[[100.089, 9.574], [100.089, 9.574], [100.089, 9.574], [100.089, 9.574]]], [[[100.087, 9.575], [100.087, 9.575], [100.087, 9.575], [100.087, 9.575]]], [[[98.536, 9.922], [98.536, 9.922], [98.536, 9.922], [98.536, 9.922]]], [[[100.09, 6.432], [100.09, 6.432], [100.09, 6.432], [100.09, 6.432]]], [[[100.062, 6.446], [100.062, 6.446], [100.062, 6.446], [100.062, 6.446]]], [[[100.071, 6.471], [100.071, 6.471], [100.071, 6.471], [100.071, 6.471]]], [[[99.288, 6.487], [99.288, 6.487], [99.288, 6.487], [99.288, 6.487]]], [[[99.333, 6.487], [99.333, 6.487], [99.333, 6.487], [99.333, 6.487]]], [[[99.313, 6.494], [99.313, 6.494], [99.313, 6.494], [99.313, 6.494]]], [[[99.313, 6.485], [99.313, 6.485], [99.313, 6.485], [99.313, 6.485]]], [[[99.366, 6.486], [99.366, 6.486], [99.366, 6.486], [99.366, 6.486]]], [[[99.178, 6.494], [99.178, 6.494], [99.178, 6.494], [99.178, 6.494]]], [[[99.179, 6.5], [99.179, 6.5], [99.179, 6.5], [99.179, 6.5]]], [[[99.18, 6.501], [99.18, 6.501], [99.18, 6.501], [99.18, 6.501]]], [[[99.181, 6.502], [99.181, 6.502], [99.181, 6.502], [99.181, 6.502]]], [[[99.182, 6.503], [99.182, 6.503], [99.182, 6.503], [99.182, 6.503]]], [[[99.96, 6.55], [99.96, 6.55], [99.96, 6.55], [99.96, 6.55]]], [[[99.956, 6.551], [99.956, 6.551], [99.956, 6.551], [99.956, 6.551]]], [[[99.7, 6.611], [99.7, 6.611], [99.7, 6.611], [99.7, 6.611]]], [[[99.69, 6.621], [99.69, 6.621], [99.69, 6.621], [99.69, 6.621]]], [[[99.193, 6.578], [99.193, 6.578], [99.193, 6.578], [99.193, 6.578]]], [[[99.72, 6.583], [99.72, 6.583], [99.72, 6.583], [99.72, 6.583]]], [[[99.835, 6.589], [99.835, 6.589], [99.835, 6.589], [99.835, 6.589]]], [[[99.907, 6.685], [99.907, 6.685], [99.907, 6.685], [99.907, 6.685]]], [[[99.862, 6.675], [99.862, 6.675], [99.862, 6.675], [99.862, 6.675]]], [[[99.914, 6.688], [99.914, 6.688], [99.914, 6.688], [99.914, 6.688]]], [[[99.861, 6.693], [99.861, 6.693], [99.861, 6.693], [99.861, 6.693]]], [[[99.692, 6.653], [99.692, 6.653], [99.692, 6.653], [99.692, 6.653]]], [[[99.689, 6.668], [99.689, 6.668], [99.689, 6.668], [99.689, 6.668]]], [[[99.834, 6.654], [99.834, 6.654], [99.834, 6.654], [99.834, 6.654]]], [[[99.692, 6.657], [99.692, 6.657], [99.692, 6.657], [99.692, 6.657]]], [[[99.844, 6.672], [99.844, 6.672], [99.844, 6.672], [99.844, 6.672]]], [[[99.844, 6.651], [99.844, 6.651], [99.844, 6.651], [99.844, 6.651]]], [[[99.691, 6.673], [99.691, 6.673], [99.691, 6.673], [99.691, 6.673]]], [[[99.833, 6.676], [99.833, 6.676], [99.833, 6.676], [99.833, 6.676]]], [[[99.178, 6.505], [99.178, 6.505], [99.178, 6.505], [99.178, 6.505]]], [[[99.35, 6.551], [99.35, 6.551], [99.35, 6.551], [99.35, 6.551]]], [[[99.706, 6.546], [99.706, 6.546], [99.706, 6.546], [99.706, 6.546]]], [[[99.174, 6.515], [99.174, 6.515], [99.174, 6.515], [99.174, 6.515]]], [[[99.698, 6.519], [99.698, 6.519], [99.698, 6.519], [99.698, 6.519]]], [[[99.693, 6.518], [99.693, 6.518], [99.693, 6.518], [99.693, 6.518]]], [[[99.27, 6.525], [99.27, 6.525], [99.27, 6.525], [99.27, 6.525]]], [[[99.187, 6.521], [99.187, 6.521], [99.187, 6.521], [99.187, 6.521]]], [[[99.175, 6.516], [99.175, 6.516], [99.175, 6.516], [99.175, 6.516]]], [[[99.164, 6.539], [99.164, 6.539], [99.164, 6.539], [99.164, 6.539]]], [[[99.164, 6.541], [99.164, 6.541], [99.164, 6.541], [99.164, 6.541]]], [[[99.261, 6.541], [99.261, 6.541], [99.261, 6.541], [99.261, 6.541]]], [[[99.173, 6.508], [99.173, 6.508], [99.173, 6.508], [99.173, 6.508]]], [[[99.174, 6.514], [99.174, 6.514], [99.174, 6.514], [99.174, 6.514]]], [[[99.269, 6.513], [99.269, 6.513], [99.269, 6.513], [99.269, 6.513]]], [[[99.262, 6.515], [99.262, 6.515], [99.262, 6.515], [99.262, 6.515]]], [[[99.276, 6.577], [99.276, 6.577], [99.276, 6.577], [99.276, 6.577]]], [[[99.85, 6.568], [99.85, 6.568], [99.85, 6.568], [99.85, 6.568]]], [[[99.164, 6.548], [99.164, 6.548], [99.164, 6.548], [99.164, 6.548]]], [[[99.345, 6.554], [99.345, 6.554], [99.345, 6.554], [99.345, 6.554]]], [[[99.325, 6.555], [99.325, 6.555], [99.325, 6.555], [99.325, 6.555]]], [[[99.445, 6.555], [99.445, 6.555], [99.445, 6.555], [99.445, 6.555]]], [[[99.471, 6.57], [99.471, 6.57], [99.471, 6.57], [99.471, 6.57]]], [[[99.349, 6.561], [99.349, 6.561], [99.349, 6.561], [99.349, 6.561]]], [[[99.291, 6.578], [99.291, 6.578], [99.291, 6.578], [99.291, 6.578]]], [[[99.457, 6.588], [99.457, 6.588], [99.457, 6.588], [99.457, 6.588]]], [[[99.754, 6.762], [99.754, 6.762], [99.754, 6.762], [99.754, 6.762]]], [[[99.853, 6.764], [99.853, 6.764], [99.853, 6.764], [99.853, 6.764]]], [[[99.751, 6.771], [99.751, 6.771], [99.751, 6.771], [99.751, 6.771]]], [[[99.764, 6.778], [99.764, 6.778], [99.764, 6.778], [99.764, 6.778]]], [[[99.774, 6.78], [99.774, 6.78], [99.774, 6.78], [99.774, 6.78]]], [[[99.544, 6.831], [99.544, 6.831], [99.544, 6.831], [99.544, 6.831]]], [[[99.678, 6.824], [99.678, 6.824], [99.678, 6.824], [99.678, 6.824]]], [[[99.586, 6.829], [99.586, 6.829], [99.586, 6.829], [99.586, 6.829]]], [[[99.698, 6.866], [99.698, 6.866], [99.698, 6.866], [99.698, 6.866]]], [[[99.705, 6.869], [99.705, 6.869], [99.705, 6.869], [99.705, 6.869]]], [[[99.57, 6.897], [99.57, 6.897], [99.57, 6.897], [99.57, 6.897]]], [[[99.546, 6.91], [99.546, 6.91], [99.546, 6.91], [99.546, 6.91]]], [[[99.545, 6.912], [99.545, 6.912], [99.545, 6.912], [99.545, 6.912]]], [[[99.544, 6.915], [99.544, 6.915], [99.544, 6.915], [99.544, 6.915]]], [[[99.698, 6.828], [99.698, 6.828], [99.698, 6.828], [99.698, 6.828]]], [[[99.593, 6.853], [99.593, 6.853], [99.593, 6.853], [99.593, 6.853]]], [[[99.752, 6.767], [99.752, 6.767], [99.752, 6.767], [99.752, 6.767]]], [[[99.476, 7.029], [99.476, 7.029], [99.476, 7.029], [99.476, 7.029]]], [[[99.393, 7.076], [99.393, 7.076], [99.393, 7.076], [99.393, 7.076]]], [[[99.697, 7.093], [99.697, 7.093], [99.697, 7.093], [99.697, 7.093]]], [[[99.535, 7.032], [99.535, 7.032], [99.535, 7.032], [99.535, 7.032]]], [[[99.545, 7.034], [99.545, 7.034], [99.545, 7.034], [99.545, 7.034]]], [[[99.545, 7.034], [99.545, 7.034], [99.545, 7.034], [99.545, 7.034]]], [[[99.581, 7.134], [99.581, 7.134], [99.581, 7.134], [99.581, 7.134]]], [[[99.651, 7.155], [99.651, 7.155], [99.651, 7.155], [99.651, 7.155]]], [[[99.083, 7.224], [99.083, 7.224], [99.083, 7.224], [99.083, 7.224]]], [[[99.359, 7.222], [99.359, 7.222], [99.359, 7.222], [99.359, 7.222]]], [[[100.596, 7.239], [100.596, 7.239], [100.596, 7.239], [100.596, 7.239]]], [[[99.409, 7.315], [99.409, 7.315], [99.409, 7.315], [99.409, 7.315]]], [[[99.247, 7.333], [99.247, 7.333], [99.247, 7.333], [99.247, 7.333]]], [[[100.588, 7.262], [100.588, 7.262], [100.588, 7.262], [100.588, 7.262]]], [[[99.476, 7.272], [99.476, 7.272], [99.476, 7.272], [99.476, 7.272]]], [[[99.062, 7.213], [99.062, 7.213], [99.062, 7.213], [99.062, 7.213]]], [[[99.45, 7.256], [99.45, 7.256], [99.45, 7.256], [99.45, 7.256]]], [[[99.564, 7.103], [99.564, 7.103], [99.564, 7.103], [99.564, 7.103]]], [[[99.429, 7.103], [99.429, 7.103], [99.429, 7.103], [99.429, 7.103]]], [[[99.425, 7.116], [99.425, 7.116], [99.425, 7.116], [99.425, 7.116]]], [[[99.702, 7.131], [99.702, 7.131], [99.702, 7.131], [99.702, 7.131]]], [[[99.474, 6.977], [99.474, 6.977], [99.474, 6.977], [99.474, 6.977]]], [[[99.577, 6.979], [99.577, 6.979], [99.577, 6.979], [99.577, 6.979]]], [[[99.914, 6.695], [99.914, 6.695], [99.914, 6.695], [99.914, 6.695]]], [[[99.643, 6.703], [99.643, 6.703], [99.643, 6.703], [99.643, 6.703]]], [[[99.838, 6.695], [99.838, 6.695], [99.838, 6.695], [99.838, 6.695]]], [[[99.68, 6.619], [99.68, 6.619], [99.68, 6.619], [99.68, 6.619]]], [[[99.649, 6.706], [99.649, 6.706], [99.649, 6.706], [99.649, 6.706]]], [[[99.656, 6.704], [99.656, 6.704], [99.656, 6.704], [99.656, 6.704]]], [[[99.657, 6.737], [99.657, 6.737], [99.657, 6.737], [99.657, 6.737]]], [[[99.658, 6.733], [99.658, 6.733], [99.658, 6.733], [99.658, 6.733]]], [[[99.705, 6.734], [99.705, 6.734], [99.705, 6.734], [99.705, 6.734]]], [[[99.873, 6.712], [99.873, 6.712], [99.873, 6.712], [99.873, 6.712]]], [[[99.795, 6.711], [99.795, 6.711], [99.795, 6.711], [99.795, 6.711]]], [[[99.887, 6.709], [99.887, 6.709], [99.887, 6.709], [99.887, 6.709]]], [[[99.871, 6.703], [99.871, 6.703], [99.871, 6.703], [99.871, 6.703]]], [[[99.799, 6.706], [99.799, 6.706], [99.799, 6.706], [99.799, 6.706]]], [[[99.671, 6.71], [99.671, 6.71], [99.671, 6.71], [99.671, 6.71]]], [[[99.892, 6.716], [99.892, 6.716], [99.892, 6.716], [99.892, 6.716]]], [[[99.806, 6.715], [99.806, 6.715], [99.806, 6.715], [99.806, 6.715]]], [[[99.857, 6.707], [99.857, 6.707], [99.857, 6.707], [99.857, 6.707]]], [[[99.315, 7.375], [99.315, 7.375], [99.315, 7.375], [99.315, 7.375]]], [[[99.246, 7.378], [99.246, 7.378], [99.246, 7.378], [99.246, 7.378]]], [[[99.197, 7.399], [99.197, 7.399], [99.197, 7.399], [99.197, 7.399]]], [[[99.2, 7.434], [99.2, 7.434], [99.2, 7.434], [99.2, 7.434]]], [[[98.891, 7.425], [98.891, 7.425], [98.891, 7.425], [98.891, 7.425]]], [[[98.895, 7.428], [98.895, 7.428], [98.895, 7.428], [98.895, 7.428]]], [[[98.898, 7.433], [98.898, 7.433], [98.898, 7.433], [98.898, 7.433]]], [[[99.322, 7.47], [99.322, 7.47], [99.322, 7.47], [99.322, 7.47]]], [[[99.322, 7.472], [99.322, 7.472], [99.322, 7.472], [99.322, 7.472]]], [[[98.307, 7.466], [98.307, 7.466], [98.307, 7.466], [98.307, 7.466]]], [[[99.302, 7.49], [99.302, 7.49], [99.302, 7.49], [99.302, 7.49]]], [[[98.332, 7.52], [98.332, 7.52], [98.332, 7.52], [98.332, 7.52]]], [[[99.098, 7.466], [99.098, 7.466], [99.098, 7.466], [99.098, 7.466]]], [[[99.287, 7.558], [99.287, 7.558], [99.287, 7.558], [99.287, 7.558]]], [[[99.089, 7.551], [99.089, 7.551], [99.089, 7.551], [99.089, 7.551]]], [[[99.145, 7.559], [99.145, 7.559], [99.145, 7.559], [99.145, 7.559]]], [[[99.087, 7.545], [99.087, 7.545], [99.087, 7.545], [99.087, 7.545]]], [[[99.089, 7.546], [99.089, 7.546], [99.089, 7.546], [99.089, 7.546]]], [[[99.281, 7.544], [99.281, 7.544], [99.281, 7.544], [99.281, 7.544]]], [[[99.283, 7.549], [99.283, 7.549], [99.283, 7.549], [99.283, 7.549]]], [[[99.096, 7.564], [99.096, 7.564], [99.096, 7.564], [99.096, 7.564]]], [[[99.143, 7.573], [99.143, 7.573], [99.143, 7.573], [99.143, 7.573]]], [[[99.135, 7.526], [99.135, 7.526], [99.135, 7.526], [99.135, 7.526]]], [[[99.121, 7.495], [99.121, 7.495], [99.121, 7.495], [99.121, 7.495]]], [[[99.113, 7.488], [99.113, 7.488], [99.113, 7.488], [99.113, 7.488]]], [[[99.028, 7.653], [99.028, 7.653], [99.028, 7.653], [99.028, 7.653]]], [[[99.137, 7.664], [99.137, 7.664], [99.137, 7.664], [99.137, 7.664]]], [[[98.767, 7.673], [98.767, 7.673], [98.767, 7.673], [98.767, 7.673]]], [[[99.047, 7.692], [99.047, 7.692], [99.047, 7.692], [99.047, 7.692]]], [[[99.102, 7.69], [99.102, 7.69], [99.102, 7.69], [99.102, 7.69]]], [[[98.766, 7.674], [98.766, 7.674], [98.766, 7.674], [98.766, 7.674]]], [[[99.121, 7.703], [99.121, 7.703], [99.121, 7.703], [99.121, 7.703]]], [[[99.185, 7.677], [99.185, 7.677], [99.185, 7.677], [99.185, 7.677]]], [[[99.127, 7.673], [99.127, 7.673], [99.127, 7.673], [99.127, 7.673]]], [[[99.187, 7.689], [99.187, 7.689], [99.187, 7.689], [99.187, 7.689]]], [[[99.112, 7.693], [99.112, 7.693], [99.112, 7.693], [99.112, 7.693]]], [[[98.376, 7.605], [98.376, 7.605], [98.376, 7.605], [98.376, 7.605]]], [[[99.147, 7.582], [99.147, 7.582], [99.147, 7.582], [99.147, 7.582]]], [[[99.125, 7.591], [99.125, 7.591], [99.125, 7.591], [99.125, 7.591]]], [[[99.062, 7.613], [99.062, 7.613], [99.062, 7.613], [99.062, 7.613]]], [[[99.062, 7.613], [99.062, 7.613], [99.062, 7.613], [99.062, 7.613]]], [[[99.102, 7.598], [99.102, 7.598], [99.102, 7.598], [99.102, 7.598]]], [[[99.081, 7.548], [99.081, 7.548], [99.081, 7.548], [99.081, 7.548]]], [[[98.864, 7.617], [98.864, 7.617], [98.864, 7.617], [98.864, 7.617]]], [[[99.144, 7.644], [99.144, 7.644], [99.144, 7.644], [99.144, 7.644]]], [[[99.191, 7.651], [99.191, 7.651], [99.191, 7.651], [99.191, 7.651]]], [[[99.018, 7.652], [99.018, 7.652], [99.018, 7.652], [99.018, 7.652]]], [[[99.145, 7.616], [99.145, 7.616], [99.145, 7.616], [99.145, 7.616]]], [[[99.151, 7.609], [99.151, 7.609], [99.151, 7.609], [99.151, 7.609]]], [[[99.088, 7.605], [99.088, 7.605], [99.088, 7.605], [99.088, 7.605]]], [[[99.053, 7.634], [99.053, 7.634], [99.053, 7.634], [99.053, 7.634]]], [[[99.065, 7.618], [99.065, 7.618], [99.065, 7.618], [99.065, 7.618]]], [[[99.15, 7.626], [99.15, 7.626], [99.15, 7.626], [99.15, 7.626]]], [[[99.149, 7.618], [99.149, 7.618], [99.149, 7.618], [99.149, 7.618]]], [[[99.09, 7.68], [99.09, 7.68], [99.09, 7.68], [99.09, 7.68]]], [[[99.121, 7.765], [99.121, 7.765], [99.121, 7.765], [99.121, 7.765]]], [[[98.784, 7.725], [98.784, 7.725], [98.784, 7.725], [98.784, 7.725]]], [[[98.296, 7.733], [98.296, 7.733], [98.296, 7.733], [98.296, 7.733]]], [[[99.135, 7.743], [99.135, 7.743], [99.135, 7.743], [99.135, 7.743]]], [[[99.124, 7.742], [99.124, 7.742], [99.124, 7.742], [99.124, 7.742]]], [[[99.11, 7.726], [99.11, 7.726], [99.11, 7.726], [99.11, 7.726]]], [[[98.372, 7.743], [98.372, 7.743], [98.372, 7.743], [98.372, 7.743]]], [[[99.13, 7.742], [99.13, 7.742], [99.13, 7.742], [99.13, 7.742]]], [[[98.303, 7.747], [98.303, 7.747], [98.303, 7.747], [98.303, 7.747]]], [[[98.611, 7.748], [98.611, 7.748], [98.611, 7.748], [98.611, 7.748]]], [[[99.136, 7.75], [99.136, 7.75], [99.136, 7.75], [99.136, 7.75]]], [[[99.135, 7.75], [99.135, 7.75], [99.135, 7.75], [99.135, 7.75]]], [[[99.136, 7.752], [99.136, 7.752], [99.136, 7.752], [99.136, 7.752]]], [[[99.001, 7.913], [99.001, 7.913], [99.001, 7.913], [99.001, 7.913]]], [[[98.999, 7.933], [98.999, 7.933], [98.999, 7.933], [98.999, 7.933]]], [[[99.042, 7.87], [99.042, 7.87], [99.042, 7.87], [99.042, 7.87]]], [[[99.04, 7.879], [99.04, 7.879], [99.04, 7.879], [99.04, 7.879]]], [[[98.947, 7.886], [98.947, 7.886], [98.947, 7.886], [98.947, 7.886]]], [[[99.015, 7.885], [99.015, 7.885], [99.015, 7.885], [99.015, 7.885]]], [[[99.044, 7.883], [99.044, 7.883], [99.044, 7.883], [99.044, 7.883]]], [[[98.84, 8], [98.84, 8], [98.84, 8], [98.84, 8]]], [[[98.822, 7.994], [98.822, 7.994], [98.822, 7.994], [98.822, 7.994]]], [[[98.834, 8.004], [98.834, 8.004], [98.834, 8.004], [98.834, 8.004]]], [[[98.812, 7.961], [98.812, 7.961], [98.812, 7.961], [98.812, 7.961]]], [[[98.81, 7.977], [98.81, 7.977], [98.81, 7.977], [98.81, 7.977]]], [[[98.397, 7.983], [98.397, 7.983], [98.397, 7.983], [98.397, 7.983]]], [[[98.451, 7.965], [98.451, 7.965], [98.451, 7.965], [98.451, 7.965]]], [[[98.81, 7.969], [98.81, 7.969], [98.81, 7.969], [98.81, 7.969]]], [[[98.808, 7.975], [98.808, 7.975], [98.808, 7.975], [98.808, 7.975]]], [[[98.792, 7.95], [98.792, 7.95], [98.792, 7.95], [98.792, 7.95]]], [[[98.447, 7.96], [98.447, 7.96], [98.447, 7.96], [98.447, 7.96]]], [[[98.516, 7.958], [98.516, 7.958], [98.516, 7.958], [98.516, 7.958]]], [[[98.79, 7.955], [98.79, 7.955], [98.79, 7.955], [98.79, 7.955]]], [[[98.788, 7.955], [98.788, 7.955], [98.788, 7.955], [98.788, 7.955]]], [[[98.811, 7.961], [98.811, 7.961], [98.811, 7.961], [98.811, 7.961]]], [[[98.429, 7.991], [98.429, 7.991], [98.429, 7.991], [98.429, 7.991]]], [[[98.576, 7.985], [98.576, 7.985], [98.576, 7.985], [98.576, 7.985]]], [[[98.743, 7.987], [98.743, 7.987], [98.743, 7.987], [98.743, 7.987]]], [[[98.566, 7.997], [98.566, 7.997], [98.566, 7.997], [98.566, 7.997]]], [[[98.283, 8.032], [98.283, 8.032], [98.283, 8.032], [98.283, 8.032]]], [[[98.515, 7.892], [98.515, 7.892], [98.515, 7.892], [98.515, 7.892]]], [[[98.583, 7.894], [98.583, 7.894], [98.583, 7.894], [98.583, 7.894]]], [[[98.456, 7.923], [98.456, 7.923], [98.456, 7.923], [98.456, 7.923]]], [[[98.55, 7.909], [98.55, 7.909], [98.55, 7.909], [98.55, 7.909]]], [[[98.805, 7.93], [98.805, 7.93], [98.805, 7.93], [98.805, 7.93]]], [[[98.805, 7.931], [98.805, 7.931], [98.805, 7.931], [98.805, 7.931]]], [[[98.443, 7.943], [98.443, 7.943], [98.443, 7.943], [98.443, 7.943]]], [[[98.777, 7.947], [98.777, 7.947], [98.777, 7.947], [98.777, 7.947]]], [[[98.799, 7.947], [98.799, 7.947], [98.799, 7.947], [98.799, 7.947]]], [[[98.803, 7.926], [98.803, 7.926], [98.803, 7.926], [98.803, 7.926]]], [[[98.432, 7.943], [98.432, 7.943], [98.432, 7.943], [98.432, 7.943]]], [[[98.583, 7.883], [98.583, 7.883], [98.583, 7.883], [98.583, 7.883]]], [[[98.426, 7.896], [98.426, 7.896], [98.426, 7.896], [98.426, 7.896]]], [[[98.78, 7.95], [98.78, 7.95], [98.78, 7.95], [98.78, 7.95]]], [[[98.81, 7.948], [98.81, 7.948], [98.81, 7.948], [98.81, 7.948]]], [[[98.809, 7.952], [98.809, 7.952], [98.809, 7.952], [98.809, 7.952]]], [[[98.907, 8.032], [98.907, 8.032], [98.907, 8.032], [98.907, 8.032]]], [[[98.835, 8.005], [98.835, 8.005], [98.835, 8.005], [98.835, 8.005]]], [[[98.826, 8.019], [98.826, 8.019], [98.826, 8.019], [98.826, 8.019]]], [[[98.755, 8.007], [98.755, 8.007], [98.755, 8.007], [98.755, 8.007]]], [[[98.45, 8.014], [98.45, 8.014], [98.45, 8.014], [98.45, 8.014]]], [[[98.459, 8.033], [98.459, 8.033], [98.459, 8.033], [98.459, 8.033]]], [[[98.782, 8.034], [98.782, 8.034], [98.782, 8.034], [98.782, 8.034]]], [[[98.587, 8], [98.587, 8], [98.587, 8], [98.587, 8]]], [[[98.782, 8.038], [98.782, 8.038], [98.782, 8.038], [98.782, 8.038]]], [[[98.45, 8.062], [98.45, 8.062], [98.45, 8.062], [98.45, 8.062]]], [[[98.461, 8.05], [98.461, 8.05], [98.461, 8.05], [98.461, 8.05]]], [[[98.623, 8.042], [98.623, 8.042], [98.623, 8.042], [98.623, 8.042]]], [[[98.957, 8.021], [98.957, 8.021], [98.957, 8.021], [98.957, 8.021]]], [[[98.798, 8.041], [98.798, 8.041], [98.798, 8.041], [98.798, 8.041]]], [[[98.796, 8.042], [98.796, 8.042], [98.796, 8.042], [98.796, 8.042]]], [[[98.918, 8.042], [98.918, 8.042], [98.918, 8.042], [98.918, 8.042]]], [[[98.917, 8.046], [98.917, 8.046], [98.917, 8.046], [98.917, 8.046]]], [[[98.797, 8.043], [98.797, 8.043], [98.797, 8.043], [98.797, 8.043]]], [[[98.794, 8.044], [98.794, 8.044], [98.794, 8.044], [98.794, 8.044]]], [[[98.676, 8.05], [98.676, 8.05], [98.676, 8.05], [98.676, 8.05]]], [[[98.747, 8.053], [98.747, 8.053], [98.747, 8.053], [98.747, 8.053]]], [[[98.623, 8.044], [98.623, 8.044], [98.623, 8.044], [98.623, 8.044]]], [[[98.627, 8.078], [98.627, 8.078], [98.627, 8.078], [98.627, 8.078]]], [[[98.681, 8.079], [98.681, 8.079], [98.681, 8.079], [98.681, 8.079]]], [[[98.285, 8.087], [98.285, 8.087], [98.285, 8.087], [98.285, 8.087]]], [[[98.399, 8.104], [98.399, 8.104], [98.399, 8.104], [98.399, 8.104]]], [[[98.716, 8.143], [98.716, 8.143], [98.716, 8.143], [98.716, 8.143]]], [[[98.41, 8.145], [98.41, 8.145], [98.41, 8.145], [98.41, 8.145]]], [[[98.549, 8.143], [98.549, 8.143], [98.549, 8.143], [98.549, 8.143]]], [[[98.685, 8.128], [98.685, 8.128], [98.685, 8.128], [98.685, 8.128]]], [[[98.553, 8.14], [98.553, 8.14], [98.553, 8.14], [98.553, 8.14]]], [[[98.627, 8.131], [98.627, 8.131], [98.627, 8.131], [98.627, 8.131]]], [[[98.736, 8.178], [98.736, 8.178], [98.736, 8.178], [98.736, 8.178]]], [[[98.535, 8.156], [98.535, 8.156], [98.535, 8.156], [98.535, 8.156]]], [[[98.577, 8.15], [98.577, 8.15], [98.577, 8.15], [98.577, 8.15]]], [[[98.545, 8.147], [98.545, 8.147], [98.545, 8.147], [98.545, 8.147]]], [[[98.411, 8.16], [98.411, 8.16], [98.411, 8.16], [98.411, 8.16]]], [[[98.541, 8.165], [98.541, 8.165], [98.541, 8.165], [98.541, 8.165]]], [[[98.54, 8.158], [98.54, 8.158], [98.54, 8.158], [98.54, 8.158]]], [[[98.675, 8.118], [98.675, 8.118], [98.675, 8.118], [98.675, 8.118]]], [[[98.678, 8.122], [98.678, 8.122], [98.678, 8.122], [98.678, 8.122]]], [[[98.561, 8.12], [98.561, 8.12], [98.561, 8.12], [98.561, 8.12]]], [[[98.669, 8.127], [98.669, 8.127], [98.669, 8.127], [98.669, 8.127]]], [[[98.668, 8.123], [98.668, 8.123], [98.668, 8.123], [98.668, 8.123]]], [[[98.66, 8.119], [98.66, 8.119], [98.66, 8.119], [98.66, 8.119]]], [[[98.679, 8.078], [98.679, 8.078], [98.679, 8.078], [98.679, 8.078]]], [[[98.628, 8.079], [98.628, 8.079], [98.628, 8.079], [98.628, 8.079]]], [[[98.686, 8.09], [98.686, 8.09], [98.686, 8.09], [98.686, 8.09]]], [[[98.689, 8.1], [98.689, 8.1], [98.689, 8.1], [98.689, 8.1]]], [[[98.707, 8.112], [98.707, 8.112], [98.707, 8.112], [98.707, 8.112]]], [[[98.674, 8.114], [98.674, 8.114], [98.674, 8.114], [98.674, 8.114]]], [[[98.66, 8.116], [98.66, 8.116], [98.66, 8.116], [98.66, 8.116]]], [[[98.705, 8.107], [98.705, 8.107], [98.705, 8.107], [98.705, 8.107]]], [[[98.682, 8.105], [98.682, 8.105], [98.682, 8.105], [98.682, 8.105]]], [[[98.687, 8.105], [98.687, 8.105], [98.687, 8.105], [98.687, 8.105]]], [[[98.68, 8.098], [98.68, 8.098], [98.68, 8.098], [98.68, 8.098]]], [[[98.415, 8.099], [98.415, 8.099], [98.415, 8.099], [98.415, 8.099]]], [[[98.423, 8.116], [98.423, 8.116], [98.423, 8.116], [98.423, 8.116]]], [[[98.676, 8.117], [98.676, 8.117], [98.676, 8.117], [98.676, 8.117]]], [[[98.492, 8.201], [98.492, 8.201], [98.492, 8.201], [98.492, 8.201]]], [[[98.51, 8.206], [98.51, 8.206], [98.51, 8.206], [98.51, 8.206]]], [[[98.691, 8.205], [98.691, 8.205], [98.691, 8.205], [98.691, 8.205]]], [[[98.729, 8.221], [98.729, 8.221], [98.729, 8.221], [98.729, 8.221]]], [[[98.501, 8.221], [98.501, 8.221], [98.501, 8.221], [98.501, 8.221]]], [[[98.724, 8.219], [98.724, 8.219], [98.724, 8.219], [98.724, 8.219]]], [[[98.727, 8.219], [98.727, 8.219], [98.727, 8.219], [98.727, 8.219]]], [[[98.729, 8.213], [98.729, 8.213], [98.729, 8.213], [98.729, 8.213]]], [[[98.688, 8.213], [98.688, 8.213], [98.688, 8.213], [98.688, 8.213]]], [[[98.691, 8.209], [98.691, 8.209], [98.691, 8.209], [98.691, 8.209]]], [[[98.733, 8.23], [98.733, 8.23], [98.733, 8.23], [98.733, 8.23]]], [[[98.731, 8.231], [98.731, 8.231], [98.731, 8.231], [98.731, 8.231]]], [[[98.73, 8.228], [98.73, 8.228], [98.73, 8.228], [98.73, 8.228]]], [[[98.478, 8.236], [98.478, 8.236], [98.478, 8.236], [98.478, 8.236]]], [[[98.71, 8.233], [98.71, 8.233], [98.71, 8.233], [98.71, 8.233]]], [[[98.613, 8.234], [98.613, 8.234], [98.613, 8.234], [98.613, 8.234]]], [[[98.709, 8.239], [98.709, 8.239], [98.709, 8.239], [98.709, 8.239]]], [[[98.477, 8.232], [98.477, 8.232], [98.477, 8.232], [98.477, 8.232]]], [[[98.635, 8.231], [98.635, 8.231], [98.635, 8.231], [98.635, 8.231]]], [[[98.635, 8.232], [98.635, 8.232], [98.635, 8.232], [98.635, 8.232]]], [[[98.458, 8.239], [98.458, 8.239], [98.458, 8.239], [98.458, 8.239]]], [[[98.464, 8.241], [98.464, 8.241], [98.464, 8.241], [98.464, 8.241]]], [[[98.704, 8.247], [98.704, 8.247], [98.704, 8.247], [98.704, 8.247]]], [[[98.642, 8.246], [98.642, 8.246], [98.642, 8.246], [98.642, 8.246]]], [[[98.641, 8.249], [98.641, 8.249], [98.641, 8.249], [98.641, 8.249]]], [[[98.495, 8.249], [98.495, 8.249], [98.495, 8.249], [98.495, 8.249]]], [[[98.612, 8.245], [98.612, 8.245], [98.612, 8.245], [98.612, 8.245]]], [[[98.492, 8.245], [98.492, 8.245], [98.492, 8.245], [98.492, 8.245]]], [[[98.478, 8.247], [98.478, 8.247], [98.478, 8.247], [98.478, 8.247]]], [[[98.637, 8.248], [98.637, 8.248], [98.637, 8.248], [98.637, 8.248]]], [[[98.478, 8.239], [98.478, 8.239], [98.478, 8.239], [98.478, 8.239]]], [[[98.504, 8.241], [98.504, 8.241], [98.504, 8.241], [98.504, 8.241]]], [[[98.5, 8.236], [98.5, 8.236], [98.5, 8.236], [98.5, 8.236]]], [[[98.501, 8.222], [98.501, 8.222], [98.501, 8.222], [98.501, 8.222]]], [[[98.499, 8.222], [98.499, 8.222], [98.499, 8.222], [98.499, 8.222]]], [[[98.507, 8.225], [98.507, 8.225], [98.507, 8.225], [98.507, 8.225]]], [[[98.591, 8.221], [98.591, 8.221], [98.591, 8.221], [98.591, 8.221]]], [[[98.502, 8.224], [98.502, 8.224], [98.502, 8.224], [98.502, 8.224]]], [[[98.501, 8.227], [98.501, 8.227], [98.501, 8.227], [98.501, 8.227]]], [[[98.729, 8.227], [98.729, 8.227], [98.729, 8.227], [98.729, 8.227]]], [[[98.487, 8.267], [98.487, 8.267], [98.487, 8.267], [98.487, 8.267]]], [[[98.633, 8.276], [98.633, 8.276], [98.633, 8.276], [98.633, 8.276]]], [[[98.505, 8.259], [98.505, 8.259], [98.505, 8.259], [98.505, 8.259]]], [[[98.493, 8.262], [98.493, 8.262], [98.493, 8.262], [98.493, 8.262]]], [[[98.462, 8.291], [98.462, 8.291], [98.462, 8.291], [98.462, 8.291]]], [[[98.465, 8.294], [98.465, 8.294], [98.465, 8.294], [98.465, 8.294]]], [[[98.465, 8.289], [98.465, 8.289], [98.465, 8.289], [98.465, 8.289]]], [[[98.482, 8.28], [98.482, 8.28], [98.482, 8.28], [98.482, 8.28]]], [[[98.474, 8.275], [98.474, 8.275], [98.474, 8.275], [98.474, 8.275]]], [[[98.629, 8.278], [98.629, 8.278], [98.629, 8.278], [98.629, 8.278]]], [[[98.632, 8.28], [98.632, 8.28], [98.632, 8.28], [98.632, 8.28]]], [[[98.703, 8.299], [98.703, 8.299], [98.703, 8.299], [98.703, 8.299]]], [[[98.692, 8.295], [98.692, 8.295], [98.692, 8.295], [98.692, 8.295]]], [[[98.47, 8.305], [98.47, 8.305], [98.47, 8.305], [98.47, 8.305]]], [[[98.499, 8.302], [98.499, 8.302], [98.499, 8.302], [98.499, 8.302]]], [[[98.479, 8.308], [98.479, 8.308], [98.479, 8.308], [98.479, 8.308]]], [[[98.696, 8.301], [98.696, 8.301], [98.696, 8.301], [98.696, 8.301]]], [[[98.499, 8.302], [98.499, 8.302], [98.499, 8.302], [98.499, 8.302]]], [[[98.498, 8.306], [98.498, 8.306], [98.498, 8.306], [98.498, 8.306]]], [[[98.618, 8.291], [98.618, 8.291], [98.618, 8.291], [98.618, 8.291]]], [[[98.587, 8.292], [98.587, 8.292], [98.587, 8.292], [98.587, 8.292]]], [[[98.494, 8.249], [98.494, 8.249], [98.494, 8.249], [98.494, 8.249]]], [[[98.511, 8.254], [98.511, 8.254], [98.511, 8.254], [98.511, 8.254]]], [[[98.638, 8.252], [98.638, 8.252], [98.638, 8.252], [98.638, 8.252]]], [[[98.472, 8.253], [98.472, 8.253], [98.472, 8.253], [98.472, 8.253]]], [[[98.472, 8.256], [98.472, 8.256], [98.472, 8.256], [98.472, 8.256]]], [[[98.508, 8.257], [98.508, 8.257], [98.508, 8.257], [98.508, 8.257]]], [[[98.628, 8.269], [98.628, 8.269], [98.628, 8.269], [98.628, 8.269]]], [[[98.582, 8.173], [98.582, 8.173], [98.582, 8.173], [98.582, 8.173]]], [[[98.565, 8.169], [98.565, 8.169], [98.565, 8.169], [98.565, 8.169]]], [[[98.594, 8.126], [98.594, 8.126], [98.594, 8.126], [98.594, 8.126]]], [[[98.729, 8.18], [98.729, 8.18], [98.729, 8.18], [98.729, 8.18]]], [[[98.495, 8.181], [98.495, 8.181], [98.495, 8.181], [98.495, 8.181]]], [[[98.538, 8.185], [98.538, 8.185], [98.538, 8.185], [98.538, 8.185]]], [[[98.723, 8.183], [98.723, 8.183], [98.723, 8.183], [98.723, 8.183]]], [[[98.73, 8.185], [98.73, 8.185], [98.73, 8.185], [98.73, 8.185]]], [[[98.727, 8.192], [98.727, 8.192], [98.727, 8.192], [98.727, 8.192]]], [[[98.686, 8.187], [98.686, 8.187], [98.686, 8.187], [98.686, 8.187]]], [[[98.664, 8.188], [98.664, 8.188], [98.664, 8.188], [98.664, 8.188]]], [[[98.662, 8.188], [98.662, 8.188], [98.662, 8.188], [98.662, 8.188]]], [[[98.457, 8.196], [98.457, 8.196], [98.457, 8.196], [98.457, 8.196]]], [[[98.508, 8.197], [98.508, 8.197], [98.508, 8.197], [98.508, 8.197]]], [[[98.61, 8.196], [98.61, 8.196], [98.61, 8.196], [98.61, 8.196]]], [[[98.727, 8.196], [98.727, 8.196], [98.727, 8.196], [98.727, 8.196]]], [[[98.636, 8.199], [98.636, 8.199], [98.636, 8.199], [98.636, 8.199]]], [[[98.726, 8.195], [98.726, 8.195], [98.726, 8.195], [98.726, 8.195]]], [[[98.632, 8.195], [98.632, 8.195], [98.632, 8.195], [98.632, 8.195]]], [[[99.025, 7.796], [99.025, 7.796], [99.025, 7.796], [99.025, 7.796]]], [[[98.758, 7.762], [98.758, 7.762], [98.758, 7.762], [98.758, 7.762]]], [[[98.303, 7.766], [98.303, 7.766], [98.303, 7.766], [98.303, 7.766]]], [[[98.758, 7.763], [98.758, 7.763], [98.758, 7.763], [98.758, 7.763]]], [[[98.983, 7.777], [98.983, 7.777], [98.983, 7.777], [98.983, 7.777]]], [[[98.285, 7.821], [98.285, 7.821], [98.285, 7.821], [98.285, 7.821]]], [[[98.772, 7.82], [98.772, 7.82], [98.772, 7.82], [98.772, 7.82]]], [[[98.793, 7.816], [98.793, 7.816], [98.793, 7.816], [98.793, 7.816]]], [[[98.531, 7.799], [98.531, 7.799], [98.531, 7.799], [98.531, 7.799]]], [[[98.377, 7.801], [98.377, 7.801], [98.377, 7.801], [98.377, 7.801]]], [[[98.994, 7.806], [98.994, 7.806], [98.994, 7.806], [98.994, 7.806]]], [[[98.359, 7.785], [98.359, 7.785], [98.359, 7.785], [98.359, 7.785]]], [[[98.998, 7.797], [98.998, 7.797], [98.998, 7.797], [98.998, 7.797]]], [[[98.983, 7.809], [98.983, 7.809], [98.983, 7.809], [98.983, 7.809]]], [[[98.334, 7.76], [98.334, 7.76], [98.334, 7.76], [98.334, 7.76]]], [[[98.476, 7.751], [98.476, 7.751], [98.476, 7.751], [98.476, 7.751]]], [[[98.394, 7.759], [98.394, 7.759], [98.394, 7.759], [98.394, 7.759]]], [[[98.773, 7.764], [98.773, 7.764], [98.773, 7.764], [98.773, 7.764]]], [[[99.017, 7.829], [99.017, 7.829], [99.017, 7.829], [99.017, 7.829]]], [[[99.018, 7.829], [99.018, 7.829], [99.018, 7.829], [99.018, 7.829]]], [[[99.015, 7.83], [99.015, 7.83], [99.015, 7.83], [99.015, 7.83]]], [[[98.984, 7.844], [98.984, 7.844], [98.984, 7.844], [98.984, 7.844]]], [[[98.984, 7.836], [98.984, 7.836], [98.984, 7.836], [98.984, 7.836]]], [[[99.015, 7.837], [99.015, 7.837], [99.015, 7.837], [99.015, 7.837]]], [[[98.999, 7.895], [98.999, 7.895], [98.999, 7.895], [98.999, 7.895]]], [[[98.397, 7.853], [98.397, 7.853], [98.397, 7.853], [98.397, 7.853]]], [[[98.417, 7.825], [98.417, 7.825], [98.417, 7.825], [98.417, 7.825]]], [[[98.423, 7.833], [98.423, 7.833], [98.423, 7.833], [98.423, 7.833]]], [[[98.292, 8], [98.292, 8], [98.292, 8], [98.292, 8]]], [[[98.5, 8.307], [98.5, 8.307], [98.5, 8.307], [98.5, 8.307]]], [[[98.57, 9.958], [98.78, 10.678], [99.229, 11.113], [99.659, 11.829], [99.1, 13.073], [99.167, 13.726], [98.968, 14.082], [98.597, 14.328], [98.246, 14.832], [98.198, 15.234], [98.56, 15.336], [98.561, 16.034], [98.805, 16.105], [98.347, 17.048], [97.672, 17.882], [97.639, 18.288], [97.387, 18.505], [97.768, 18.578], [97.863, 19.577], [98.034, 19.805], [98.566, 19.672], [98.991, 19.742], [99.077, 20.101], [99.539, 20.148], [99.956, 20.465], [100.085, 20.352], [100.331, 20.398], [100.528, 20.144], [100.486, 19.543], [101.281, 19.581], [101.354, 19.048], [101.052, 18.426], [101.184, 18.065], [100.968, 17.572], [101.306, 17.651], [102.088, 18.22], [102.679, 17.857], [103.026, 17.972], [103.403, 18.448], [103.973, 18.337], [104.271, 17.87], [104.796, 17.402], [104.735, 16.545], [105.04, 16.11], [105.424, 16.006], [105.635, 15.663], [105.467, 15.131], [105.539, 14.583], [105.206, 14.343], [104.806, 14.437], [103.942, 14.33], [103.655, 14.439], [102.962, 14.212], [102.349, 13.277], [102.511, 12.67], [102.785, 12.4], [102.704, 12.172], [102.909, 11.65], [102.755, 12.041], [102.289, 12.191], [101.748, 12.708], [100.849, 12.654], [100.945, 13.463], [100.061, 13.418], [100.105, 13.058], [99.955, 12.619], [100.02, 12.189], [99.842, 11.961], [99.49, 10.967], [99.146, 10.343], [99.162, 9.68], [99.382, 9.191], [99.741, 9.327], [99.909, 9.099], [99.957, 8.62], [100.215, 8.441], [100.508, 7.318], [100.953, 6.879], [101.557, 6.846], [102.091, 6.244], [101.944, 5.872], [101.581, 5.934], [101.136, 5.613], [100.985, 5.81], [101.112, 6.252], [100.172, 6.694], [100.12, 6.423], [99.702, 6.86], [99.736, 7.128], [99.338, 7.378], [99.261, 7.655], [98.702, 8.312], [98.284, 8.204], [98.205, 8.553], [98.316, 9.195], [98.57, 9.958]]]]}}