{"type": "Feature", "properties": {"name": "East Timor", "iso1": "TL", "admin_level": 2, "osm_id": 305142, "countrylevel_id": "iso1:TL", "osm_data": {"localname": "Timór Lorosa'e", "official_name": "Repúblika Demokrátika Timor Lorosa'e", "alltags": {"flag": "http://upload.wikimedia.org/wikipedia/commons/2/26/Flag_of_East_Timor.svg", "name:af": "Oos-Timor", "name:cs": "Východní Timor", "name:el": "Ανατολικό Τιμόρ", "name:en": "East Timor", "name:es": "Timor Oriental", "name:fr": "Timor oriental", "name:hr": "Istočni Timor", "name:lt": "Rytų Timoras", "name:ms": "Timor Timur", "name:nl": "Oost-Timor", "name:no": "Øst-Timor", "name:pl": "Timor Wschodni", "name:ru": "Восточный Тимор", "name:sk": "Východný Timor", "name:ta": "கிழக்குத் திமோர்", "name:tt": "Көнчыгыш Тимор", "name:uk": "Східний Тимор", "name:zh": "东帝汶 / 東帝汶", "name:nan": "Tang Timor", "name:tet": "Timór Lorosa'e", "border_type": "nation", "driving_side": "left", "name:zh-Hans": "东帝汶", "name:zh-Hant": "東帝汶", "official_name": "Repúblika Demokrátika Timor Lorosa'e", "is_in:continent": "Asia", "default_language": "pt", "official_name:cs": "Demokratická republika Východní Timor", "official_name:en": "Democratic Republic of Timor-Leste", "official_name:es": "República Democrática de Timor Oriental", "official_name:fr": "République démocratique du Timor-Leste", "official_name:pt": "República Democrática de Timor-Leste", "official_name:ru": "Демократическая Республика Восточный Тимор"}}, "center_lat": -8.84, "center_lon": 125.83, "timezone": "Asia/Dili", "population": 1296311, "wikidata_id": "Q574", "wikipedia_id": "pt:Timor-Leste"}, "geometry": {"type": "MultiPolygon", "coordinates": [[[[124.043, -9.336], [124.476, -9.174], [124.35, -9.486], [124.043, -9.336]]], [[[125.714, -8.519], [125.714, -8.519], [125.714, -8.519], [125.714, -8.519]]], [[[127.331, -8.444], [127.331, -8.444], [127.331, -8.444], [127.331, -8.444]]], [[[125.619, -8.134], [125.619, -8.134], [125.619, -8.134], [125.619, -8.134]]], [[[124.95, -8.959], [125.123, -8.64], [125.852, -8.475], [126.554, -8.482], [126.961, -8.326], [127.299, -8.432], [127.011, -8.686], [126.592, -8.8], [125.935, -9.135], [125.087, -9.463], [124.95, -8.959]]]]}}