{"type": "Feature", "properties": {"name": "Kosovo", "iso1": "XK", "admin_level": 2, "osm_id": 2088990, "countrylevel_id": "iso1:XK", "osm_data": {"localname": "Kosova / Kosovo", "official_name": "Republika e Kosovës / Република Косово", "alltags": {"flag": "http://upload.wikimedia.org/wikipedia/commons/1/1f/Flag_of_Kosovo.svg", "name:af": "Kosovo", "name:am": "ኮሶቮ", "name:an": "Kosovo", "name:ar": "كوسوفو", "name:ay": "Kusuwu", "name:az": "Kosovo", "name:ba": "Косово", "name:be": "Косава", "name:bg": "Косово", "name:bn": "কসোভো", "name:bo": "ཁོ་སོ་ཝོ།", "name:br": "Kosovo", "name:bs": "Kosovo", "name:ca": "Kosovo", "name:ce": "Косово", "name:cs": "Kosovo", "name:cv": "Косово", "name:cy": "Cosofo", "name:da": "Kosovo", "name:el": "Κόσοβο", "name:en": "Kosovo", "name:eo": "Kosovo", "name:es": "Kosovo", "name:et": "Kosovo", "name:eu": "Kosovo", "name:fa": "کوزوو", "name:fi": "Kosovo", "name:fo": "Kosovo", "name:fr": "Kosovo", "name:fy": "Kosovo", "name:ga": "An Chosaiv", "name:gd": "Cosobho", "name:gl": "Kosovo", "name:gn": "Kosovo", "name:gv": "Kosovo", "name:he": "קוסובו", "name:hi": "कोसोवो गणराज्य", "name:hr": "Kosovo", "name:hu": "Koszovó", "name:hy": "Կոսովոն", "name:ia": "Kosovo", "name:id": "Kosovo", "name:ie": "Kosovo", "name:ig": "Kosovo", "name:io": "Kosovo", "name:is": "Kosóvó", "name:it": "Kosovo", "name:ja": "コソボ", "name:jv": "Kosovo", "name:ka": "კოსოვო", "name:kk": "Косово", "name:kl": "Kosovo", "name:kn": "ಕೊಸೊವೊ", "name:ko": "코소보", "name:ku": "Kosova", "name:kv": "Косово", "name:kw": "Kosova", "name:ky": "Косово", "name:la": "Kosovia", "name:lb": "Kosovo", "name:li": "Kosovo", "name:lo": "ປະເທດໂກໂຊໂວ", "name:lt": "Kosovas", "name:lv": "Kosova", "name:mk": "Косово", "name:ml": "കൊസോവോ", "name:mn": "Косово", "name:mr": "कोसोव्हो", "name:ms": "Kosovo", "name:mt": "Kosovo", "name:my": "ကိုဆိုဗို", "name:na": "Kosovo", "name:nl": "Kosovo", "name:nn": "Kosovo", "name:no": "Kosovo", "name:ny": "Kosovo", "name:oc": "Kosova", "name:os": "Косово", "name:pa": "ਕੋਸੋਵੋ ਗਣਰਾਜ", "name:pl": "Kosowo", "name:pt": "Kosovo", "name:qu": "Kusuwu", "name:rm": "Cosovo", "name:ro": "Kosovo", "name:ru": "Косово", "name:rw": "Kosovo", "name:sc": "Kòssovu", "name:sh": "Kosovo i Metohija", "name:si": "කොසෝවො", "name:sk": "Kosovo", "name:sl": "Kosovo", "name:sm": "Kosovo", "name:sn": "Kosovo", "name:so": "Kosofo", "name:sq": "Kosovo", "name:sr": "Косово", "name:su": "Kosovo", "name:sv": "Kosovo", "name:sw": "Kosovo", "name:ta": "கொசோவோ", "name:te": "కొసావో", "name:th": "ประเทศคอซอวอ", "name:tl": "Kosovo", "name:tr": "Kosova", "name:ts": "Kosovo", "name:tt": "Косово Җөмһүрияте", "name:uk": "Косово", "name:ur": "کوسووہ", "name:uz": "Kosovo", "name:vi": "Kosovo", "name:vo": "Kosovän", "name:yo": "Kósófò", "name:zh": "科索沃", "currency": "Euro", "int_name": "Kosovo", "name:als": "Kosovo", "name:ast": "Kosovu", "name:azb": "کوزووو", "name:bar": "Kosovo", "name:bat": "Kuosuovs", "name:bcl": "Kosobo", "name:cbk": "Kosovo", "name:cdo": "Kosovo", "name:ceb": "Kosovo", "name:chr": "ᎪᏗᏉ", "name:ckb": "کۆسۆڤۆ", "name:crh": "Kosovo", "name:diq": "Kosova", "name:dsw": "Kosowo", "name:ext": "Cosovu", "name:fiu": "Kosovo", "name:frp": "Kosovo", "name:frr": "Kosovo", "name:gag": "Kosova", "name:gan": "科索沃", "name:got": "𐌺𐌰𐌿𐍃𐍉𐌱𐍉", "name:hak": "Kosovo", "name:hsb": "Kosowo", "name:jbo": "kosovas", "name:kab": "Kosovo", "name:kbd": "Косово", "name:ksh": "Kosovo", "name:lad": "Kosovo", "name:lbe": "Косова", "name:lfn": "Cosovo", "name:lij": "Kosovo", "name:lmo": "Kosovo", "name:lrc": "کوزوڤو", "name:mzn": "کوزوو جمهوری", "name:nah": "Cosovo", "name:nds": "Kosovo", "name:nov": "Kosovo", "name:nrm": "Kosovo", "name:pap": "Kosovo", "name:pcd": "Kosovo", "name:pms": "Kosovo", "name:pnb": "کوسوو", "name:pnt": "Κόσοβο", "name:roa": "Cosova", "name:rue": "Косово", "name:sah": "Косова", "name:scn": "Kòssuvu", "name:sco": "Kosovo", "name:srn": "Kosovokondre", "name:stq": "Kosovo", "name:szl": "Kosowo", "name:tzl": "Kosove", "name:vec": "Kosovo", "name:vls": "Kosovo", "name:war": "Kosovo", "name:wuu": "科索沃", "name:xal": "Косовин Таңһч", "name:xmf": "კოსოვო", "name:yue": "科索沃", "capital_city": "Prishtina", "name:sr-Latn": "Kosovo", "official_name": "Republika e Kosovës / Република Косово", "name:be-tarask": "Косава", "according_to:CN": "no", "according_to:IN": "no", "according_to:RS": "no", "according_to:RU": "no", "according_to:UA": "no", "according_to:XK": "yes", "is_in:continent": "Europe", "official_name:ar": "جمهورية كوسوفو", "official_name:cs": "Kosovská republika", "official_name:de": "Republik Kosovo", "official_name:en": "Republic of Kosovo", "official_name:eo": "Respubliko Kosovo", "official_name:es": "República de Kosovo", "official_name:fa": "جمهوری کوزوو", "official_name:fr": "République du Kosovo", "official_name:ru": "Косово (республика)", "official_name:sq": "Republika e Kosovës", "official_name:sr": "Република Косово", "official_name:sr-Latn": "Republika Kosovo", "official_name:sr:1945-1999": "Аутономна покрајина Косово и Метохија"}}, "center_lat": 42.59, "center_lon": 20.89, "timezone": "Europe/Belgrade", "population": 1883018, "wikidata_id": "Q1246", "wikipedia_id": "en:Kosovo"}, "geometry": {"type": "MultiPolygon", "coordinates": [[[[20.078, 42.556], [20.457, 42.272], [20.594, 41.877], [21.104, 42.206], [21.587, 42.263], [21.752, 42.701], [21.398, 42.745], [21.137, 43.114], [20.593, 43.205], [20.356, 42.832], [20.078, 42.556]]]]}}