{"type": "Feature", "properties": {"name": "Bangkok", "iso2": "TH-10", "admin_level": 4, "osm_id": 92277, "countrylevel_id": "iso2:TH-10", "osm_data": {"localname": "กรุงเทพมหานคร", "official_name": "", "alltags": {"name:ar": "بانكوك", "name:en": "Bangkok", "name:eo": "Bankoko", "name:fa": "بانکوک", "name:fr": "Bangkok", "name:ia": "Bangkok", "name:io": "Bangkok", "name:ja": "バンコク", "name:ko": "방콕", "name:mi": "Pangakoko", "name:pl": "Bangkok", "name:ru": "Бангкок", "name:th": "กรุงเทพมหานคร", "name:uk": "Бангкок", "name:ur": "بینکاک", "old_name:th": "บางกอก", "name:th-Latn": "Krung Thep Maha Nakhon", "short_name:th": "กรุงเทพ", "official_name:ko": "끄룽텝"}}, "center_lat": 13.77, "center_lon": 100.62, "timezone": "Asia/Bangkok", "population": 5676648, "wikidata_id": "Q1861", "wikipedia_id": "en:Bangkok"}, "geometry": {"type": "MultiPolygon", "coordinates": [[[[100.409, 13.493], [100.413, 13.561], [100.395, 13.557], [100.376, 13.619], [100.346, 13.644], [100.333, 13.721], [100.328, 13.804], [100.5, 13.8], [100.544, 13.85], [100.568, 13.951], [100.613, 13.955], [100.642, 13.931], [100.69, 13.931], [100.687, 13.916], [100.753, 13.918], [100.793, 13.932], [100.914, 13.946], [100.902, 13.849], [100.938, 13.814], [100.91, 13.791], [100.861, 13.697], [100.788, 13.717], [100.716, 13.718], [100.716, 13.717], [100.698, 13.656], [100.655, 13.672], [100.65, 13.652], [100.604, 13.658], [100.602, 13.659], [100.559, 13.706], [100.548, 13.673], [100.523, 13.678], [100.521, 13.605], [100.496, 13.588], [100.455, 13.605], [100.445, 13.553], [100.453, 13.504], [100.409, 13.493]]]]}}