{"type": "Feature", "properties": {"name": "Pathum Thani Province", "iso2": "TH-13", "admin_level": 4, "osm_id": 1908797, "countrylevel_id": "iso2:TH-13", "osm_data": {"localname": "จังหวัดปทุมธานี", "official_name": "", "alltags": {"name:en": "Pathum Thani Province", "name:ja": "パトゥムターニー県", "name:pl": "Pathum Thani", "name:ru": "Патхумтхани", "name:th": "จังหวัดปทุมธานี", "name:uk": "Патхумтхані", "name:th-Latn": "Changwat Pathum Thani"}}, "center_lat": 14.07, "center_lon": 100.68, "timezone": "Asia/Bangkok", "population": 1146092, "wikidata_id": "Q459748", "wikipedia_id": "en:Pathum Thani Province"}, "geometry": {"type": "MultiPolygon", "coordinates": [[[[100.568, 13.951], [100.613, 13.955], [100.642, 13.931], [100.69, 13.931], [100.687, 13.916], [100.753, 13.918], [100.793, 13.932], [100.914, 13.946], [100.914, 13.961], [100.914, 14.222], [100.947, 14.237], [100.952, 14.272], [100.892, 14.244], [100.892, 14.276], [100.823, 14.246], [100.606, 14.135], [100.489, 14.109], [100.345, 14.117], [100.332, 14.057], [100.355, 14.003], [100.457, 13.975], [100.489, 13.942], [100.568, 13.951]]]]}}