{"type": "Feature", "properties": {"name": "Phatthalung Province", "iso2": "TH-93", "admin_level": 4, "osm_id": 1908800, "countrylevel_id": "iso2:TH-93", "osm_data": {"localname": "จังหวัดพัทลุง", "official_name": "", "alltags": {"name:en": "Phatthalung Province", "name:ja": "パッタルン県", "name:ko": "파탈룽 주", "name:pl": "Phatthalung", "name:ru": "Пхаттхалунг", "name:th": "จังหวัดพัทลุง", "name:uk": "Пхаттхалунг", "name:zh": "博他侖府", "name:th-Latn": "Changwat Phatthalung"}}, "center_lat": 7.51, "center_lon": 100.07, "timezone": "Asia/Bangkok", "population": 525044, "wikidata_id": "Q243808", "wikipedia_id": "en:Phatthalung Province"}, "geometry": {"type": "MultiPolygon", "coordinates": [[[[99.744, 7.851], [99.77, 7.772], [99.788, 7.757], [99.796, 7.699], [99.82, 7.653], [99.799, 7.642], [99.796, 7.595], [99.829, 7.547], [99.826, 7.52], [99.885, 7.415], [99.883, 7.384], [99.909, 7.335], [99.944, 7.296], [99.938, 7.251], [99.967, 7.17], [100.031, 7.092], [100.072, 7.137], [100.154, 7.181], [100.185, 7.177], [100.233, 7.201], [100.285, 7.208], [100.296, 7.233], [100.333, 7.242], [100.364, 7.301], [100.38, 7.309], [100.399, 7.263], [100.426, 7.281], [100.429, 7.307], [100.405, 7.375], [100.395, 7.493], [100.378, 7.524], [100.341, 7.525], [100.301, 7.489], [100.26, 7.496], [100.25, 7.52], [100.239, 7.618], [100.204, 7.771], [100.169, 7.795], [100.129, 7.802], [100.051, 7.817], [100.016, 7.851], [100.009, 7.879], [99.952, 7.906], [99.909, 7.89], [99.812, 7.887], [99.791, 7.862], [99.744, 7.851]]]]}}