{"type": "Feature", "properties": {"name": "Kohgiluye and Buyer Ahmad Province", "iso2": "IR-18", "admin_level": 3, "osm_id": 241478, "countrylevel_id": "iso2:IR-18", "osm_data": {"localname": "استان کهگیلویه و بویر احمد", "official_name": "", "alltags": {"name:ar": "محافظة كهكيلويه وبوير أحمد", "name:en": "Kohgiluye and Buyer Ahmad Province", "name:fr": "Kohkiluyeh et Buyer Ahmad", "name:ja": "コフギールーイェ・ブーイェル=アフマド", "name:ku": "Kûgîluyî û Buwêr Ehmed", "name:pl": "Kohgiluje wa Bujerahmad", "name:ru": "Кохгилуйе и Бойерахмед", "name:tr": "Kohgiluye ve Buyer Ahmed Eyaleti", "name:uk": "Кохгілує і Боєрахмед", "is_in:country": "Iran", "short_name:ar": "كهكيلويه وبوير أحمد", "is_in:continent": "Asia", "is_in:country_code": "IR"}}, "center_lat": 30.78, "center_lon": 50.85, "timezone": "Asia/Tehran", "population": 713052, "wikidata_id": "Q180068", "wikipedia_id": "en:Kohgiluyeh and Boyer-Ahmad Province"}, "geometry": {"type": "MultiPolygon", "coordinates": [[[[50.514, 30.166], [50.603, 29.944], [50.837, 29.963], [51.293, 30.371], [51.137, 30.598], [51.754, 30.372], [51.785, 30.702], [51.33, 31.196], [50.293, 31.482], [49.886, 30.964], [50.55, 30.563], [50.514, 30.166]]]]}}