{"type": "Feature", "properties": {"name": "Lorestan Province", "iso2": "IR-20", "admin_level": 3, "osm_id": 229893, "countrylevel_id": "iso2:IR-20", "osm_data": {"localname": "استان لرستان‎", "official_name": "", "alltags": {"name:en": "Lorestan Province", "name:es": "Lorestán", "name:fr": "Lorestan", "name:it": "Luristan", "name:ja": "ロレスターン", "name:ku": "Luristan", "name:pl": "Lorestan", "name:ru": "Лурестан", "name:tr": "Luristan Eyaleti", "name:uk": "Лурестан", "is_in:country": "Iran", "is_in:continent": "Asia", "is_in:country_code": "IR"}}, "center_lat": 33.45, "center_lon": 48.48, "timezone": "Asia/Tehran", "population": 1760649, "wikidata_id": "Q1131727", "wikipedia_id": "en:Lorestan Province"}, "geometry": {"type": "MultiPolygon", "coordinates": [[[[47.969, 32.658], [48.26, 32.988], [49.369, 32.844], [49.516, 32.725], [49.732, 32.808], [49.948, 33.387], [49.405, 33.75], [49.011, 33.711], [49.078, 34.015], [48.379, 34.001], [47.887, 34.255], [47.732, 34.373], [47.48, 33.942], [47.408, 33.735], [46.862, 33.522], [47.936, 32.899], [47.969, 32.658]]]]}}