{"type": "Feature", "properties": {"name": "Markazi Province", "iso2": "IR-22", "admin_level": 3, "osm_id": 229958, "countrylevel_id": "iso2:IR-22", "osm_data": {"localname": "استان مرکزی", "official_name": "", "alltags": {"name:ar": "محافظة مركزي", "name:en": "Markazi Province", "name:es": "Markazi", "name:fa": "استان مرکزی", "name:fr": "Markazi", "name:ja": "マルキャズィー", "name:ku": "Merkezî", "name:pl": "Markazi", "name:ru": "Центральный остан", "name:tr": "Merkezi Eyaleti", "name:uk": "Меркезі", "is_in:country": "Iran", "short_name:ar": "مركزي", "is_in:continent": "Asia", "is_in:country_code": "IR"}}, "center_lat": 34.5, "center_lon": 49.95, "timezone": "Asia/Tehran", "population": 1429475, "wikidata_id": "Q134417", "wikipedia_id": "fa:استان مرکزی"}, "geometry": {"type": "MultiPolygon", "coordinates": [[[[49.078, 34.015], [49.011, 33.711], [49.405, 33.75], [49.948, 33.387], [50.233, 33.603], [51.047, 33.816], [50.908, 34.152], [50.428, 34.211], [50.086, 34.586], [50.167, 34.821], [50.705, 34.868], [50.849, 35.173], [50.896, 35.485], [50.353, 35.571], [50.23, 35.541], [49.432, 35.419], [49.383, 34.913], [49.175, 34.866], [49.009, 34.324], [49.078, 34.015]]]]}}