{"type": "Feature", "properties": {"name": "Lạng Sơn Province", "iso2": "VN-09", "admin_level": 4, "osm_id": 5522596, "countrylevel_id": "iso2:VN-09", "osm_data": {"localname": "Tỉnh Lạng Sơn", "official_name": "", "alltags": {"name:ar": "محافظة لانغ سون", "name:bg": "Ланг Сон", "name:br": "Proviñs Lang Son", "name:en": "Lạng Sơn Province", "name:es": "Lạng Sơn", "name:fa": "استان لانگ سون", "name:fi": "Lạng Sơn", "name:fr": "Province de Lạng Sơn", "name:id": "Provinsi Lạng Sơn", "name:it": "Provincia di Lang Son", "name:ja": "ランソン省", "name:ko": "랑선성", "name:mn": "Ланшонь", "name:nl": "Lạng Sơn", "name:pl": "Prowincja Lạng Sơn", "name:pt": "Lang Son", "name:ro": "Lạng Sơn", "name:ru": "Лангшон", "name:sr": "Ланг Шон", "name:sv": "Lang Son", "name:sw": "Mkoa wa Lạng Sơn", "name:uk": "Лангшон", "name:ur": "لانگ سون صوبہ", "name:zh": "諒山省", "alt_name": "Lạng Sơn"}}, "center_lat": 21.84, "center_lon": 106.6, "timezone": "Asia/Bangkok", "wikidata_id": "Q33403", "wikipedia_id": "vi:Lạng Sơn"}, "geometry": {"type": "MultiPolygon", "coordinates": [[[[106.185, 21.604], [106.377, 21.394], [106.571, 21.603], [107.032, 21.325], [107.362, 21.6], [106.737, 22.007], [106.56, 22.422], [106.185, 22.387], [106.099, 21.938], [106.185, 21.604]]]]}}