{"type": "Feature", "properties": {"name": "Hoà Bình province", "iso2": "VN-14", "admin_level": 4, "osm_id": 1902973, "countrylevel_id": "iso2:VN-14", "osm_data": {"localname": "Tỉnh Hòa Bình", "official_name": "Tỉnh Hòa Bình", "alltags": {"name:ar": "محافظة هوا بنه", "name:bg": "Хоа Бин", "name:en": "Hoà Bình province", "name:fa": "استان هوا بین", "name:fi": "Hòa Bình", "name:fr": "Province de Hòa Bình", "name:id": "Provinsi Hòa Bình", "name:it": "Provincia di Hoa Binh", "name:ja": "ホアビン", "name:ko": "호아빈성", "name:mn": "Хуа Бэн", "name:nl": "Hòa Bình", "name:no": "Hoa Binh", "name:pl": "Prowincja Hoà Bình", "name:pt": "Hoa Binh", "name:ru": "Хоабинь", "name:sr": "Хоа Бињ", "name:sv": "Hoa Binh", "name:sw": "Mkoa wa Hòa Bình", "name:th": "จังหวัดฮหว่าบิ่ญ", "name:uk": "Хоабінь", "name:ur": "ہوا بنہ صوبہ", "name:vi": "Hòa Bình", "name:zh": "和平省", "alt_name": "Hoà Bình", "name:mtq": "Wa̒ Bi̒nh", "population": "799800", "official_name": "Tỉnh Hòa Bình", "offical_name:vi": "Tỉnh Hòa Bình", "official_name:mtq": "Tính Wa̒ Bi̒nh", "is_in:country_code": "VN"}}, "center_lat": 20.71, "center_lon": 105.34, "timezone": "Asia/Bangkok", "wikidata_id": "Q36015", "wikipedia_id": "vi:Hòa Bình"}, "geometry": {"type": "MultiPolygon", "coordinates": [[[[104.846, 20.652], [105.542, 20.364], [105.857, 20.427], [105.769, 20.565], [105.581, 20.928], [105.318, 21.012], [104.912, 21.111], [105.025, 20.802], [104.846, 20.652]]]]}}