{"type": "Feature", "properties": {"name": "Bac Kan Province", "iso2": "VN-53", "admin_level": 4, "osm_id": 1903471, "countrylevel_id": "iso2:VN-53", "osm_data": {"localname": "Tỉnh Bắc Kạn", "official_name": "", "alltags": {"name:ar": "محافظة باك كان", "name:bg": "Бак Кан", "name:en": "Bac Kan Province", "name:es": "Bắc Kạn", "name:fa": "استان باک کان", "name:fi": "Bắc Kạn", "name:fr": "Province de Bắc Kạn", "name:id": "Provinsi Bắc Kạn", "name:it": "Provincia di Bac Kan", "name:ja": "バックカン", "name:ko": "박깐성", "name:mn": "Бак Гайн", "name:nl": "Bắc Kạn", "name:pl": "Prowincja Bắc Kạn", "name:pt": "Bac Kan", "name:ro": "Bắc Kạn", "name:ru": "Баккан", "name:sr": "Бак Кан", "name:sv": "Bắc Kạn", "name:sw": "Mkoa wa Bắc Kạn", "name:tg": "Вилояти Бак Кан", "name:th": "จังหวัดบั๊กกั่น", "name:uk": "Баккан", "name:ur": "باک کان صوبہ", "name:zh": "北𣴓省", "population": "298700", "is_in:country_code": "VN"}}, "center_lat": 22.24, "center_lon": 105.81, "timezone": "Asia/Bangkok", "wikidata_id": "Q36404", "wikipedia_id": "vi:Bắc Kạn"}, "geometry": {"type": "MultiPolygon", "coordinates": [[[[105.556, 21.957], [105.8, 21.805], [106.099, 21.938], [106.185, 22.387], [106.05, 22.577], [105.532, 22.633], [105.434, 22.209], [105.556, 21.957]]]]}}