{"type": "Feature", "properties": {"name": "Carinthia", "iso2": "AT-2", "admin_level": 4, "osm_id": 52345, "countrylevel_id": "iso2:AT-2", "osm_data": {"localname": "Kärnten", "official_name": "", "alltags": {"name:ar": "كيرنتن", "name:be": "Карынтыя", "name:br": "Karintia", "name:ca": "Caríntia", "name:cs": "Korutany", "name:en": "Carinthia", "name:eo": "Karintio", "name:es": "Carintia", "name:fr": "Carinthie", "name:hr": "Koruška", "name:hu": "Karintia", "name:it": "Carinzia", "name:la": "Carinthia", "name:mk": "Корушка", "name:nl": "Karinthië", "name:pl": "Karyntia", "name:pt": "Caríntia", "name:ru": "Каринтия", "name:sk": "Korutánsko", "name:sl": "Koroška", "name:ta": "கரின்தையா", "website": "https://www.ktn.gv.at", "name:hsb": "Korutanska", "ref:at:gkz": "2", "alt_name:cs": "Korutansko", "alt_name:mk": "Каринтија", "alt_name:sl": "Avstrijska Koroška", "is_in:country": "Austria", "name:be-tarask": "Карынтыя", "name:prefix:at": "Bundesland", "is_in:continent": "Europe", "is_in:country_code": "AT"}}, "center_lat": 46.77, "center_lon": 13.91, "timezone": "Europe/Vienna", "population": 560300, "wikidata_id": "Q37985", "wikipedia_id": "de:Kärnten"}, "geometry": {"type": "MultiPolygon", "coordinates": [[[[12.656, 47.1], [12.965, 46.797], [12.691, 46.657], [12.732, 46.635], [13.714, 46.523], [14.006, 46.481], [14.153, 46.437], [14.237, 46.432], [14.442, 46.424], [14.565, 46.372], [14.675, 46.451], [14.819, 46.509], [14.828, 46.548], [14.884, 46.612], [14.922, 46.608], [15.065, 46.652], [14.831, 47.05], [13.785, 46.944], [13.362, 47.099], [12.656, 47.1]]]]}}