{"type": "Feature", "properties": {"name": "Styria", "iso2": "AT-6", "admin_level": 4, "osm_id": 35183, "countrylevel_id": "iso2:AT-6", "osm_data": {"localname": "Steiermark", "official_name": "", "alltags": {"name:ar": "شتايرمارك", "name:be": "Штырыя", "name:ca": "Estíria", "name:cs": "Štýrsko", "name:en": "Styria", "name:eo": "Stirio", "name:es": "Estiria", "name:fr": "Styrie", "name:hr": "Štajerska", "name:hu": "Stájerország", "name:it": "Stiria", "name:mk": "Штаерска", "name:nl": "Stiermarken", "name:pl": "Styria", "name:pt": "Estíria", "name:ru": "Штирия", "name:sk": "Štajersko", "name:sl": "Štajerska (zvezna dežela)", "name:ta": "சிடிரியா", "website": "http://www.stmk.gv.at", "ref:at:gkz": "6", "alt_name:mk": "Штирија", "alt_name:sl": "Avstrijska Štajerska", "name:be-tarask": "Штырыя", "name:prefix:at": "Bundesland"}}, "center_lat": 47.27, "center_lon": 15.02, "timezone": "Europe/Vienna", "population": 1231865, "wikidata_id": "Q41358", "wikipedia_id": "de:Steiermark"}, "geometry": {"type": "MultiPolygon", "coordinates": [[[[13.785, 46.944], [14.831, 47.05], [15.065, 46.652], [15.082, 46.645], [15.16, 46.657], [15.335, 46.653], [15.402, 46.654], [15.52, 46.622], [15.542, 46.63], [15.623, 46.68], [15.786, 46.707], [15.96, 46.687], [16.033, 46.658], [16.038, 46.656], [16.04, 46.691], [15.989, 46.775], [15.996, 46.835], [16.172, 47.422], [15.375, 47.825], [14.738, 47.749], [14.326, 47.608], [13.779, 47.718], [13.586, 47.475], [13.994, 47.142], [13.785, 46.944]]]]}}