{"type": "Feature", "properties": {"name": "Deir Ezzor", "iso2": "SY-DY", "admin_level": 4, "osm_id": 184867, "countrylevel_id": "iso2:SY-DY", "osm_data": {"localname": "دير الزور", "official_name": "", "alltags": {"name:ar": "دير الزور", "name:cs": "guvernorát Dajr az-Zaur", "name:en": "Deir Ezzor", "name:es": "Gobernación de Deir ez-Zor", "name:fr": "Gouvernorat de Deir ez-Zor", "name:ja": "デリゾール県", "name:pl": "Dajr az-Zaur", "name:ru": "Дайр-эз-Заур", "name:zh": "代尔祖尔省", "sorting_name:cs": "Dajr az-Zaur"}}, "center_lat": 35.18, "center_lon": 40.26, "timezone": "Asia/Damascus", "population": 1239000, "wikidata_id": "Q232387", "wikipedia_id": "ar:محافظة دير الزور"}, "geometry": {"type": "MultiPolygon", "coordinates": [[[[39.242, 35.249], [39.36, 35.174], [39.443, 35.03], [39.433, 34.951], [40, 34.28], [40.163, 34.076], [40.64, 34.315], [40.978, 34.398], [41.017, 34.448], [41.122, 34.654], [41.228, 34.778], [41.235, 34.82], [41.223, 34.894], [41.227, 34.974], [41.219, 35.014], [41.219, 35.109], [41.225, 35.204], [41.242, 35.285], [41.275, 35.385], [41.256, 35.418], [41.262, 35.456], [41.328, 35.545], [41.324, 35.554], [41.206, 35.565], [41.069, 35.565], [40.942, 35.577], [40.808, 35.61], [40.71, 35.672], [39.92, 36.305], [39.83, 36.417], [39.804, 36.464], [39.605, 36.033], [39.242, 35.249]]]]}}