{"type": "Feature", "properties": {"name": "Northern Bahr el Ghazal", "iso2": "SS-BN", "admin_level": 4, "osm_id": 2190520, "countrylevel_id": "iso2:SS-BN", "osm_data": {"localname": "Northern Bahr el Ghazal", "official_name": "", "alltags": {"name:ar": "شمال بحر الغزال", "name:en": "Northern Bahr el Ghazal", "name:es": "Bahr al-Gazal del Norte", "name:fr": "Bahr el Ghazal du Nord", "name:pl": "Bahr el Ghazal Północny", "name:ru": "Северный Бахр-эль-Газаль", "name:uk": "Північний Бахр-ель-Газаль", "is_in:country": "South Sudan", "is_in:continent": "Africa", "is_in:country_code": "SS"}}, "center_lat": 8.88, "center_lon": 26.93, "timezone": "Africa/Juba", "population": 720898, "wikidata_id": "Q491111", "wikipedia_id": "en:Northern Bahr el Ghazal"}, "geometry": {"type": "MultiPolygon", "coordinates": [[[[27.643, 8.322], [28.039, 9.348], [27.906, 9.613], [27.142, 9.626], [26.703, 9.489], [26.394, 9.564], [26.078, 10.058], [26.042, 8.881], [26.174, 8.167], [26.689, 7.835], [27.643, 8.322]]]]}}