{"type": "Feature", "properties": {"name": "Upper Nile", "iso2": "SS-NU", "admin_level": 4, "osm_id": 2190518, "countrylevel_id": "iso2:SS-NU", "osm_data": {"localname": "Upper Nile", "official_name": "", "alltags": {"name:ar": "أعالي النيل", "name:en": "Upper Nile", "name:es": "Alto Nilo", "name:fr": "Nil Supérieur", "name:pl": "Nil Górny", "name:ru": "Верхний Нил", "name:uk": "Верхній Ніл", "is_in:country": "South Sudan", "is_in:continent": "Africa", "is_in:country_code": "SS"}}, "center_lat": 9.91, "center_lon": 32.81, "timezone": "Africa/Juba", "population": 964353, "wikidata_id": "Q487702", "wikipedia_id": "en:Upper Nile (state)"}, "geometry": {"type": "MultiPolygon", "coordinates": [[[[30.939, 9.529], [31.569, 9.332], [31.982, 8.75], [32.386, 9.091], [32.633, 8.474], [32.848, 8.363], [33, 7.916], [33.19, 8.406], [33.768, 8.368], [34.127, 8.59], [34.13, 9.205], [34.107, 9.5], [33.878, 9.5], [33.995, 10.063], [33.271, 10.828], [33.171, 11.675], [33.25, 12.22], [32.732, 12.236], [32.746, 11.951], [32.097, 11.951], [32.391, 11.706], [32.47, 11.043], [31.989, 10.65], [31.365, 9.816], [30.939, 9.75], [30.939, 9.529]]]]}}