{"type": "Feature", "properties": {"name": "Santa Elena Province", "iso2": "EC-SE", "admin_level": 4, "osm_id": 109441, "countrylevel_id": "iso2:EC-SE", "osm_data": {"localname": "Santa Elena", "official_name": "", "alltags": {"name:be": "Правінцыя Санта-Элена", "name:bg": "Света Елена", "name:en": "Santa Elena Province", "name:eo": "Santa Elena", "name:fr": "Santa Elena", "name:id": "Provinsi Santa Elena", "name:it": "Provincia di Santa Elena", "name:ka": "სანტა-ელენას პროვინცია", "name:lt": "Santa Elenos provincija", "name:mk": "Санта Елена", "name:nl": "Santa Elena", "name:qu": "Santa Elena marka", "name:ru": "Санта-Элена", "name:se": "Santa Elena", "name:sv": "Santa Elena", "name:zh": "聖埃倫娜省", "state_code": "24", "is_in:country": "Ecuador"}}, "center_lat": -2.14, "center_lon": -80.58, "timezone": "America/Guayaquil", "population": 401178, "wikidata_id": "Q1124125", "wikipedia_id": "es:Provincia de Santa Elena"}, "geometry": {"type": "MultiPolygon", "coordinates": [[[[-80.802, -1.711], [-80.748, -1.669], [-80.654, -1.674], [-80.61, -1.726], [-80.574, -1.753], [-80.581, -1.8], [-80.508, -1.923], [-80.47, -1.926], [-80.442, -1.952], [-80.415, -1.981], [-80.345, -1.998], [-80.343, -2.025], [-80.287, -2.092], [-80.265, -2.083], [-80.244, -2.112], [-80.252, -2.151], [-80.237, -2.186], [-80.2, -2.211], [-80.235, -2.253], [-80.258, -2.244], [-80.285, -2.275], [-80.28, -2.347], [-80.296, -2.359], [-80.368, -2.361], [-80.375, -2.376], [-80.44, -2.389], [-80.464, -2.415], [-80.453, -2.446], [-80.467, -2.491], [-80.521, -2.49], [-80.563, -2.508], [-80.656, -2.422], [-80.718, -2.392], [-80.802, -2.379], [-80.868, -2.325], [-80.896, -2.316], [-80.925, -2.272], [-81.011, -2.188], [-80.91, -2.221], [-80.858, -2.198], [-80.816, -2.158], [-80.787, -2.149], [-80.753, -2.113], [-80.737, -2.026], [-80.763, -1.977], [-80.735, -1.963], [-80.734, -1.887], [-80.778, -1.741], [-80.802, -1.711]]]]}}