{"type": "Feature", "properties": {"name": "Kuyavian-Pomeranian Voivodeship", "iso2": "PL-KP", "admin_level": 4, "osm_id": 223407, "countrylevel_id": "iso2:PL-KP", "osm_data": {"localname": "województwo kujawsko-pomorskie", "official_name": "", "alltags": {"name:be": "Куяўска-Паморскае ваяводства", "name:cs": "Kujavsko-pomořské vojvodství", "name:en": "Kuyavian-Pomeranian Voivodeship", "name:eo": "Kujavia-Pomeria Provinco", "name:es": "Voivodato de Cuyavia y Pomerania", "name:fr": "Cujavie-Poméranie", "name:hr": "Kujavsko-pomeransko vojvodstvo", "name:hu": "Kujávia-pomerániai vajdaság", "name:ja": "クヤヴィ＝ポモージェ県", "name:lt": "Kujavijos Pamario vaivadija", "name:nl": "Woiwodschap Koejavië-Pommeren", "name:pl": "województwo kujawsko-pomorskie", "name:ru": "Куявско-Поморское воеводство", "name:sk": "Kujavsko-pomoranské vojvodstvo", "name:sl": "Kujavsko-Pomorjansko vojvodstvo", "name:uk": "Куявсько-Поморське воєводство", "website": "https://www.kujawsko-pomorskie.pl/", "loc_name": "Kujawsko-pomorskie", "name:szl": "wojewůdztwo kujawsko-půmorske", "population": "2098370", "short_name": "kujawsko-pomorskie", "teryt:terc": "04", "alt_name:en": "Kuyavian-Pomeranian Province", "alt_name:es": "Voivodato de Kuyavia y Pomerania", "alt_name:sk": "Kujavsko-pomorské vojvodstvo", "long_name:fr": "Voïvodie de Cujavie-Poméranie", "is_in:country": "Poland", "name:be-tarask": "Куяўска-Паморскае ваяводзтва", "is_in:continent": "Europe", "population:date": "2011-12-31", "is_in:country_code": "PL", "license_plate_code": "C"}}, "center_lat": 53.09, "center_lon": 18.48, "timezone": "Europe/Warsaw", "population": 2090836, "wikidata_id": "Q54153", "wikipedia_id": "pl:Województwo kujawsko-pomorskie"}, "geometry": {"type": "MultiPolygon", "coordinates": [[[[19.047, 52.333], [19.289, 52.393], [19.458, 52.942], [19.762, 53.152], [19.129, 53.588], [18.072, 53.781], [17.391, 53.491], [17.302, 52.995], [17.648, 52.69], [19.047, 52.333]]]]}}