{"type": "Feature", "properties": {"name": "Łódź Voivodeship", "iso2": "PL-LD", "admin_level": 4, "osm_id": 224458, "countrylevel_id": "iso2:PL-LD", "osm_data": {"localname": "województwo łódzkie", "official_name": "", "alltags": {"name:be": "Лодзінскае ваяводства", "name:cs": "Lodžské vojvodství", "name:en": "Łódź Voivodeship", "name:eo": "Lodza Provinco", "name:es": "Voivodato de Łódź", "name:fr": "Łódź", "name:hr": "Vojvodstvo Lodz", "name:hu": "Łódźi vajdaság", "name:ja": "ウッチ県", "name:lt": "Lodzės vaivadija", "name:nl": "Woiwodschap Lodz", "name:pl": "województwo łódzkie", "name:ru": "Лодзинское воеводство", "name:sk": "Lodžské vojvodstvo", "name:sl": "Lodzsko vojvodstvo", "name:uk": "Лодзьке воєводство", "loc_name": "Łódzkie", "name:szl": "Łůdzke wojewůdztwo", "short_name": "łódzkie", "teryt:terc": "10", "alt_name:en": "Łódź Province", "long_name:fr": "Voïvodie de Łódź", "is_in:country": "Poland", "name:be-tarask": "Лодзінскае ваяводзтва", "is_in:continent": "Europe", "is_in:country_code": "PL", "license_plate_code": "E"}}, "center_lat": 51.62, "center_lon": 19.41, "timezone": "Europe/Warsaw", "population": 2508464, "wikidata_id": "Q54158", "wikipedia_id": "pl:Województwo łódzkie"}, "geometry": {"type": "MultiPolygon", "coordinates": [[[[18.164, 51.173], [18.673, 51.057], [19.747, 50.866], [20.433, 51.339], [20.571, 51.888], [19.886, 52.31], [19.289, 52.393], [19.047, 52.333], [18.472, 51.851], [18.164, 51.173]]]]}}