{"type": "Feature", "properties": {"name": "Podlaskie Voivodeship", "iso2": "PL-PD", "admin_level": 4, "osm_id": 224461, "countrylevel_id": "iso2:PL-PD", "osm_data": {"localname": "województwo podlaskie", "official_name": "", "alltags": {"name:be": "Падляскае ваяводства", "name:cs": "Podleské vojvodství", "name:en": "Podlaskie Voivodeship", "name:eo": "Podlaĥia Provinco", "name:es": "Voivodato de Podlakia", "name:fr": "Podlachie", "name:hr": "Podlasko vojvodstvo", "name:hu": "Podlasiei vajdaság", "name:ja": "ポドラシェ県", "name:lt": "Palenkės vaivadija", "name:nl": "Woiwodschap Podlachië", "name:pl": "województwo podlaskie", "name:ru": "Подляское воеводство", "name:sk": "Podleské vojvodstvo", "name:sl": "Podlaško vojvodstvo", "name:uk": "Підляське воєводство", "loc_name": "Podlasie", "name:szl": "Podlaske wojewůdztwo", "short_name": "podlaskie", "teryt:terc": "20", "alt_name:en": "Podlasie Province", "alt_name:es": "Voivodato de Podlaquia", "long_name:fr": "Voïvodie de Podlachie", "is_in:country": "Poland", "name:be-tarask": "Падляскае ваяводзтва", "is_in:continent": "Europe", "is_in:country_code": "PL", "license_plate_code": "B"}}, "center_lat": 53.28, "center_lon": 22.91, "timezone": "Europe/Warsaw", "population": 1193348, "wikidata_id": "Q54177", "wikipedia_id": "pl:Województwo podlaskie"}, "geometry": {"type": "MultiPolygon", "coordinates": [[[[23.128, 52.288], [23.178, 52.283], [23.939, 52.778], [23.515, 53.956], [23.322, 54.253], [23, 54.384], [22.792, 54.363], [22.484, 54.203], [22.697, 53.762], [21.613, 53.481], [21.736, 53.109], [22.454, 52.788], [22.542, 52.423], [23.128, 52.288]]]]}}