{"type": "Feature", "properties": {"name": "Silesian Voivodeship", "iso2": "PL-SL", "admin_level": 4, "osm_id": 224462, "countrylevel_id": "iso2:PL-SL", "osm_data": {"localname": "województwo śląskie", "official_name": "", "alltags": {"name:ar": "محافظة سيليزيا", "name:be": "Сілезскае ваяводства", "name:bg": "Силезко войводство", "name:bs": "Šlesko vojvodstvo", "name:ca": "Voivodat de Silèsia", "name:cs": "Slezské vojvodství", "name:en": "Silesian Voivodeship", "name:eo": "Silezia Provinco", "name:es": "Voivodato de Silesia", "name:et": "Sileesia vojevoodkond", "name:eu": "Silesiako voivoderria", "name:fi": "Sleesian voivodikunta", "name:fr": "Silésie", "name:gl": "Voivodato de Silesia", "name:gv": "Queiggey ny Sileesh", "name:hr": "Šlesko vojvodstvo", "name:hu": "Sziléziai vajdaság", "name:id": "Provinsi Silesia", "name:is": "Slesía", "name:it": "Voivodato della Slesia", "name:ja": "シロンスク県", "name:jv": "Provinsi Silesia", "name:ka": "სილეზიის სავოევოდო", "name:ko": "실롱스크 주", "name:la": "Silesia vaivodatus", "name:lt": "Silezijos vaivadija", "name:lv": "Silēzijas vojevodiste", "name:mr": "श्लोंस्का प्रांत", "name:ms": "Wilayah Silesia", "name:nl": "Woiwodschap Silezië", "name:nn": "Schlesiske voivodskap", "name:no": "Schlesiske voivodskap", "name:oc": "Voivodat de Silèsia", "name:pl": "województwo śląskie", "name:pt": "Voivodia da Silésia", "name:ro": "Voievodatul Silezia", "name:ru": "Силезское воеводство", "name:sk": "Sliezske vojvodstvo", "name:sl": "Šlezijsko vojvodstvo", "name:sr": "Војводство шлеско", "name:sv": "Schlesiens vojvodskap", "name:tr": "Silezya Voyvodalığı", "name:uk": "Сілезьке воєводство", "name:zh": "西里西亚省", "loc_name": "Śląsk", "name:crh": "Sileziya voyevodalığı", "name:csb": "Szląsczé wòjewództwò", "name:dsb": "Šlazyńske wójwodstwo", "name:hsb": "Šleske wojewódstwo", "name:mdf": "Силезиянь воеводши", "name:pap": "Voivodat di Silesia", "name:pnb": "صوبہ سائیلیشیا", "name:szl": "ślůnske wojewůdztwo", "name:war": "Silesya", "name:zea": "Woiwodschap Silezië", "short_name": "śląskie", "teryt:terc": "24", "alt_name:en": "Silesian Province", "long_name:fr": "Voïvodie de Silésie", "name:be-tarask": "Сылескае ваяводзтва", "license_plate_code": "S"}}, "center_lat": 50.33, "center_lon": 18.99, "timezone": "Europe/Warsaw", "population": 4617000, "wikidata_id": "Q54181", "wikipedia_id": "pl:Województwo śląskie"}, "geometry": {"type": "MultiPolygon", "coordinates": [[[[18.035, 50.066], [18.322, 49.916], [18.632, 49.719], [18.851, 49.517], [19.467, 49.614], [19.111, 49.996], [19.488, 50.397], [19.95, 50.505], [19.747, 50.866], [18.673, 51.057], [18.426, 50.249], [18.035, 50.066]]]]}}