{"type": "Feature", "properties": {"name": "Havana", "iso2": "CU-03", "admin_level": 4, "osm_id": 1854615, "countrylevel_id": "iso2:CU-03", "osm_data": {"localname": "La Habana", "official_name": "Provincia de Ciudad de La Habana", "alltags": {"rank": "3", "capital": "yes", "name:ca": "l'Havana", "name:en": "Havana", "name:es": "La Habana", "name:fi": "Havanna", "name:fr": "La Havane", "name:hr": "Havana", "name:is": "Havana", "name:it": "L'Avana", "name:ku": "Havana", "name:ru": "Гавана", "name:sk": "Havana", "name:sv": "Havanna", "is_capital": "country", "population": "2141993", "official_name": "Provincia de Ciudad de La Habana"}}, "center_lat": 23.06, "center_lon": -82.36, "timezone": "America/Havana", "wikidata_id": "Q12588", "wikipedia_id": "es:Provincia de La Habana"}, "geometry": {"type": "MultiPolygon", "coordinates": [[[[-82.508, 23.084], [-82.508, 23.084], [-82.508, 23.084], [-82.508, 23.084]]], [[[-82.097, 23.172], [-82.432, 22.94], [-82.547, 23.057], [-82.097, 23.172]]], [[[-82.501, 23.086], [-82.501, 23.086], [-82.501, 23.086], [-82.501, 23.086]]], [[[-82.49, 23.093], [-82.49, 23.093], [-82.49, 23.093], [-82.49, 23.093]]]]}}