{"type": "Feature", "properties": {"name": "Kuala Lumpur", "iso2": "MY-14", "admin_level": 4, "osm_id": 2939672, "countrylevel_id": "iso2:MY-14", "osm_data": {"localname": "Kuala Lumpur", "official_name": "", "alltags": {"name:am": "ኩዋላ ሉምፑር", "name:ar": "كوالالمبور", "name:as": "কুৱালালামপুৰ", "name:av": "Куала-Лумпур", "name:az": "Kuala-Lumpur", "name:ba": "Куала-Лумпур", "name:be": "Куала-Лумпур", "name:bg": "Куала Лумпур", "name:bh": "कुआला लंपुर", "name:bn": "কুয়ালালামপুর", "name:bo": "ཁལ་ལུང་ཕུ།", "name:ce": "Куала-Лумпур", "name:cv": "Куала-Лумпур", "name:el": "Κουάλα Λουμπούρ", "name:en": "Kuala Lumpur", "name:eo": "Kuala-Lumpuro", "name:fa": "کوالا لامپور", "name:he": "קואלה לומפור", "name:hi": "कुआलालम्पुर", "name:ht": "Kouala Loumpou", "name:hy": "Կուալա Լումպուր", "name:is": "Kúala Lúmpúr", "name:ja": "クアラルンプール", "name:ka": "კუალა-ლუმპური", "name:kk": "Куала Лумпур", "name:km": "គូឡាឡាំពួ", "name:kn": "ಕೌಲಾಲಂಪುರ್", "name:ko": "쿠알라룸푸르", "name:ky": "Куала-Лумпур", "name:la": "Cuala Lumpuria", "name:lo": "ກົວລາລຸມປູ", "name:lt": "Kvala Lumpūras", "name:lv": "Kualalumpura", "name:mk": "Куала Лумпур", "name:ml": "കോലാലമ്പൂർ", "name:mn": "Куала Лумпур", "name:mr": "क्वालालंपूर", "name:ms": "Kuala Lumpur", "name:my": "ကွာလာလမ်ပူမြို့", "name:ne": "क्वालालम्पुर", "name:or": "କୁଆଲାଲୁମ୍ପୁର", "name:os": "Куалæ-Лумпур", "name:pa": "ਕੁਆਲਾ ਲੁੰਪੁਰ", "name:ps": "کوالالامپور", "name:ru": "Куала-Лумпур", "name:sd": "ڪوالالمپور", "name:so": "Kuwala Lumbuur", "name:sr": "Куала Лумпур", "name:ta": "கோலாலம்பூர்", "name:te": "కౌలాలంపూర్", "name:tg": "Куала-Лумпур", "name:th": "กัวลาลัมเปอร์", "name:tt": "Kuala-Lumpur", "name:ug": "كۇئالالۇمپۇر", "name:uk": "Куала-Лумпур", "name:ur": "کوالا لمپور", "name:za": "Gizlungzpoh", "name:zh": "吉隆坡", "short_name": "KL", "border_type": "state"}}, "center_lat": 3.14, "center_lon": 101.69, "timezone": "Asia/Kuala_Lumpur", "population": 7590000, "wikidata_id": "Q1865", "wikipedia_id": "en:Kuala Lumpur"}, "geometry": {"type": "MultiPolygon", "coordinates": [[[[101.615, 3.153], [101.62, 3.145], [101.648, 3.125], [101.643, 3.12], [101.653, 3.11], [101.66, 3.115], [101.66, 3.092], [101.664, 3.086], [101.646, 3.072], [101.649, 3.058], [101.659, 3.059], [101.659, 3.051], [101.671, 3.042], [101.699, 3.046], [101.714, 3.054], [101.731, 3.035], [101.73, 3.055], [101.75, 3.055], [101.75, 3.077], [101.745, 3.086], [101.751, 3.092], [101.752, 3.108], [101.739, 3.112], [101.741, 3.124], [101.736, 3.138], [101.741, 3.151], [101.751, 3.161], [101.736, 3.165], [101.734, 3.178], [101.75, 3.175], [101.759, 3.188], [101.757, 3.197], [101.739, 3.215], [101.744, 3.229], [101.73, 3.233], [101.715, 3.213], [101.702, 3.217], [101.697, 3.228], [101.672, 3.228], [101.666, 3.243], [101.657, 3.236], [101.637, 3.232], [101.639, 3.222], [101.625, 3.2], [101.619, 3.198], [101.619, 3.173], [101.615, 3.153]]]]}}