{"type": "Feature", "properties": {"name": "Northern Borders Region", "iso2": "SA-08", "admin_level": 4, "osm_id": 3673927, "countrylevel_id": "iso2:SA-08", "osm_data": {"localname": "منطقة الحدود الشمالية", "official_name": "", "alltags": {"name:ar": "منطقة الحدود الشمالية", "name:cs": "al-Hudúd aš-Šamálijah", "name:en": "Northern Borders Region", "name:es": "Provincia de la Frontera del Norte", "name:fr": "Hudud ach-Chamaliya", "name:ru": "Эль-Худуд эш-Шамалийя"}}, "center_lat": 30.01, "center_lon": 42.07, "timezone": "Asia/Riyadh", "wikidata_id": "Q201781"}, "geometry": {"type": "MultiPolygon", "coordinates": [[[[41.349, 28.873], [42.528, 28.73], [42.78, 28.447], [43.84, 28.438], [43.928, 28.109], [44.721, 27.525], [44.979, 27.673], [45.348, 28.188], [45.052, 28.663], [45.678, 28.802], [46.051, 29.092], [44.727, 29.192], [43.813, 29.873], [42.706, 30.673], [42.086, 31.112], [41.441, 31.373], [40.413, 31.948], [39.201, 32.154], [39.006, 32.001], [37.964, 31.744], [37.889, 31.221], [38.194, 30.859], [38.98, 30.967], [41.101, 30.73], [41.633, 30.521], [41.957, 30.065], [41.402, 29.804], [41.603, 29.134], [41.349, 28.873]]]]}}