{"type": "Feature", "properties": {"name": "Fier County", "iso2": "AL-04", "admin_level": 6, "osm_id": 1251469, "countrylevel_id": "iso2:AL-04", "osm_data": {"localname": "Qarku i Fierit", "official_name": "", "alltags": {"name:an": "Prefectura de Fier", "name:ar": "مقاطعة فيير (ألبانيا)", "name:be": "Фіеры", "name:bg": "Фиер (област)", "name:br": "Fier (rannvro)", "name:ca": "Comtat de Fier", "name:cs": "Fier (kraj)", "name:el": "Νομός Φιέρ", "name:en": "Fier County", "name:eo": "Provinco Fier", "name:es": "Condado de Fier", "name:et": "Fieri maakond", "name:eu": "Fier konderria", "name:fi": "Fierin maakunta", "name:fr": "Préfecture de Fier", "name:ga": "Contae Fier", "name:gl": "Condado de Fier", "name:hi": "फिएर प्रांत", "name:hr": "Fierski okrug", "name:hy": "Ֆիերիի գավառ", "name:it": "Prefettura di Fier", "name:ja": "フィエル州", "name:kg": "Fier (kizunga)", "name:ko": "피에르 주", "name:lt": "Fierio apskritis", "name:mk": "Фиер (област)", "name:nl": "Fier (prefectuur)", "name:no": "Fier (region)", "name:pl": "Obwód Fier", "name:pt": "Fier (prefeitura)", "name:ro": "Regiunea Fier", "name:ru": "Фиери (область)", "name:sk": "Fier (kraj)", "name:sv": "Fier prefektur", "name:tl": "Kondado ng Fier", "name:tr": "Fier ili", "name:uk": "Фієрі (область)", "name:ur": "صوبہ فیر", "name:vi": "Fier (hạt)", "name:zh": "非夏爾州", "name:ceb": "Qarku i Fierit", "name:lmo": "Prefettura de Fier", "name:pnb": "صوبہ فیر", "name:sco": "Fier Coonty", "name:war": "Fier (condado)", "ref:nuts": "AL032", "population": "298144", "ref:nuts:3": "AL032", "name:simple": "Fier County", "name:be-tarask": "Фіеры", "contact:website": "http://www.qarkufier.gov.al"}}, "center_lat": 40.77, "center_lon": 19.63, "timezone": "Europe/Tirane", "population": 310331, "wikidata_id": "Q231900", "wikipedia_id": "sq:Qarku i Fierit"}, "geometry": {"type": "MultiPolygon", "coordinates": [[[[19.444, 41.001], [19.489, 41.05], [19.558, 41.04], [19.58, 41.064], [19.62, 41.069], [19.676, 41.053], [19.715, 41.01], [19.761, 41.019], [19.826, 40.992], [19.806, 40.972], [19.82, 40.87], [19.871, 40.86], [19.776, 40.846], [19.766, 40.807], [19.736, 40.815], [19.766, 40.76], [19.773, 40.706], [19.814, 40.687], [19.808, 40.657], [19.85, 40.631], [19.875, 40.542], [19.923, 40.527], [19.88, 40.508], [19.878, 40.484], [19.84, 40.472], [19.78, 40.415], [19.743, 40.453], [19.747, 40.492], [19.708, 40.522], [19.623, 40.559], [19.576, 40.558], [19.572, 40.586], [19.478, 40.614], [19.453, 40.656], [19.414, 40.634], [19.356, 40.663], [19.314, 40.65], [19.36, 40.7], [19.388, 40.833], [19.417, 40.859], [19.422, 40.92], [19.451, 40.916], [19.478, 40.97], [19.444, 41.001]], [[19.443, 40.887], [19.482, 40.884], [19.525, 40.911], [19.527, 40.944], [19.492, 40.978], [19.443, 40.887]], [[19.472, 40.996], [19.472, 40.996], [19.472, 40.996], [19.472, 40.996]]], [[[19.448, 40.996], [19.448, 40.996], [19.448, 40.996], [19.448, 40.996]]]]}}