{"type": "Feature", "properties": {"name": "Madre de Dios", "iso2": "PE-MDD", "admin_level": 4, "osm_id": 1891287, "countrylevel_id": "iso2:PE-MDD", "osm_data": {"localname": "Madre de Dios", "official_name": "", "alltags": {"name:en": "Madre de Dios", "name:es": "Madre de Dios", "name:ja": "マードレ・デ・ディオス県", "name:pl": "Madre de Dios", "name:ru": "Мадре-де-Дьос", "name:uk": "Мадре-де-Дьйос", "pe:ubigeo": "17", "population": "109555", "is_in:country": "Peru"}}, "center_lat": -11.98, "center_lon": -70.54, "timezone": "America/Lima", "population": 141070, "wikidata_id": "Q210896", "wikipedia_id": "es:Departamento de Madre de Dios"}, "geometry": {"type": "MultiPolygon", "coordinates": [[[[-70.388, -13.192], [-69.647, -13.341], [-68.873, -13.004], [-68.652, -12.498], [-69.572, -10.946], [-70.157, -11.042], [-70.614, -10.997], [-70.614, -9.917], [-70.651, -10.08], [-71.196, -10.58], [-71.352, -10.948], [-72.13, -10.99], [-72.239, -11.345], [-72.428, -11.705], [-72.269, -12.054], [-71.946, -12.33], [-72.079, -12.499], [-71.747, -12.796], [-71.553, -12.708], [-71.161, -12.968], [-70.388, -13.192]]]]}}