{"type": "Feature", "properties": {"name": "Šilalės rajono savivaldybė", "iso2": "LT-45", "admin_level": 5, "osm_id": 1518454, "countrylevel_id": "iso2:LT-45", "osm_data": {"localname": "Šilalės rajono savivaldybė", "official_name": "", "alltags": {"name:ca": "Districte municipal de Šilalė", "name:es": "Distrito de Šilalė", "name:et": "Šilalė rajoon", "name:fi": "Šilalėn kunnallispiiri", "name:fr": "Municipalité du district de Šilalė", "name:he": "שיללה (מחוז משנה)", "name:it": "Comune distrettuale di Šilalė", "name:ka": "შილალის რაიონი", "name:lt": "Šilalės rajono savivaldybė", "name:lv": "Šilales rajona pašvaldība", "name:pl": "rejon szyłelski", "name:ru": "Шилальский район", "name:ur": "شیلالے ضلع بلدیہ", "name:zh": "錫拉萊地區", "name:lmo": "Municipalitaa distrecc da Šilalė", "name:bat-smg": "Šėlalės rajuons"}}, "center_lat": 55.53, "center_lon": 22.22, "timezone": "Europe/Vilnius", "wikidata_id": "Q677400", "wikipedia_id": "lt:Šilalės rajono savivaldybė"}, "geometry": {"type": "MultiPolygon", "coordinates": [[[[22.025, 55.394], [22.056, 55.398], [22.052, 55.384], [22.07, 55.381], [22.077, 55.371], [22.095, 55.375], [22.109, 55.363], [22.142, 55.365], [22.156, 55.383], [22.176, 55.37], [22.227, 55.395], [22.24, 55.394], [22.26, 55.38], [22.318, 55.407], [22.31, 55.424], [22.275, 55.434], [22.271, 55.444], [22.302, 55.447], [22.291, 55.451], [22.297, 55.462], [22.307, 55.454], [22.34, 55.459], [22.369, 55.439], [22.364, 55.433], [22.39, 55.425], [22.403, 55.431], [22.427, 55.416], [22.427, 55.425], [22.458, 55.437], [22.481, 55.431], [22.506, 55.439], [22.569, 55.454], [22.589, 55.443], [22.625, 55.456], [22.62, 55.469], [22.626, 55.477], [22.624, 55.489], [22.647, 55.493], [22.643, 55.505], [22.622, 55.521], [22.605, 55.524], [22.596, 55.538], [22.577, 55.548], [22.586, 55.566], [22.56, 55.568], [22.549, 55.563], [22.527, 55.585], [22.502, 55.589], [22.5, 55.597], [22.515, 55.623], [22.496, 55.634], [22.477, 55.637], [22.478, 55.661], [22.466, 55.673], [22.447, 55.664], [22.41, 55.67], [22.373, 55.659], [22.352, 55.665], [22.354, 55.671], [22.311, 55.679], [22.301, 55.667], [22.26, 55.689], [22.252, 55.684], [22.248, 55.68], [22.198, 55.673], [22.198, 55.677], [22.154, 55.671], [22.157, 55.667], [22.13, 55.661], [22.123, 55.651], [22.094, 55.66], [22.064, 55.649], [22.072, 55.639], [22.044, 55.625], [22.044, 55.613], [22.013, 55.606], [21.972, 55.612], [21.954, 55.607], [21.88, 55.597], [21.869, 55.587], [21.882, 55.582], [21.858, 55.571], [21.835, 55.57], [21.817, 55.556], [21.809, 55.549], [21.836, 55.546], [21.827, 55.538], [21.827, 55.518], [21.837, 55.495], [21.85, 55.499], [21.865, 55.465], [21.872, 55.423], [21.92, 55.436], [21.971, 55.423], [22, 55.424], [22.003, 55.407], [22.022, 55.409], [22.01, 55.398], [22.025, 55.394]]]]}}